Dealer Name,Address,City,State,Contact
"MG Brothers, NH44, Bangalore Hwy","1-374, NH44, Bangalore Hwy,, Kakkalapalli Vill,, Anantapur 515002",Anantpur,Andhra Pradesh,8333099186
"Simha Kia, Undi Highway","SY No:140/2B, Pedamiram Undi Road,, Near Agriculture Check post,, Bhimavaram – 534202",Bhimavaram,Andhra Pradesh,7331122044
"Simha Kia, Indira Autonagar","Plot No. 2, Block No. 4, Phase IV, Autonagar, Guntur",Guntur,Andhra Pradesh,7331122066
"MG Brothers, Kurnool","Sy No. 187/1, NH44, Hyderabad Hwy,, Peddatekuru Vill, Kallur Mandal,, Kurnool Dist 518218",Kurnool,Andhra Pradesh,9492581344
"Hoshi Auto, Kakuturu(V)","48-A1,Kolkata to Chennai High way,, Kakuturu(V),Venkatachalam(M) P S R Nellore (Dist),524320",Nellore,Andhra Pradesh,8688829729
"Kantipudi Kia, Lalacheruvu","Plot No:4, Block NO:4, Gandhipuram -4, B, haskar Nagar, Lalacheruvu, Rajahmundry",Rajahmundry,Andhra Pradesh,9015112345
"Hoshi Auto, Bangalore byepass","Hitec Nissan, 714/ 2B, Tukivakam, 200 ft, . Chennai, Bangalore Bypass, Chittur Tirupathi",Tirupati,Andhra Pradesh,8688829739
"Simha Kia, Ramachandra Nagar","D. No. 48-10-12A, Opp NTR Health ,, University Ramachandra Nagar,, Vijaywada",Vijayawada,Andhra Pradesh,7331122055
"Lakshmi Kia, Birla junction","#38-39-66, Birla Junction, N.H-5 Road, Visakhapatnam-530007",Vishakhapatnam,Andhra Pradesh,7997916999
"Meridian Motors, Nalapara","NH 37, Near Akash Hyundai,, Guwahat, Assam",Guwahati,Assam,6901273730
"Amar Jyoti, Exhibition Road","Pandey Plaza, Exhibition Road, Patna, 800001",Patna,Bihar,8102922001
"Joshi Kia, Industrial area, Phase 1","PLOT NO.16,INDUSTRIAL AREA,PHASE-1,CHANDIGARH-160002",Chandigarh,Chandigarh,7087000111
"Sairam Wheels, Tatibandh","Khasra No. 168/2, GE Road, NH-6, Raipur",Raipur,Chhattisgarh,8047110051
"Frontier Kia, Safdarjung","A2/8, Safdarjung Enclave, New Delhi 110029",Delhi,Delhi,9873943152
"JAYANTI KIA, LAJPAT NAGAR","B-33, LAJPAT NAGAR 2, NEW DELHI, NEW DELHI, DELHI",Delhi,Delhi,7290070428
"JAYANTI MOTORS, MATHURA ROAD","B1/A9, MOHAN COOPERATIVE AREA, DELHI, NEW DELHI, DELHI",Delhi,Delhi,7290027386
"Lohia Kia, Peeragarhi","RR4,, Mianwali Nagar, Peeragarhi,, New Delhi-110087",Delhi,Delhi,8929294444
"Lohia Kia, Wazirpur","Site No B-95, Wazirpur Industrial Area Road, Pocket C3, Phase 2,Delhi",Delhi,Delhi,8929294444
"Sparsh Kia, Moti Nagar","A-16, Main Najafgarh Road, Next to Haldi, ram, Motinagar, New Delhi",Delhi,Delhi,7428380700
"Speedingo Kia, Patparganj","Plot No. 77, Patparganj Industrial Area, Delhi-110092",Delhi,Delhi,9555125125
"Automotiveis De Cristal, Verna","A.B Motorpark, Next to HP Petrol Pump, Verna Airport Road, 4 Lane Highway, Sancole, Goa",Goa,Goa,7447747061
"Supernova, Nikol","Showroom No 1,2,3,4 Suryam Trade Centre, , Opp Galaxy Height, Near Torrent Substation,, Nikol, Ahmedabad",Ahmedabad,Gujarat,7043733733
"Supernova, SG Highway South","Westgate D block, Showrooms-1,2,3 ,besid, es YMCA club, SG highway,380051",Ahmedabad,Gujarat,7043722722
"West Coast, Ambawadi","B-G, 01-02, SHIVALIK PLAZA,, IIM ROAD, PANJARA POLE, AMBAWADI,, AHMEDABAD- 380015",Ahmedabad,Gujarat,9377772200
"Destination Kia, Karamsad","Plot No. 535, Opp GMM, Anand-Sojitra Road, Karamsad, Anand",Anand,Gujarat,9586972727
"Gopinathji Kia, Atladra","Shree Gopinathji Agencies, RS No. 7 Opp., Atladra Railway  Station, Padra Main Road, Atladra, Vadodar, a -390012",Baroda,Gujarat,7874713131
"Vibrant Kia, Sector 28 GIDC","Plot No. 1001/1002 Sector 28 GIDC, Gandh, i Nagar, Gujarat 382028,",Gandhinagar,Gujarat,9099033325
"West Coast, Village motipura","Survey No. 57/P, Plot No. 9 &amp; 10, Villag, e Motipura, Himatnagar, District Sabarkantha",Himmatnagar,Gujarat,9099033395
"Shivam Kia, HAPA","Savan IB Automotive Private Limited,, Jamnagar – Rajkot Highway, Opp. Ravi Petrol Pump,, HAPA, Jamnagar",Jamnagar,Gujarat,7227979464
"Krunal Motors, Mehsana highway","Survey no.373,plot no.61/62,, near green meadows party plot, opp. Reliance petrol pump,, shobhasan-mehsana highway",Mehsana,Gujarat,9998214646
"Shivam Kia, Gondal road","Shivalik IBR Cars Pvt Ltd, Revenue Surve, y No. 41/1. Gondal Ahmedabad By-Pass Circle, Gondal Road, NH, -88, At: Village Vavdi, Rajkot, 360004",Rajkot,Gujarat,7227979456
"Shreenath Cars, Piplod","Plot No. 49/1 Harihar Plot, Near Valenti, ne Cinema, Piplod- Surat 395007",Surat,Gujarat,9725077777
"Surat Motorcars, Udhana","Opp. Khatodara Police Station,, Nr Shree Chosath Joganio Mataji Temple,, Udhana Magdalla Road, Surat, 394210",Surat,Gujarat,8930822222
"Rathod Autolinks, Balitha","Block No. 1496, Nr. Rathod Toyota, N.H.N, o. 48, Balitha, Vapi, Gujarat-396191",Vapi,Gujarat,7202022444
"Mohan Vehicles, Ambala-Jagadhri highway","13/40 KM Stone, Tepla, Ambala-Jagadhri H, ighway, Ambala, Haryana",Ambala,Haryana,8607807100
"Dhingra Motors, Faridabad","Plot No 5 B, Sector 15 A ,, Crown Plaza Mall, Ajronda Chowk,, Faridabad-121002",Faridabad,Haryana,8745900045
"Allied Motors, Sohna Road","Unit No. 27 to 30,  GF, Spaze Boulevard,, Malibu Town, Sector 47, Gurgaon, Haryana",Gurgaon,Haryana,9899486666
"Dhingra Motors, Old Gurgaon","Plot No. B34, IDC, MG Road, Gurgaon",Gurgaon,Haryana,8745900045
"Frontier Kia, MG Road","1, Ground Floor, Delta Square, MG Road, near IFFCO Chowk, Gurgaon",Gurgaon,Haryana,9654264367
"Ritu Kia, O P Jindal marg","9th KM Stone, O P Jindal Marg, Hisar, Haryana-125001",Hissar,Haryana,7419994999
"Aaryaman Kia, GT road","117/6 KM STONE, GT ROAD KARNAL, HARYANA -132001",Karnal,Haryana,7298000345
"Ransh Motors, Jind byepass road","Khasra No. 14664/4895, Jind Bye Pass Roa, d, Opp New Power House, Rohtak",Rohtak,Haryana,9817979125
"Legacy Kia, GT Road","31 Km Stone, N H 1, G T Road, Kundli Dis, tt, Sonipat, Haryana",Sonepat,Haryana,7496969901
"Sant Autocraft, Muhal Otta Gutkar","Plot Khasra No. 51/1, NH-21, Muhul Otta, Gutkar, District Mandi (H.P) 175021",Mandi,Himachal Pradesh,7876908055
"Pal Kia, Thangaer, NH-1A","Khasra No. 278, Vill, Thangaer, National Highway, 1A, Jammu",Jammu,Jammu &amp; Kashmir,6006800800
"Juhi Kia, GT road, Barwadda","Plot No. 807 GT Road, Barwadda, Dhanbad,, Jharkhand - 826004",Dhanbad,Jharkhand,9297942222
"Utkal Kia, Adityapur","Post Box No.2 Adityapur-Kandra Road, Adi, tyapur Indusrtial Area Jamshedpur - 832109",Jamshedpur,Jharkhand,7992471463
"Dilip Motors, Heritage Garden","Heritage Garden, H.B Road,, Ranchi, Ranchi, &amp; Jharkhand 834001",Ranchi,Jharkhand,7428049170
"Advaith Kia, Lalbagh Main Road","No. 71&amp; 71/1, Lalbagh Main Road, Bangalore-560027",Bangalore,Karnataka,6366237292
"PPS Kia, Mysore Road","Survey No. 78/2, Valagerahalli Village,, Mysore road, Bangalore",Bangalore,Karnataka,6309990010
"Epitome Automobiles, Whitefield","19/A,Vishveshwaraiah Industrial area , M, ahadevapura,Bangalore",Bangalore,Karnataka,6366243243
"JSP Autocore, Marathahalli Ring Road","Swamy Legato, Khata No. 330, Outer Ring, Road, Sy No. 20/7, Kadubeesanhalli",Bangalore,Karnataka,8722878822
"JSP Autocore, Hosur Road","233, Hosur Main Road, Singasandra, Bangalore",Bangalore,Karnataka,9606011244
"Naara Motors, J.P Nagar","No.8A/8B, 24th Main Road, Jeewan Griha C, olony, 2nd Phase, J P Nagar, Bangalore, Karnataka-560078",Bangalore,Karnataka,7406528200
"Taapasi Motors, Kalyan nagar","No. 5AC-722 &amp; 724, Ground and 1st, floor, 8th Main Road HRBR Layout, 1st block, Bangalore-560043",Bangalore,Karnataka,8095537777
"VST Central, Palace Cross Road","VST Vistas No 1, Palace Cross Road, Beng, aluru, Karnataka- 560020",Bangalore,Karnataka,9606988123
"VST Central, Yeshwanthpur","No. 48, Ind Suburb, North Zone, Opp. Yes, hwanthpur Railway Station, Yeshwanthpur, Bangalore, Karnatak, a- 560022",Bangalore,Karnataka,9606988008
"Nagshanti Kia, Amargol","Block No. 54, Amargol, Hubli",Hubli,Karnataka,9148432469
"A.R.M kia, Kadri Road","Next to City Hospital, Kadri Road,, Mangaluru - 575003",Mangalore,Karnataka,9606013155
"Aadarsh Motors, Hunsur Road","#882, Vijayanagar 1st stage, Hunsur Road, Mysore-570017",Mysore,Karnataka,9606034060
"DKH Motors, Calicut","Athanikkal,West Hill,Kannur Road,, Calicut - 673005,Calicut, Kerala",Calicut,Kerala,9207622000
"Incheon Kia, Edappally","Sy. No. 2/19-A-1, NH Bypass, Edappally N, orth Village, Edappally, Ernakulam, 682024",Cochin,Kerala,8111879111
"Incheon Kia, Desom","Re. Sy. No. 273/5-1, Chengamanad Village, , Salem-Kochi Highway, Desom, Aluva, ernakulam- 683578",Cochin,Kerala,8111879111
"DKH Motors, Kannur","Door No. 893, Ward No. 32, Kairali Nagar Nr. Govt. Industrial Training Institut, Thottada PO. Kannur. 670007",Kannur,Kerala,9207624000
"NCS Kia, Kilikollor","Muthodam Building, Near Medi City, Kaluu, mthazham PO, Kilikollor, Kollam-691004",Kollam,Kerala,9400062600
"Incheon Kia, Athirampuzha village","Thellakom, Kottayam Ettumannor Road,, Opp. To Decathlon, Athirampuzha, Village, Kottayam Taluk, Kottayam",Kottayam,Kerala,8111879111
"Incheon Kia, Marathakkara","Puthoor Panchayat Thrissur, Survey No. 16/68P &amp; 16/137, Thrissur",Thrissur,Kerala,
"NCS Kia, Venpalavttom","NH 47 Bypass Road, Venpalavttom, Anayara, , Trivandrum --695029",Trivandrum,Kerala,9400062600
"Sun Globe, Hoshangabad Road","Khasra No. 435/2/1/A, Near Vrindavan gar, den,  Hoshangabad Road, Bhopal, Madhya Pradesh, 462001",Bhopal,Madhya Pradesh,9111809777
"Royal Motor, Shivpuri link road","Survey No 44, 48/2, Adjacent to Ford Sho, wroom, Shivpuri Link Road, Kedarpur, Gwalior,Madhya Pradesh, - 475001",Gwalior,Madhya Pradesh,9109195864
"Shri Kia, New Devas naka","Plot No. 7-10, Niranjanpur AB Road, New, Dewas  Naka, Indore, Madhya Pradesh-452010",Indore,Madhya Pradesh,6262626801
"Khatwani Kia, Tilwara - Nagpur Road","16/1 -17/1, Tilwaraghat-Nagpur Road, Bef, ore Little World School, Jabalpur",Jabalpur,Madhya Pradesh,9516648888
"Ajinkya Autowheels, Seven Hills circle","Plot No.7,8,9 Seven Hills Circle,Jalna R, oad , Aurangbad-431001",Aurangabad,Maharashtra,8888548574
"Konduskar Kia, Shiroli","Plot No.6, NH-24, Shiroli-MIDC 416005, Kolhapur",Kolhapur,Maharashtra,7887884050
"Ajinkya Autowheels, Barsi road","103, Beside Pramod Petrol Pump, Barsi Road, Latur",Latur,Maharashtra,7666719828
"Autobahn Kia, Powai","T-Square, Saki Vihar Road, Mumbai",Mumbai,Maharashtra,9029292929
"Autobahn Kia, Worli","Vaswani Chambers , 264-265 , Unit No-2 ,, Ground Floor , Dr .Annie Besant Road , Worli , Mumbai -4000, 25",Mumbai,Maharashtra,9029292929
"Shivaay KIA, Ghatkopar","Shop No 1, Skyline Wealth Space,, Wing C-2, , Near State Bank of India,, Vidyavihar (West), Mumbai 400 086",Mumbai,Maharashtra,8657740870
"Shreenath, Malad","Ground Floor, First Avenue, Goregaon, -, Mulund Link Road, Malad, (W)",Mumbai,Maharashtra,7878877999
"Shreenath, Andheri","Unit No. 2, Waterford Building, C D  Bar, fiwala Lane, Juhu Gali, Andheri West, Mumbai- 400053",Mumbai,Maharashtra,7878877999
"Bhavna Wheels, Nerul","Plot No. 49, Sector 1,, Near L P Bridge, Nerul East,, Navi Mumbai, 400706",NAVI MUMBAI,Maharashtra,8422989175
"Jaika, Kamptee Road","44/4 Kamptee Road Wanjara layout, Nagpur, Maharashtra",Nagpur,Maharashtra,7666905263
"Jaika, WADI MIDC","Plot No. P122, 123, 124 Hinga Road, MIDC, Nagpur",Nagpur,Maharashtra,8975768392
"Khushi Cars, Opp. Civil hospital","Sr. No. 1054, Pinnacle Mall, Trimbak Nak, a Signal, Opp. Civil Hospital, Nashik, Mahrashtra",Nasik,Maharashtra,9689860157
"Bhavna Wheels, Panvel","Shop No. 6 &amp; 106, Bhoomi Landmark, Secto, r 17, New Panvel, Dist, Raigad",Panvel,Maharashtra,8422989175
"Dhone Wheels, Satara Road","City Sr. No. 3381, Pune Stara Road, Parvati, Pune",Pune,Maharashtra,9307300400
"Dhone Wheels, Hadapsar","S. No. 82/2, Pune Solapur Highway, Manjr, i, Hadapsar, Pune 412307",Pune,Maharashtra,9307300400
"Aman Motors, MIDC Chinchwad","Plot No. 33/2, D2 Block, MIDC,, Chinchwad 411019",Pune,Maharashtra,2071533839
"Crystal Auto, Baner","Axis Centra, Mumbai Bangalore highway, Baner , Pune 411045",Pune,Maharashtra,020 68280011
"Crystal Auto, Tilak Road","Sno. 458/2, Sadashiv Peth, Tilak Road, Pune-411030",Pune,Maharashtra,020 68280000
"Shreenath, Thane","Shop No 77, Area No 102, Manpada Junctio, n, Ghodbunder Road, Thane (W), Thane",Thane,Maharashtra,9509922999
"Central Kia, Pahal","PLOT NO:644/2148,NH-16,PAHAL,BHUBANESWAR-752101",Bhubaneshwar,Odisha,7440002919
"ASJ Cars, Villupuram main road","Opp. Renault Car Showroom, Villupuram Ma, in Road, Moolakulam, Pondicherry-605110",Puducherry,Pondicherry,6384447001
"Speedways Kia, GT road, Daburji","1206, NH 1A, GT Road, Daburji, Amritsar, Punjab-143001",Amritsar,Punjab,8872098550
"Lally Motors, Near Paragpur Gate","G T Road, Opp Best Price,, Paragpur,, Jalandhar-144010",Jalandhar,Punjab,9976600009
"Dada Motor, Opp. Dhandari Rly. Stn.","Dada Motors BXXIX/526 Giaspura, Opp. Dha, ndari Railway Station Ludhiana 141003",Ludhiana,Punjab,9805712345
"Joshi Kia, Phase - 7 Mohali","Plot No. C-108, Industrial Area,, Phase 7, Mohali - 160055",Mohali,Punjab,7087000222
"Samradh Kia, Jaipur Road","393/10, Opp Patel Stadium Jaipur Road, Ajmer, Rajasthan",Ajmer,Rajasthan,9414003348
"Rajesh Motors, VKIA, Sikar Road","F21 VKI Industrial Area, Sikar Road, Jaipur",Jaipur,Rajasthan,8824900972
"Rajesh Motors, Ajmer Road","Plot no. 12-13, Nirman Nagar E, Opp. Aso, pa hospital, DCM Ajmer Road , Jaipur - 302021",Jaipur,Rajasthan,8824900971
"Sanghi Inc, Tonk Road",Sanghi Garden Tonk Road Jaipur-302018,Jaipur,Rajasthan,9873920264
"Kumbhat Motors, Cazri Gate","15-B-1, Light industrial area, , opp. CAZRI Gate, Jodhpur 342001",Jodhpur,Rajasthan,8608120120
"Galaxy Auto Wheels, Jhalawar road","B-45(A), Road no. 2, IPIA, , Jhalawar Road, Kota",Kota,Rajasthan,0172 30019855
"Rajesh Motors, Hiranmagri","Opposite Jadaav Nursery, Jhamar, Kotda Link Road, Hiran Magri, Udaipur",Udaipur,Rajasthan,9351229009
"Capital Kia, OMR Perungudi","16 Perungudi Industrial Estate, Old Maha, balipuram Road, Chennai-600096",Chennai,Tamil Nadu,9962710000
"KUN Kia, Ambattur","No: 69 &amp; 70, South Avenue, Ambattur Indu, strial Estate, Ambattur, Chennai - 600058",Chennai,Tamil Nadu,9884970000
"KUN Kia, Anna Nagar","C-36, II Avenue, Anna Nagar West, Chennai - 600040",Chennai,Tamil Nadu,9884366661
"SVM Cars, Guindy","Door No. 47 NP, Jawaharlal Nehru Road, E, kkatuthangal, Chennai- 600032",Chennai,Tamil Nadu,8939060000
"SVM Cars, Porur","# 223/2, Poonamallee Trunk Road,, Kattupakkam,, Chennai – 600 056",Chennai,Tamil Nadu,8939070000
"VST Central, Mount Road","New No. 237 (Old No. 182), Anna Salai, Chennai- 600006",Chennai,Tamil Nadu,9087211113
"Pressana Kia, Ramanathapuram","S.F.No:576, Trichy Main Road,Ramanathapu, ram Coimbatore-641045",Coimbatore,Tamil Nadu,6384444001
"Pressana Kia, Veerappanpalayam","No1. Chinnakadu Thottam, Veerappanpalaya, m, Thindal Po, Erode – 638012 TN",Erode,Tamil Nadu,6384444001
"ARAS Kia, Thiruvayanallur post","SURVEY NO.63/6A1B, NH 44, NAGARI,, THIRUVALAYANALLUR POST.MADURAI 625221",Madurai,Tamil Nadu,8110000556
"VST Central, Meyyannur Main Road","No: 250/2, Meyyannur Block 1, Meyyannur, Main Road, Salem, Tamilnadu 636004, Tamilnadu",Salem,Tamil Nadu,8124811113
"ARAS Kia, Jothipuram","No. 1183/3, Kanyakumari road, jothipuram, , Konganthanparai Post. Tirunelveli-627007",Tirunelveli,Tamil Nadu,8110000722
"Pressana Kia, Tirupur","SF No 137/1, Karaipudur, Palladam Tirupp, ur Main Road, Tiruppur",Tirupur,Tamil Nadu,6384444001
"Sree Karpagamoorthy Motors, Trichy","Survey No. 126/6 &amp; 125/2, Near Appolo Ho, spital, Chennai, Bypass Road, Ariyamangalam, Trichy",Trichy,Tamil Nadu,6384111777
"Automotive Kia, Kondapur","Sy No. 60,71 to 77, Plot No. 14,29,30 &amp;, 31,, Kondapur Village, Serilngapally Mandal, Ranga, Reddy Di, st.",Hyderabad,Telangana,6309908117
"Automotive Kia, LB Nagar, Nagole","Sy. No. 141-144, Block No 1, Old Village, Nagole, Uppal Mandal, LB Nagar Municipality RR Dist 500068",Hyderabad,Telangana,6309908118
"Car Kia, Jubilee Hills","Plot No. 796, Road No 36, Jubilee Hills,, Hyderabad 500033, Telangana",Hyderabad,Telangana,7997720333
"Vihaan Auto, Secunderabad","NCL Pearl, #10-3-162, Opp Hyderabd Bhava, n (Near Rail Nilayam), Sarojini Devi Road (S.D. Rd), Secunde, rabad",Hyderabad,Telangana,9738312345
"Vihaan Auto, Kukkatpally","Ground Floor, KKR Commercial Complex,, Kukatpally, Y Junction,, Hyderabad- 500072",Hyderabad,Telangana,9394812345
"Prem Wheels, Sikandra-Mathura Road","Khasra No. 26, Lakhanpur, Sikandra-Mathura Road, Agra",Agra,Uttar Pradesh,7617599999
"Adyant Automovers, Stanley road","129/134/135/1 Stanley Road, Allahabad, Uttar Pradesh-211001",Allahabad,Uttar Pradesh,6391500151
"Smart City, CB Ganj","4,5 KM Rampur Delhi Road C.B Ganj, Barei, lly, Uttar Pradesh-243001",Bareilly,Uttar Pradesh,9105678001
"ASB Automobiles, Sahibabad","40A/17, 4 Industrial Area, Main Link Roa, d, Near Euro Road, Sahibabad",Ghaziabad,Uttar Pradesh,8505935555
"ASB Automobiles, Delhi Meerut Road","Plot No. C-1/2, Meerut Road, Sector 22,, Industrial Area, Ghaziabad",Ghaziabad,Uttar Pradesh,8505815555
"Mertia Automobiles, Saraiya Bazar","Persia,Saraiya Bazar Near Shri Ram, Filling Station Mahrajganj Road Gorakhpur-273013, Uttar Pradesh",Gorakhpur,Uttar Pradesh,8354030599
"Shree ASR, Mall Road",16/95 mall road Kanpur 208001,Kanpur,Uttar Pradesh,8957401002
"Shree ASR, Fazalganj","122/236, A1, C1, Near Sangam talkies, Ka, lpi Road, Fazalganj, Kanpur",Kanpur,Uttar Pradesh,8957401003
"Balaji Motors, Faizabad Rd","CP 11 Vijyant Khand, Gomtinagar, Faizabad Rd, Lucknow UP",Lucknow,Uttar Pradesh,9695029151
"SKYDAC Auto, Airport Road","Address	KHASRA NO 490,, MAIN KANPUR ROAD, NEXT TO ESIC HOSPITAL , KANPUR ROAD,, LUCKNOW",Lucknow,Uttar Pradesh,9335939001
"Iconic Kia, Delhi Road","1027, Opp. Partapur Police Station, Delh, i Road, Meerut- 250103",Meerut,Uttar Pradesh,7252888111
"Allied Motors, Sector 6","Plot No. A-10, Sector 6, Noida-201301",Noida,Uttar Pradesh,9899476666
"Kabir Motors, DLW - Lahartara Road","Pama Complex, DLW-Lahartara Road, Sivdaspur, Varanasi-13",Varanasi,Uttar Pradesh,9795555544
"Shubh Kia, Mothro Wala Chowk","Mothro Wala Chowk Haridwar, bypass Road,, Dehradun, Uttarakhand",Dehradun,Uttarakhand,7088170881
"Classic Motors, Bareilly Road","Bareilly Road Goraparao Haldwani Distt, -Nainital Uttarakhand 263139",Haldwani,Uttarakhand,7900679006
"Celica Kia, Howrah","Dag No. 3801, Mouza - North Libra, JL No, . 51, Khaitan 302, PO Bankra, Police Station Donjur, West Be, ngal",Kolkata,West Bengal,7596042222
"Celica Kia, Salt Lake","Ambient Building, Plot No. AQ-7, Sector, 5, Salt Lake, Kolkata -700091",Kolkata,West Bengal,7596042222
"SPL Cars, AJC Bose Road","GF, Karnani Estate, Premises No. 209, Ac, harya Jagdish Chandra Boose Rd,",Kolkata,West Bengal,9830724499
"Kaysons Kia, Sevoke road","Kaysons Ventures Private Limited, Holdin, g No: V/1723/A, 2nd Mile, Check Post, Sevoke Road, Siliguri,, West Bengal-734008",Siliguri,West Bengal,7719384208
