Dealer Name,Address,City,State,Pincode,Contact,Email
"Bhavna Ford, Sec 1, Navi Mumbai","Plot No. 11 And 12, Near LP Bus Stand, Sector 1, Beside Mrf Showroom",Navi Mumbai,Maharashtra,400706,022 - 27721699 / 27700607,gm@bhavnaford.com
"S C Ford, Charkop, Mumbai","Plot No. 22, EFGH CTS No. 431 -A/1, Kandivali Co-Op Industrial Estate Ltd., Kandivali West, Charkop",Mumbai,Maharashtra,400067,022 - 67614444,sales@scford.net.in
"Bhavna Ford, Digha, Navi Mumbai","NO. M/8, Newa Business Park, Ground Floor, Plot No. 30, TTC Industrial Area, Digha",Navi Mumbai,Maharashtra,400708,9619861130,salesairoli@bhanaford.com
"Satyam Ford, Majiwada","Next To Maria Restaurant,, Opp Ravi Steel Industry, Off Pokhran Road 2, Majiwada",Thane,Maharashtra,400601,8369166456,salesmajiwada@satyamford.com
"Bhavna Ford, Panvel","Shop No. 101 / 102/ 103, New Bhumi Tower, Near Khanda Colony Signal",Panvel,Maharashtra,410206,022 - 27480900 / 27492000,telebhavna@googlemail.com
"Satyam Ford, Patlipada, Thane","No. A1/A2, Ghodbunder Road (Service Rd.), Near Hiranandani Estate Flyover, Patlipada, Thane - W",Thane,Maharashtra,400610,022 - 25895575,service@satyamford.com
"Satyam Ford, Dombivali","Samarth Commercial Centre, Opp. Katai Toll Plaza, Sheel Phata Kalyan Road",Dombivali,Maharashtra,421204,9223677737,salesdombivli@satyamford.com
"Rudraa Ford, Bhayander Road","Shop No. 6, 8, Ground Floor, Amisha Empire, Kashimira Road, Bhayander Road, Mira Road, Distt. Thane",Mumbai,Maharashtra,401107,022 - 28553535 / 37 / 39,sales@rundraaford.com
"Satyam Ford, Kalyan","Shop No.5, Harmony Arcade, Pimpal Gaon, Kalyan Bhiwandi Road",Kalyan,Maharashtra,421302,7045831213,sales@satyamford.com
"Angel Ford, Vasai","Angel Buiness Center,Beside Bassein Catholic Bank, Waliv Phata,Sativali Road, Palghar Distt",Vasai,Maharashtra,401208,7768835050,salesford@angelauto.in
"Angel Ford, Vasai","Kini compound ,National Highway 8, Near Virar phata,Tal-Vasai,Dist-Palghar",Vasai,Maharashtra,401305,9923292187,serviceford@angelauto.in
"Angel Ford, Boisar","Shop No 6&7, Gr. Floor landmark Building, Village ,Betegaon Boisar Chillar Roa, Dist- Palghar",Boisar,Maharashtra,401501,9890847785,salesford@angelauto.in
"Angel Ford, Boisar","J-176 MIDC  Navapur  Road, Near  Mukat Circle Boisar, Dist - Palghar, Boisar",Boisar,Maharashtra,401501,9987653710,serviceford@angelauto.in
"Shivalik Ford, Global Port","Survey No. 45, Ground Floor, Global Port, Near Sus Over Bridge, Off Mumbai-Banglore Highway Baner",Pune,Maharashtra,411045,020 - 67112233,info@shivalikford.com
"Dhone Ford, Warje, Pune","S.No 9/2, Near Warje Highway Overbridge, A/B, Warje",Pune,Maharashtra,411058,8390908761,wm.west@dhoneford.com
"Talera Ford, Nigdi, Pune","Survey No. 4 & 5, Opp. Nigdi Police Chowky, Near Srikrishna Mandir, Nigdi",Pune,Maharashtra,411044,9226300500,sales@taleraauto.com
"PPS Ford, Mahavir Park, Pune","Pune Satara Road, Near Rao Hospital, Mahavir Park",Pune,Maharashtra,411037,020 - 25254141,abhijeet@ppsbusiness.com
"Talera Ford, Yerwada, Pune","No. 3A, National Games Road, Gunjan Cinema Complex, Airport Road, Yerwada",Pune,Maharashtra,411006,9226300500,sales@taleraauto.com
"Dhone Ford, Hadapsar, Pune","S.No.82/2, Ravi Garden, Hadapsar",Pune,Maharashtra,412307,8390906528,salesmanager@dhoneford.com
"Moharir Ford, Nashik","Survery No 295/1/1, Pathardi Mumbai Agra Highway",Nashik,Maharashtra,422010,0253 - 6649429,moharirauto@yahoo.co.in
"Kings Ford, Shanti Complex, Vapi","Shop No. 6, 7, 8, Ground Floor, Sy No. 312, 314, Shanti Complex, Plot No. 2, National Highway 8",Vapi,Gujarat,396191,9099041354/9081818053,kingfordvapi.sr@yahoo.com
"Kings Ford, Navsari","National Highway 8, Grid, Char Rasta, Near Dhartidhan Ceramic Kabilpore",Navsari,Gujarat,396445,9099041302,sr.navsari@kingsford.in
"Naik Ford, Maruti Mandir, Ratnagiri","Arihant Space Center, Shop No. 1 & 2, Maruti Mandir",Ratnagiri,Maharashtra,415612,02352 - 227007 / 227070,naiksalesbo@naikford.com
"Kings Ford, Piplod Dumas Road, Surat","Piplod Dumus Road, Next To Big Bazar",Surat,Gujarat,395007,9099041301,kingford.sr@yahoo.com
"Surat Ford, Canal Road, Surat","At Raika Circle, Near Sosyo circle to Bamroli Road, Udhna - Magdalla Road",Surat,Gujarat,394210,9537144444,suratford@yahoo.com
"Moharir Ford, Malegaon","Survey No.39/2 Sangmeshwer, Motibaug Naka, Manmad Road.",Malegaon,Maharashtra,423203,02554 - 234555,salesmalegaon@gmail.com
"Surat Ford, Varacha Kamrej Raod, Suat","Shop No. 1, 2, 3 Blue Stone Comples, Near Shyam Dham Temple, Varacha Kamrej Raod",Surat,Gujarat,395006,9512046444,suratford@yahoo.com
"Ratnapprabbha Ford, ABC East, Aurangabad","Plot No. D-5/1-A, B, C, Ground Floor, ABC East, Beside Prozone Mall, MIDC Chikalthana",Aurangabad,Maharashtra,431210,0240 - 6647600,fordsales@ratnaprabha.com
Y Z Ford,"Gut No 408 Jalna Road, Village Chikalthana",Aurangabad,Maharashtra,431007,0240 - 2473293 / 94,yzfordservice@yahoo.co.in
Navkar Ford,"S.No. 503/B, Plot No. 5, K.D.Co. Compound, Opp. 132 K.V. Station, Mumbai Agra Highway",Dhule,Maharashtra,424001,02562 - 661901,sales@navkarford.com
Unique Ford,"Plot No.1 & 2/1, Hind Gear Compund, Pune Banglore Highway, Midc Shiroli",Kolhapur,Maharashtra,416022,0230 - 2460115,info@ford-uniqueauto.co.in
"Unique Ford, Sangli","No. 485 3A/3B, Sangli-Kolhapur Road, Opp. Akashwani",Sangli,Maharashtra,416416,0233 - 2330089,sm.sangli@ford-uniqueauto.co.in
Mahavir Ford,"Mahavir Business Hub, Showroom No. 2,, N.H.No.8, Beside Mcdonald'S, At-Vadadala, Dist & Ta : Bharuch",Bharuch,Gujarat,392015,9537063333,sales@mahavirford.com
"Siddhivinayak Ford, Bhavnagar","Plot - 26-27, Shri Ashish Co-Operative Housing Society, Village - Vartej",Bhavnagar,Gujarat,364001,0278 - 2444888,sales@siddhivinayakford.com
"Gurukrupa Ford, Solapur","Gate No.55, Mulegaon Tanda,, Opp. Janta Petrol Pump,, Solapur- Hyderabad Highway",Solapur,Maharashtra,413006,8888883548/49,sales.gurukrupaford@gmail.com
"Saraswati Ford, Jalgaon","Gat No. 248, Tarsod, Jalgaon Bhusaval Highway",Jalgaon,Maharashtra,425001,0257 - 2020202,sales@saraswatiford.com
"Cargo Ford, Vadodara","No. 2, Sahajanand Co-Op Industrial Estate, Munj Mahunda Road, Akota",Vadodara,Gujarat,390020,0265 - 6636600 / 601,cargo.brd.service@cargoford.com
"SP Ford, Vadodara","Plot No-1-2-3, Chhani Navayard Road, Near Kiran Motors, Chhani Jakat Naka",Vadodara,Gujarat,390002,8141215151,spfordsales@gmail.com
"Jai Ganesh Ford, Junagarh","Opp. Laxmi Petroleum, Dolat Para, Rajkot - Jungarh Highway",Junagarh,Gujarat,362001,7600046186,salesjunagadh@jaiganeshford.com
"Patson Ford, Bijapur","Survey No. 12A, Imbrahimpur Gate, Basavan Begewadi Road, Ganesh Nagar",Bijapur,Karnataka,586101,08352 - 267267,patsonford@gmail.com
"Patson Ford, Belgaum","CTS No. 3951/1, PB Road",Belgaum,Karnataka,590003,0831 - 2487216,salesmgr@patsonford.in
Shriram Ford,"Plot No. E-55, Midc, Near Navjeevan Tyres Kalamb Road",Latur,Maharashtra,413531,02382 - 222215 / 16,sales@shriramford.com
"Sarthi Ford, Anand","Anand Sojitra Road, Near. Amin Auto",Anand,Gujarat,388001,02692 - 261002 / 3,sales@sarthiford.com
"Caculo Ford, St. Inez, Panaji",Caculo Enclave St. Inez,Panji,Goa,403001,0832 - 6649998 / 6649999,sales@caculoford.net
"Caculo Ford, Verna Salcete, Verna Salcete","Plot No. L 97 / 99, Verna Industrial Estate, Verna Margao Highway Verna Salcete",Verna Salcete,Goa,403722,0832 - 6629999,sales@caculoford.net
"Siddhivinayak Ford, Rajkot","Nr. S.T. Workshop,, Gondal Road",Rajkot,Gujarat,360004,7574970041,sales@siddhivinayakford.com
"Jai Ganesh Ford, 150 ft Ring Road, Rajkot","Opp. Modi School, Near Raiya Tele. Exchange, 150 Feet Ring Road",Rajkot,Gujarat,360005,0281 - 2587872-73,sales@jaiganeshford.com
"SP Ford, Godhra","Opp. Moonlight Cinema, Dahod Road, Vavdi, Dahod",Godhra,Gujarat,389001,7069073153,salesgdr@spgroups.co.in
"Vinayak Ford, Khargone","Balwadi, Sanawad Road",Khargone,Madhya Pradesh,451001,9926533359,sales@vinayakford.com
"Cargo Ford, Sanand, Ahmedabad","No. 25 - A, Sanathal Bopal, Village Sanathal, Sarkhej - Sanand Road, Taluka - Sanand",Ahmedabad,Gujarat,380058,02717 - 664999,asm.ss@cargoford.com
"SP Ford, Ahmedabad","G/F, Block A, Solitaire Business Park, Near Divya Bhaskar, S.G.Road, Makarba",Ahmedabad,Gujarat,380 058,90237 23550,gmsalesamd@spgroups.co.in
"Cargo Ford, CG Road, Ahmedabad","""Animesh"", Opp. Union Bank Of India, CG Road, Panchvati",Ahmedabad,Gujarat,380006,079 - 66097000 / 26448212,anilmishra@cargoford.com
"Cargo Ford, Gandhinagar","Plot No. 13, Sector - 30",Gandhinagar,Gujarat,382030,079 - 23261317 / 23261217,sm.gnr@cargoford.com
"Cargo Ford, Thaltej, Ahmedabad","Ground floor, Sumel II, Near Gurudwara, SG Highway, Thaltej",Ahmedabad,Gujarat,380051,079 - 49002100,ravi.nair@cargoford.com
"SP Ford, Naroda","No. 8-9-10, Ground Floor, JJ Business Park, Near Railway Crossing, Naroda",Ahmedabad,Gujarat,382330,8141049000,salesamd@spgroups.co.in
"Bharat Ford, Gulbarga","Humnabad Road, National Highway 218, Kapnoor",Gulbarga,Karnataka,585104,08472 - 274744,bharatfordsales@gmail.com
"Metro Ford, Hubli","Survey No. 24/2, Rayapura Industrial Area, Next To Indian Oil Corporation, Dharwad",Hubli,Karnataka,580025,0836 - 2225932,hubli@metroford.in
"Jai Ganesh Ford, Morbi","Bhakti Nagar Circle, Sanala By-Pass",Morbi,Gujarat,363641,02822 - 223366,salesmorbi@jaiganeshford.com
Freedom Ford,"Freedom Automotive Pvt Ltd, Tq Ardhapur, Nanded-Nagpur Road Pimpalgaon (M) Distt. Nanded",Nanded,Maharashtra,431605,02462 - 274202,sales@freedomford.in
"Jadhao Ford, Akola","Prakash Bagh, Post Krushi Nagar, Murtijapur Road",Akola,Maharashtra,444101,0724 - 2258011,sales@jadhaoford.com
Gokul Ford,"Plot No. 2, Udyog Nagar, Hapa, Opp. Essar Petrol Pump",Jamnagar,Gujarat,361120,0288 - 2570888 / 89,sales@gokulford.com
"Bharat Ford, Bidar","Door No. 19-4-3391 / 1, Humnabad Road, Naubad",Bidar,Karnataka,585403,9739480444,bharatfordsales@gmail.com
"SP Ford, Himmatnagar","Block No. 228/P1, At & Po Hajipur",Himmatnagar,Gujarat,383120,02772 - 226127,s.pvehicles@yahoo.com
"SP Ford, Modasa","G1 Karnavati Complex, Near Alkapuri Complex, By-Pass Road, Arvalli",Modasa,Gujarat,383315,9099006232,s.pvehicles@yahoo.com
"SP Ford, Mehsana","Block No. 95, Near Jalaram Temple, Palavsana, Ahmedabad - Mehsana Highway",Mehsana,Gujarat,384002,02762 - 225151,spautomall@yahoo.com
"Vinayak Ford, CMG Road, Indore","No. 10, CMG Road, Opp. Lakshmi Towers",Indore,Madhya Pradesh,452001,0731 - 4228200,vinayakautolink@yahoo.com
"Cargo Ford, Kutch","Kandla Port Road, East Of N.H. No. 8A",Gandhidham (Kutch),Gujarat,370201,02836 - 656250 / 656260,Lalit.surana@cargoford.com
"Galaxy Ford, Ratlam","No. 6/1, District & Tehsil - Ratlam, Gram Kharakedi",Ratlam,Madhya Pradesh,457001,8889997351,galaxyratlam@hotmail.com
"Samadhiya Ford, Guna","Near Kamla Petrol Pump, A B Road",Guna,Madhya Pradesh,473001,8120008018,mgr_sales@samadhiyaford.co.in
"KS Ford, Banswara","Opp. Fci Godown, Udaipur Road",Banswara,Rajasthan,327001,8003208111,ksford.salesmgrbns@ksautomobiles.com
"Metro Ford, Hospet","Sy No. 115, Nikunjdham Ware Houses, Opp: Railway Quarters, Panduranga Colony, Humpi Road, Near Bellary By-Pass,",Hospet,Karnataka,0,08392 - 222214,hsptsm@metroford.in
Prime Ford,"Bichpally Mandal, Bardipur Village",Nizamabad,Telangana,503175,08461 - 245346,info@primefordindia.com
"Jadhao Ford, Amravati","Shed No. 92 National Highway 06, Nagpur Road, Infront Of Manirathna Fertiliser Plant, Near Naka Borgaon (Dharmale)",Amravati,Maharashtra,444602,0721 - 2970326,Jadhaoford@gmail.com / sales@jadhaoford.com
"Sequel Ford, Yavatmal","Near Rajasthan Body Bulding, Darwha Raod",Yavatmal,Maharashtra,445001,9921008867,sequel.yavatmal@sequelford.com
"Cargo Ford, Bhuj","Survey No. 4, Maruti Nagar, Mirzapar Highway, Village : Mirzapar",Bhuj,Gujarat,370040,02832 - 654191,sales.bhuj@cargoford.com
"SP Ford, Palanpur","Prem Motor Compound, Near Old R.T.O. Check Post, Opp. Bandhan Hotel, Abu Highway",Palanpur,Gujarat,385001,9727776330,s.pvehicles@yahoo.com
"Metro Ford, Devangere","Davanagere, Site No. 17, P B Road Next To Hotel Sai International",Davangere,Karnataka,577006,7022028397,davanagere@metroford.in
"Fortune Ford, Mahabubnagar","Plot No. 1, 2, 3, Sy No- 179/3, Appanna Pally, Yedira",Mahabubnagar,Telangana,509001,9912845111,sales.mahabubnagar@fortuneford.com
"Fortune Ford, Kondapur, Hyderabad","Survey 55E, Ground Floor, Solitaire Plaza, Kondapur",Hyderabad,Telangana,500084,9848866000,salesmng.kondapur@fortuneford.com
"Metro Ford, Bellary","Opp. Bellary Steel Roll Mills, Ananthpur Road",Bellary,Karnataka,583101,08392 - 261362 / 3 / 4,bellary@metroford.in
"Fortune Ford, Nizam Colony, Hyderabad","No. 9-4-76/A/6, Nizam Colony, Tollichowki",Hyderabad,Telangana,500080,9930614029,sales.tolichowki@fortuneford.com
"Mody Ford, Begumpet, Hyderabad","No. 1-8-304-307, Kamla Towers, Pattigada, Begumpet",Hyderabad,Telangana,500016,040 - 27904760 / 61 / 62 / 63,modynihar@yahoo.com
"Vibrant Ford, Somajiguda, Hyderabad","No. 6-3-569/2, Rockdale, Somajiguda",Hyderabad,Telangana,500082,040 - 23430000 / 01,manager.sales@vibrantford.co.in
"Patodi Ford, Badora","In front Of Kanti Shiva Flour Mill, Multai Road, Badora",Betul,Madhya Pradesh,460001,8462011140,asm@patodiautomobiles.com
"KS Ford, Udaipur","Main Bypass Road, Mewar Industrial Area Madri",Udaipur,Rajasthan,313001,8003092788,info.ksfordudr@ksautomobiles.com
"Mody Ford, LB Nagar, Hyderabad","No. 3-11-467, Shivaganga Colony, Near Big Bazaar, LB Nagar",Hyderabad,Telangana,500074,9930627029,modynihar@yahoo.com
"Cauvery Ford, Shankar Mutt Road, Shimoga",Shankar Mutt Road,Shimoga,Karnataka,577201,08182 - 267100,salessmg@cauveryford.com
"Galaxy Ford, Neemuch","Mhow - Neemuch Road, Near Purana Naka",Neemuch,Madhya Pradesh,458441,9630094060,saleshead@galaxyford.in
"Sai Ford, Hoshangabad","National Highway 60, Shivaji Nagar Itarsi Road",Hoshangabad,Madhya Pradesh,461001,07574 - 255400,saifordhsb@yahoo.com
"Cauvery Ford, Udupi","S. No. 75-25, Door No. 7-4, Ground Floor, Near National Highway 66, Kinnimulki",Udupi,Karnataka,576101,0820 - 2593400,sales.ud@cauveryford.com
"Mody Ford, Karimnagar","No. 8-5-446/B, Kothi Rampur, Hyderabad Road",Karimnagar,Telangana,505001,0878 - 2248414,asmknr@modyford.net
"Galaxy Ford, Mapel Heights, Bhopal","Shop Nos. 21, 22, 23, 28, 29, Maple Heights, Hoshangabad Road",Bhopal,Madhya Pradesh,462026,9644002080,galaxybhopal@hotmail.com
"Sai Ford, Ko-e-fiza, Bhopal","Infront Of Commissioner Office, Koh-E-Fiza",Bhopal,Madhya Pradesh,462001,0755 - 6540005,sales@saiford.com
"Sai Ford, Govindpura, Bhopal","Works 23/24, E Sector J.K. Road",Bhopal,Madhya Pradesh,462011,0755 - 2600235 / 2611326,sales@saiford.com
"Sandeep Ford, Chittorgarh","Opp. Sadar Thana, Nimbahera Road",Chittorgarh,Rajasthan,312001,7230091952,bm_chd@sandeepcars.com
"Parshv Ford, Chandrapur","No. 206/1A, Near Shani Mandir, Morwa Nagpur Road",Chandrapur,Maharashtra,442407,9822611114,sales@parshvford.com
"Arun Ford, MIDC Hingna","C-48/1, Midc Hingna, Wadi Hingna Main Road",Nagpur,Maharashtra,440028,7709688800,sales@arunford.com / service@arunford.com
"Arun Ford, Patni Plaza","Patni Plaza, Khamla Ring Road, Near Orange City Hospital",Nagpur,Maharashtra,440025,0712 - 2292299,sales@arunford.com
"Mody Ford, Mancheriyal","H.No.1-240/1, Road No. 3, Maruthinagar, Near Old RDO Office, Bellampally Main Rd.",Mancheriyal,Telangana,504208,9885918401,salesmncl@modyford.net
"MGB Ford, Gooty Road, Anantapur","D No. 13/2/391, Shop No. 6, 7 & 8, Ramachandra Nagar, Near RTC Bustand, Gooty Road",Anantapur,Andhra Pradesh,515001,9989500448,mgbfordsales@gmail.com
"Sequel Ford, Nagpur","Vali Tower, Besides Jaswant Tuli Mal, Indora Square Kamptee Road",Nagpur,Maharashtra,440014,9922972102,sequel.sales@gmail.com / sequel.service@gmail.com
"Cauvery Ford, Kottarachowki, Mangalore","National Highway 66, ABCO Trade Centre, Kottarachowki",Mangalore,Karnataka,575006,082 - 44244888,salesmanager@cauveryford.com
Sanvi Ford,"No. 1615, Addanki Bypass Road",Nalgonda,Telangana,520001,9160082345,sanvifordsales@gmail.com
"Cauvery Ford, Padil, Mangalore","Sy. No. 50/7A, National Highway 73, Alape, Padil",Mangalore,Karnataka,575007,9845758895 / 0824 - 2885900,salesmanager@cauveryford.com / smquickmlr@cauveryford.com
Srisrisri Ford,"No. 3-16-333, Mulugu X Road, SVP Road, Hanumkonda",Warangal,Telangana,518001,9930648610,srisrisriford@gmail.com
Patodi Ford,"Near Sony Showroom, Nagpur Road",Chhindwara,Madhya Pradesh,480001,9209115000,salesford@patodiautomobiles.com / contact@patodiautomobiles.com
"Sandeep Ford, Ajmer Road, Bhilwara","Opp. Shree Ji Resort, Ajmer Road",Bhilwara,Rajasthan,311001,9571042260,sm_bhl@sandeepcars.com
"KS Ford, Kota","No. G - 4 & 5, IPIA, Automobile Zone, Near Dakania Railway Station",Kota,Rajasthan,324005,7891528999,ksford.gmkot@ksmotors.com
"Parshv Ford, Gadchiroli","Near Borkar Petrol Pump, Navegaon Mul Road",Gadchiroli,Maharashtra,442605,7774074706,sales@parshvford.com / parshvfordsales@gmail.com
"Honnasiri Ford, Sira Road, Tumkur","No 3803/10/306, Sira Road",Tumkur,Karnataka,572106,0816 - 2201144,
"OS Ford, Mia Basni, Jodhpur","No. H - 680-682, Mia Basni, 2nd Phase",Jodhpur,Rajasthan,342008,9829433352,osford@osindia.com
"Sequel Ford, Gondia","Fulchur Naka, Goregaon Road",Gondia,Maharashtra,441601,9260196690,gondia.sequelford@gmail.com
"Vinayak Ford, Sagar","Opp. Makroniya Railway Station, Jabalpur Road",Sagar,Madhya Pradesh,470004,07582 - 262008,sagarfordservice@gmail.com
"Cauvery Ford, Kodagu","Green Orchid Complex, Next To Vijaya Bank, Gonikopal Main Road",Kodagu,Karnataka,571213,08274 - 298000,sales.gk@cauveryford.com
"PPS Ford, Baramati","# 3/1, A1, Venkatala Village ( Near Bagalur Cross ), Yelahanka Hobli",Baramati,Maharashtra,560064,8657535829,salesmanageryelahanka.blr@ppsford.com
"PPS Ford, Kasaba Hobli","No. 79/2 (B), City Centre Building, Hennur Bellary Outer Ring Road, Hebbal Village, Kasaba Hobli",Bangalore,Karnataka,560024,8657451709,saleshebbal.blr@ppsford.com
"Cauvery Ford , Hobli","Sy No. 8 & 10, Geddalahalli village, K R Puram - Hobli",Bangalore,Karnataka,560036,9945008380,sm.hennur@cauveryford.com
"PVS Ford, Kannur","Near Govt. ITI, Po Thottada",Kannur,Kerala,670006,0497 - 2837005 / 06,salesknr@pvsford.com
"Cauvery Ford, Magadi Road, Bangalore","No. 2, Binnyston Garden, Magadi Road",Bangalore,Karnataka,560023,080 - 22966251,sales@cauveryford.com
"PPS Ford, Kasturabha Road, Bangalore","Kasuturi Media Building, No. 12 & 12/1, Ground Floor, Kasturabha Road",Bangalore,Karnataka,560001,9619048835,crmsales.blr@ppsford.com
"PPS Ford, Lalbagh","No. 74, Lalbagh Main Road, Opp Urvashi Theatre",Bangalore,Karnataka,560027,8657456507,saleslalbagh.blr@ppsford.com
"Cauvery Ford, Hebbel, Mysore","Site No. 49, Hebbal Industrial Area, Hebbal",Mysore,Karnataka,570016,0821 - 4002901,salesmys@cauveryford.com
"Elite Ford, Narayanapura, Bangalore","Durga Waves, No. 186/26, 26A, Next To ICICI Bank, Narayanapura, Mahadevpura",Bangalore,Karnataka,560016,080 - 33405600,gm.sales@eliteford.co.in
"Cauvery Ford, Koramangala, Bangalore","No. 1, 80 Ft. Road, Near Passport Office, Koramangala 8th Block",Bangalore,Karnataka,560095,080 - 22966356,sales.km@cauveryford.com
Gehlot Ford,"NTM Building, Parbatpura Bypass",Ajmer,Rajasthan,305002,9829052274,gehlotford@gmail.com
"JSP Ford, 2nd Phase, Bangalore","No. 688, 15th Cross Road, Jeewan Griha Colony, 2nd Phase",Bangalore,Karnataka,560078,080 - 46565656,
"Cauvery Ford, Laxmipuram, Mysore","Door No. 938, Kanthe Raj Urs Road, Laxmipuram, Chamaraja Mohalla",Mysore,Karnataka,570004,0821 - 2332423,asm.mys@cauveryford.com
"JSP Ford, Hosur Main Road, Bangalore","No. 2226 - 2227 Aecs Layout, Singasandra, Hosur Main Road",Bangalore,Karnataka,560068,9731176999,salesadminhsr@jspford.com
"Lakshmi Ford, Ongole","Door No. 8-111, Survey No. 399, Throvagunta Company Center",Ongole,Andhra Pradesh,523001,08592 - 247250,salesong@lakshmiford.in
"Lakshmi Ford, Guntur","Plot No. 317, Autonagar",Guntur,Andhra Pradesh,522001,0863 - 2322966,salesgnt@lakshmiford.com
"R S Ford, Merta","Nagaur Road, Near Ajmer By-Pass",Merta,Rajasthan,341510,8696946301,rsfordbikaner@gmail.com
"Shree Sai Ford, Napier Town, Jabalpur","No. 411, Mahanadda, Beside Sayrawala Brothers, Nagpur Road Madan Mahal, Napier Town",Jabalpur,Madhya Pradesh,482001,0761 - 4073004 / 008,shree@saifordjbp.com
"Shree Sai Ford, Padarkala, Jabalpur","Katangi Road, Near Katangi Bypass Road, Padwakala",Jabalpur,Madhya Pradesh,482001,0761 - 4043203 / 4043204,sales@saifordjbp.com / shree@saifordjbp.com
"Lakshmi Ford, Vijaywada","Door No. 4-151, National Highway 5, Prasadampadu",Vijaywada,Andhra Pradesh,521108,0866 - 2844136,salesvij@lakshmiford.com
Akash Ford,"No. 769/106, Mornapalli Village, National Highway 7, Krishnagiri Main Road",Hosur,Tamil Nadu,635109,9344899994,akashsfordsales@gmail.com
"Lakshmi Ford, Nellore","Sy. No. 249/2B2 and 249, Kakutur Village, Chemudugunta Gram Panchayat, Venkatachalam Mandal",Nellore,Andhra Pradesh,524004,0861 - 2345638,salesnlr@lakshmiford.com
"R S Ford, Nagaur","Vijay Vallabh Chowk, Near Bus Stand",Nagaur,Rajasthan,341001,8696946304,rsfordbikaner@gmail.com
"PVS Ford, Calicut","KTC Nagar, Adjacent To Govt. Arts College, Meenchanda",Calicut,Kerala,673018,0495 - 2326060 / 61,sales@pvsford.com
"PPS Ford, Chakan","Gate No. 227/1, Nanekarwadi, Pune Nashik Highway, Near Samruddhi CNG Pump, Khed District",Pune,Maharashtra,410 501,8374871188,www.ppsford.com
"Vardhman Ford, Supela, Bhilai","National Highway 6, GE Road, Opp. Chouhan Estate, Supela",Bhilai,Chhattisgarh,490023,9399025385,bhilai@vardhmanmotors.com
"Raja Sriram Ford, Tirupati","Survey No. 192/3A2A, 200 Feet, Main Road, No.19, Kotramangalam, Renigunta (M)",Tirupati,Andhra Pradesh,517520,8657519767,rajasriramfordsales@gmail.com
"KS Ford, Durgapura, Jaipur","Mahindra Tower, Dalda Factory Road, Shreeji Nagar, Durga Vihar Colony, Durgapura",Jaipur,Rajasthan,302018,9667001191,ksford.salesmgr@ksmotors.com
"Raja Sriram Ford, Chittoor","Door No.15-2484, Palamaner Road",Chittoor,Andhra Pradesh,517001,8657519767,rajasriramtpt@gmail.com
"Kanal Ford, Jhansi","No. 907, Civil Lines",Jhansi,Uttar Pradesh,284001,0510 - 2441414,kanalford@gmail.com
"R S Ford, Kuchaman",Didwana Road,Kuchaman,Rajasthan,341508,8696946305,rsfordbikaner@gmail.com
"KS Ford, Sodala, Jaipur","National Motors Building, MI Road, Government Hostel Chauraha",Jaipur,Rajasthan,302001,9680005128,ksford.gmsales@ksmotors.com
"G K Ford, Dhamtari","Near Reliance Petrol Pump, Sesradabari",Dhamtari,Chattisgarh,493 773,9617105000,www.geekay.co.in
Crossland Ford,"No. 2, Plot No. A - 118, Road No. 9, VKI, Main Sikar Road",Jaipur,Rajasthan,302013,0141 - 2333741,fordsales@crosslandcars.com
"GK Ford, Raipur","National Highway 6, Ring Road No.1, Vill. Sarona, Near Tatibandh Rly. Overbridge",Raipur,Chhattisgarh,492009,0771 - 4214100,sales.ford@geekay.co.in
"Raba Ford, Karuvampalayam","No. 319/1, Mangalam Road, Karuvampalayam",Tirupur,Tamil Nadu,641604,0421 - 4972424,rabakrrfordsales@gmail.com
"Shree Sai Ford, Katni","Near Madhav Nagar Gate, Jabalpur Road",Katni,Madhya Pradesh,483501,9755599437,admin@saifordjbp.com
"Sarvesh Ford, Vellore","No. 296-3/2, Indira Nagar, Chennai - Bangalore Highway, Perumugai",Vellore,Tamil Nadu,636309,0416 - 2256477,sarveshfordsales@gmail.com
"Aly Ford, Malappuram","Panangangara, PO Ramapuram",Malappuram,Kerala,679321,0493 - 3297690,salesmanager.mpm@alygroup.co.in
"Bansal Ford, Chhatarpur","Aazad Chowk, New Panna Naka",Chhatarpur,Madhya Pradesh,471001,9174407726,sales@bansalford.com
"GK Ford, Jagdalpur","Parpa, Geedam Road",Jagdalpur,Chhattisgarh,494001,9669179000,jdp.ford@geekay.co.in / agm.ford@geekay.co.in
"Samadhiya Ford, Gwalior",Shivpuri Link Road,Gwalior,Madhya Pradesh,474001,0751 - 6530406,gm@samadhiyaford.co.in
"Kairali Ford, Perimbilavu","Parayampadam, Agathiyoor, PO Kunnamkulam",Perimbilavu,Kerala,680519,7034030760,salesknm@kairaliford.com
"Varrsha Ford, Coimbatore","No. 327/4P, Mettupalayam Road, Near Texmo Industries, GN Mills Post",Coimbatore,Tamil Nadu,641029,0422 - 4566666 / 4566600,gmsales@varrshaford.com
"KS Ford, Sikar","F - 50, Riico Industrial Area, Jaipur Road",Sikar,Rajasthan,332001,01572 - 245960,ksford.salesmgrskr@ksmotors.com
"Suryabala Ford, Ganapathy","No. 1420, Sathy Main Road, Ganapathy",Coimbatore,Tamil Nadu,641006,0422 - 4976299,salesganapathy@suryabalaford.com
"Sri Golden Ford, Meyyanur Road, Salen","Door No. 11, Meyyanur Road",Salem,Tamil Nadu,636004,9659577688,salemsales@srigoldenford.com
"Suryabala Ford, Coimbatore","No.1090,1091 & 1091/1, Avinashi Road, P.N.Palayam",Coimbatore,Tamil Nadu,641037,9789555085,agmsales@suryabalaford.com
"Suryabala Ford, Singanallur, Coimbatore","No 637 & 638, Trichy Road, Singanallur",Coimbatore,Tamil Nadu,641005,0422 - 4297999,fordsales@suryabala.com
"Lakshmi Ford, Trichy","Dindugal Main Road, Pirattiyur",Trichy,Tamilnadu,620006,73730 76162,agmlakshmiford@gmail.com
"Lakshmi Ford, Trichy","Dindugal Main Road, Pirattiyur",Trichy,Tamilnadu,620006,73730 76164,agmlakshmiford@gmail.com
"Chennai Ford, Thiruvallur","No. 173A, Poonamalle High Road, Vengathur",Thiruvallur,Tamil Nadu,602002,044 - 35002772,sales@chennaiford.com
"Aly Ford, Parakkalam Building, Palakkad","Parakkalam Building, Near Palakkad Block, Panchayath Kallekkad P.O",Palakkad,Kerala,678015,7909233233,salesmanager.pkd@alygroup.co.in
"Harpreet Ford, Dilshad Garden, Delhi","Shop No. 6, Dilshad Garden",New Delhi,Delhi,110095,9205180921,salesmanager_dg@thesachdevgroup.com
"Hemkund Ford, Wazirpur Industrial Area, Delhi","No. C-91/10, Wazirpur Industrial Area",New Delhi,Delhi,110052,011 - 42474247,gmsales@hemkundford.com
"Adiv Ford, Sahibabad","No. S-3, Site 4, Sahibabad Industrial Area, Sahibabad",Sahibabad,Uttar Pradesh,201005,0120 - 4512517,
"Harpreet Ford, Najafgarh Road, Delhi","No. 21, Opp. Dlf Corporate Park, Najafgarh Road",New Delhi,Delhi,110015,011 - 45189000,saleshead.mn@thesachdevgroup.com
"Delhi Ford, Safdarjung, Delhi","No. A-2/4, Africa Avenue Safdarjung Enclave",New Delhi,Delhi,110029,011 - 46146644,
Gautam Budh Ford,"Plot No. B - 127, Sector 5, Near Noida Authority",Noida,Uttar Pradesh,201301,0120 - 4977777,salesgautambudhford@gmail.com
"Harpreet Ford, Prashant Vihar, Delhi","No. E-4, Ground Floor, Prashant Vihar",New Delhi,Delhi,110085,7533008157,sm.pv@thesachdevgroup.com
"Delhi Ford, Okhla, Delhi","No. F-2/4, Okhla Phase - 1, Main Road, Near ESI Hospital",New Delhi,Delhi,110020,9540942209,sdogra@delhiford.in
"Dwarka Ford, Dwarka, Delhi","No. A-11, Madhu Vihar, Opp. Sec - 5, Dwarka",New Delhi,Delhi,110059,011 - 48666666,gmsales@dwarkaford.com
"Adiv Ford, Patel Nagar 3","G-51, Patel Nagar 3, Main Patel Marg",Ghaziabad,Uttar Pradesh,201001,9899064444,sales@adivford.in
"Harpreet Ford, MG Road, Gurgaon","No. G-3, Ground Floor, Sewa Corporate Park, M G Road",Gurgaon,Haryana,122002,7533008101,j.singh@thesachdevgroup.com
"Tanish Ford, Sec 15, Gurgaon","Opposite Jmd Pacific Square, Sec 15, Part 2, Chandan Nagar",Gurgaon,Haryana,122001,0124 - 4014200,gmsales@tanishford.in
"Pahwa Ford, Faridabad","No. 20/1, Mathura Road",Faridabad,Haryana,0,0129 - 4034034,info@pahwaford.com
"Harpreet Ford, Sec 34, Gurgaon","Plot No. 29 & 30, Sector - 34, Infocity, Near Hero Honda Plant",Gurgaon,Haryana,122110,0124 - 44292000,a.rangan@thesachdevgroup.com.
"Tanish Ford, Sohna Road, Gugaon","No. 23, Bestech Tower, Sohna Road, Near Subhash Chowk",Gurgaon,Haryana,122001,0124 - 4313131,gmsales@tanishford.in
"Orchid Ford, Gadh Road, Meerut","Padma Towers, Plot No. 33/1, Tejgadhi, Gadh Road",Meerut,Uttar Pradesh,250002,0121 - 4053900 / 4053750,garhroad@orchidford.com
"Orchid Ford, NH 58, Meerut","No. 695 & 698, Partapur Baral, National Highway 58, Meerut By-Pass Road",Meerut,Uttar Pradesh,250003,0121 - 3190024 / 28,sales@orchidford.com
"Modern Ford, Bhiwadi","Opposite Vva Developers, Bypass Road, Distt. Alwar",Bhiwadi,Rajasthan,301019,8769692555,kanand.vats@gmail.com
Palm Ford,"Khasra No. 3501, 3502, 3504, Jind Road Near Bypass Chowk",Rohtak,Haryana,124001,8813888008,servicepalmford@gmail.com / crmpalmford@gmail.com
"Karuna Ford, Rewari","Plot No. 42, Industrial Area Delhi Road",Rewari,Haryana,123401,01274 - 250350,sales@karunaford.com
"Khushi Ford, Panipat","Sec - 08, Near Toll Plaza, GT Road",Panipat,Haryana,132103,0180 - 2576106 / 107,sales@khushiford.com
Shivang Ford,"Vill Bhukampur, Bhukrawali, G.T.Road",Aligarh,Uttar Pradesh,202001,7088924000,fordsales@shivaauto.net
"Pearl Ford, Karnal","No. 118/7 Milestone, National Highway 1, GT Road",Karnal,Haryana,132001,0184 - 2221705 / 06 / 07,chirag@pearlford.com
"Orchid Ford, Bijnor","139, Rasoolpur, Prithi, Najibabad Road, Shakti Nagar",Bijnor,Uttar Pradesh,246701,01342 - 265124 / 25,sales@orchidford.com
"Karuna Ford, Narnaul","Rewari Road, Opposite PUNJAB & Sindh Bank, Kailash Nagar",Narnaul,Haryana,123001,9215059251,karunafordnnl@gmail.com
"Modern Ford, Navjeevan Building, Alwar","Navjeevan Building, Near Kali Mori Phatak",Alwar,Rajasthan,301001,8005890424,sales@modernford.in
"Venus Ford, Moradabad","Oppsite Modern Public School, Delhi Raod",Moradabad,Uttar Pradesh,244001,0591 - 2475000,sales@venusford.in
"Pearl Ford, Kuukshetra","GT Road, National Highway 1, Near Umri Chowk, V.P.O. Umri",Kurukshetra,Haryana,131136,01744 - 278004 / 05,salekkr@pearlford.com
"Prem Ford, Mathura","Vill. & Po Baad, Near Big Bazaar National Highway 2",Mathura,Uttar Pradesh,281006,9837019383,salesmathura@premford.com
Tara Ford,"10 Km Stone, National Highway 9, Delhi - Hisar By-Pass Road",Hisar,Haryana,125001,8607886888,sales@taraford.co.in
"Khushi Ford, Kaithal","Ambala Road, Rajinder Colony",Kaithal,Haryana,136027,7015996062,sales@khushiford.com
"Modern Ford, Bharatpur","Transport Nagar, Akhhad Tiraha, Deeg Road",Bharatpur,Rajasthan,321001,8005890448,singhravi1204@gmail.com
"AVS Ford, Bhadrabad","Plot No. 709, Ranipur Jhaal, Bhadrabad",Haridwar,Uttarakhand,249402,9105910021,saleshrd@avsford.in
"Pearl Ford, Yamunagar","No. 483, VI/C, Old Court Road, Jagadhri",Yamunanagar,Haryana,135001,01732 - 236781 / 82,chirag@pearlford.com
"Venus Ford, Rampur","Nainital Road, Near Honda Bike Showroom",Rampur,Uttar Pradesh,244901,9837676888,sales@venusford.com
"Prem Ford, Agra","Near Tulsi Cinema, Bypass Road",Agra,Uttar Pradesh,282002,0562 - 4055450,sales@premford.com
"Pearl Ford, Ambala","Village Tepla, Ambala Jagadhari Road, Ambala Cantt.",Ambala,Haryana,133104,0171 - 2822656 / 655,pawangupta@pearlford.com
"KS Ford, Jhunjhunu","Opp. Dto Office, Sikar Road",Jhunjhunu,Rajasthan,333001,01592 - 250051,ksford.gmskr@ksmotors.com
"Yash Ford, Dehradun","No. 41/39, Mohbewala Industrial Area, Saharanpur Road",Dehradun,Uttarakhand,248001,7060018150,"vp@yashford.com, sales@yashford.com, sale.mgr@yashford.com"
"AVS Ford, Vardan Plaza","Vardan Plaza 68, Majra Sahranpur Road",Dehradun,Uttarakhand,248001,9105910001,sales@avsford.in
"Bhagat Ford, The Mall, Patiala","The Mall, Fountain Chowk",Patiala,Punjab,147001,9888298882,fordsalespat@bhagatgroup.com
"CAPL Ford, Bareily","Plot No. 408 & 409, Rampur Road",Bareilly,Uttar Pradesh,243001,0581 - 2560142 / 2560101,sales@caplford.com
"Pal Ford, Rudrapur","Opp. Lic Office, Plot No. 2, Awas Vikas Distt. Udham Singh Nagar",Rudrapur,Uttarakhand,263153,05944 - 240285,sales-rud@palford.in
"Bhagat Ford, Sangrur","Dhuri - Patiala Bypass, Near Sangrur Public School",Sangrur,Punjab,148001,9888298882,fordsalessan@bhagatgroup.com
Tricity Ford,"Plot No. 349, Phase 2, Industrial Area",Panchkula,Haryana,134109,0172 - 3057777,sales@tricity.in
"Pal Ford, Opp. Transport Nagar, Haldwani","Opp. Transport Nagar, Rampur Road",Haldwani,Uttarakhand,263139,05946 - 234777,atulvarma@palford.in
"Bhagat Ford, Chandigarh","No. 53, Industrial Area Phase II",Chandigarh,Chandigarh,160002,0172 - 3075555,fordsaleschd@bhagatgroup.com
Ss Ford,"Opp. Traffic Police Chowki, Hissar Road",Sirsa,Haryana,125055,01666 - 243070,sales@ssfordindia.com
"Saluja Ford, Chandigarh","Plot No. 52, Industrial Area Phase I",Chandigarh,Chandigarh,160002,0172 - 4682100,ishwarjot@salujaford.in
"Saluja Ford, Phase 3, Mohali","No. C - 43, Phase 3 Industrial Area",Mohali,Punjab,160055,0172 - 4682700,dippy@salujaford.in / gian@salujaford.in
"Saluja Ford, Solan","Near Baba Balak Nath Mandir, Deonghat, Ward No. 1",Solan,Himachal Pradesh,173211,01792 - 247457 / 8,asm.solan@salujaford.in
"Swarn Ford, Farukhabad","Lal Gate, Thandi Sadak",Farukhabad,Uttar Pradesh,209625,05692 - 226350,farukhabadswarnford@gmail.com
"Rajendra Ford, Etwah","886, Takia Azad Gaan",Etawah,Uttar Pradesh,218001,9720105730,rajendraford@gmail.com
"CAPL Ford, Shahjahanpur","Opposite Madhav Gopal Kothi, Delhi Mod",Shahjahanpur,Uttar Pradesh,242001,8392939486,sales@Caplford.com / spnbranch@caplford.com
"Bhagat Ford, Opp. ITI Mansa Road, Bathinda",Opp. ITI Mansa Road,Bathinda,Punjab,151001,9888298882,fordsalesbat@bhagatgroup.com
"Bhagat Ford, Ludhiana","No. 658, Gt Road, Industrial Area, GT Road, Near Sherpur By-Pass",Ludhiana,Punjab,141003,9888298882,fordsaleslud@bhagatgroup.com
"Jagat Ford, Hanumangarh","Hanumangarh Junction, Town Road, Opposite Reliance Petrol Pump",Hanumangarh,Rajasthan,335512,9672993925,jagatfordhmj@gmail.com / jagatfordservice@gmail.com
"Bhagat Ford, GT Road, Jalandhar","Opp. Dhanuwali Crossing, Jalandhar - Phagwara Highway, GT Road",Jalandhar,Punjab,144010,9888298882,fordsalesjal@bhagatgroup.com
"Saluja Ford, Mandi","Near Harihar Hospital, National Highway 21, Gutkar",Mandi,Himachal Pradesh,175021,01905 - 246181 / 246182,rakesh@salujaford.in
"Novelty Ford, Jalandhar","Near Subhash Dharam Kanda, Opposite Balle Balle Farms, Amritsar By-Pass, GT Road",Jalandhar,Punjab,144001,9875940444,sales.jal@noveltygroup.in
"Jagat Ford, Sri Ganganagar","3MI Suratgarh, Hanumangarh By-Pass Road, Adjoining Dunac Auto",Sri Ganganagar,Rajasthan,335001,0154 - 2970497 / 5130130,jagatfordsgnr@gmail.com / jagatfordservice@gmail.com
Imperial Ford,"Village Karimpur, Near Kothari Resorts Ferozpur Road",Ludhiana,Punjab,141101,0161 - 5043232,sales@imperialford.in
"Mosaram Ford, Lakhimpur","LRP Road, In Front Of Pwd Guest House, Lakhimpur-Kheri",Lakhimpur,Uttar Pradesh,262701,7408404783,fordsales@mosaram.com
"Kanal Ford, Orai","Behind Pwd Office, Jail Road",Orai,Uttar Pradesh,285001,7619020777,kanalfordorai@gmail.com
"R S Ford, Bikaner","National Highway 11, Jaipur Road, Opp. To Vrindavan Enclave",Bikaner,Rajasthan,334001,8696946314,ravirajbikaner@hotmail.com
"Swarn Ford, GT Road, Kanpur","109/362, Grand Trunk Road, Near About Banno Sahib Gurudwara, Jareeb Chowki",Kanpur,Uttar Pradesh,208012,0512 - 2551040 / 11,swarncars_ford@yahoo.co.in
"Sumpun Ford, Civil Lines, Kanpur","No. 6/24A, Parvati Bagla Road, Near Rave3, Civil Lines",Kanpur,Uttar Pradesh,220002,8795222240 / 50,
"Bhagat Ford, GT Road, Amritsar","Mohan Vihar, Near New Amritsar Gate, GT Road",Amritsar,Punjab,143001,9888298882,fordsalesasr@bhagatgroup.com
"Sumpun Ford, Unnao","No. 1319/1, P. D. Nagar, Near Bharat Gas Agency",Unnao,Uttar Pradesh,208098,7311109974,sales@sumpunford.com
"Novelty Ford, Amritsar","No. 279, East Mohan Nagar",Amritsar,Punjab,143001,8741000200,sales.noveltygroup.in
"Narain Ford, Lucknow","Ring Road, Tedhi Pulia, Near Crown Palace",Bangalore,Karnataka,226022,7275098020,sales@narainford.com
"MGS Ford, Lucknow","J B Metro Tower , Hind Nagar, Kanpur Road , Near T P Nagar RTO Office, Near TP Nagar RTO Office",Lucknow,Uttar Pradesh,226012,9554956991 / 7408416201,gmsales@mgsford.in/sales.lko@mgsford.in
"Narain Ford, Lucknow","Opposite Gazipur police station, Near HAL, Faizabad road",Lucknow,Uttar Pradesh,226016,0522 -2346544/2350606,
"Narain Ford, Lucknow","No. 4, Shahnajaf Road",Lucknow,Uttar Pradesh,226001,0522 - 4109346 / 4109347,sales@narainford.com
"MGS Ford, Gomti Nagar, Lucknow","No. CP - 5, Vikrantkhand, Gomtinagar, Faizabad Road",Lucknow,Uttar Pradesh,227106,0522 - 6052000,
"Bhagat Ford, Pathankot","Bridge No. 7, Near Bimco Indian Oil Petrol Pump, Jammu National Highway, Sujanpur",Pathankot,Punjab,145023,9888298882,fordsalespkt@bhagatgroup.com
"Narain Ford, Bahraich","Banjara Mod, Lucknow Road",Bahraich,Uttar Pradesh,271801,7275098021,sales@narainford.com
"Sumpun Ford, Fatehpur","Near Sarang Guest House, Opposite Akasha TVS Showroom, Nauwa Bagh",Fatehpur,Uttar Pradesh,212601,7311109973,sales@sumpunford.com
"MGS Ford, Raibareilly","No. 13/18, Ganesh Ganj, Civil Lines, Allahabad Road",Raibareilly,Uttar Pradesh,229001,0535 - 6053000,sales@mgsford.com
"MGS Ford, Gonda","Gata No. 740, Gram Pathvalia, Porter Ganj, Lucknow Gonda Highway",Gonda,Uttar Pradesh,271301,7408416201,vipinsharma6@gmail.com
"Tawi Ford, Bachiter Complex, Jammu","Bachiter Complex Chenni Himmat, National Highway 1, By-Pass",Jammu,Jammu & Kashmir,180015,0191 - 2465786,support@tawiford.com
"Autowings Ford, Baghi Hyder","Baghi Hyder, Hyderpora Bypass",Srinagar,Jammu & Kashmir,190014,0194 - 2432690 / 2436786,mailus@autowingsford.com
"Narain Ford, Faizabad","Gata / Khasra No.138, Bypass, Sahadatganj Near Police Chowki",Faizabad,Uttar Pradesh,224001,7080497555,sales@narainford.com
"Bansal Ford, Satna","National Highway 75, Panna Road, Amoudhakala, In Front Of Sarthak Hospital, Survey No - 94, Ward No - 2, Revenue Inspector Circle, Tehsil - Raghu Raj Nagar",Satna,Madhya Pradesh,485001,07672 - 296400,sales@bansalford.com
"Brij Ford, Civil Lines, Allahabad","No. 2, Sardar Patel Marg Civil Lines",Allahabad,Uttar Pradesh,211001,0532 - 2560732 / 34,rajeshagarwal@brijford.com
"Shubham Ford, Basti","Near Sbi, Plastic Complex, Baipokhar",Basti,Uttar Pradesh,272002,9554951198,sales.bst@shubhamford.com
"Bansal Ford, Rewa","Bansal Ware House, Rani Bag Chorahata",Rewa,Madhya Pradesh,486006,9174407730,sales@bansalford.com
"Shubham Ford, Gorakhpur","Plot No. 623, Gulhariya Medical College Road",Gorakhpur,Uttar Pradesh,273013,9670222220,sales@subhamford.com
"Deep Ford, Azamgarh",Aaamgarh Near Zila Udyog Office,Azamgarh,Uttar Pradesh,276001,7081104120,service@deepwheels.in
"Deep Ford, Azamgarh",Harbanspur Azamgarh,Azamgarh,Uttar Pradesh,276001,7081104102,sales@deepwheels.in
"GSR Ford, Varanasi","Gt Road, Churamanpur Marhauli",Varanasi,Uttar Pradesh,221108,0542 - 2373988 / 6540383,sm@gsrford.com
"Shubham Ford, Deoria","Purwa Chauraha, Hata Road",Deoria,Uttar Pradesh,274001,9554951194,sales@shubhamford.com
"Bhagawati Ford, Shahdol","Bhagawati India Mptorizer Pvt. Ltd., Burhar Road, Jamui Village",Shahdol,Madhya Pradesh,484001,7049921806,gmservice.bimpl@bhagawatigroup.in
"Deep Ford, Ballia","Maldepur khoripakar, Near Hero showroom",Ballia,Uttar Pradesh,277001,7081104102,sales.ford@deepautomobiles.com
"GSR Ford, Murdhawa","Murdhawa, In Front of Max TVS Showroom",Renukoot,Uttar Pradesh,231217,9519114089,gsrfordrenukoot@gmail.com
"Girdhari Ford, Aurangabad",Near Ramabandh Bus Stand,Aurangabad,Bihar,824101,9471003390,sales.girdhariford@gmail.com
"Advik Ford, Sheikhpura, Patna","Airport Sheikhpura Road, Opp Kendriya Vidyalya, Sheikhpura",Patna,Bihar,800014,9117888801,gmsales.advikford@gmail.com
Aarna Ford,"National Highway 28, Bibiganj, Near Yashraj Motors Pvt. Ltd.",Muzaffarpur,Bihar,842001,7766909604,aarna.ford@yahoo.in
"Vishal Ford, Ambikapur","National Highway 43, MG Road",Ambikapur,Chhattisgarh,497001,7773000958 / 9340061617,service.ambikapur@vishalford.in
Chandamama Ford,"National Highway 77, Opposite Police Line, Dighi Hajipur, Vaishali",Hajipur,Bihar,844101,7061389013,smsales@chandamamaford.com / smservice@chandamamaford.com
Simon Ford,"Opp. Jain International Public School, Mungeli Road Uslapur",Bilaspur,Chhattisgarh,495001,07752 - 283434,simonservice1@gmail.com / simonspares@gmail.com
"Prema Ford, NH 30, Patna","Near Sipara Overbridge, National Highway 30, Anishbad By-Pass Road",Patna,Bihar,800001,9102668818,director@fordprema.com
"Girdhari Ford, Jail Road, Gaya","Jail Road, Near Gaya College",Gaya,Bihar,823001,9204056947,sales.girdhariford@gmail.com
"Vishal Ford, Bilaspur","National Highway-130, Raipur-Bilaspur Main Road, Sirgitti",Bilaspur,Chhattisgarh,495001,9340061608,vishalfordbsp17@gmail.com
"Vishal Ford, Transport Nagar, Korba","Plot No. 98, Transport Nagar",Korba,Chhattisgarh,495667,07759 - 246200 / 246300,dgm.korba@vishalford.in
"Auto Centre Ford, Jindal Road","Near Hotel Shreshtha, Jindal Road",Raigarh,Chhattisgarh,496001,9827165317,sales@autocentreford.com
"Kaikan Ford, VIP Road, Kolkata","1st Floor, Meridian Building, VIP Road, Opp. Baguihati Big Bazar",Kolkata,West Bengal,700059,033 - 30078500,kaikanford@karini.in
"Ganges Ford, Tangra","No. 4B, Matheshwartala Road, Old South Tangra",Kolkata,West Bengal,700046,033 4040 8888,sales@gangesford.com / salesmanager@gangesford.com
"Kaikan Ford, Howrah","Wheel'S Hub, Beside National Highway 6, Bari Bus Stop, Salap",Howrah,West Bengal,711403,033 - 33781241,sales3.kaikanford@karini.in
"Zaara Ford, Haldia","Plot No.- 1572(P), Block Debhog, Mouza-Debhog, JL NO-149, Ward No. 13, Bhabanipur, Purba Mednipur",Haldia,West Bengal,721657,9735760494,sales@zaaraford.com
"Banerjee Ford, Burdwan","Keshabganj Chatti, Near Sefa Nurshing Home, Po - Rajbati",Burdwan,West Bengal,713104,0342 - 2656601,sales.burdwan@banerjeeford.com
"Zaara Ford, OT Road Inda, Kharagpur",OT Road Inda,Kharagpur,West Bengal,721305,03222 - 225520,sales@zaaraford.com
"Banerjee Ford, Bhiringi More, Durgapur","Besides National Highway 2, Bhiringi More, GT Road (East)",Durgapur,West Bengal,713203,0343 - 2588675 / 77,banerjeeford@gmail.com
"Ganges Ford, Balrampur","Mankara, Balrampur, Near Bhakuri 2 Gram Panchayat, P S Berhampore, Murshidabad",Berhampore (Wb),West Bengal,742165,03482 - 200657,sales.beh@gangesford.com
"Banerjee Ford, Asansol","National Highway 2, GT Road, DVC More, Near Calcutta Girls High School, Nigha",Asansol,West Bengal,713370,7872501123,sales.asansol@banerjeeford.com / fordsales@banerjeegroup.co.in
"Basanti Ford, Near Januganj Golai","National Highway 5, Near Januganj Golai",Balasore,Odisha,756019,06782 - 244211 / 244233,basantiford@gmail.com
Jayashree Ford,"Plot No. 1 P, Medium Sector, RIT More Adityapur",Jamshedpur,Jharkhand,832109,0657 - 2201164,jayshreemotors@rediffmail.com
Model Ford,"Jharia Road, Dhansar",Dhanbad,Jharkhand,828106,7707014090,vir.kumar@modelfuels.co.in
"Diara Ford, Hazaribagh","Demotand, Mukundganj, National Highway - 33",Hazaribagh,Jharkhand,825301,7369007902,diarafordsales.hbg@gmail.com
"Diara Ford, By-Pass Road, Ranchi","Plot No. 3982 H, By-Pass Road, Near Dibdih Overbridge",Ranchi,Jharkhand,834002,0651 - 6900070,diarafordsales@gmail.com
"Kosi Ford, Bhagalpur","Sabour Raod, Ranitalab, National Highway 80",Bhagalpur,Bihar,813210,7283000459,kapl.bhagalpur@gmail.com
Oscar Ford,"Chinaihani, Natunnagar, Airport Road Tripura West",Agartala,Tripura,799009,0381 - 2341118,oscarford_agt@yahoo.com / oscarford_agt@oscarmotors.in
"Kosi Ford, Rampur","Rampur, Dalan",Katihar,Bihar,854337,7283000460,sales@kosiford.com
Odisha Ford,"Besides National Highway 5, Pratap Nagari",Cuttack,Odisha,753011,0671 - 6506162,odishaford@gmail.com
"Capital Ford, Bhubaneswar","No. 3/26, 27, 28, 29, Mancheswar Indusrial Estate (Sbi Chhak)",Bhubaneswar,Odisha,751010,0674 - 6667777 / 00,service@capitalford.net
"Kosi Ford, Purnea","Maranga, National Highway 31",Purnea,Bihar,854301,7283000470,sales@kosiford.com
"Trupti Ford, Bhubaneswar","99, National Highway - 16, Patrapada , Khurdha",Bhubaneswar,Odisha,751019,8657589339,service@truptiford.com
"Trupti Ford, Bhubaneswar","99, National Highway - 16, Patrapada , Khurdha",Bhubaneswar,Odisha,751019,8657589339,sales@truptiford.com
Veda Ford,"Plot No. 378, Beldihi Chowk Beldihi",Rourkela,Odisha,770031,0661 - 6550111,sales@vedaford.com
Khokan Ford,"Nilkuti, Baburhat (Rajentripati), Coochbehar, Distt. Coochbehar",Coochbehar,West Bengal,736156,7076499985 / 9735000889,archanadiaz@gmail.com / gmservice.khokan@gmail.com
Gateway Ford,"National Highway 31, Near City Dhaba, Gosaipur Po Bagdogra, Distt. Darjeeling",Siliguri,West Bengal,734014,0353 - 6552686,sales@gatewayford.co.in
"MS Ford, Sairang Road, Aizawl","Chanmary West, Sairang Road",Aizawl,Mizoram,796001,0389 - 2306466,sales@msfordmizoram.com
"Nongmalieh Ford, Shillong",Mawiong-Rim,Shillong,Meghalaya,793016,8657535791,nongmaliehford@gmail.com
"Chand Ford, Bongaigaon","Nr. Kajangaon Town Committee Office, Chapaguri N-1 (Bgr), Bongaigaon Refinery, National Highway 37, PO Chirang, Distt. Bongaigaon",Bongaigaon,Assam,783385,03664 - 7578810334,surajit.shome@chandford.com
"Chand Ford, Barpeta","National Highway 31, Gobindapur, Barpeta Road, Near Forest Check Post, Simlaguri",Barpeta,Assam,781313,9127805014,salesmanagerbarpeta@chandford.in
"Prova Ford, Sonai Road, Silchar","Sonai Road, Near Jangiana Petrol Pump, Cachar",Silchar,Assam,788006,9706542946,provafordautomobiles@gmail.com
"Chand Ford, NH 37, Guwahati","Sarusajai Stadium Garalia, Near National Games Stadium, National Highway 37, Po - Saukuchi, PS - Basistha, Distt. Kamrup (M)",Guwahati,Assam,781040,0361 - 9127051030,sales@chandford.com
"Saharsh Ford, Tadong Ward, Gangtok","Tadong Kothi, No. 13, Tadong Ward",Gangtok,Sikkim,737135,03592 - 232083,saharshford@gmail.com
"TI Ford, AT Road, Guwahati","Bharalumukh, Opp. Sonaram Field, A T Road",Guwahati,Assam,781009,0361 - 2733709 / 809,
"TI Ford, Silpukhuri, Guwahati","Bhuyan Mansion, Panchabati Silpukhuri",Guwahati,Assam,781003,0361 - 2660745 / 724,sales@tiassam.com
"Minerva Ford, Palace Line, Balangir","Koshal Chowk, Palace Line",Balangir,Odisha,767001,8598811001,sales@minervaautomobiles.com
Pakhangba Ford,"Ghari Makha Leikal, Imphal West",Imphal,Manipur,795140,8291259251,pakhangbaford@gmail.com
"Chand Ford, Tezpur","Near All India Radio Center, Vill. Gotlong, PO Kaliabhomora, Distt. Sonitpur",Tezpur,Assam,784027,9127051037,sales.tezpur@chandford.com
City Ford,"Opp. Artc, 3Rd Mile",Dimapur,Nagaland,797112,03862 - 242510,cityrider_dmr@yahoo.com / sales@cityford.com
Ita Ford,"Model Village, Naharlagun",Itanagar,Arunachal Pradesh,791110,9930179946,itafordsales2018@gmail.com
"Chakrapani Ford, Jorhat","Dhapkota, National Highway 37, Po Rrl Pulibor",Jorhat,Assam,785006,0376 - 2394008,chakrapani.ford@rediffmail.com
"PPS Ford,Visakhapatnam","#-53-17-25, Krishna College Junction, Maddilapalem",Visakhapatnam,Andhra Pradesh,530013,8465984659,www.ppsford.com
"Chakrapani Ford, Sivasagar","Ranghar Chariali,, Opp. Ranghar, A.T. Road",Sivasagar,Assam,785640,03772 - 270010,chakrapani.svr@rediffmail.com
"TI Ford, Dibrugarh","Mohanaghat Road, Amolapatty",Dibrugarh,Assam,786003,9706045547,salesdbr@tiassam.com
"MN Ford, Thimmapuram, Kakinada","Plot No. 69/1, Achampeta Junction, Thimmapuram",Kakinada,Andhra Pradesh,533005,7997839998,mnmotors.ford@gmail.com
"TI Ford, Tinsukia","National Highway 37, Laipuli",Tinsukia,Assam,786183,0374 - 2120506,salestsk@tiassam.com
"Chennai Ford, Arumbakkam","No. 423, Poonamalle High Road",Chennai,Tamil Nadu,600106,044 - 23636300 / 01 / 02 / 03 / 04 / 05,salesmgr@chennaiford.com
Hans Ford,"No 235, Mount Poonamallee High Road, Ayyapanthangal Village",Chennai,Tamil Nadu,600056,044 - 26791834,sales@hansford.in
Dhruvan Ford,"Old No. 122, New No. 99, Viduthalai Nagar, Kovilambakkam, Pallikaranai",Chennai,Tamil Nadu,600117,9789896111,dhruvanford@outlook.com  / service.dhruvan@gmail.com
"Sarvesh Ford, Kanchipuram","SF No. 69, Kanchipuram To Chennai Road, Ponnerikarai",Kanchipuram,Tamil Nadu,631502,8144411766,sarveshkpmsm@gmail.com
"Sarvesh Ford, Cuddalore, Pondicherry","SF No. 28/2A, Ariyankuppam Commune Panchayat, Nonapukkam Pondy, Cuddalore Main Road",Pondicherry,Pondicherry,605004,0413 - 2354785,sarveshfordsalesoh@gmail.com
"Sarvesh Ford, Tiruvannamalai","Vellore Tiruvannamalai Highway, Inam Karianthal Village",Tiruvannamalai,Tamil Nadu,606604,04175 - 232444,sarveshtvmsales@gmail.com
"Lakshmi Ford, Sitharkadu","No. 92/A-1, Main Road, Sitharkadu",Mayiladuthurai,Tamil Nadu,609003,7094476168,lakshmifordmayiladuthurai@gmail.com / lakshmiford.myl@gmail.com
"Lakshmi Ford, Thiruvarur","No. 1A/12, Bharath Plaza, Nagai By-Pass Road",Thiruvarur,Tamil Nadu,610001,04366 - 250616,salessmtvr@lakshmiforddealer.com
"Lakshmi Ford, Thanjavur","No. 125, Manickam Nagar, Medical College Road",Thanjavur,Tamil Nadu,613007,04362 - 276161,lakshmiford@yahoo.com
"Varrsha Ford, Erode","SF NO. 111/3, 111/4, Nanjanapuram Village, Thindal Post",Erode,Tamil Nadu,638 012,9600316999,saleserode@varrshaford.com
"Sri Golden Ford, Karur","No. 82, DVN Complex, Near Annapoorna Hotel, Salem By Pass Road, Periakulathupalayam",Karur,Tamil Nadu,639006,8675812345 / 8012404444,karursales@srigoldenford.com
"Akshaya Ford, Madurai","No. 201/1A, Virudhunagar Main Road, Thanakkan Kulam, PO Thirunagar",Madurai,Tamil Nadu,625006,0452 - 2485931 / 32 / 79 / 89,sales@akshayaford.com
"Suryabala Ford, Pollachi","No. 546 B, Kottur Road, Suleswaranpatti Post",Pollachi,Tamil Nadu,642006,04259 - 228235,sales.pollachi@suryabalaford.com
"Akshaya Ford, Sivakasi","No. 4/252A, Periandavar Nagar, Mela Mathur Panchyat Board, Distt. Virudhurnagar",Sivakasi,Tamil Nadu,626130,04562 - 231005 / 6 / 7,sales.svk@akshayaford.com
"Malayalam Ford, Thodupuzha","Malayalam Fordathickal Arcade, 4 Lane By-Pass, PO Muthalakodam",Thodupuzha,Kerala,685605,9072588919,tdpsales@malayalamford.com
"Kairali Ford, Ayyanthole, Thrissur","Guruvayur Road, Trichur Kunnamkulam Road, Puzhakal, Ayyanthole, PO Trichur",Thrissur,Kerala,680003,0487 - 2388797 / 2388798 / 2388795,kairakifordtcr@yahoo.co.in
"MCP Ford, Thrissur","XVII / 523 A, National Highway 47, Near Puzhamballam Roa, Marathakkara",Thrissur,Kerala,680306,0487 - 2459700,mcpfordtcr@gmail.com
"Malayalam Ford, Angamaly","Distt. Ernakulam, M C Road, Vengoor, PO Piraroor",Angamaly,Kerala,683574,9567061100,angsales@malayalamford.com
"Kairali Ford, Muvattupuzha","Kadathi, Ernakulam Muvattupuzha Main Road",Muvattupuzha,Kerala,686673,0485 - 6427000,salesmvpa@kairaliford.com
"Kairali Ford, Kanjirapally","Building No. 11/70, Survey No. 58/7, Block No. 8, Kanjirapally, Distt. Kottayam",Kanjirapally,Kerala,686507,04828 - 201211 / 201311 / 201411,kairalikplysales@gmail.com
"Kairali Ford, Edapally, Cochin","No. 508 A, Illikkatt Building, Edapally",Cochin,Kerala,682024,0484 - 2551310 / 2559650,kfordsalescoc@mgfkerala.com
"Kairali Ford, Cheranellore","Near Cheranellore Temple Bus Stop, Maraparambu, Vallarpadam, Eranakulam, Container Terminal Road, Distt. Cheranellore",Cheranellore,Kerala,682034,0484 - 2434838,salescnellore@kairaliford.com
"Malayalam Ford, Ernakulam, Cochin","Sy. No. 959/3, Near K.S.E.B, National Highway 47, Vyttila, Ernakulam",Cochin,Kerala,682019,0484 - 2304567,sales@malayalamford.com
"Akshaya Ford, Trivandrum Road, Triunelveli","No. 98, Trivandrum Road, Near Govt Eng. College",Triunelveli,Tamil Nadu,627007,9894627291,sales_tvl@akshayaford.com
"Kairali Ford, MC Road, Kottayam","Mgf Buildings, Mc Road, Nagambadam Sh Mount Po",Kottayam,Kerala,686006,0481 - 2562906 / 2563906,kairaliktmsales@gmail.com
"CBC Ford, Thumpoly, Alleppey","Near SBI Kommadi, Thumpoly, National Highway 66",Alleppey,Kerala,688008,0477 - 2241041,sales@cbcford.com
"Kairali Ford, Karunagapally","Kallur Junction, Near Ochira PO, Distt. Kollam",Karunagapally,Kerala,690526,9567865042,knplysales@kairaliford.com
"Kairali Ford, Randamkutty, Kollam","Raj Plaza, Second Milestone",Kollam,Kerala,691004,0474 - 2711314,kairaliklmsales@gmail.com
"Kairali Ford, MEA Junction, Kollam","Kerala Cars Pvt Ltd, Mea Junction, Chenkotta Road Kareekode",Kollam,Kerala,691005,0474 - 2711314,kairaliklmsales@gmail.com
Harry Ford,"Opposite Market Junction, Kuravankonam, Kowdiar P.O",Trivandrum,Kerala,695003,0471 - 3061800,salesmanager@harryford.in / gmoperations@harryford.in
"Kairali Ford, Revathi Towers, Trivandrum","Revathi Towers, Opposit Ginger Hotel, By-Pass Road, Near Technopark, PO Kazhakuttam",Trivandrum,Kerala,695582,0471 - 2414166 / 2414161,sales.kzm@kairaliford.com
"Pon Bharath Ford, Nagercoil","No. 23/31 J, Nishthin Rekash, Pon Bharat Avenue, Kanyakumari, Post Chunkankadai, Distt. Thottiyodu",Nagercoil,Tamil Nadu,629300,9788700500 / 9788700400,ponbharathford@gmail.com
"Pon Bharath Ford, Marthandam","""Rose Rekash"" Kanjiracode, Main Road",Marthandam,Tamil Nadu,629165,04651 - 274374,pbfmtm@gmail.com
"Kairali Ford, Eanchakal, Trivandrum","MGF Buildings, National Highway By-Pass, Eanchakal",Trivandrum,Kerala,695008,0471 - 2501564,kairalitvpm@sify.com
"Mohan Ford, Aberdeen Bazaar, Port Blair","MB No. 46, Aberdeen Bazaar",Port Blair,Andaman & Nicobar Islands,744101,03192 - 240237,mohanfordsales@gmail.com
