"Dealer Name","Contact Person","Address","City","State","Contact 1","Contact 2","Email"
"Dhanvi Honda","Madhusudhan","Guptha Colony,  Gooty Road,  Pamidi,  515775","Pamidi","Andhra Pradesh","","8096904031","pamidi.dhanvihonda@gmail.com"
"Crystal Honda","Mr. Siva Prasad Kankata","Sy No 345/1, Solomon Center, Chirala, Prakasam 523155","Addanki","Andhra Pradesh","","9494263748","crystalmotors.honda@gmail.com"
"Bandaru Honda","Mr. B. Sri Sanjeev","Survey No. 25/3, #1-169/2, Near Bharat Petrol Bunk, A.G., Edarapalli 533201","Amalapuram","Andhra Pradesh","","9505334994","bandaruhonda@gmail.com"
"Bandaru Honda","Bandaru Sri Sanjeev","Bandaru Motor'S Pvt Ltd, D.No:- 6-21,22, Injeti Sampada Rao Complex, Oppo Degree College, Malikipuram, 533253 533253","Amalapuram","Andhra Pradesh","","768000841, 768000843, 9515129153, 9515129152","bandaruhonda@gmail.com"
"Bandaru Honda","Bandaru Sri Sanjeev","Bandaru Motors,D-No 4-136/2,Krishna Complex,Besides Apple School,Mummidivaram Main Raod,Mummidivaram 533216","Amalapuram","Andhra Pradesh","","8897667774","mmd.bandaruhonda@gmail.com"
"Surya Honda","Lakkimsetti Veera Venkata Surya Subba Rao","Opp To Srinivasa Theatre, Surya Complex, Tatipaka-533249 533249","Amalapuram","Andhra Pradesh","","9849966623","nanajitpk@gmail.com"
"Srinivasa Motors","S. Sreenivasalu","Anantapur Guntakal Road, Guntakal 515801","Anantapur","Andhra Pradesh","","9885046919","sreenivasa.honda2@gmail.com"
"A.K.Honda","C.Ayaz","601-A,C.B.Road,Tadipatri(Mandal),Anatapur(District) 515411","Anantapur","Andhra Pradesh","","8341197007","akhonda1@gmail.com"
"Anjanadree Honda","B.Yashasvi","D.No 10-5-663/7, Dasappa Road, Rayadurgam 515865","Anantapur","Andhra Pradesh","","9581587007","yashasvi.bandi70@gmail.com"
"Dhanvi Honda","Mr.Kavinath Reddy G","347/2, Ananthapur Road, Kalyandurgam 515761 515761","Anantapur","Andhra Pradesh","","9440286353","dhanvihonda@gmail.com"
"Dhanvi Honda","Mr.Sameer","Plot No.13,14, Opt. New Rtc Bus Stand, Anantapu Road, Uravakonda 515812","Anantapur","Andhra Pradesh","","8096904032","ukd.dhanvihonda@gmail.com"
"Dhanvi Honda","Mr. G.Kavinath Reddy","D. No: 6-5-546/1, Main Road, Ramnagar,Anantpuramu 515004","Anantapur","Andhra Pradesh","08554-270666","8096904024","dhanvihonda@gmail.com"
"Dhanvi Honda","Mr.Kavinath Reddy G","Site No 579, Ananthapur Road, Gooty 515401 515401","Anantapur","Andhra Pradesh","","9440286353","dhanvihonda@gmail.com"
"Mobina Honda","S.Dadapeer","Near Sudarshana Complex Main Road  Kanekal(V&M) 515871","Anantapur","Andhra Pradesh","","9849764558","Mobinahonda@gmail.com"
"Shiv Sai Honda","Mr. N.Mallikarjuna","# 5-19, Parthasaradhi Nagar, Near Sericulture Office, Dharmavaram 515671","Anantapur","Andhra Pradesh","","9866823447","shivsaihonda2@gmail.com"
"Shiv Sai Honda","Mr. Mallikarjuna Nayani","Door No: 13-3-279 & 280, Beside Tanishq Jewellery Show Room, R F Road, Anantapuramu 515001","Anantapur","Andhra Pradesh","","9866823447","nayaniarjun@gmail.com"
"Vinayakahonda","B.Kishor Kumar Reddy","Vinayaka Honda,Anantapuram Road,Kadiri 515 591","Anantapur","Andhra Pradesh","","7799973537","vinayakahonda@gmail.com"
"Radhe Shyam Honda","D Prudvi Varma","# 1-853 &1-854, Main Road, Opp: HP Petrol Bunk, Elamanchali Road, Atchuthapuram  531011","Atchutapuram","Andhra Pradesh","7993772679","7993772679","atchuthapuram.radheshyamhonda@gmail.com"
"Pavan Bhargav Honda","Mr. Suresh Dangeti","27-1-5-1, Juvvalapalem Road 534201","Bhimavaram","Andhra Pradesh","","9849137037","sureshdnaidu7@gmail.com"
"Pavan Bhargav Honda","Mr. Suresh Dangati","Pavan Bhargav Honda, 20-92/9, Main Road, Near Santhi Theatre, Palakollu 534260","Bhimavaram","Andhra Pradesh","","9849137037","pavanbhargavhondaeluru@rediffmail.com"
"Pavan Bhargav Honda","Mr. Suresh Dangati","Akiveedu 534235","Bhimavaram","Andhra Pradesh","","9849137037","pavanbhargavhondaeluru@rediffmail.com"
"Pavan Bhargav Honda","Mr. Suresh Dangati","Pavan Bhargav Honda, 1-1-25/5, Near Padavala Revu, Steemar Road, Narasapuram. 534275","Bhimavaram","Andhra Pradesh","","9849137037","pavanbhargavhondaeluru@rediffmail.com"
"Santosh Honda","Eswar Rao","#5-413,Santosh Honda, Beside Hp Petrol Pump,Nrt Road, Chilakaluripet  522616","Chilakaluripet","Andhra Pradesh","08647-252786","9948862058","santoshhondachpet@gmail.com"
"Vaibhav Honda","Venkata Chaitanya Krishna.G","Beside Ratna Theatre,Main Road , Chintalapudi 534460","Chintalapudi","Andhra Pradesh","08823  222345","9490172767","chaitugvk@gmail.com"
"Balaji Honda","Ravikumar","118, New Krishnagiri Bypass Road, Kuppam, Chitoor. 517425","Chittoor","Andhra Pradesh","","9052366444","ravikumar.catt@gmail.com"
"Siva Honda","Sasi Kumar.N","1-1  & 1-2, Tirupati  Road,  Kattamanchi, Chittoor  517001","Chittoor","Andhra Pradesh","9052699799","9052366444","siva.honda@yahoo.com"
"Siva Honda","Mr. N.Sasi Kumar","#27-244,Opp.Nutrine Factory,Palamaner Road 517002","Chittoor","Andhra Pradesh","","9052366444","siva.honda@yahoo.com"
"Siva Honda","Mr. N. Sasi Kumar","15-362, Gandhi Road, Madanapalle 517325","Chittoor","Andhra Pradesh","","9440467362","siva.honda@yahoo.com"
"Siva Honda","Mr. N. Sasi Kumar","7-106,  Opp.Gundubavi, Madanapalli Road, Palamaner 517408","Chittoor","Andhra Pradesh","","9440467362","siva.honda@yahoo.com"
"Siva Honda","Mr.Eswar","Rani Pramila Nagar, Opp.Kothaindlu, M.B.T Road, Punganur 517247","Chittoor","Andhra Pradesh","","9052699799","siva.honda@yahoo.com"
"Radhe Shyam Honda","I VVP Raju","Main Road, Opp: Forest Office, Beside Bharath Petrol Bunk, Chodavaram  531036","Chodavaram","Andhra Pradesh","9603378665","9603378665","chodavaram.radheshyamhonda@gmail.com"
"Nerella Honda","Nerella Raja Bharadwaja","D.No27-10-58,Shanti Nagar,Opp Goutham KKR Concept School,Eluru ,Westgodavari District. 534007","Eluru","Andhra Pradesh","9640017788","9640017788","nerellaravihonda@gmail.com"
"Pavan Honda","Mr. Suresh Dangeti","Old Kesari Theater,Near Jute Mill,G.N.T.Road,Eluru 534002","Eluru","Andhra Pradesh","08812-222411, 222412, 224659","9849137037","pavanhondaeluru@rediffmail.com"
"Pavan Honda","Mr. Dangeti Suresh","4-1-53/1,Aswaraopeta Road,Jangareddygudem 534447","Eluru","Andhra Pradesh","","9849137037","pavanhondaeluru@rediffmail.com"
"Pavan Bhargav Honda","P Srinivas Rao","Rs No. 261/1, Main Road, Bhuvanapalli, Ganapavaram, West Godavari District, Andhra Pradesh  534198","Ganapavaram","Andhra Pradesh","08818 - 297445","7997457222","pavanbhargavhondaganapavaram@gmail.com"
"Premium Honda","S.Bharath Kumar.","Premium Honda, No.3/637,  Aruna Reddy complex, Beside Chitravathi Bridge, Gorantla, Anantapur District. 515231","Gorantla","Andhra Pradesh","","7416767504","premiumgrtl.sales@gmail.com"
"Annapurna Honda","Veeranki Venkata Someswara Rao","#134/15, Near Sai Baba Temple, Machilipatnam Road, Challapalli, Krishna District - 521126 521126","Gudivada","Andhra Pradesh","","9246416954","annapurnahonda54@gmail.com"
"Naga Sai Honda","Nagesh","D.No: 20/117-1,Gandhi Nager,Zp Center,Machilipatnam, Krishna 521001","Gudivada","Andhra Pradesh","","9676945616","nagasaihonda@gmail.com"
"Pruthvi Honda","Mr. Ramesh Babu Malempati","#618-1, 1St Ward, Opp - Cwc Godowns, Pamarru Road, Gudivada 521301","Gudivada","Andhra Pradesh","","9440803888","pruthvihonda@gmail.com"
"Pruthvi Honda","Mr.Ramesh Babu Malempati","D.No . 1221-1.Bheemavaram Road, Beside Vijayalakshmi Theatre, Kaikaluru, Pin Code 521333 521333","Gudivada","Andhra Pradesh","","9440803888","pruthvihonda@gmail.com"
"Pruthvi Honda","Mr.Ramesh Babu Malempati","D.No. 8-144-1, Katuru Raod, Vuyyuru, Pin Code 521165 521165","Gudivada","Andhra Pradesh","","9440803888","pruthvihonda@gmail.com"
"Sri Venkata Satya Honda","Kvn Kishore Kumar","D.No: 1-56C, Main Road, Tiruvuru, Krishna. 521235","Gudivada","Andhra Pradesh","","9030766699","svshondatvr@gmail.com"
"Sai Keerthi Honda","Mr. Suresh Kumar Reddy Kesarapu","Sy. No. 725/1A1C, Sai Baba Temple Road, Gudur. 524101","Gudur","Andhra Pradesh","","9618056699","saikeerthihonda@gmail.com"
"Amravati Honda","Mr. M Rithwik Reddy","Door No.6-19-7, Bapaiah Bhavan, 18Th Line, Arundelpet 522002","Guntur","Andhra Pradesh","","9885392986","rithwikreddy@gmail.com"
"Amravati Honda","Krishna Prasad / Rithwik Reddy","Sattenapalli 522403","Guntur","Andhra Pradesh","","9290390312","amravati.honda@gmail.com"
"Amravati Honda","Krishna Prasad / Rithwik Reddy","Karempudi Road,Near Power Station,Vinukonda,Vinukonda 522647","Guntur","Andhra Pradesh","","9290390312","amravati.honda@gmail.com"
"Jayalakshmi Honda","Mr. M.N Choudary","D No . 15-17-50, Plot No 40 & 41, Auto Nagar 3Rd Phase,Agathavarapadu Guntur, Andhra Pradesh-522001 522001","Guntur","Andhra Pradesh","","9866244544","jayalakshmibikes@gmail.com"
"Lasya Honda","M Srinivasarao","15/2/31, Beside Lic Office, Main Road, Macherla, Guntur 522426","Guntur","Andhra Pradesh","","9703514999","lasyaautomotives@gmail.com"
"Santosh Honda","Mr. Chhakkappalli Jaganmohan Rao","Opp Muncipal Office,Gbc Road,Ponnur,Guntur(Dt)-522124 522124","Guntur","Andhra Pradesh","","9849368999","santoshautomotives@gmail.com/santoshhonda@rediffmail.com"
"Santosh Honda","Mr. Ch. Jagan Mohan Rao","D.S.  Complex, Door  No  12-28-56  Kothapat Main  Road 522001","Guntur","Andhra Pradesh","0863-2324781","9849368333","santoshhonda@rediffmail.com"
"Santosh Honda","Mr. Chhakkappalli Jaganmohan Rao","Opposite Ssn College,Palandu Road,Narasaraopet 522601","Guntur","Andhra Pradesh","","9849368999","santoshautomotives@gmail.com/santoshhonda@rediffmail.com"
"Anvita Honda","Mr.Suresh Babu,","Vijayawada Road,Bapulapadu, Hanuman Junction, A.P 521105","Hanuman Junction","Andhra Pradesh","08656-245959","9492225959","hanumanjunctionhonda@gmail.com"
"Premium Honda","Mr. Mallu Venkata Siva Prasad Reddy","Survey No-403,Behind Apsrtc Bus Sta 515201","Hindupur","Andhra Pradesh","","9908147999","prasadmallu@yahoo.com"
"Premium Honda","Mr.Shaiknazeeruddn","Premium Honda, Sy.No.555-1,Opposite  M.R.O. Office, Dharmavaram Road, Kothacheruvu -515133., 515133","Hindupur","Andhra Pradesh","","9866832777","premiumhondakothacheruvu@gmail.com"
"Rk Motors","M.Riyaz Ali Khan","#38/105-15,Nh-18,Chittoor Road,Rayachoty,Kadapa. 516269","Kadapa","Andhra Pradesh","","9912653609","rkhonda.rct@gmail.com"
"Sree Amogha Honda","Mr. Sunkara Sreenivas","42/12, Chinna Chowk,Madras Road,Kadapa 516002","Kadapa","Andhra Pradesh","08562-245088, 244049","6300429848","sreeamoghahonda@hotmail.com"
"Sree Amogha Honda","Mr. Srinivas","Nellore Road Opp Krishnamandiram,Badvel 516227","Kadapa","Andhra Pradesh","","9246941007","sreeamoghahonda@hotmail.com"
"V.K. Honda","Mr.Karunakar Reddy","Opp Curent Office Tirupati Bypass Rajampet 516115","Kadapa","Andhra Pradesh","","8885573312","vkhondakadapa@gmail.com"
"V.K. Honda","Mr.Karunakar Reddy","Near Laxmiparadise Tirupati Road Rly Kodur 516101","Kadapa","Andhra Pradesh","","8885573312","vkhondakadapa@gmail.com"
"V.K. Honda","Mr.Karunakar Reddy","Opp Reliance Petrol Bunk Kadaparoad Pulivendula 516390","Kadapa","Andhra Pradesh","","8885573312","vkhondakadapa@gmail.com"
"V.K. Honda","Mr. Kiran","Sy No.53/1, Opp Water Tank I T I Circle, Kadapa 516003","Kadapa","Andhra Pradesh","08562-259333","8885573312","vkhondakadapa@gmail.com"
"7 Star Honda","P D Nageswara Rao","# 1-4-9/1. Opp: Rtc Complex,Main Road,Pithapuram,East Godavari 533450","Kakinada","Andhra Pradesh","","9490186660","7starhonda@gmail.com"
"Appy Honda","D Lakshmi Kumar","Appy Honda, D.No. 19-1-81,82 , Near Hdfc Bank, Main Road, Peddapuram-533437  533437","Kakinada","Andhra Pradesh","","8885784888","appyhondapdp@gmail.com"
"Sri Devi Honda","Mr. D. V. DURGA REDDY","#7-7-2/1, Near Town Railway Station, Dcms Godowns, Ramarao Peta 533001","Kakinada","Andhra Pradesh","0884-2369102","9490969696","sridevi.honda@gmail.com"
"Srikara Honda","Mr. Venkata Kishan Raj Dantuluri","D. No 69-4-3/1 533005","Kakinada","Andhra Pradesh","","8886089966","srikarahonda@gmail.com"
"Bandaru Honda","Kolla Nagendra","14-115, Near Bodipalem Bridge, Main Road, Kothapeta, East Godavari, AP 533223","Kothapeta","Andhra Pradesh","""07680000840 08855 244448""","9490162629","kpt.bandaruhonda@gmail.com"
"New Bala Venkatrama Honda","Kishore","Opp. Edgah, Near New Busstand, K.G Road, Nandikotkur - 518401 518401","Kurnool","Andhra Pradesh","","8466066700","alwalakishore12@gmail.com"
"S.S. Honda","Butta Shiv Kumar","Opp. St.Joseph School, Kurnool Road, Pattikonda - 518380  518380","Kurnool","Andhra Pradesh","","9347922222","ssmotors.honda@gmail.com"
"S.S. Honda","Mr. Butta Shiv Kumar","Plot No :8-81 Nh-7, Opp Itc , Krishna Nagar , Kallur , Kurnool 518003","Kurnool","Andhra Pradesh","","9346792222","shivabutta@gmail.com"
"S.S. Honda","Butta Shiv Kumar","Atmakur 518422","Kurnool","Andhra Pradesh","","9347922222","ssmotors.honda@gmail.com"
"Sk Honda","K.Khaja Hussain","H.No-14-600, Ig Nager  Near New Bus Stand, Veldurthi-518216,Kurnool  518216","Kurnool","Andhra Pradesh","","9440985698","skhondavdl@gmail.com"
"Sri Vasavi Honda","Mr. Somisetty Suresh Babu","1/97/3/19 & 20, Sy. No: 536, Gooty Road, Dhone, Kurnool - 518222 518222","Kurnool","Andhra Pradesh","","9491027777","srivasavihonda@yahoo.com"
"Sri Vasavi Honda","Mr. Somisetty Suresh Babu","#1/426 & 1/426/1/1, Park Road, Yemmiganur, Kurnool - 518360 518360","Kurnool","Andhra Pradesh","","9491027777","srivasavihonda@yahoo.com"
"Sri Vasavi Honda","Mr. Somisetty Suresh Babu","21/299, 300 & 301, College Road, Adoni, Kurnool 518301","Kurnool","Andhra Pradesh","","9491027777","srivasavihonda@yahoo.com"
"Sri Vasavi Honda","Mr. Somisetty Suresh Babu","D. No. 51/1F And 1F1, Adil Complex, Bellary Road, Kurnool 518003","Kurnool","Andhra Pradesh","","9246921777","srivasavihonda@yahoo.com"
"Srirajajrajewari Honda","B.Venkateswara Reddy","Near Rtc Bus Stand,H.No-2/356/7/4,Bethamacherla,Kurnool 518599","Kurnool","Andhra Pradesh","","9440969598","srirajarajeswarihonda@gmail.com"
"Santosh Honda","J Kranthi Kumar","Main road, Autonagar,Mangalagiri 522503","Mangalagiri","Andhra Pradesh","8886294666","8886294666","santoshhondamngl@gmail.com"
"Crystal Honda","Modadugu Polaiah Gupta","Opp.Indian oil petrol bunk,National highway Martur,Prakasam (Dist) Andhra Pradesh  523301","Martur","Andhra Pradesh","8500230660","9963152415","marturu.sales.crystalhonda@gmail.com"
"Parameswara Honda","Mr. Chennampalli Mitra","29/154-D5,Tekke,Nandyal 518501","Nandyal","Andhra Pradesh","","7702426677","parameswarahonda.ndl@gmail.com"
"Pavan Automotive(Pavan Honda)","M.Srinivasa Reddy","Pavan Honda,Rtc Bus-Stand Road Koilkuntla-518134 518134","Nandyal","Andhra Pradesh","","9989316759","pavanhonda@gmail.com"
"Sai Deetya Honda","Mr.M.Hari Krishna Sharma","Beside Gmr Function Hall , Nandyal Road, Banaganapalle - 518124 518124","Nandyal","Andhra Pradesh","","9652233366","saideetyahonda@gmail.com"
"Sai Deetya Honda","Mr. Hari Krishna Sharma","Survey No 516/1B 518501","Nandyal","Andhra Pradesh","","7680090990","saideetyahonda@gmail.com"
"Sl Honda","G.Venkata Ramireddy","Near Rtc Bus Stand Gidalur,Prakasam 523357","Nandyal","Andhra Pradesh","","9849944518","slhonda2015@gmail.com"
"Sri Sai Honda Showroom","Y Nageswar Reddy","Srisai Honda ,Servey Number 560A, Near Auto Nagar Allagadda 518543","Nandyal","Andhra Pradesh","","9666927068","srisaihonda.allagadda@gmail.com"
"Leela Honda","P. Narshima Murthy","Main Road, Pedda BodapalliJunction,  Narsipatnam  531116","Narsipatnam","Andhra Pradesh","7032919161","7799772628","leelahonda.nrpm@gmail.com"
"Laxmi Prassana Honda","Mr. Ramakrishna Udupa","Plot No.42, Srihari Nagar, Mini Bye-Pass,Nellore, Andhra Pradesh 524003","Nellore","Andhra Pradesh","","9849138802","aaraautocorp@gmail.com"
"Sathish Honda","Satish","Satish Honda,D.No: 5/79,Near Rtc Depot,Main Road,Atmakur,Nellore 524322","Nellore","Andhra Pradesh","","8977770508","Satishhondaatmakur@gmail.com"
"Shirdisha Honda","Mr. Konda Niranjan","24/2/733  Ram Nagar Dargamitta,  Nellore. A.P. 524003","Nellore","Andhra Pradesh","","9848602345","shirdisha_honda@yahoo.com"
"Shirdisha Honda","Niranjan Reddy","Opp Shanthi Nagar,Gnt Road,Kavali-524201 524201","Nellore","Andhra Pradesh","","9848602345","shirdisha_honda@yahoo.com"
"Sri Ram Honda","K.Lokanatha Raju","Gnt,(Near Lic Office), Naidupet, Spsr Nellore Dist, A.P. 524126","Nellore","Andhra Pradesh","","9440187908","sriramhonda.naidupet@gmail.com"
"B V S Honda","B.V.Subrahmanyam","Sy 372/1, Opp To Satyanarayana Swamy Temple, Nellore Road, Pamuru, Prakasam Dt, Andhra Pradesh 523108","Ongole","Andhra Pradesh","","9440924525","Bvshonda2015@Gmail.Com"
"Gayathri Honda","Srinivas Reddy","Gayatri Motors,  Kg Road,Dornala Prakasam District, 523331 523331","Ongole","Andhra Pradesh","","8688322256","gayathrimotorsd@gmail.com"
"Lakshmi Honda","Chandrashekara Babu","771/4, Podli Road, Darsi, Prakasam - 523247 523247","Ongole","Andhra Pradesh","","9703661547","lakshmihondadarsi@gmail.com"
"Pavan Honda","G Pavan Kumar","Pavan Honda,Opp Icici Bank,O V Road,Kanigiri,Prakasham 523230","Ongole","Andhra Pradesh","","7729912829, 8402272829","pavanhonda21114@gmail.com"
"Pioneer Honda","Mr. Gowtham Madala","D No 8/542(B),Opp:Police Parade Grounds,By-Pass Road Ongole 523001","Ongole","Andhra Pradesh","","9550225795","poineerong@gmail.com"
"Pioneer Honda","Mr. Chennupati Srinivas Rao","Pioneer Honda, Hyerpet, Behind Vegetable Market, Chirala 523155","Ongole","Andhra Pradesh","","9550225795","poineerong@rediffmail.com
poineerong@gmail.com"
"Pioneer Honda","Mr. Chennupati Srinivas Rao","Pioneer Honda, Sainagar, Jawaharnagar Colony, Markapur Ph.No.08596-226655(Sales), 8500582695(Service) 523316","Ongole","Andhra Pradesh","","9550225795","poineerong@rediffmail.com
poineerong@gmail.com"
"Pioneer Honda","Mr. Chennupati Srinivas Rao","Pioneer Honda, O V Road, Kandukur Ph.No.08598-221113(Sales), 221114(Service) 221114","Ongole","Andhra Pradesh","","9550225795","poineerong@rediffmail.com
poineerong@gmail.com"
"S R Honda","S.V.K. Praveen Kumar","S. No. 199, Near Bus Stand, Cumbum - Prakasam - 523333 523333","Ongole","Andhra Pradesh","","8885886070","srmotorscbm.honda@gmail.com"
"Sai Prasannanjaneya Honda","Ananth Reddy","Sai Prasannanjaneya Motors,Vinkonda Road,Kurichedu Prakasam Distict- 523304      523304","Ongole","Andhra Pradesh","","9908044773","saiprasannanjaneyahonda@gmail.com"
"Sri Varasiddi Honda","Jithender N","Door No 8/121, Main Road, Podili, Prakasam 523240 523240","Ongole","Andhra Pradesh","","9912703799","varasiddihonda@gmail.com"
"Venkatasai Honda","A.Mohana Krishna","D.No-1/89,N.R.T.Road, Kothadamavari Palem, Addanki 523201","Ongole","Andhra Pradesh","","9640293333","venkatasai.honda@gmail.com"
"Lakshmi Shanti Honda","Adhi","D.No 6-2/1, Main Road P Gannavaram  533240","P Gannavaram","Andhra Pradesh","9666290111","9356665555","sandhyadi888@gmail.com"
"Lalitha Honda","Viswanath","Lalitha Honda, Survey No : 43/2, Opp. Bus Complex, Main Road, Palakonda 532440","Palakonda","Andhra Pradesh","9989769583","9492770556","lalithahondaplkd@gmail.com"
"Premium Honda","A.Vishnu","Premium Honda, #193-1, Near D.S.P. Office, Anantapur Road, Penukonda, Anantapur District, Andhra Pradesh. 515110","Penukonda","Andhra Pradesh","","7893592800","penukondapremiumsales@gmail.com"
"Santosh Honda","Kalyan","Opp: Sitara Restarunt,Hyderabad Road, Piduguralla 522413","Piduguralla","Andhra Pradesh","","9177376798","santoshhondapdl@gmail.com"
"Jayalakshmi Honda","N.Rajesh Kumar","Jayalakshmi Honda,Opp Current Office,Main Road,Ponnur.  522124","Ponnur","Andhra Pradesh","9614955555","9618610333","jayalakshmibikes@gmail"
"Sree Amogha Honda","B.Ravindranath reddy","Beside vengamamba school,badvel Road,Porumamilla 516193","Porumamilla","Andhra Pradesh","9246941351","9491426059","sreeamoghahondaascpml@gmail.com"
"M R Honda","Mr. Sandeep Kumar P","Sy.No:169/1,Mydukur Road,Proddatur 516360","Proddatur","Andhra Pradesh","08564-256799","8886668311","mrhondaproddatur@gmail.com"
"M R Honda","Mr.M.Mahendra Reddy","Sy.No: 403-B,Opp.Hp Petrol Pump, Tadipatri Road, Jammalamadugu 516434","Proddatur","Andhra Pradesh","","8886668311","mrhondaproddatur@gmail.com"
"M R Honda","Praneel","Opp reliance petrol bunk, kadapa road,pulivendula 516390","Pulivendula","Andhra Pradesh","8886668330","8886668330","mrhondaproddatur@gmail.com"
"My Honda","Mr. Mr. Mallikarjun  Rao Dhamacharla","D.N. 14-137,Pidigoyyi Panchayat, Vl Puram, Near Rtc Complex, Morumpudi Road, Rajahmundry 533103","Rajahmundry","Andhra Pradesh","","8897934567","JMRAUTOMOTIVE@GMAIL.COM"
"My Honda","D Mallikarjuna Rao","Sadanala Complex Nh-5 Road, Opp Hero Showroom Ravulapalem 533238","Rajahmundry","Andhra Pradesh","","9440100999","jmrautomotive@gmail.com"
"Shriram Honda","Gopalakrishna","Opp Venkateswara Function Hall,Mainroad,Yeleswaram,East Godavari 533429","Rajahmundry","Andhra Pradesh","","9866122339","gopibodireddi@gmail.com"
"Sree Rama Sai Honda","Sai Suresh Pilla","D.No 1-440,Sree Rama Sai Honda,Canal Road,Near Hp Gas,Anaparthy,East Godavari 533342","Rajahmundry","Andhra Pradesh","","9440161997","saisureshpilla@yahoo.co.in"
"Sri R K Honda","Mr. Venkat. Immanni","6-16-1, Dharwada Street, Near Kotipalli Bus Stand, 533101","Rajahmundry","Andhra Pradesh","0883-2424117, 6666777","7799677996","srirkhonda@yahoo.co.in"
"Sri R K Honda","Mr.Bulli Venkata Rao Immanni","3-109, Main Road, Opposite Sbi,Korukonda, East Godavari , Andhra Pradesh-533289 533289","Rajahmundry","Andhra Pradesh","","7799677996","srirkhonda@yahoo.com"
"Sri R K Honda","Mr.Bulli Venkata Rao Immanni","10/37, Balaji Complex, Nh-16 Road, Jaggampeta, East Godavari, Andhra Pradesh-533435 533435","Rajahmundry","Andhra Pradesh","","7799677996","srirkhonda@yahoo.com"
"Srija Honda","Edupuganti Satish","4-1-40,Opp Indian Bank,Main Road,Mandapeta 533308","Rajahmundry","Andhra Pradesh","","9550228228","sathishchoudary77@gmail.com"
"Srinivasa Honda","Shivaji","Beside Rtc Complex, Kakinada Road, Ramachandrapuram,East Godavari - 533255 533255","Rajahmundry","Andhra Pradesh","","8885201752","srinivasahonda.rcpm@gmail.com"
"Lalitha Honda","Narendra Naidu","# 61, Beside Amrutha Hospital, Srikakulam Roam, Rajam, Srikakulam District. 532127","Rajam","Andhra Pradesh","9989769562","9989769562","lalithaahonda@gmail.com"
"Bhavani & Girish Honda","Mr. Madhu Rao","D.No:16-3-119,Gujarathi Peta,Srikakulam 532005","Srikakulam","Andhra Pradesh","","9666918923","trishamotors@gmail.com"
"Bhavani & Girish Honda","Ms.Pushpalata Rajpal","Rajam, Besides Hp Petrol Bunk, Srikakulam Road, Rajam 532127","Srikakulam","Andhra Pradesh","","9848156070","trishamotors@gmail.com"
"Bhavani & Girish Honda","Ms.Pushpalata Rajpal","Palasa, Opp.Chaitanya School, Old Nh-5 Road, Palasa 532221","Srikakulam","Andhra Pradesh","","9848156070","trishamotors@gmail.com"
"Lalitha Honda","Mr. Pradeep","S.No:287/9,Patrunivalasa Village, P 532001","Srikakulam","Andhra Pradesh","","","lalithaahonda@gmail.com"
"Pvk Honda","Tankala Goutam","Polaki Junction, Gt Road,  Narasannapeta-532421 532421","Srikakulam","Andhra Pradesh","","9885550068","tankalaarjun@gmail.com"
"Sri Venkateswara Honda","Rama Rao","Near Rtc Complex, Main Road, Ichchapuram-532312 532312","Srikakulam","Andhra Pradesh","","8277151090","rama8348@gmail.com"
"Sai Keerthi Honda","Kesarapu Suresh Kumar Reddy","Beside APS RTC Bus stand ,GNT Road ,Sulluepta 524121","Sullurpeta","Andhra Pradesh","9618093399","9618093399","saikeerthihondasullurpeta@gmail.com"
"Raju Honda","Thota Raju","1-43/C, Near Sunkarapalem Bypass, Sunkarapalem, Tallarevu Mandal, East Godavari, Andhra Pradesh  533464","Sunkaranpalem","Andhra Pradesh","9573734999","9573734999","rajuhonda03@gmail.com"
"Raju Honda","Thota Raju","1-43/C, Near Sunkarapalem Bypass, Sunkarapalem, Tallarevu Mandal, East Godavari, Andhra Pradesh  533464","Sunkaranpalem","Andhra Pradesh","9573734999","9573734999","rajuhonda03@gmail.com"
"Vishnu Honda","Rafi","7-44-285, Main Road,  Tagarapuvalasa  531162","Tagarapuvalasa","Andhra Pradesh","96660 73999","96660 73999","salesvishnuhonda@gmail.com"
"Vijayalaxmi Honda","Mr. Venkata Ramesh Pothumarthi","Lalitha Avinash Towers, Society Road,Be Side Raymond Showroo,Tanuku,West Godavari 534211","Tanuku","Andhra Pradesh","","9849995302","vijayalakshmihonda@gmail.com"
"Vijayalaxmi Honda","Mr.Pothumarthi Venkata Ramesh","Near Lakshmi Narayana Theater,Tanuku Road,Tadepalligudem West Godavari Distic-534101 534101","Tanuku","Andhra Pradesh","","9849995302","vijayalakshmihonda@gmail.com"
"Vijayalaxmi Honda","Mr.Pothumarthi Venkata Ramesh","D.No:14-2-15/8,Nandamuri Road,Opp Muncipal High School,Kovvuru,West Godavari Distic-534350 534350","Tanuku","Andhra Pradesh","","9849995302","vijayalakshmihonda@gmail.com"
"Vijayalaxmi Honda","Mr.Pothumarthi Venkata Ramesh","Neggipudi,Penumantra (M),Canal Road,Penugonda,West Godavari Distic-515110 515110","Tanuku","Andhra Pradesh","","9849995302","vijayalakshmihonda@gmail.com"
"Vijayalaxmi Honda","Ragu","D.No 2-1-53/2, Yarnagudem Road, Nidadavolu 534301","Tanuku","Andhra Pradesh","","8121814267","vijayalakshmihondadd@gmail.com"
"Trisha Honda","Hari Babu K","Trisha Honda ,  Opp New Police  Station,Main Road Tekkali. 532201","Tekkali","Andhra Pradesh","9640940975/08942-244155","9640940940","trishahondasales@outlook.com"
"Pranav Honda","Mr. Sridhar Namburu","2-1-69 Shivaji Chowk Gandhinagar 522201","Tenali","Andhra Pradesh","","9866378899","pranavmotorshonda@gmail.com"
"Pranav Honda","Sridhar Namburu","11-16-98/1, Nizampatnam Road, Repalle - 522265 522265","Tenali","Andhra Pradesh","","9866378899","pranavmotorshonda@gmail.com"
"Kun Honda","Mr. Umaapathy","Survey No . 219/1 Door No. 16-257, Panagal Road, Srikalahasti 517640","Tirupati","Andhra Pradesh","","9505504961","kunhondatirupathi@hotmail.com"
"Kun Honda","Mr. Uppuswamy Arun Kumar","19-3-10/D1,Badri Nagar,Renigunta Road,Tirupathi.Chittoor Dist. 517501","Tirupati","Andhra Pradesh","","9840873170","kunhondatirupathi@hotmail.com"
"Sagar Honda","Mr. Bandaru Saagar","Door No 9-66/15C,New Maruthi Nagar,Air Bye Pass Road,M R Palli Village,Tirupati,Andhra Pradesh 517502","Tirupati","Andhra Pradesh","","9000434445","sagarhonda2013@yahoo.co.in"
"Sagar Honda","Mr.Saagar Bandaru","Plot No 4/14, Narayanavanam Road, Opp To Srs College, Puttur - 517583 517583","Tirupati","Andhra Pradesh","","9391832808","sagarhonda2013@yahoo.co.in"
"Sagar Honda","Mr.Saagar Bandaru","1-1353/16 Opp To R&B Guest House, Tirupati Road - Piler - 517214 517214","Tirupati","Andhra Pradesh","","9391832808","sagarhonda2013@yahoo.co.in"
"Sri Hari Hara Honda","Ravi","Sri Hari Hara Automobiles,S.No44/A ,Padmavathi Nagar,Chennai Road,Varadaiahpaleam,Chitoor 517541","Tirupati","Andhra Pradesh","","9949932899","ravi.hondavpm@gmail.com"
"Srikara Honda","V V Giri","3-4-40, Opp Fire Office, GNT Road 533401","Tuni","Andhra Pradesh","9490708869","9490708869","tuni.srikara@gmail.com"
"Siva Honda","A.Rajni Kanth","Opp.Canara Bank. Kuppam Road, V.Kota 517424","V.Kota","Andhra Pradesh","","9052699799","siva.honda@yahoo.com"
"Aishwarya Honda","Seshagiri Krishna","#10/33, Nuziveedu Road, Vissannapeta,Krishna 521215","Vijayawada","Andhra Pradesh","","9000866319","aishwaryahonda@gmail.com"
"Anvita Honda","Shyam Prasad","40-1-57, Beside Trendset Mall, Benz Circle, M.G.Road, Vijayawada 520010","Vijayawada","Andhra Pradesh","0866-6628333,9225 9225 99","7337000788","anvitahonda@gmail.com"
"Apple Honda","Gummadi Nagendra Babu","Sri Lakshmi Nilayam Dr No 44-189(1) Oppsri Chaitanya  Techno School Raithupet,Nandigama 521185","Vijayawada","Andhra Pradesh","","9441028324","applehonda123@gmail.com"
"Leo Honda","Ayyapu Sujana Saradhi","No 232/1, Vtps Road, Ibrahimpatanam-521456 521456","Vijayawada","Andhra Pradesh","","9848686966","leohondaibm@gmail.com"
"Mithra Honda","Madhusudana Sharma","Rs 162/1C3,,Narayananagar,Nuzvid By Pass ,Mylavaram 521230","Vijayawada","Andhra Pradesh","","9440893263","mithrahonda@gmail.com"
"Mithra Honda","Mr. Madhusudhana Sarma Maganti","D.N0. 32-26-126/11, Opp. Bsnl Building, Eluru Road, Machavaram, Vijaywada, A.P. 520004","Vijayawada","Andhra Pradesh","","8297557144","madhumaganti@gmail.com"
"Mithra Honda","Madhusudana Sharma","D.No 6-839,Sriramrajanna Complex Opp: Bank Of India Jaggaiahpet 521175 521175","Vijayawada","Andhra Pradesh","","9440893263","mithrahonda@gmail.com"
"Sri Santosh Honda","Mr.Srikanth Cuhukapalli","Opp: Ravindra Bharathi School, Ashok Nagar, Kanuru, Krishna Dt. 520007","Vijayawada","Andhra Pradesh","","9642768999","santoshautomotivesvja@gmail.com"
"Sri Santosh Honda","Mr.Srikanth Cuhukapalli","Opp:Bus Stand, Main Raod, Eluru Raod, Gannavaram, Krishna Dt. 521101","Vijayawada","Andhra Pradesh","","9642768999","santoshautomotivesvja@gmail.com"
"Sri Santosh Honda","Mr.Sridar","14/3 Main Road,Kankipadu,Vijayawada , Krishana Dt 521151","Vijayawada","Andhra Pradesh","","9949422233","santoshautomotiveskkp@gmail.com"
"Sri Santosh Honda","Mr. Srikanth Chukkapalli","Opp: Ntr Health University 520004","Vijayawada","Andhra Pradesh","","9642768999","sree7788@yahoo.com"
"Sri Shivani Honda","P Lokesh Kumar","Door No:7-316 Bus Stand Road,Nizvidu,Krishna Dist 521201","Vijayawada","Andhra Pradesh","","9985127999","sivanihonda@gmail.com"
"Srispandana Honda","Kalyanam Venkateswara Rao","11-165/1, Main Roadd, Kanchikacherla, Krishna. 521180","Vijayawada","Andhra Pradesh","","9848781691","srispandanahonda@gmail.com"
"Vihari Honda","AVS Prakash","43-2-61/1,Daba Kottu Center,Ajithsingh Nagar,Vijayawada, Krishna,Andhra Pradesh. 520015","Vijayawada","Andhra Pradesh","9703247365","9703218822","viharihonda@gmail.com"
"Hamsa Honda","A.Anusha","#39-6-71/3/11-1,Mourya Chambers,Beside Passport Office,Murali Nagar,viskhapatnam  530007","Visakhapatnam","Andhra Pradesh","0891-2784449","8008924567","hamsahonda@gmail.com"
"Hamsa Honda","R.Satyanarayan  Raju","Tagarapuvalasa 531162","Visakhapatnam","Andhra Pradesh","","8008555226, 8008924567","hamsahonda@gmail.com"
"Hamsa Honda","R.Satyanarayan  Raju","Nad ( Butchhi Rajupalem ) 530027","Visakhapatnam","Andhra Pradesh","","8008555226, 8008924567","hamsahonda@gmail.com"
"Hamsa Honda","G Mohan","Seshadri Complex, Anakapalli Road , Sabbavaram  531035","Visakhapatnam","Andhra Pradesh","8106034646","8106034646","hamsa.sabbavaram@gmail.com"
"Jupiter Honda","Raghu Ram","Do No.39-15-132, Lic X Road, Dabagardens, Visakhapatnam  530 020","Visakhapatnam","Andhra Pradesh","0891 2712777 / 2712799","9849124212","jupiterhonda@gmail.com / jupiterhonda@yahoo.com"
"Leela Honda","Mr. Mohan Madhur Thota","Near By-Pass Road Jn,Pudimadaka Road,Anakapalli 531001","Visakhapatnam","Andhra Pradesh","","8924226699, 9908727747","leelahonda.akp@gmail.com"
"Leela Honda","Mr.Mohan Madhur Thota","Leela Honda, Kgk Complex, Yelamanchili 531055","Visakhapatnam","Andhra Pradesh","","8790911338","mm.thota@gmail.com"
"Leela Honda","Mr.Mohan Madhur Thota","Chodavaram, Opp. Forest Dept. Anakapalle Road, Chodavaram-531036 531036","Visakhapatnam","Andhra Pradesh","","8790911338","mm.thota@gmail.com"
"Leela Honda","Mr.Mohan Madhur Thota","Leela Honda, Gvr Nagar ,Opp.Gms School,Payakaraopeta, Visakhapatnam  531126","Visakhapatnam","Andhra Pradesh","","8790911338","mm.thota@gmail.com"
"Radhe Shyam Honda","K Chaitanya","Beside Annapurna Theater, Towards Duvvada Railway Station, Kurmannapalem, Visakhapatnam  530046","Visakhapatnam","Andhra Pradesh","9603378672","9246188887","service.kurmannapalem@gmail.com"
"Radhe Shyam Honda","Mr.Krishnam Raju","Beside Essar Petrol Bunk, Sriharipuram, Visakhapatnam - 530011. 530011","Visakhapatnam","Andhra Pradesh","","9704021666","radheshyamhonda2@gmail.com"
"Radhe Shyam Honda","Mr.Krishnam Raju","Cenimahal Junction, Beside Venkata Swetha Weigh Bridge, Atchuthapuram Road, Parawada, Visakhapatnam - 531020 531020","Visakhapatnam","Andhra Pradesh","","9704021666","radheshyamhonda2@gmail.com"
"Radhe Shyam Honda","Mr.Krishnam Raju","Beside Electrical Substation, Anakapalli Road, Sabbavaram - 531035 531035","Visakhapatnam","Andhra Pradesh","","9704021666","radheshyamhonda2@gmail.com"
"Radhe Shyam Honda","Mr. D Srinivasa Varma","#1-1-6, Nh5 Road, Beside Pump House,Akkireddypalem, Bhpv Post, Gajuwaka 530012","Visakhapatnam","Andhra Pradesh","","9704021666","dantuluri_varma@yahoo.com"
"Radhe Shyam Honda","Mr.Krishnam Raju","2-5/5, Opp: Bus Stop, Sujathanagar, Pendurthi, Visakhapatnam - 530051. 530051","Visakhapatnam","Andhra Pradesh","","9704021666","radheshyamhonda2@gmail.com"
"Vishnu Honda","Mr. N. Ranga","Opp. Shivalayam, Main Road, Narsipatnam 531116","Visakhapatnam","Andhra Pradesh","","9949931444","vishnuhonda@gmail.com"
"Vishnu Honda","Mr. N. Ranga","Near Pepsi Godown, Main Road, Madhurawada 530048","Visakhapatnam","Andhra Pradesh","","9949931444","vishnuhonda@gmail.com"
"Vishnu Honda","Mr. Ranga Nagubandi","D No:9-5-28/A,Shivajipalem Busstop,Isukathota,Nh-5 530017","Visakhapatnam","Andhra Pradesh","","9949931444","rangakodad@gmail.com"
"Hamsa  Honda","Mahesh P","Hamsa  Honda,D No 2-5/5,Opp BRTS Bus Stop,Sujatha Nagar,Pendurthi,Vizag  530051","vizag","Andhra Pradesh","7674822226","7674822226","hamsa.sujathanagar@gmail.com"
"Dadi Honda","Mr. Girish","A-5, Industrial Estate Of Apiic Ltd. V.T. Agraharam, Vizianagaram 535004","Vizianagaram","Andhra Pradesh","0891-3255891","9848521659","dadihonda@gmail.com"
"Dadi Honda","Mr.D.Girish Kumar","Dadi Honda,Opp:Santoshimatha Temple, Bridge Down , Vizag Road, Bobbili-535558 535558","Vizianagaram","Andhra Pradesh","","9848521659","dadihonda@gmail.com"
"Dadi Honda","Mr.D.Girish Kumar","Dadi Honda, Beside Sai Ram Degree Colllege,By Pass Road, Belgam Parvathipuram-535501 535501","Vizianagaram","Andhra Pradesh","","9848521659","dadihonda@gmail.com"
"Radhika Honda","Varaprasad","8-100 Chilaka Apparao Building , Mro Office, Kothavalsa, Vizianagaram -  535183  535183","Vizianagaram","Andhra Pradesh","","8978965626","radhikahondakv@gmail.com"
"Sri Syamala Honda","Mr.G Ramesh","21-44-1 Dandigam Road ,Salur 535591","Vizianagaram","Andhra Pradesh","","8099886633","syamala.honda@gmail.com"
