Dealer Name,Contact Person,Address,City,State,Contact 1,Contact 2,Email
Nihal Honda,Satinder singh Bhatia,Main Road Ambagarh Chowki 491665,Ambagarh Chowki,Chattisgarh,,8719911000,nihalhonda4@gmail.com
Jaswani Honda,Mr. Vinod Jaswani,"Opp. Reliance Petrol Pump,Kharsiya Road 497001",Ambikapur,Chattisgarh,,,
Kp Honda,Vinod Jaiswal,"Near Tehsil , Banaras Road , Wadrafnagar 497225",Ambikapur,Chattisgarh,,9826881578,kphonda85@gmail.com
Maa Mahamaya Honda,Ajay Kumar,"Maa Mahamaya Automobiles, Main Road Rajpur,Ambikapur 497118",Ambikapur,Chattisgarh,,9424259688,ajayraj@rediffmail.com
Mahamaya Honda,Mr. Rajesh Agarwal,"Manendragarh Road, Ambikapur 497001",Ambikapur,Chattisgarh,,9826119851,mahamaya_honda1@rediffmail.com
Mahishree Honda,Vinod Gupta,"Main Road , Near Bus Stand , Balrampur  497119",Ambikapur,Chattisgarh,,8085554030,Mahishreehondabpur@gmail.com
,,NA 497111,Ambikapur,Chattisgarh,,,
Shri Om Honda,Shashi Kant,Shri Om Honda Ambikapur Main Road Surajpur 497229,Ambikapur,Chattisgarh,,9826774035,
Vikas Honda,Vikas Gupta,"Chandni Chowk,Ramanujgang,Ambikapur 497220",Ambikapur,Chattisgarh,,9926158656,
Pramila Honda,Sandeep Chakradhari,"Manendragarh Road, Odgi 497335",Baikunthpur,Chattisgarh,07836-232512,7000405012,pramilaautowheels@gmail.com
Baba Honda,Nand Kishore Sinha,Dhamtari Road 491227,Balod,Chattisgarh,,9827936712,babasatguru20@gmail.com
Sapan Honda,Sapan Jain,Sapan Honda Main Road Gunderdehi 491223,Balod,Chattisgarh,,8959410000,sapanjain9001@gmail.com
Shri Shubh Honda,Mr. Atul Jain,"Ward No.-27,Chandeni Bhata, Main Road Dalli Rajhara 491228",Balod,Chattisgarh,,,
Kiran Honda,,"Khasra No. 58/1, Mauza Gram Kher Ghata 493332",Baloda Bazar,Chattisgarh,,9575577555,kiranhondabb@gmail.com
Kiran Honda,Ashish Verma,"Tiranga Road,Opp. Electricity Office,Bhatapara,Balodabazar 493118",Baloda Bazar,Chattisgarh,,9589898921,kiranhondabyt@outlook.in
Kochar Honda,Mr Lalit Kochar,"Near Hp Petrol Pump ,Bemetara Road,Berla 491332",Bemetara,Chattisgarh,,8839862200,lalitkochar0007@gmail.com
Sri Rama Honda,Mr. Gautam Motwani,"Sunder Nagar  ,Raipur Road ,Bemetara 491335",Bemetara,Chattisgarh,,9406094060,honda.bemetara@gmail.com
#N/A,Mr.,"Beside Hotel Lovely Palace, Opp. Bhilai I.T.I. Near Power House   Chowk, New Hkursipar, G.E. Road Bhilai 490023",Bhilai,Chattisgarh,,,
Aan Honda,MUDIT DESHMUKH,"Plot no A7 & A8 Veersavarkar Market ,Power House ,GE Road Bhilai  490023",Bhilai,Chattisgarh,7884013336,9981085909,aanhondabhilai@gmail.com
Anaal Honda,Mr. Tarun Chawla,"Block No-18, Plot No-1 To 8 & 10, Dakshin Gangotri, Supela Chowk, Bhilai 490023",Bhilai,Chattisgarh,"0788-4032291, 2296444",9826169333,tarunhonda@hotmail.com
Ganpati Honda,Piyush Bhaghel,"Virat  Nagar Dumardih,Utai,Durg 491107",Bhilai,Chattisgarh,,8109143998,
Harnoor Honda,Amardeep Singh Bhatia,"Harnoor Honda, Near Bus Stand, Patan,Durg 491111",Bhilai,Chattisgarh,,9826774400,
Dev Honda,Vijay Sahoo,"Main Road, New Bus Stand,Pendra 495117",Bilaspur,Chattisgarh,,9752998221,sahumotors1@gmail.com
Dream Honda,Mr. G. K. Jaiswal,"N.H.130, Raipur Road Flyway, Maharana Pratap Chowk 495001",Bilaspur,Chattisgarh,,9926909995,dreamhonda2@gmail.com
Dream Honda,Karan Jaiswal,Dream Honda Beside Nature City Mangla Sakri Road Uslapur Bilaspur 495001,Bilaspur,Chattisgarh,9516661444,9516661444,dramhonda2@gmail.com
Mansi Honda,Sachin Saluja,Main Road Near Canal Lormi 495115,Bilaspur,Chattisgarh,,9685010000,Sac13Sh13.2@Gmail.Com
Maosaji Honda,Mr. Nishant Khandelwal,"Near Sao Dharmshala, 495001",Bilaspur,Chattisgarh,,9981547555,maosajihonda@yahoo.com
Maosaji Honda,Nishant Khandelwal,Maosaji Honda Jagmal Chowk Dayalband Bilaspur(C.G) 495001,Bilaspur,Chattisgarh,"07752-417070,417171",9109690484,masoajihonda@yahoo.com
Prakash Honda,Prakash Jaiswal,"Prakash Motors, Jai Stamb Chowk Kargi Road,Kota,Bilaspur 495112",Bilaspur,Chattisgarh,,9826417995,prakashj@gmail.com
Rahul Honda,Rahul,"Bilaspur Main Road Masturi, Bilaspur 495551",Bilaspur,Chattisgarh,,9752112196,rahulhonda@gmail.com
Shri Shyam Honda,Manoj Goyal,"Near Gaurella Thana,Pendra Road 495117",Bilaspur,Chattisgarh,,9424159600,shrishyamhonda2014@gmail.com
V.M.Honda,Mr. Tarkeshwar Mishra,Near Sukhnandan Hospital Bilaspur Road Mungeli 495334,Bilaspur,Chattisgarh,,9329307800,Vmhondamungeli@Yahoo.In
Sai Honda,Ankit Rajpal,Sai Honda Mandi  Road Near State Bank Bilha 495224,Bilha,Chattisgarh,9827138322,9827138322,saihondabilha@gmail.com
Balaji Honda,Naresh Kela,"Balaji Auto ,Kurud ,Distt. Dhamtari,Ct 493770",Dhamtari,Chattisgarh,,9424204602,Narrukela@Gmail.Com
Dewangan Honda,Mr.Mansukh Ram Dewangan,Kurud Road Near Ajay Fuels Magarlod 493662 493662,Dhamtari,Chattisgarh,,"8839075842, 9098136447",dewanganhondamagarlod@gmail.com
Disha Honda,Sujit Saha,"Near Hp Petrol Pump,Pakhanjore 494776 494776",Dhamtari,Chattisgarh,,9406453860,sujitsaha13@gmail.com
Nahta Honda,Mitesh Aggarwal,"In Front Of Sbi Bank,Pihawa Road,Nagri 493778 493778",Dhamtari,Chattisgarh,,9827900750,rajatnahta@gmail.com
Nitesh Honda,Mr Bhagwat Prasad Sahu,"Main Road, Bhakara 492170",Dhamtari,Chattisgarh,,9907975628,Nitesh123auto@gmail.com
Shri Shyam Honda,Mr. Mitesh Agarwal,Shyamkunj Raipur Road Dhamtari 493773,Dhamtari,Chattisgarh,,9827900750,miteshagrawal22483@yahoo.com
Agrawal Honda,Sunil Agrawal,Berla Road Ahiwara 490036,Durg,Chattisgarh,,9300779778,agrawalmotorsahiwara@gmail.com
Dharmsheela Honda,Abhishek Dani,"Bematra Road , Dhamdha 491331",Durg,Chattisgarh,,8349666678,dharmsheelamotors0410@gmail.com
Raja Honda,Balvinder Singh Khurana,In Front Of State Bank Of India 491337,Durg,Chattisgarh,,9826067896,rajamotors013@gmail.com
Shree Balaji Honda,Manoj Sahu,"Nandini Road,Ward No. 5,Ganesh Nagar,Jamul,Bhilai, Durg 490024",Durg,Chattisgarh,,8871413096,shribalajihondajamul@gmail.com
Shree Sairam Honda,Mr.Manoj Batra,"Opp.Swaroop Talkies, Station Road ,Durg,Chhattisgarh 491001",Durg,Chattisgarh,"0788-4017246,4011245",7692009999,sairam_honda@yahoo.com
Siddhi Honda,Niresh Kumar Chandrakar,Durg Road Anda District-Durg Cg 491221,Durg,Chattisgarh,,98267-84984,siddhihonda101@gmail.com
Akash Honda,Akash Singh Rathore,"Jagdalpur Road,Sukma 494111 494111",Jagdalpur,Chattisgarh,,9424287457,akashmotors2016@gmailcom
Chattisgarh Honda,Abdul Mohsi Khan,"In Front Of Bami Talab,Raipur Road,Keskal 494331",Jagdalpur,Chattisgarh,,9993293467,cgmotors@gmail.com
Rishabh Honda,Nandu,Jagdalpur Main Road Kondagaon 494226,Jagdalpur,Chattisgarh,,9425590495,
Shri Dev Honda,Mr. Santosh Kumar Baidh,"In Front Of Indian Oil Petrol Pump,Raipur Road,Pharasgaon 494228",Jagdalpur,Chattisgarh,,9993861735,santoshmotors2014@gmail.com
Waheguru Honda,Mr. Jitender Ahluwalia,"Dalpat Sagar Road Moti Talab Para, 494001",Jagdalpur,Chattisgarh,,8435090001,waheguruhonda2007@gmail.com
Abdul Honda,Abdul Rafiq Khan,Baradwar Road Jaijaipur 495692,Janjgir,Chattisgarh,,9399914034,abdulhondajjp@gmail.com
Arav Honda,Alok Agarwal,"Main Road Seoni Narayan,Janjgir 495557",Janjgir,Chattisgarh,,8109955535,
Bhagwati Honda,Rajesh Kumar Tiwari,"Bhagwati Auto  , Azad Chowk , Akaltara,Janjgir 495552",Janjgir,Chattisgarh,,9425229083,
Deva Honda,Devanand Navratna,"Main Road Pamgarh,Janjgir 495554",Janjgir,Chattisgarh,,9617562841,Dnnavrathna1975@Gmail.Com
Ganpati Honda,Rahul Aggarwal,"Near Indian Oil Petrol Pump,Main Road,Dist-Janjgir 495687",Janjgir,Chattisgarh,,8817558820,rahuljindal_2007@yahoo.co.in
Gattani Honda,Mr. Anand Gattani,Near Nahar Pull Champa Road Janjgir 495666,Janjgir,Chattisgarh,,9425223210,gattanihonda@gmail.com
K.C Honda,Mr. Khoobchand Dewangan,Opposite Tvs Showroom Korba Road Champa 495671,Janjgir,Chattisgarh,,8319235702,kchonda@gmail.com
Maa Durga Honda,Bheshaj,"Mall Kharoda,Bus Stand,Road Sakti,Janjgir 495689",Janjgir,Chattisgarh,,9685927215,
Sateesh Honda,Sateesh Kumar Chandra,"Chandrapur Road, Dabhra 495688",Janjgir,Chattisgarh,,8889610690,skchandra.chandra10@gmail.com
Shree Balaji Honda,Sumit Agarwal,"Main Road Rahaud,Janjgir 495556",Janjgir,Chattisgarh,,9977311242,Sumit@Gmail.Com
Shubh Honda,Subash Agarwal,Korba Road 49559,Janjgir,Chattisgarh,,9575393989,shubhhonda13@gmail.com
Deonarayan Honda,Mr. Anand Gupta,"C/O Shanti Devi, 1070/1, 1072/1, Raigarh Road Jashpur 496331",Jashpur,Chattisgarh,,9425251702,anandhitvada@gmail.com
Shivnath Honda,Mr. Manish Gupta,"22/26, 22/30, Nh- 30, Tikrapara 494334",Kanker,Chattisgarh,,8720008800,Shivnathhonda@gmail.com
Pratha Honda,Mr. Ankit Agrawal,"Khasra No.536/4,536/24 Patwari Halka No.18 Raipur Road Kawardha 491995",Kawardha,Chattisgarh,,9479055007,agrawalankitbe@gmail.com
Danteshwari Honda,Mr. Rajeev Kapoor,"Khasra No.609/6, Sheet No.2 (Opposite Bus Stand,Main Road, Nh-30), District - Kondagaon, Chhattisgarh 494226",Kondagaon,Chattisgarh,,9826658096,rajeevkapoor.brgroup@gmail.com
Anand Honda,Vijay Anand Singh,"- Anand Automobiles , New Bus Stand, Near- Sbi, Katghora 495445",Korba,Chattisgarh,,9893542619,anandhonda.katghora@rediffmail.com
Ashwani Hnda,Avinash Singh,"Near Sbi Bank,Urga 495674",Korba,Chattisgarh,,9826138187,avinashtractors@gmail.com
Bharat Honda,Mhd. Halim,"Thekedar Mohalla,Bhilai Baar Road,Gevra Basti 495454",Korba,Chattisgarh,,9301001739,ictkorba@gmail.com
Jp Honda,Jagdish,"Jp Honda,College Chowk,Main Road 495446",Korba,Chattisgarh,,9826129114,jpauto007@gmail.com
Kamal Honda,Sanjay Kumar Modi,"Pali Road,Dipka,Dist. Korba 495452 495452",Korba,Chattisgarh,,9826288045,nimesh8249@gmail.com
Krishna Korba Honda,Mr. Sanjay Modi,"Modi Road, Korba 495677",Korba,Chattisgarh,,9630082161,krishnakorbahonda@gmail.com
Mahamaya Honda,Narayan Lal Gupta,"Near Gandhi Chowk,Main Road,Pali Korba 495449",Korba,Chattisgarh,,9424166028,mahamayaautopali@gmail.com
Vishal Honda,Mr.  Ashok Rishi,"68, Indira Commercial Complex P.H. Road, 495677",Korba,Chattisgarh,,9713022509,vishalkorba@rediffmail.com
Aryan Honda,Mr. Jasbeer Singh Bagga,"Near Trimurty Colony, Raipur Road,Mahasamund 493445",Mahasamund,Chattisgarh,,8120070000,aryan.honda1@gmail.com
Laxmi Honda,Sanjay,"M/S Laxmi Auto Main Raipur Road Basna,Raipur 493554",Mahasamund,Chattisgarh,,9755680672,laxmihondabsn@gmail.com
Pukhraj Honda,Manmeet Ahuja,Pukhraj Honda Ge Road Saraipali 493558,Mahasamund,Chattisgarh,,8889798000,meet.shoppe@gmail.com
Shree Ram Honda,Set Ram Sao,"Ward No.15, Nh.53,Main Road Pithora 493551",Mahasamund,Chattisgarh,,9644696854,setram1979@gmail.com
Shree Sai Honda,Bhupendra Singh,"Shree Sai Aotu Care ,Near Bpcl Petrol Pump ,Main Road ,Baghbara, Mahasamund. 493449",Mahasamund,Chattisgarh,,7697767777,bhupendrathakur7777@gmail.com
Harsh Honda,Manjeet,"Near Axis Bank, Station Road, Purani Basti, Manendragarh, Koriya  497442",Manendragarh,Chattisgarh,,9993883343,harshautomdgn@gmail.com
Shri Ram Honda,Ravindra Shrivastava,Infront Gayatri Temple Main Road Palari  493228,Palari,Chattisgarh,,9669999599,shriramhondapalari@gmail.com
Shri Banbhori Honda,Dilip Garg,"Kadampara, Near Bhairav Temple, Pratappur, Dist:- Surajpur, Chhattishgarh (CG) 497223",Pratappur,Chattisgarh,,8120806101,dilipgarg09@gmail.com
Akshat Honda,Alok Kesharwani,Raipur Road Sarangarh 496445,Raigarh,Chattisgarh,,9406353035,
Atul Honda,Thabiro Yadav,"Atul Automobiles,Near Grahmin Bank,Lailunga,Raigarh 496113",Raigarh,Chattisgarh,,9424188280,Atulautomobiles@Gmail.Com
Balaji Honda,Vivek Agrawal,"Opp, Gopal Rai Rice Mill Gaurav Path Road , Kharsia 496661",Raigarh,Chattisgarh,,9926123001,BALAJIHONDA628@GMAIL.COM
Dinesh Honda,Dinesh Kumar Goyal,Jashpur Road Pathalgaon Dist.-Jashpur C.G. 496118,Raigarh,Chattisgarh,,9993199987,dineshauto205@gmail.com
Harsh Honda,Sanjay Kumar Agarwal,Harsh Automobile Near Sbi Dharamjaigarh 496116,Raigarh,Chattisgarh,,9425573395,
Jindal Honda,Nandan Agarwal,"Jindal Honda Main Road Tapkara, Jashpur 496227 496227",Raigarh,Chattisgarh,,9406384666,
Mansharam Honda,Manoj Agrawal,"Main Road Kunkuri,Jashpur 496334",Raigarh,Chattisgarh,,8103798783,
Sharda Honda,Mr. Pankaj Agrawal,"Opp. Jute Mill Police Station, Sarangarh Road, Gaurav Path, Raigarh 496001",Raigarh,Chattisgarh,,9300473589,shardahonda@gmail.com
A City Honda,Mr.Kailash Khemani,"Near Mmi Hospital, Pachpedi Naka, Raipur 492006",Raipur,Chattisgarh,"0771- 2410913, 2410914",9826506000,cityhondaraipur@gmail.com
Agarwal Automobiles,Devendra Agarwal,"Main Road, Tilda 493114",Raipur,Chattisgarh,,9424200103,agrawalhonda@yahoo.com
Hemant Motors,Mrs Soma Bothra,"Hemant Motors,Rajdhani Road,Nayapara,Rajim. 493881",Raipur,Chattisgarh,,9826364444,hemant.honda@gmail.com
Bangani Honda,Bharat Bangani,"Near Dena Bank Main Road, Fingeshwar, Gariaband 493992",Raipur,Chattisgarh,,9425402966,bangani4@gmail.com
City Honda,Kailash Khemani,Bhatagaon Chowk Near Madrasi Hotel Ring Road No 1 Raipur 492013,Raipur,Chattisgarh,,8871646000,cityhondabhatagaon@gmail.com
Dev Honda,Ashish Sharma,"In Front Of Sp Office Raipur Road Gariaband,Gariaband 493887",Raipur,Chattisgarh,,9425525911,
G.K.Honda,Mr.Amar Parwani,Ground & 1St Floor (Sweet India Shop Buiding) Civil Line Motibagh Chowk Raipur 492001 492001,Raipur,Chattisgarh,,8120730003,admhmsi.gkm@geekay.co.in
G.K.Honda,Mr. Punit Parwani,"G.E. Road , Telebandha 492001",Raipur,Chattisgarh,,9826142444,parwani.amar@geekay.co.in
Grand Honda,Mr. Abhinav Rishi,"Main Road, Pandri Lodhi Para Chowk, Raipur 492001",Raipur,Chattisgarh,,9893307777,grand.bilaspur@gmail.com
Gurukripa Honda,Lucky,"Gurukripa Autowheels ,Nh-6 ,Mandir Hasaud ,Raipur 492101",Raipur,Chattisgarh,,9827892427,
Patel Honda,Ishwar Patel,"Opp. Indian Gas, Dhamtari Road,Abhanpur 493661",Raipur,Chattisgarh,,9009328660,welcomemotors.abh@gmail.com
R S Honda,Vinay Kr Sahu,"R S Motors ,Sejbahar ,Raipur 492015",Raipur,Chattisgarh,,9754123000,
V Shree Honda,Mr. Pradeep Chandrakar,"Laxmi Vihar Main Road Baihar,Arang Disst-Raipur 493441",Raipur,Chattisgarh,,9993908971,vshreehonda2017@gmail.com
Varun Honda,Mr. Raghuvendra Singh Thakur,"Opp. Anupam Garden, G.E. Road 492001",Raipur,Chattisgarh,0771-4005901/04,9009280000,gm@varunhonda.com
Vinod Honda,Ramesh Yadav,"Vinod Autocare, Rajim Road ,Panduka,Raipur 492109",Raipur,Chattisgarh,,9826820210,
Vishwanath Honda,Vishwanath Diwedi,"Sharee Vishwanath Motors Main Road Beergaon, Raipur 493221",Raipur,Chattisgarh,,7716050222,beergaon1991@gmail.com
Yash Honda,Manoj Kumar Sahu,Baloda Bazzar Road Dondekhurd District-Raipur Cg 493111,Raipur,Chattisgarh,,"9826146586, 8103558663",yashhondadondekhurd@yahoo.com
Gagan Autos,Guljeet Singh Chhabra,"Main Road, Dongargarh 491445",Rajnandgaon,Chattisgarh,,"756690114, 9425560030",gagan.honda@yahoo.in
Akshat Honda,Nitesh Singh,Kawardha Road 491881,Rajnandgaon,Chattisgarh,,9406534734,ashishkhairagarh@gmail.com
Anshdeep Honda,Mr.  Surendra  Bagga,Near Patidar Bhawan G.E.Road Rajnandgaon 491441,Rajnandgaon,Chattisgarh,,9425559359,anshdeep.motors@gmail.com
Ashirwad Honda,Mr. Seema Yadav,Chichola Road Chhuria  491558,Rajnandgaon,Chattisgarh,,9424157777,ashirwadhonda@yahoo.com
Famous Honda,Sunil Jain,"In Front Of Pnb , Kawardha Road,Gandai 491888",Rajnandgaon,Chattisgarh,,9770984999,famousgandai@gmail.com
Manraj Honda,Mr. Kulwantsingh Bhatia,Manraj Honda Shakti Grih Nirman Samiti Nagpur Naka G.E. Road Rajnand Gaon (C.G.) 491441,Rajnandgaon,Chattisgarh,,9827174999,manrajhonda@yahoo.com
Rakesh Honda,Mr. Ashok Kumar Lodha,Near Hp Petrol Pump Main Road Dongargaon  491661,Rajnandgaon,Chattisgarh,,9340181266,rakeshhonda2430@gmail.com
Shri Balaji Honda,Mr. Gagan Gupta,"Near Sbi, Kawardha Road, Pandaria 491559",Rajnandgaon,Chattisgarh,,7049778888,Shreebalajihondapandaria.com
Shri Radhey Honda,Prem Kishan Srivas,"Near Bp Petrol Pump,Kawardha Road,Chhuikhadan 491885",Rajnandgaon,Chattisgarh,,9406069878,shreeradhe1977@gmail.com
Akash Honda,Akash Honda,"Gaytri Mandir Chowk, Sitapur, 497111",Sitapur,Chattisgarh,,9617378301,akashhonda1@gmail.com
