Dealer Name,Contact Person,Address,City,State,Contact 1,Contact 2,Email
Absolute Honda,Puneet Bhatia,"L-385 Mahipalpur Extension, Village Mahipalpur, Near Vishal Mega Mart, New Delhi 110037",Delhi,Delhi,1140470000,9811625338,absolutehonda@gmail.com
Celebrate Honda,Mr. Gaurav Bhatia,Plot No. 27 Industrial Area Patparganj 110051,Delhi,Delhi,,9810035499,celebratehonda@gmail.com
Celebrate Honda,Gaurav Bhatia,"X-1720, Rajgarh Colony Jheel Scooter Market  110031",Delhi,Delhi,,8448131114,jheel.celebratehonda@gmail.com
Dhingra Honda,Rajesh Khurana,"35/18, Main Rohtak Road,Near Metro Pillar no 415, Nangloi Extension 110041",Delhi,Delhi,9871400045,9871400045,dhingraautomobile_honda@yahoo.co.in
Dhingra Honda,Rakesh,"B-277, Industrial Area, Mangolpuri Phase-1  110083",Delhi,Delhi,9870200155,9870200155,dhingraautomobile_honda@yahoo.co.in
Dhingra Honda,Ajay Suri,"RR-25, Mianwali Nagar,New Rohtak Road, PeeraGarhi  110087",Delhi,Delhi,011-41400000,9870200151,Dhingraautomobile_honda@yahoo.co.in
Dhingra Honda,Vikas,"Plot No. D - 05, OM vihar ram nagar, main najafgarh road, opp. Metro piller no-711, uttam nagar 110059",Delhi,Delhi,9717455885,9717455885,dhingraautomobile_honda@yahoo.co.in
Excel Honda,Mr. Vikas Popli,"Wh-15 Mayapuri Industrial Area, Phase -1, New Delhi 110064 110064",Delhi,Delhi,,9811025879,excelhondaindia@gmail.com
Excel Honda,Mr. Vikas Popli,20 Rama Road Delhi Delhi India 110015,Delhi,Delhi,,9810509586,excelhondaindia@gmail.com
Excel Honda,Nikhil,"28 Raja Garden, Opposite Metro Pillar 376, New Delhi  110015",Delhi,Delhi,01145528400 / 01145528500,9811096676,excelhondaindia@gmail.com
Globus Honda,Sanjay Kumar,"A10,Maharan Pratap Enclave Near Ram Mandir,Ranibagh,New Delhi 110034",Delhi,Delhi,"011-45091549,8826993157",8826993157,sales@globushonda.com
Globus Honda,Vishal Bandhan,"A-22,Gujrawala Town Part -1,Main G.T Karnal Road, New Delhi 110009",Delhi,Delhi,"011-47386000,8826993152",8826993150,sales@globushonda.com
Globus Honda,Mrs Nidhi,"B 291,Saraswati vihar,Outer ring road ,Pitampura,New Delhi 110034",Delhi,Delhi,"011-43092891,8826993162",8826993162,globuspp01@gmail.com
Globus Honda,Tarun Pal,"737/7 ,Main Road Burari,New Delhi 110084",Delhi,Delhi,"011-27613222,8826993156",8826993156,sales@globushonda.com
J.B.Honda,Vijay Kant Sharma,"40, Rani Jhansi Road, Jhandewalan/Karol Bagh, New Delhi  110055",Delhi,Delhi,"011-23684986, 9891080111, 9310159014",9891937973,jbmotorsale@gmail.com
J.B.Honda,Vishal Sachdeva,"E-2/234-235, Near Metro Pillar No. 171, Shastri Nagar, New Delhi  110052",Delhi,Delhi,"8882719494, 9999786767",9873857075,jbhonda.sn@gmail.com
Malwa Honda,Mr. Ashok,"A-9, Main Devli Road, Khanpur, Delhi-62 110062",Delhi,Delhi,,9266802221,malwa_honda@yahoo.com
MALWA HONDA,ARUN SHARMA,A-32 LAJPAT NAGAR 2  110024,Delhi,Delhi,011-29840621-22,9212634631,MALWA_HONDA@YAHOO.COM
Malwa Honda,Vishal Ji,"A-250, Saheen Bagh,Jamia-Abul Fazal Enclave-2, Jamia Okhana , New Delhi-25 110025",Delhi,Delhi,,9266802220,malwa_honda@yahoo.com
Malwa Honda,Nitin Sharma,"D-5/401 Main Mangal Bazar Road, Sangam Vihar, New Delhi 110062",Delhi,Delhi,011-26043443,9266802217,malwa_honda@yahoo.com
One Honda,Mr. Atul Sethi,Wz 111 Meenakshi Garden Delhi 110018,Delhi,Delhi,,9899053002,atul.sethi@onehonda.in
Praganya Honda,Pradeep Sharma,"E49/10 Okhla Ind Area , Ph -2  110020",Delhi,Delhi,0114058100/  01126383990/91/92,981885993,pragnyahonda@rediffmail.com
Rajindra Honda,Amir Hasan,"969-E, 100 Foota Road , Babar Pur , Shadhra  110032",Delhi,Delhi,22832997-98,9310457400,rajindramotors@yahoo.com
Rajindra Honda,Sanjay Kumar,"E-9, Chand Bagh, Opp. Bhajan Pura Petrol Pump  110053",Delhi,Delhi,22560557,7042024650,rajindramotors@yahoo.com
Rajindra Honda,Gaurav Kumar,"467-83, G.T. Road , Opp. Dilshad Garden Metro Station, 110095",Delhi,Delhi,22131205-06,9818372386,rajindramotors@yahoo.com
Rajindra Honda,Rajeev Kumar,"D-1, Vijay Colony, 3Rrd Pusta main Road 110053",Delhi,Delhi,22946819,9560734814,rajindramotors@yahoo.com
Rohini Honda,Mr. Ashok Sethi / Prateek Sethi,"Kh. No. 1164, Rithala 110085",Delhi,Delhi,,"9810544000, 8527479000",sales@rohinihonda.com
Rohini Honda,Om Prakash Ji,"A-44A, Budh Vihar Ph-1,Delhi 110086",Delhi,Delhi,,9810544000,sales@rohinihonda.com
Santoshi Honda,Bharat Rawat,"1616 Arya Samaj Road, Narela , New Delhi  110040",Delhi,Delhi,8467085732 / 8882493100 / 8882493102,8467085737,santoshihonda@gmail.com
Shuban Sai Honda,Mr. Sandeep Kaushik,Kh No 232 Nangli Sakrawati Main Phirni Road 110043,Delhi,Delhi,,9818126699,shubansai.honda@gmail.com
Shuban Sai Honda,Deepak Sharma,"Rz-7A,Old Roshan Pura,Najafgarh,Delhi 110018",Delhi,Delhi,,9212385517/37,subhamsaihonda@gmail.com
Shuban Sai Honda,Sandeep Kaushik,"C-30, Nawada Housing Complex, Opposite Metro Pillar - 792, Dwarka Mor, New Delhi 110059",Delhi,Delhi,,9212649917,shubansai.honda@gmail.com
Smooth Honda,,"Address -9/81 Main Pusta Road Kailash Nagar, Gandhi Nagar-31 110031",Delhi,Delhi,,9873069999,smoothmotors6@gmail.com
Swarup Honda,Khem Chand,"1218, G D Colony, Mayur Vihar  Phase 3 110096",Delhi,Delhi,011-22628669,9717099729,swaruphonda123@yahoo.com
Swarup Honda,Dinesh Kumar,"9 bharti artist colony, Preet Vihar, Vikas marg, Metro Pillar no 74, Delhi 110092",Delhi,Delhi,011-22010/710/11/12,9810806600,swaruphonda123@yahoo.com
Swarup Honda,Sumt Verma,"57  Pandav Nagar, Opp Mother Dairy 110092",Delhi,Delhi,011-22483729,9717099723,swaruphonda123@yahoo.com
Uday Honda,Mukesh Bhatt,"H.No-1, Ghoda Mohalla Aya Nagar Near Arjan Garh Metro Station, New Delhi 110047",Delhi,Delhi,9266135550,9266135550,udayhonda81@gmai.com
Uday Honda,Chandan Malhotra,81 Adchini Sri Aurobindo Marg New Delhi  110017,Delhi,Delhi,"011-41834864,011-41834787",9212355514,Udayhonda81@gmail.com
V. D. Honda,,"C 52 Phase 2,Mayapuri Industrial Area Delhi 110045",Delhi,Delhi,,9212670290,ksc_prashant@rediffmail.com
V. D. Honda,Ranjeet Chaudhari,"Rz-1A, Gali No. 2, Sitapuri, Pankha Road, New Delhi 110045",Delhi,Delhi,,9212670293,
V. D. Honda,Prashant Godara,"Kh. No. 141, Main Babbar Chowk, Near Bijwasan Fly Over, New Delhi 110061",Delhi,Delhi,,9810512175,vdhonda@yahoo.com
