"Dealer Name","Contact Person","Address","City","State","Contact 1","Contact 2","Email"
"Satyam Honda","Mukesh Kr. Yadav","Niche Bazar, Bagodar 825322","Bagodar","Jharkhand","7903921655","7903921655","Satyamhondabagodar@gmail.com"
"Premi Honda","Mr. Vinod Bharti","Patel Nagar, Bhurkunda, Distt-Ramgarh, Jharkhnad 829106","Bhurkunda","Jharkhand","7561985078","7561985078","Premiautomobiles@gmail.com"
"Devi Honda","Mr. Bimal Kumar","Station Road, Chandrapura, Bokaro, Near Vikash Cinema Hall 828403","Bokaro","Jharkhand","","9431509341","devisons315@gmail.com"
"Laxminarayan Honda","Mr. Laxmi Narayan Singh","Jainamore, Ramgarh Road 829301","Bokaro","Jharkhand","","9334467211","laxminarayanautomobile@gmail.com"
"Ns Honda","Mr. Narayan Prasad","Bermo Road, Gumia 829128","Bokaro","Jharkhand","","9304805589","nshonda.gomia@gmail.com"
"Premsons Honda","Mr. Rajesh Kedia","S-8 & S-9,City Centre,Bokaro Steel City,Bokaro 827004","Bokaro","Jharkhand","","9431128104","premsonsbokaro@gmail.com"
"Gupta Honda","Ms. Nirmala Gupta","Near Sidheswar Mandir,Mahulsat,Chaibasa 833201","Chaibasa","Jharkhand","06582-255265","9234720202","nirmala.honda@rediffmail.com"
"Gupta Honda","Mr.Sekhar Gupta","Main Ranchi Road,Ashantaliya Near CRPF Camp,Chakradharpur,West Singhbhum 833102","Chakradharpur","Jharkhand","9110131118","9110131118","guptahondackp@gmail.com"
"Sandhya Honda","Mr. Deepak Dey","Sidhartha Apartment Bye - Pass Road Chas 827013","Chas","Jharkhand","","9934322837","infosandhyahonda@gmail.com"
"Shanti Honda","Santosh Kumar Gupta","G. T Road, Chouparan, Hazaribagh 825406","Chauparan","Jharkhand","","7870999777","shantiautomobiles.cpn@gmail.com"
"Aditya Honda","Mr.Sanjay Kumar Singh","Khalasi Mohalla, P.S And P.O - Madhupur, Dist - Deoghar 815353","Deoghar","Jharkhand","","9431312476","singhsanjay94313@gmail.com"
"Shreeram Honda","Krishna","Court Road,Vip Chowk,Deoghar 814112","Deoghar","Jharkhand","""8235043717 7645087282 7645087283""","8235043700","shreeramhondadeoghar@gmail.com;"
"Gopalka Honda","Raghubinder Singh","Dhansar   828106","Dhanbad","Jharkhand","""9234269010 9234369006""","8447445635","gopalka.honda@yahoo.co.in;"
"Jai Hanuman Honda","Sharwan Kumar Saw","Bhagat Singh Chowk, Chirkunda (Dhanbad) 828202","Dhanbad","Jharkhand","","9334393221","jaihanumanhondahonda2wheellersindia@gmail.com"
"Maa Tara Honda","Mr. Ashok Ram Gupta","At Bhagat Singh Chowk, Bank Of India Building, Post-Katras Bazar, Dist- Dhanbad 828114","Dhanbad","Jharkhand","","9334917232/9470928032","guptaashok248@gmail.com"
"Narayani Honda","Mr. Akash Gadhyan","Nh-2, Hathbari, Nirsa 828205","Dhanbad","Jharkhand","","8092735030","narayanihondanirsa@gmail.com"
"Premsons Honda","Mr. Ateet Kumar Dalmia","Opp. Imma Bhawan,Saraidhela Main Road 828127","Dhanbad","Jharkhand","","8051500034","premsonsdhanbad@gmail.com"
"S.K Honda","Mr. Subodh Kumar Ray","Harana, Baghmara 828306","Dhanbad","Jharkhand","","9934364849","raysubodhkumar@gmail.com"
"Sri Ambey Honda","Mr. Shankar Prasad Saw","Main Road, Loca Bazar, Gomoh 828401","Dhanbad","Jharkhand","","9334096300","sriambeyautocentre@gmail.com"
"Samonta Honda","Rahul Kumar","Giridih Road, Near Bank of India, Domchanch 825418","Domchanch","Jharkhand","9122197271","8521538719","vinayakhonda2016@gmail.com"
"Amba Honda","Mr. Bijay Kr. Jaiswal","Pakur Dumka Main Road, Bhagatpara, Pakur, Jharkhand 816107","Dumka","Jharkhand","","9386990382/9934916088","ambahondapkr@gmail.com"
"BIKES INDIA HONDA","Mr. Manoj Kr Agarwal","Bhagalpur Road, Dumka  814101","Dumka","Jharkhand","","9771389184","bikesindiahonda@gmail.com"
"Shiv Shakti Honda","Mr. Anil Kumar Rajak","Dhobiyamore, Gandey, Giridih, Jharkhnad  815312","Gandey","Jharkhand","8709795597","8709795597","shivshaktihonda2019@gmail.com"
"Kamakhya Honda","Mr. Anand Kumar Jaiswal","Main Road, Ghatsila  832103","Ghatsila","Jharkhand","9470145060","9470145060","anandseeds2009@gmail.com"
"Shivam Honda","Mr. Birender Sharma","Shastri Nagar,Giridih 815301","Giridih","Jharkhand","06532-224466, 210020","9470304888","shivam.honda2012@gmail.com"
"Shivam Honda","Mr. Sanjay Kumar","Gandhi Chowk, Rajdhanwar 825412","Giridih","Jharkhand","","9431144211","shivam.honda2012@gmail.com"
"Shaurya Honda","Mr. Gaurav Jalan","Tundi Road,Giridih,Jharkhand 815301","Giridih","Jharkhand","","9204850231","shauryahondagiridih@gmail.com"
"Gayatri Honda","Mr. Rahul Singh","Near Subhash Chowk, Opp. Jirwabari Police Station, Sahibganj 816109","Godda","Jharkhand","","8540066826","rahulsonu268@gmail.com"
"Maa Durga Honda","Mr. Uttam Dutta","Naya Bazar, Rajmahal, Sahibganj 816108","Godda","Jharkhand","","8292512440","maadurgaworkshop@gmail.coim"
"Vansh Honda","Chandan Verma","Bhatdiha, Near Nahar Chowk, Deoghar Main Road  814133","Godda","Jharkhand","""7091497005 7091497009 9546908990""","9546908990","vanshhonda.sales@gmail.com;"
"Om Sai Honda","Joysen Mandal","At - Hata(Pawru), PO - Juri, Dist - East Singhbhum 831002","Hata","Jharkhand","9279539847","9279539847","omsai.hondahata@gmail.com"
"Deepa Honda","Mr. Sudesh Kumar","Patna Road, Barhi, Hazaribag, Jharkhand 825405","Hazaribagh","Jharkhand","","7677719076","deepaautomobile200@gmail.com"
"Kalra Honda","Mr. Pritpal singh Kalra","Zullu Park ,S.B.I.Lane 825301","Hazaribagh","Jharkhand","06546-223284","9470197100","prit_pal32@rediffmail.com"
"Rasu Honda","Mr. Rahul Dev","College Road, Near Laklakwa Mandir, Jatribagh, Chatra 825401","Hazaribagh","Jharkhand","","9431386741","rahul.dev741@gmail.com"
"Sai Honda","Mr. Dinesh Kumar","Near Bank Of India, Barkagaon 829111","Hazaribagh","Jharkhand","","9608824896/9431586624","saihondabarkagaon@gmail.com"
"Titanium Honda","Mirza Beig","Titanium Honda, Opposite Devi Mandap, Devangna Chowk, Korrah Road, Hazaribag 825301","Hazaribagh","Jharkhand","6299220182","6299220182","contact@titanium-honda.com"
"Baba Honda","Ajit Kumar","Chiranya More, Near HP Petrol Pump, Dumri, Isri Bazar 825167","Isri","Jharkhand","7870903223","7870903223","babahonda123@gmail.com"
"Baidehi Honda","Mr. Uday Shankar","Lengdih,Station Road,Chandil,Dist:- Seraikella Kharswan,Jharkhand 832401","Jamshedpur","Jharkhand","","9955166606","baidehihonda@gmail.com"
"Dua Honda","Mr. Rohan Dua","Near Dav Public School, Niti Bagh Colony, Slag Road, Bhuyiadih Agrico, 831009","Jamshedpur","Jharkhand","","9334616425","dua.honda856@gmail.com"
"Jamshedpur Utkal Honda","Ravi Ranjan Kumar","Adityapur Kandra Main Road, Adityapur Industrial Area, Adityapur, Jamshedpur 832109","Jamshedpur","Jharkhand","7360027201","7360027203","sales.manager@utkalhonda.com"
"Kamla Honda","Mr.Ishan Chand Gope","Main Road,Patamda,East Singhbhum,Jharkhand 832105","Jamshedpur","Jharkhand","","9431755425 / 8102396503","kamlaauto52@gmail.com"
"Kauntia Honda","Pradeep Kauntia","Navrang Market, Main Road, Jadugoda 832106","Jamshedpur","Jharkhand","","8539950620","Kauntiapradeep5@gmail.com"
"Moonka Honda","Mr. Ashok Kr Agarwal","Panna Tower,Station Road,Jugsalai 831006","Jamshedpur","Jharkhand","","9234691201","moonkaautomobiles@yahoo.com"
"Pebco Honda","Mr. Rajan Krishnan","Road No. 5, Sankusai, Dimna Road, Mango 831012","Jamshedpur","Jharkhand","","7061289012","rajan@pebcomotors.com"
"Rita Honda","Mr. Dilipananda Goswami","Nh-33, At-Inchrasole, Po-Baharagora 832101","Jamshedpur","Jharkhand","","9431161727","ritahonda01@gmail.com"
"Sri Ram Honda","Mr. Ashish Agarwal","Rajbandh ,Sareikela , Dist - Sareikela Kharsawan , Jharkhand - 833219 833219","Jamshedpur","Jharkhand","","7091310041","ashishmittalseraikella@gmail.com"
"Tiwari Honda","Mr. Jogendra Tiwari","Dumka Road, Near Bus Stand 815354","Jamtara","Jharkhand","","7781047825","systems.tiwarihonda@gmail.com"
"Raj Honda","Abhishek Prasad","Raj Honda, Pipra Toli, Near Cinema Holl, Khunti 835210","Khunti","Jharkhand","9334054000","9431102002","Rajhonda.khunti@gmail.com"
"Samonta Honda","Mr. Deepak Kumar Singh","Beside Samonta Auto Service,Jhumritelaiya, 825409","Koderma","Jharkhand","","7762810811","jaimaakaliautomobiles@gmail.com"
"Royal Honda","Mr. Taufeek Aslam","Near Bank of india, Musabani No-3, Badia road, Post-Musabani, East Sighbhum 832104","Musabani","Jharkhand","9661887891","9661887891","royal.msb@rediffmail.com"
"Sai Shobhanand Honda","Mr. Hemant Lal Gupta","Cachari Road, Op. Bst Khoti, Garhwa 822114","Palamu","Jharkhand","","9334073135","sai.shobanand.honda2015@gmail.com"
"Usha Honda","Rupesh Kumar","Ranchi Daltonganj Road,Latehar 834002","Palamu","Jharkhand","","9470521517","ketan.kumar007@gmail.com"
"Baijnath Honda","Randhir Yadav","At - Madhwatand, PO - Makatpur, PS - Jainagar, Koderma 825318","Pipcho","Jharkhand","7766032915","7766032915","baijnathautomobile2015@gmail.com"
"Ib Honda","Mr. Indradeo Pathak","Near Astha Nursing Home, Muri Road, Gola 829110","Ramgarh","Jharkhand","","9431195483","ibauto.gola@gmail.com"
"Parallax Honda","Mr. Jitender Kumar","Nh. 33 Near New Shanti Cinema Hall, P.O. Ramgarh Cantt 829122","Ramgarh","Jharkhand","","9431115536, 9234325536","parallax_honda@yahoo.co.in"
"Divine Honda","Narender Agarwal","Main Road, Opp. Simdega Thana, Simdega-835223 835223","Ranchi","Jharkhand","","9431156886","narendrasimdega@gmail.com"
"Maharaja Automobiles","Shashi Priya","Sisai Road, Gumla 835207","Ranchi","Jharkhand","","9431116026","maharajahonda@gmail.com"
"Arya Honda","Mr. Prabhat Kumar","Near Indira Gandhi Road, Ranchi Road, Chandwa 829203","Ranchi","Jharkhand","","9308725099","aryahonda99@gmail.com"
"C.N.Honda","Mr. Vijay Kumar Jain","Ratanlal Kothi, Dr Rameshwar Oraon Lane, Bariatu Road 834008","Ranchi","Jharkhand","","9234603603","cnhondaranchi@gmail.com"
"Deo Astha Honda","Mr. Pawan Kumar Singh","Mission Chowk , Lohardaga 835302","Ranchi","Jharkhand","","9308498618","pawandeoastha@gmail.com"
"Horizon Honda","Zakiur Rehman","Beside ICICI Bank, Main Road, Near Sujata Chowk, Ranchi 834001","Ranchi","Jharkhand","9771412101, 0651-2331201, 2331301","9934012101","horizonhonda@gmail.com"
"Nav Honda","Mr.Randhir Choudhary","Below Jharkhand Gramin Bank,Ram Bhavan,Chakla, Ormanjhi 835219","Ranchi","Jharkhand","","9431382338","navhondaormanjhi@gmail.com"
"Premsons Honda","Mr. Arun Rajgariah","Bhuniya Toli, Behind Sbi Ccpc Branch,Near Kishoreganj Chowk,By Pass Road, Harmu Road 834001","Ranchi","Jharkhand","","9771452800","psmdiversey@gmail.com"
"Ramsons Honda","Mr. Kishor","Nh33, Main Road, Bundu Rachi 835204","Ranchi","Jharkhand","","9835994313","ramsonshonda@gmail.com"
"Rashmi Honda","Mr. Abhishek Kumar","Main Road, Bero 835202","Ranchi","Jharkhand","","9576602463","rashmi.traders1@gmail.com"
"Ravi Honda","Ravi Shankar Singh","Naya Road , Phusro,Bokaro 829144","Ranchi","Jharkhand","","8987520888 / 9234045858","ravihonda.phusro@gmail.com"
"Subh Honda","Vimal Mishra","Main Road, Khunti 835210","Ranchi","Jharkhand","","9534056999","aashishmishra3178@gmail.com"
"Twinkle Honda","Rajesh Kumar Agarwal","Station Road, Silli,Ranchi 835102","Ranchi","Jharkhand","","9304178371","rajeshagarwalhpcl@gmail.com"
"Universal Honda","Mr. Nishant Singh","26-30, Aastha Regency, Hehal, Ranchi 834005","Ranchi","Jharkhand","","9431118499","uv_motors@yahoo.co.in"
"Universal Honda","Nishant Singh","Kandir More,Main Road,Mandar 835205","Ranchi","Jharkhand","","9905114467","universalhondasales@gmail.com"
