"Dealer Name","Contact Person","Address","City","State","Contact 1","Contact 2","Email"
"Balaji Honda","Kiran Pawar","Newsa Road,  In Front Of Gust House Sevgaon  Ahmednagar 414502","Ahmednagar","Maharashtra","","9822293709","balajihonda.709@gmail.com"
"Rahul Honda","Kailas Mane","Rahul Honda, Near S T Bus Stand  , Jamkhed Nagar Road, Tal - Jamkhed, Dist- Ahmednagar 413201","Ahmednagar","Maharashtra","","9226102102","rahulhonda7007@gmail.com"
"Rironsi Honda","Mr. Pramod Kanade","246/A/2 , Plot  1 Near Auxillium School , Nagar Manmad Road  Savedi 414003","Ahmednagar","Maharashtra","","838007941","info@rironsihonda.in"
"Rironsi Honda","Mohsin Pathan","Near Surya Petrol Pump, Shete Estate, Nagar-Manmad Road, Rahuri 413705","Ahmednagar","Maharashtra","","8380079847","rironsihonda@gmail.com"
"Sablok Honda","Shaikh Sajjad","Next To Sablok Petrol Pump, Sarjepura, Ahmednagar 414001","Ahmednagar","Maharashtra","0241-2430322","7276041111","sablokhonda@gmail.com"
"Sablok Honda","Mhaske Deepak","Dr. Sonar Building, Kinetic Chowk, Nagar Pune Road, Ahmednagar 414001","Ahmednagar","Maharashtra","0241-2320000","7276051111","sablokhonda@gmail.com"
"Shree Swami Prasad Auto","Mahesh Trimbak Patharkar","Near Old Bus Stand,Shevgaon Road, Pathardi, Ahmednagar 414102","Ahmednagar","Maharashtra","","8087041009 Swapnil Patharkar","swamiprasadhonda@gmail.com"
"Yash Honda","Suresh Supekar","Daund-Jamkhed Road, Shrigonda, Dist- Ahmednagar 413701 413701","Ahmednagar","Maharashtra","","9405329999","yashautomobilesshrigonda@gmail.com"
"Vihaan Honda","Aditya Chavan","Shop No. 12/13/14,Plot No. 36/37 Swami Samarth Complex, Sector 9 , Near Diva Circle, Airoli Mumbai Road, Airoli , Navi Mumbai  400708","Airoli","Maharashtra","8433598231","8433598231","chavnaditya25@gmail.com"
"Sai Surya Honda","Girish Savalgi","Sai Surya Honda, Gadhinglaj Road, Ajara, Dist- Kolhapur  416505","Ajara","Maharashtra","02323- 244241","8552880441","saisuryahonda.ajara@gmail.com"
"Swastik Honda","Pravin Kamble","Swastik Honda, Opposite Hotel President Palace, Solapur Road, Akkalkot 413216","Akkalkot","Maharashtra","9172096882","9730238894","swastik.honda.akalkot@gmail.com"
"Balaji Honda","Pramod","Opp Idbi Bank Tembhurni  413211","Akluj","Maharashtra","","8793774676","pramoodpawar@gmail.com"
"Nashte Honda","Mr. Vishwanath Nashte","A/P Opp State Bank Of India, Gandhi Chowk, Akluj. Tal : Malshiras Dist: Solapur 413101","Akluj","Maharashtra","","9822402055","nashte_vishwanath@yahoo.co.in"
"Ajinkya Honda","Mr.Rahul Patil","Ajinkya Auto Gat No 369/1 New Bodare Complex Dahigaon Road Natepute, Malshiras, Solapur. 413109","Akluj","Maharashtra","","9673005521","ajinkyaautor@gmail.com"
"Ayush Honda","Pradip Ukalkar","Daryapur Road ,Near Shivaji College, Akot, Akola 444101","Akola","Maharashtra","","9423431467","ayushhondaakot@gmail.com"
"Khandelwal Honda","Mr. Rohit Khandelwal","Alsi Plot Opp Income Tax Office Murtizapur Road Akola 444001","Akola","Maharashtra","","9893032994","khandelwalhonda@yahoo.co.in"
"Prabh Honda","Mr. Pawandeepsingh Oberoi","Plot No.36C 10/1,Opp.Shivaji Park, 444001","Akola","Maharashtra","","9823451345",""
"Shreeji Honda","Kamlesh Gupta","Opp To Pratibha Talkies, Karanja Road,  Tidke Nagar ,Murtizapur, Akola 444107","Akola","Maharashtra","","9423539836","shreejisales777@gmail.com"
"Dashmesh Honda","Navin Jha","Survey No.91/A, Plot No-6&7, Samrudhi Building, Opp.Indian Oil Petrol Pump, At/Po-Pimpalbhat, Chendre(veshvi), Tal - Alibag,  Dist - Raigad, Maharashtra. 402201","Alibag","Maharashtra","02141-225319","9223161515","navin.jha@simranwheels.com"
"Parekh Honda","Adesh Shashikant Parekh","Chandrakant Complex, Mumbai - Goa Highway, Mahad, Tal-Mahad, Dist Raigad-402301 402301","Alibag","Maharashtra","","7083788135 / 9834305519","PAREKHAUTOMOBILES@GMAIL.COM"
"S R K Honda","Kailash Jain","Datta Krupa Bldg, Shop No-16, Damkhadi, Tal-Roha, Dist- Raigad. 402109","Alibag","Maharashtra","","8600631685","kailash.jain64@yahoo.com"
"Deshmukh Honda","Mr. Abasaheb Deshmukh","Main Road, Mondha, Ambajogai 431517","Ambajogai","Maharashtra","","9420033335","deshmukh.honda@gmail.com"
"Abhijeet Motors","Sumedh N Wasankar","In Front Of Shrikrushna Temple, Amravati Road, Chandur Bazar, Dist-Amravati. 444704","Amravati","Maharashtra","","9823257706","sumedhwasankar@hotmail.com"
"Jps Honda","Mangesh Deshmukh","Jps Honda, Mauja Tivsa Bhag 04, Pragane Kunha, Tal- Tivsa, Dist- Amravati. 444903","Amravati","Maharashtra","","7798755553","jpshondaamravati@gmail.com"
"Jps Honda","Mr. Pankaj Gattani","Jps Honda,Infront Of Railway Station,Amravati-444601 444601","Amravati","Maharashtra","","9422157586","pankajgattani@rediffmail.com"
"Jps Honda","Prafull Lahabar","Anjansingi Road,  Opp Engineering College , Dhamnagaon 444709","Amravati","Maharashtra","","9021420044","jpshondaamravati@gmail.com"
"Shaan Honda","Amol Bhalker","Opp Tehsil Office, Amravati Road, Daryapur, Distt. Amravati 444806","Amravati","Maharashtra","","9422916970","jadhaoagroind@rediffmail.com"
"Shaan Honda","Mr. Rajendra Jadhao","Near Jijau Bank,Gadge Nagar,Amravati 444604","Amravati","Maharashtra","","","rajmotors.amt@gmail.com"
"Ttr Honda","Gopal Rathi","Khanjode Residency, Amravati Road,  Paratwada 444805","Amravati","Maharashtra","","7219109700 / 7219108700","ttr_honda@yahoo.com"
"Ttr Honda","Mr. Gopal Rathi","Badnera Road, Amravati(M.S.), Maharashtra 444605","Amravati","Maharashtra","","9823198700","ttr_honda@yahoo.com"
"Preetam Honda","S A Kumar","Preetam Honda, N.S Phadke Road, (New Juhu Galli Road),Opp Nasar Building, Near Renault Juhu,Andheri West, Mumbai 400058","Andheri West","Maharashtra","9372140150","9372123320","preetamhonda@gmail.com"
"Arihant Honda","VINOD DIXIT","BESIDE RAJ PETROL PUMP, JALNA ROAD, AURANGABAD 431001","Aurangabad","Maharashtra","0240-6660888","7722065513","sales@arihanthonda.com"
"Daivat Honda","Mr. Kiran Ashok Chavan","A/P-Phulambri, Aurangabad Road, Tal- Phulambri, Dist - Aurangabad. 431111","Aurangabad","Maharashtra","","9923150372 / 9623462020","daivatauto@gmail.com"
"Fine Honda","Mr. Dattatray Kunte","Gut No-72/P, Plot No-6 Manak Complex,N/R M.I.T.College,Beed By Pass Road 431028","Aurangabad","Maharashtra","","9763863407","INFO.HONDA@FINEAUTOLINES.COM"
"Lakhani Honda","Mr. Jaweed Mohammed","X-24,Beisde Saraswat Bank, Near Oasis Hotel,Midc Road,Pandherpur,Waluj, 431136","Aurangabad","Maharashtra","","9890827653","lakhanihonda@gmail.com"
"Ramkrushna Honda","SHYAM POPHALE","POPHALE TOWER, NEAR POLICE STATION, KARMAD  431007","Aurangabad","Maharashtra","2623315","9511111180","ramkrushnamotors7@gmail.com"
"Ratnapprabbha Honda","Manojj Pawaar","Tapan Down Town, Adalat Road, Aurangabad 431001","Aurangabad","Maharashtra","0240-6656800","9011008342","""mansingh@ratnaprabha.com; rpm.hondabm@ratnaprabha.com"""
"Ratnapprabbha Honda","Mr. Ganesh Zalte","Plot No..16/17/18, Raje Sambhaji Colony, Jadhavwadi, Jalgaon Road, Aurangabad 431001","Aurangabad","Maharashtra","0240-6647700","9011008332","rpm.hondasalesb1@ratnaprabha.com"
"Saraf Honda","Mr. Kaushalshrenik Kumarshaha","Survey No 1/116, Near Jaihind Bazaar,M.I.D.C. Road, Jalochi, 413102","Baramati","Maharashtra","","9822094740","sarafhonda@gmail.com"
"Shreenath Honda","Mr. Nitin Satav","Karbhari Complex, Ring Road, Kasaba, Baramati, Distt. Pune 413102","Baramati","Maharashtra","","9881525000","maruti@mahalaxmiautomotive.com"
"Malhar Honda","Vikas Hajare","Kamaladevi Road, Near Icici Bank, Karmala Dist- Solapur 413203","Barshi","Maharashtra","","9423327848","malharhondakarmala@gmail.com"
"Sai Honda","Mr. Padamraj Kade","Laxmi Nagar,Latur Road 413411","Barshi","Maharashtra","","9890255855","sai.honda1@gmail.com"
"Shriram Honda","Suhas Kale","Shriram Honda, Pandharpur Road, Near Kadam Hospital, Kurduwadi, Dist- Solapur 413208","Barshi","Maharashtra","","9850000096","shrirammotorshonda@gmail.com"
"Yuvraj Motors","Pankaj C. Jaju","Yuvraj Motors, Opp. Dubey Petrol Pump, Parli 431515","Beed","Maharashtra","","9422240550","yuvrajmotors007@gmail.com"
"Ram Ratan Honda","Mr. Amar Sarda","Opp Saint Anns School,Jalna Road 431122","Beed","Maharashtra","","9225301944","ramratanmotors@gmail.com"
"Ram Ratan Honda","Abhijeet Kasat","Ramratan Motors, Near Manik Hospital Jalna Road, Georai, 431127","Beed","Maharashtra","","9226262425","ramratangeorai@gmail.com"
"New Era Honda","Mr. Husain Fidvi","Plot No. 22-B, Takiya Ward, Ganeshpur (Maharashtra). 441904","Bhandara","Maharashtra","","9765775152","neweramotors53@gmail.com"
"Atharva Honda","Nanaso Bandgar","Gat No.156/1,Baramati Road Bhigwan Tal-Indapur,Dist-Pune 413130","Bhigwan","Maharashtra","9673005515","9823357474","atharvahonda0012@gmail.com"
"Sagajkar Honda","Mr. Nilesh Sagajkar","Shreekrushna Nagar, Aurangabad-Paithan Road, Bidkin, Tq. Paithan, Dist.- Aurangabad 431105","Bidkin","Maharashtra","02431-241477","9850273337","sagajkarautobidkin121@gmail.com"
"STS Honda","Dhananjay Sankhe","Plot no. J-96, MIDC Area, Tarapur, Boisar, Taluka- Palghar, Dist.- Palghar 401506","Boisar","Maharashtra","7720953000","7722061683","dhananjay@saidattatransport.com"
"Anand Honda","Ram Agrawal","Hanuman Chowk, Buldhana Road Malkapur - 443101 443101","Buldhana","Maharashtra","","9657972238","anandhonda05@gmail.com"
"Kothari Honda","Mr. Kamlesh Kothari","Khamgaon Road,Buldana 443001","Buldhana","Maharashtra","","9422181157","kotharihonda@gmail.com"
"Kothari Honda","Shrikant","Plot 8, Main Road, Chikhli, Distt.Buldhana 443201","Buldhana","Maharashtra","","9511663333","kotharihonda@gmail.com"
"Meeraj Honda","Mr. Rajendra Dandekar","Opp.Lokmat Press Wardha Road 441108","Butibori","Maharashtra","","8888881222","rajautomotivebutibori@rediffmail.com"
"Gaurang Honda","Rahul Nagpal","Plot No.34, Gut No.192/5/192/6/30/31/32/34, Bhadgaon Road, Takli, Chalisgaon, Jalgaon, Maharashtra  424101","Chalisgaon","Maharashtra","8013149001","8013149001","gauranghondasales@gmail.com"
"Rohitn Honda","Rohit Chande","Allapali Road, Beside Gurunanak College Ballarpur 442701","Chandrapur","Maharashtra","","8007004998","rohit.honda@rediffmail.com"
"Bhagirathi Honda","Kanchan Rachalwar","Jhansi Rani Square , Brahmapuri 441206","Chandrapur","Maharashtra","","9421815072","bhagirathihonda@gmail.com"
"Gayatri Honda","Dilip Ram","Chandrapur - Nagpur Highway, Sumthana Bhadrawati. 442902","Chandrapur","Maharashtra","","8551932719","gayatrimotorshonda@gmail.com"
"Shiv Shankar Honda","Mr. Shankar Agrawal","Plot No.2, Nagpur Road, Chandrapur 442401","Chandrapur","Maharashtra","","9822738974","shivshankar.honda@yahoo.com"
"Shree Sai Honda","Amit Padgilwar","Shree Sai Honda Petrol Pump, Square Gadchandur, Tahsil- Korpana, Chandrapur 442908","Chandrapur","Maharashtra","","8888422221","amitpadgilwar1984@gmail.com"
"Shreehari Honda","Harish  Sarda","Plot No.28, Survey No.20/1, Pimplaneri Road, Chimur, Dist - Chandrapur 442903","Chandrapur","Maharashtra","","7588073751","ven.chimur@gmail.com"
"Vijay Wings Honda","Mr. Vijay Kumar Agarwal","Plot No. 1, Near Macchinala, Mul Road Chandrapur 442401","Chandrapur","Maharashtra","","9881467976","vijaywingshonda@gmail.com"
"Venetian Honda","Mr. Rama Morye","Venetian Honda, Plot No. 95, Kandivali Co-op Ind, Opp.Saraswat Bank, Charkop, Kandivali, West, Mumbai  400067","Charkop","Maharashtra","022-29672244 / 55","9372725712","venetianhondacharkop@gmail.com"
"Gandhi Honda","Mr. Nitin Gandhi","Nirmal Chambers Ap Kherdi Near Railway Bridge Tal Chiplun Dist Ratnagiri 415605","Chiplun","Maharashtra","","8975984544","gandhihonda@gmail.com"
"Gandhi Honda","Gaurav Gandhi","Velamb Road Opp Naralkar Complex Ap Shrungartali, Tal Guhagar, Dist Ratnagiri. Pin No. 415703 415703","Chiplun","Maharashtra","","8380068923","gandhihonda@gmail.com"
"Bhavesh Honda","Santosh Prabhakar Bhamre","Satana Road, Pimplner, Tal - Sakari 424306","Dhule","Maharashtra","","8888771567 / 9423980730","bhaveshauto9@gmail.com"
"Dhruv Honda","Mr. Ashish Patil","6A, Industrial Estate, Mumbai Agra Road 424311","Dhule","Maharashtra","","9823028593","akp@dhruvmotors.com"
"Dhruv Honda","Rajesh Dhephle","Near Swami Narayam Mandir, Dhule-Nandurbar Bye -Pass Road, Dondaicha, Tal: Shindkheda, Distt. Dhule 425408","Dhule","Maharashtra","","9921549277","dmd@dhruvmotors.com"
"Kanhaiya Honda","Suresh Dhondu Gujar","Dhule Road, Sakri, Tal-Sakri, Dist - Dhule 424304","Dhule","Maharashtra","","9921899690","sureshgujar89@yahoo.in"
"Shree Datta Krupa Honda","Yogesh K Patel","Shirpur Fata, Amoda, Shirpur, Dhule-425405 425405","Dhule","Maharashtra","","9881626267","shreedattakrupaautoshirpur@gmail.com"
"V J Honda","Mr. Manish Doolani","Vighanaharta Enterprises,Survey No.197/H. No.2 (Old S No.197/H No.2) Kalyan Shil Road,Opp. Sai Baba Mandir,Sonar Pada,Dombivili 421201","Dombivali","Maharashtra","","7798880850","vjhonda@rediffmail.com"
"Jai Shyam Honda","Mr. Navin Mittal","Plot No. 01, Survey No. 18, Mouza- Lanzeda, Dhanora Road, 442605","Gadchiroli","Maharashtra","","9373243454",""
"Shree Krishna Honda","Prafull /  Pravin Kawluji Thaokar","Bhagtsingh Chowk Plot No. 1,2 Armori-441208 441208","Gadchiroli","Maharashtra","","9423621044  / 7137266026","shreekrishnahonda1@gmail.com"
"Sai Surya Honda","Mr. Sandeep Kolki","R.S.No.379,Sankeshwar Road, 416502","Gadhinglaj","Maharashtra","","9028719900","sandeep@suryahonda.com"
"Shri Mahalaxmi Honda","Shripatrao Powar","Gargoti Road, Uttur, Tal-Ajara, Distt. Kolhapur 416220","Gadhinglaj","Maharashtra","","7588258733","shreemahalaxmimotors123@gmail.com"
"Yash Honda","Mohan Patil","Belgaum - Vengurla Road Halkarni Phata Tal Chandgad,Kolhapur 416552","Gadhinglaj","Maharashtra","","9158533822","yashmotors@yahoo.com"
"Perfect Honda","Ashish Desai","Plot No. 770, Kolapur Gargoti Road, Gargoti, Tal- Bhudgargad, Dist- Kolhapur 416209","Gargoti","Maharashtra","","9145857722","perfectauto26286@rediffmail.com"
"Kamdhenu Honda","Mr. Jairaj Choudhary","Near Fulchur Naka, Nagpur Road, Gondia, Maharashtra 441601","Gondia","Maharashtra","","9765994888","kamdhenuhonda@yahoo.in"
"Shri Shyam Honda","Mukesh Agarwal","G T Road, Near New Bus Stop Trioda 441911","Gondia","Maharashtra","","09326880380 / 7198253535","shyamhondatirora@gmail.com"
"Shanti Honda","Mr. Dilip Chavan","Trupati Nagar, Akola Road 431513","Hingoli","Maharashtra","","9422877034","shanti.honda.hingoli@gmail.com"
"Shri Gajanan Honda","Shailesh Deshmukh","Nanded Road, Basmat, Dist. Hingoli 431512","Hingoli","Maharashtra","","9673098371 / 7038720044","gajananmotors.wasmat@gmail.com"
"Vitthal Honda","Prakesh Mule","A/P-Indapur Tal-Indapur Dist-Pune 413106","Indapur","Maharashtra","02111-224455","9689011155","vitthalautomobiles@rediffmail.com"
"Millennium Honda","Sachin Awati","Millennium Honda, Near Hotel Midland, Peth Road, Islampur, Dist-Sangli 415409","Islampurr","Maharashtra","","7720048909","sachin.awati@groupmillennium.com"
"Aster Honda","Mr. Irfan Shaikh","A-32 Co-Op Industrial Estate Ajanta Road 425003","Jalgaon","Maharashtra","","9145527274","asterhondajal@gmail.com"
"Ram Honda","Mr. Aditya Jakhete","14  Jilha Peth, Opp. Gs Ground 425001","Jalgaon","Maharashtra","","9371171111","ramhonda1@gmail.com"
"Ram Honda","Prakash Jhakete","University Road, Raver 425201","Jalgaon","Maharashtra","","9373670707","ramhonda4@gmail.com"
"Ram Honda","Prakash Jhakete","Bhadgaon Road, Takli, Chalisgaon 424101","Jalgaon","Maharashtra","","9373670707","ramhonda3@yahoo.com"
"Ram Honda","Prakash Jhakete","Old Jalgaon Road , Opposite Lifecare Hospital, Near Jolly Petrol Pump 425508","Jalgaon","Maharashtra","","8446641111","ramhonda2@gmail.com"
"Devaashva Honda","Sachin Shah","11434-A, Honda 2 Wheeler Showroom, Aurangabad Road, Jalna 431203","Jalna","Maharashtra","8888820258/ 8888866256","8888803001","devaashvahonda@live.com"
"Devaashva Honda","Sandeep / Santosh K Tiwari","Plot No. 18-63--49,Surange Complex, Surange Vasahat, Jalna Road, Ambad-431204 431204","Jalna","Maharashtra","","8888803007 / 8888820258","devaashvahonda@live.com"
"Mauli Honda","Nitin Jagdale","Jalna Aurangabad Road Opp Mahavir Multistate Badnapur 431202","Jalna","Maharashtra","","8888856592","maulihonda88@gmail.com"
"Shree Ganesh Honda","Vishwash Kharabe","Jalna Nanded Highway Mantha 431504","Jalna","Maharashtra","","8888856755","shreeganeshhondamantha@gmail.com"
"Shree Ganpati Honda","Amrut Deshmukh","Near B.P.C.L Petrol Pump Sillod Road Bhokardan 431114","Jalna","Maharashtra","","8805018735","sales.sgmhonda@outlook.com"
"Shourya Honda","Mr. Vishal Patil","Gat No. 96/1B, Kolhapur Road,  Jaysingpur, Tal- Shirol, Dist- Kolhapur. 416101","Jaysinghpur","Maharashtra","","9869234868","vishal22143@gmail.com"
"Rajhans Honda","Mr. Amarsing Rajput","C.Sr.No.2128, Plot No.45, Nh-4 Serv 416410","KAGAL","Maharashtra","","9011977247","shrirammotors.kagal@gmail.com"
"Rajhans Honda","Abhijeet Sapate","A/P:  Kolhapur - Garagoti Road, Borawade ( Titta ) Tal: Kagal Dist: Kolhapur 416216","KAGAL","Maharashtra","","9890342424","shrirammotors.kagal@gmail.com"
"Ratanpprabbha Honda","Manohar","Near Garmain Police Stattion, Chalisgaon Road,kannad,Tq. Kannad, Dist. Aurangabad.  431103","Kannad","Maharashtra","","8888260065","rpm.hondasales2@ratnaprabha.com"
"Deluxe Honda","Vijay Rajaram Ghorpade","Dahiwadi Road,Vaduj,Tal:Khatav,Dist:Satara 415506","Karad","Maharashtra","","9850424044","vikas.ghorpade9991@gmail.com"
"Sai Honda","Pavan Gaikwad","A/P- Karad Chiplun Road,Mhawshi Patan 415206","Karad","Maharashtra","","9923413445","pavan.gaikwad555@gmail.com"
"Shinde Honda","Mr. Amarsinh Shinde","434/2, Shaniwar Peth Market Yard, 415110","Karad","Maharashtra","","9975837777","shindemotors@yahoo.co.in"
"Shinde Honda","Nivas Chande","Shinde Honda, Near Royal Enfield Showroom, Khandobanagar At - Po- Malkapur, Tal- Karad, Dist- Satara. 415539","Karad","Maharashtra","8698277077","9923611365","shindemotors@yahoo.co.in"
"Shri Balaji Honda","Sachin Magar","Sarve No.32/1 K Plat No.-2 Pro.No. 379/4 Akola Road Mehkar Tq-Mehkar Dist-Buldana 443301","Khamgaon","Maharashtra","","9657438788","shribalajihonda88@gmail.com"
"Shriniwas Honda","Mr. Amey R Sananda","Gokul Nagar,Plot No. 3,Near Reliance Petrol Pump,Nandura Road, Khamgaon-444303(Maharashtra) 444303","Khamgaon","Maharashtra","","9922421555","shriniwas.honda@gmail.com"
"Shriniwas Honda","Sunil Ingde","Near Bhagwat Talkies, Loni Road, Lonar, Distt. Buldhana 443302","Khamgaon","Maharashtra","","8378999859","lonar.shriniwashonda@gmail.com"
"Kaizen Wheels Honda","Mr. Rohan Bijjaragi","Gat No. 473/K, Plot No.3, Sangli-Ichalkaranji Road,Yadrav,Tehsil-Shirol, 416109","Kolhapur","Maharashtra","","9890902020","kaizenwheels@gmail.com"
"Laxmi Honda","Mr. Prakash Khilare","Sangli-Kolhapur Highway, Near Ice Cream Factory, Rukadi Fata, Atigre. 416118","Kolhapur","Maharashtra","","9922504563","khilareprakash@yahoo.in"
"Mahalakshmi Honda","Mr. Shreyaunsh Mirje","1/B/1, At Po Sarnobatwati, Tal Karvir , Dist. Kolhapur 416001","Kolhapur","Maharashtra","","9422519041","nitin@mahalaxmihonda.com"
"Mahalakshmi Honda","Abhijeet Sapate / Shreyaunsh Mirje","Plot No.23, Sane Guruji Shikshak Sah. Grah Nirman Sanstha, Radhanagri Road Kolhapur - 416 012 416012","Kolhapur","Maharashtra","","9511912131 / 9890342424","mail@mahalaxmihonda.com"
"My Dreams Honda","Vikas Patil","Chanwad Fhata, Kolhapur Ratnagiri Main Road, 415101","Kolhapur","Maharashtra","","9420009341","sales@dreamshonda.com"
"My Dreams Honda","Mr. Mukesh Bhandari","4/26 Rasika Renaissance, Opp Shahu Market Yard, 416005","Kolhapur","Maharashtra","","9890009000","MUKESH@dreamshonda.com"
"Parshwa Honda","Pritam Prakash Magdum","Opp Raghvendra Talkies, Bye Pass Road, Krundwad, Tal- Shriol, Dist- Kolhapur - 416106 416106","Kolhapur","Maharashtra","","9850273378","ppmagdum@gmail.com"
"Samarth Automibiles","Mansing Khot","Near Ganpati Temple, Kolhapur Road,  Peth Wadgaon 416112","Kolhapur","Maharashtra","","9850045545","smarthauto79@gmail.com"
"Sarvesh Honda","Mahesh Appaso Chougule","Hupari Rendal Road, Mane Nagar, Near Shendure College, Hupari 416203","Kolhapur","Maharashtra","","9822232518","sarveshauto1999@gmail.com"
"Bhansali Honda","Mrs. Yogita Gagare","Bhansali Honda, Near Renuka Tyres, Kolhar BK, Tal: Rahata, Dist: Ahmednagar 413710","Kolhar Bk","Maharashtra","7796051051","","bhansalihondakb@gmail.com"
"Sai Krushna Honda","Rambhau Thombre","Sai Krushna Honda , Sangamner Road, Loni Bk. Tal- Rahata, Dist- Ahmednagar 413736","Kopargaon","Maharashtra","","9422913730","saikrushna.honda30@gmail.com"
"Shradhha Honda","Mr. Vishal Sarode","A/P:-Yeola Road ,Kopargaon ,Tal:-Kopargaon 423601","Kopargaon","Maharashtra","","9850020973","shraddhahonda@gmail.com"
"Laxmi Narayan Honda","Mr. Pradeep Desai","54, 3B, Sangirdewadi, Nh-17,Tal-Kudal, Dist-Sindhudurg 416520","Kudal","Maharashtra","","",""
"Laxmi Narayan Honda","Sarika Korgaonkar","A/P-Majgaon, 24A, Juna Banda Naka, Near Sawantwadi Police Station, Tal-Sawantwadi, Dist-Sindhudurg 416510","Kudal","Maharashtra","","7588922086","laxminarayan.aesaw@gmail.com"
"Laxmi Narayan Honda","Pradeep  Desai","153/33, Kalmath, Kaleshwarnagar, Tal- Kankavli, Dist- Sindhudurg 416602","Kudal","Maharashtra","","9422435022","laxminarayan.ae2012@gmail.com"
"Ajinkya Honda","Mr. Ajaysingh Rajput","Opp. Hanuman Mandir, Barshi Road 413531","Latur","Maharashtra","","","ajinkyahonda@rediffmail.com"
"Ajinkya Honda","Prashant Zarkar","Bidar Road In Front Of Deshmukh Petrol Pump Nilanga 413521","Latur","Maharashtra","","8380098866","ajinkyahonda@rediffmail.com"
"Laxmi Honda","Ashwin Bhosale","Latur Nanded Highway, Front Of Tehsil Midc , Tal- Chakur, Dist- Latur-413513 413513","Latur","Maharashtra","","9923308422","rbbhosle111@gmail.com"
"Shivsagar Honda","Mr. Manohar Kore","R5/467/1K, Vivekanand Chowk, Nanded Road, Latur 413512","Latur","Maharashtra","","7767801882","shivsagar.services@gmail.com"
"Ramratan Honda","Santosh Bajaj","Ramratan Honda, Dharur Road, At/Po- Majalgaon, Tal-Majalgaon, Dist-Bedd 431131","Majalgaon","Maharashtra","","8999912123","ramratanmotors@gmail.com"
"Panchganga Honda","Mr. Mr.Pravin Dashpute","Survey No. 597/3, Chandanpuri Shivar, Near Manmad Choufuly, Tal. 423203","Malegaon","Maharashtra","","",""
"Panchganga Honda","Manish Shirode","Kalwan Road, Deola, Tal- Deola, Dist- Nashik 423102","Malegaon","Maharashtra","","9822506754","panchaganga.motors@gmail.com"
"Shubham Honda","Sachin Agarwal","Goyal Pride, Shop No B 7 & 8 Mumbai - Agra Road,  Market Yard Gate No. 2 Chandwad, Nashik 423101","Malegaon","Maharashtra","","9422256818","chandwadhonda18@gmail.com"
"Dashmesh Honda","Rafik Pardesi","Survey No.63/1, Mumbai Goa Highway, Near Railway Station, Opp. Hotel Konkan Darbar, Tal - Mangaon, Raigad, Maharashtra. 402104","Mangaon","Maharashtra","02141-221429","9619066093","mangaon.honda@simranwheels.com"
"Amit Honda","Mr. Amitsingh Chotmuradi","Plot No.14, Survey No.4/2, Malegaon Naka, Malegaon Road, Manmad,Maharashtra 423104","Manmad","Maharashtra","","9850130011","amithonda11@gmail.com"
"Amit Honda","Amit Singh","Near Bus Stand Yeola-Vaijapur Road, Andarsul 423402","Manmad","Maharashtra","","9960603211","amithonda11.branch@gmail.com"
"Baneshwar Honda","Dayanand Ravindra Patil","Swami Vivekanand Nagar, Yeola Road Nandgaon  423106","Manmad","Maharashtra","","","Baneshwarmotors@gmail.com"
"Patil Automobiles","Patil Ramagouda Ravosaheb","Bijapur Road,Jath , Distt :- Sangli 416404","Miraj","Maharashtra","","9421129744","patil@groupmillennium.com"
"Jogeshwari Honda","Subhash  Gaikwad","Jogeshwari Honda Opps Market Yard Atpadi 415301","Miraj","Maharashtra","","7720019131","jogeshwarihondaatpadi@gmail.com"
"Patil Honda","Vaibhav Patil","Near New S. T. Stand, Jath-Miraj Road, Kavathe Mahankal, 416405 416405","Miraj","Maharashtra","","7588587997","patilauto2013@gmail.com"
"Sai Honda","Pratap Dattatary Kadam","Plot No. 75, Dattmal, Near Ragini Petrol Pump, Sangli Road, Tasgaon. 416312","Miraj","Maharashtra","","8698214141","pratapkadam4141@gmail.com"
"Tri - Colour Honda","Mr. Amit Magdum","927/B, Plot No.13, Near Shani Maruti Temple, Sangli-Miraj Road, Miraj. 416410","Miraj","Maharashtra","","9764150200","AMIT.MAGDUM@YAHOO.COM"
"Pharande Honda","Shekh Babar","Pharande Honda, Mukhed - Narsi Road,  Next to Annabhau Sathe College, Beli Mukhed Dist Nanded 431715","Mukhed","Maharashtra","","7720007704","pharandeauto@gmail.com"
"Jhaveri Honda","Mr. Paresh Shah","312,Hanuman Building, Perin Nariman Street,Opp Rbi 400015","Mumbai","Maharashtra","","","jhaverihonda@hotmail.com"
"Jhaveri Honda","Prashant Warik","Near Noor Masjid, Dongri Circle, Next To Dena Bank, Shivdas Chapsi Marg, Mazgaon, Mumbai 400010 400010","Mumbai","Maharashtra","","9029505068","jhaverihonda@hotmail.com"
"Motoden Honda","Rajinder Singh","Shop No. 9 & 10, 53/55 New Ambalal Chawl, Opp Bosch, Near Tangent, Worli, Mumbai- 400018 400018","Mumbai","Maharashtra","","8655131312","motodenhonda@gmail.com"
"Motoden Honda","Mr. Aditya Jakhete","Plot No 5A, Reti Bunder, Opp. Mahim Bus Depot, Mahim(W) 400016","Mumbai","Maharashtra","","9987101808","adityajakhete@gmail.com"
"NXTGen Jhaveri Honda","Mr.Jabber Ali Ansari","Shop No 4, Kanakia Zillion, Next to Kurla Bus Depot, LBS Marg, Kurla (W), Mumbai  400070","Mumbai","Maharashtra","(022) 20867799 / 26507700 / 26507799","9820492650","NXTGenjhaverihonda@gmail.com"
"Parekh Wings Honda","Pranav Rasal","Shop No.1,2,3 Pushpakunj, Near Mini Cooper Showroom, Opp. Jama Masjid Linking Road, Santacruz West, Mumbai 400054","Mumbai","Maharashtra","022-26613311/26613344/266133355","8097832111","parekhwingshondasantacruz@gmail.com"
"Parekh Wings Honda","Vaibhav Keny","Opp.Wagheshwari Mandir, Film City Road,Next To akar Building, Malad East,  Mumbai 400097","Mumbai","Maharashtra","022-28411007/28491007","8037532111","dindoshibranch@gmail.com"
"Parekh Wings Honda","Ravi Kalrani","Shakti Premises, Newlink Road, Malad West,  Mumbai 400064","Mumbai","Maharashtra","022-28729911/022-28729977/022-28729933","8108266644","parekhwingshonda@gmail.com"
"Pilot Honda","Mr.Sharad More","5, Sunder Baug, Deonar Road, Chembur , Mumbai 400088","Mumbai","Maharashtra","8767756775","9167229996","pilot2wheelers@pilothonda.in"
"Pilot Honda","Sharad M More","Kantilal Maganlal Estate, (Panalal Compound), Gala No-C-1/C,L.B.S Marg, Bhandup (W) Mumbai 400078 400078","Mumbai","Maharashtra","","9167229996","pilot2wheelers@rediffmail.com, pilot2wheelers@pilothonda.in, bhandup.sales@pilothonda.in"
"Pilot Honda","Mr. Sharad M More","C.T.S No:- 847, Old I.B.P Petrol Pump, Near Byculla Bridge, Dr. Ambedkar Road, Byculla E Mumbai  400027","Mumbai","Maharashtra","","9167229996","pilot2wheelers@pilothonda.in,
 pilot2wheelers@rediffmail.com"
"Pilot Pro Honda","Jaspreet Kaur Vijan","Kantilal Maganlal Estate , Panalal compound, Gala No C-1, L.B.S Marg,  Bhandup (W) , Mumbai .  400027","Mumbai","Maharashtra","022-61196969","9167730093","jaspreet.vijan@pilothonda.in"
"Preetam Honda","Mr. Inderpreet Singh","Ashok Industrial Estate,49,Parsi Panchayat Road, Next To Champion Seal Compound,Andheri East,Mumbai 400102","Mumbai","Maharashtra","","9820213120","preetamhonda@gmail.com"
"Venetian Honda","Mr. Moinuddin Shaikh","Divya Ambe Building, J. S. Road, Near Rustomjee Business School, Dahisar West, Mumba  400068","Mumbai","Maharashtra","022-28921114","7400248870","venetiandahisar@gmail.com"
"Venetian Honda","Mr. Vijay Pandey","3, Ronit Arcade, S. V. Road, Poisar, Opp. Kandivali Telephone Exchange, Kandivali  West, Mumbai 400067","Mumbai","Maharashtra","+(91)- 9821121313","+(91)-7507600333","venetianhonda@gmail.com"
"Sai Point Honda","Mr. Bushan Sharma","Plot No. 354, Great Nag Road, Nagpur, Maharashtra 440009","Nagpur","Maharashtra","","7350144444","nagpuredp@saipoint.com"
"Sapna Automobiles","C.B.Sawai","Nag Mandir Chowk Nagpur Raod Saoner Nagpur 441107","Nagpur","Maharashtra","","9921690790","sawaicharudatta@yahoo.in"
"Automech Honda","Prateek Vikas Waikar","Automech Honda, Opp. Ioc Pump Panjara, Koradi, Nagpur. 441111","Nagpur","Maharashtra","","7875556100","automechhonda@gmail.com"
"Mascot Honda","Mr. Laxmansingh Bhonsle","38-39 Telephone Exchange Square, Gandhi Grain Mkt. C.A.Road 440008","Nagpur","Maharashtra","","9823027870",""
"Mascot Honda","Mr. Laxmansingh Bhonsle","60/2,61/2,H-3,Bansi Nagar,Hingna Wadi Road,Opp.Kozi Darmakanta,Mouza-Digdoh,Tah-Hingna,Distt-Nagpur 440016","Nagpur","Maharashtra","","9823027870","ltbhonsle@gmail.com"
"Mohammadi Honda","Shoeb Ali","Old Motors Stand, Itwari Peth, Umred, Nagpur 441203","Nagpur","Maharashtra","","9372262872","mohammadimotors@gmail.com"
"Sai Point Honda","Parag khandagle","Sai Point House, Sai Point Honda , Plot No. 42  Ambika Nagar, Near Go Gas Pump Between Manewada Sqr And Uday Nagar Sqr Nagpur-440027  440027","Nagpur","Maharashtra","8087665588","7350655555","saipointmanewada@gmail.com"
"Shree Automobilrs","Ajay Vishwasrao Deshmukh","Shree Automobiles ,Nagpur Road , Katol-441302 441302","Nagpur","Maharashtra","","9822464869","shreehondakatol@rediffmail.com"
"Sonu Honda","Shashikant Rajalal Sahu","Sonu Honda, Shivram Nagar, Main Road, Khaparkheda, Dist- Nagpur-441102 441102","Nagpur","Maharashtra","","9850337126","sonuauto12@gmail.com"
"Speed Honda","Mushtaque Khan","Plot 33, Mahajan Layout, Main Road, Near Bus Stand, Kalmeshwar 441501","Nagpur","Maharashtra","","9028378635","khan.mushtaque@gmail.com"
"Sudarshan Honda","Piyush Waikar","P.N.T.Coloney Kalamna Road Ranala Kamptee Nagpur 441002","Nagpur","Maharashtra","","9049000449","piyushwaikar7@gmail.com"
"Sudarshan Honda","Mr. Devprakash Kanoria","Kanoria House, Palm Road, Civil Lines, Nagpur 440001","Nagpur","Maharashtra","","9373103430","kanoriadev@hotmail.com"
"Super Honda","Nitin Kemble","Near Old Bus Stand , Ramtek 441106","Nagpur","Maharashtra","","9665024535 / 8888528935","superautoramtek@gmail.com"
"Tajshree Honda","Vishal Moon","Plot 6 & 7, Beltarodi Road, Opp State Bank Of Travancore, Manishnagar, Nagpur 440037","Nagpur","Maharashtra","","7709056183","tajshreehonda2007@gmail.com"
"Tajshree Honda","Mr. Nitin Bhute","Tajshree Varsha, 9 Deo Nagar, Khamla Road, Nagpur 440015","Nagpur","Maharashtra","","9970144444",""
"Vijay Honda","Mr.Narendra Kapadnis","Vijay Honda,Anand Nagar, Malegaon Road,Near SBI, A/P : Nampur, Tal : Satana, Dist : Nashik,  423204","Nampur","Maharashtra","02555/234039","7798354295","vijayhondanampur@gmail.com"
"Mf Honda","Abdul Waseem","Plot No.302 Ganga Nagar Opp.Khoja Colony Gokunda Road Kinwat.Tq.Kinwat Dist.Nanded 431804","Nanded","Maharashtra","","9850868732","mfhondakinwat@rediffmail.com"
"Mf Honda","Mangesh Mule","Opp Jaya Hyundai Latur Phata, Cidco, Nanded. 431603","Nanded","Maharashtra","","9421838282","nnd_mfmotors@rediffmail.com,"
"Mf Honda","Mr. Abdul Waheed","H No 1-18-642/1 Opp.Maratha Hotel Hingoli Gate Raod Maganpura 431602","Nanded","Maharashtra","","9822001072","nnd_mfmotors@rediffmail.com"
"Pharande Honda","Kaustubh Pharande","Opp. Reliance Petrol Pump, Deep Nagar, Purna Road, Nanded  431605","Nanded","Maharashtra","02462-266422, 266433","7720007711","pharandeauto@gmail.com"
"Unique Motors","Sayed Imtiyaz Ali","Unique Honda Manjula Nagar Nanded Road Bhokar 431801","Nanded","Maharashtra","","8554917777","nnd_uniquemotors@rediffmail.com"
"Vishwanath Honda","Shrikanth Maskale","Vishwanath Honda Near Vishwanath Petrol Pump Gulab Vadi Kandhar 431714","Nanded","Maharashtra","","9420459687","vishwanath.honda@gmail.com"
"Jai Jalaram Honda","Mr. Ishwar Patil","S.No.559,Plot No 1&2,Dondaicha Road Shahada Dist. 425409","Nandurbar","Maharashtra","","9561944545","jalaramauto.shahada@gmail.com"
"Jai Jalaram Honda","Nandlal Patil","Bansilal Nagar, Opp.New Holland Tractor,Jijamata Collage Rd. Nandurbar 425412","Nandurbar","Maharashtra","","9730308577","jalaramndb@gmail.com"
"Sai Honda","Ajay  Pardesi","44, Pralhad Nagar, Shahada Road, Taloda, Nandurbar 425413","Nandurbar","Maharashtra","","9423344601","saiautohondataloda@gmail.com"
"Advait Honda","Mr. Santosh Jamale","Pune-Nashik Highway, Narayangaon Tal.Junnar Dist 410504","Narayangaon","Maharashtra","","7720947776","advaithonda0701@gmail.com"
"Gurudatta Honda","Mukesh Bhimsing Khot","26/2A, Near Anjuman High School, Pardeshpura, Barav Narayangaon Rd.  Junnar, Tal Junnar Dist- Pune 410502 410502","Narayangaon","Maharashtra","","9175038678","gurudattahondajunnar@gmail.com"
"Khushi Honda","Mr. Ghegadmal Ravi","22/6, Besides Hotel Landmark, Upnagar, Nashik Pune Road 422101","Nashik","Maharashtra","","7774053444","khushihonda@gmail.com"
"Khushi Honda","Yatish Thakur","Near Railway Gate, Bhandardara Road, Ghoti, Tal-Igatpuri, Dist. Nashik 422403","Nashik","Maharashtra","","8380840555","khushihonda@gmail.com"
"Khushi Honda","Nitin Bhalerao","Shop 7&8, Shantideep Society, Near Durga Gas Pump, Lam Road, Devolali, Dist. Nashik 422101","Nashik","Maharashtra","","8380880555","khushihonda@gmail.com"
"Rushabh Honda","Arvind Kale","Plot 31, Opp Gajanan Society, Dindori Road, Mhasrul, Dist. Nashik 422004","Nashik","Maharashtra","","7774017963","rushabhhonda.bm@gmail.com"
"Rushabh Honda","Sunny David","Shop No 3 & 4 Roongta Shopping Mall, Near Burkule Hall Uttamnagar, Cidco Nasik 422009","Nashik","Maharashtra","","7774062107","rushabh.2w@gmail.com"
"Rushabh Honda","Mr. Yogesh Tungar","82, Ambe Bahule Road, Vilholi, Nasik, Maharashtra 422010","Nashik","Maharashtra","","9673994720","rushabh.edp@gmail.com"
"Sachi Honda","Mr. Rahul Bendre","Gat No. 474,At & Post Shinde 422102","Nashik","Maharashtra","","9922164999","sachihonda@gmail.com"
"Sachi Honda","Dinesh Varade","Sachi Honda Opp. Udhyog Bhavan Nashik Pune Rd. Sinnar 422103","Nashik","Maharashtra","","9552566609","sachihonda@gmail.com,"
"Sachi Honda","Kiran Bhalerao","Opp Khetwani Lawns Untwadi Cidco 422008","Nashik","Maharashtra","","9881769994","sachihonda@gmail.com"
"Sachi Honda","Swapnil","Sachi Honda Opp Nmc Panchvati Office, Ramwadi, Makhmalabad Naka, Panchvati, Nashik-422003 422003","Nashik","Maharashtra","","9011936999","sachihonda@gmail.com"
"Shree   Shankeshwar Honda","Sadashiv  Chavanke","Near Sankheshwar Temple, Shop No. 2,3,4,5, Vani Nashik Highway, A/P- Vani, Tal- Dindori, Dist- Nashik. 422215","Nashik","Maharashtra","","9881782285","anna.chavanke@gmail.com"
"Siddhivinayak Honda","Sanjay Chhajed","Nilwandhi Road Near Court ,Dindori ,Nasik 422202","Nashik","Maharashtra","","9096909000","siddhivinayakmotors9@gmail.com"
"Khan Honda","Azhar Pathan","Plot No. 6, Lucky Park, Dhule Surat Highway, Navapur, Dist- Nandurbar. 425418","Navapur","Maharashtra","","""7744050033 /   8888359933""","khanhonda19@gmail.com"
"Bhavna Honda","Mr. Rajesh Shah","Plot No- 26,Sec-1 Near L P Bridge,Mumbai Pune Highway Nerul (E) 400706","Navi Mumbai","Maharashtra","","9768708500","rajesh206_2005@yahoo.com"
"Bhavna Honda","Mangesh Bhosale","Arham Arcade, Plot No E 14, Sec-3, Belpada, Khargar 410210","Navi Mumbai","Maharashtra","","9664442170","bhavnahonda@yahoo.com"
"Bhavna Honda","Mr. Shrenik C Shah","Shop No. 3 To 7, Marvel Chs Plot No 138 ,139 Sector 50, New Seawood, Nerul Navi Mumbai. 400706","Navi Mumbai","Maharashtra","","7039030483","salesseawoods@bhavnahonda.in"
"Bhavna Honda","Mr. Khanderao Kkhawale","NMS Icon , Shop 1, Plot 194 , Sector 19 , Ulwe (Mumbai)  410206","Navi Mumbai","Maharashtra","8422820279","8422820279","salesmanager@bhavnahonda.in"
"Vihaan Honda","Mr. Kishore Sejwani","Plot. No. 10, Sector-26, Koparinaka,Near Hanuman Mandir,Vashi 400705","Navi Mumbai","Maharashtra","","9819820876","vihaan.vashi@gmail.com"
"Rohan Honda","Rohan","Shop No.10/11, Rk Plaza, Saikheda Phata, Ozar (Mig ), Tal-Niphad, Dist. Nashik-422206 422206","Niphad","Maharashtra","","9096555515","viren_2222@rediffmail.com"
"Shree Ganesh Honda","Mr. Yati Gujrathi","Sur No. 27, Plot No. 2, Nashik Aurangabad Highway A/P Rasalpur, Tal- Niphad, 422303","Niphad","Maharashtra","","9922441929","ganeshhonda2014@gmail.com"
"Shree Ganesh Honda","Yathi Gujarathi","Sur No.27,Plot No.2,Nashik-Aurangabad Road,At/Po-Rasalpur,Tal-Niphad 423401","Niphad","Maharashtra","","9822054224","ganeshhondayeola2014@gmail.com"
"Shri Anand Honda","Jitendra Ashok Palod","Gat No. 2 Plot No.3  Opp Datta Mandir  Vinchur Road Lasalgaon Nashik 422306","Niphad","Maharashtra","","9404985755","anandhonda.lasalgaon@gmail.com"
"Aditya Honda","Ramvilas Hedda","Hydrabad Road Omerga.Usmanabad 413606","Osmanabad","Maharashtra","","9422467333","hettarv@rediffmail.com"
"True Honda","Mr. Amit Modani","In Front Of Central Jail, Aurangabad Road, 413501","Osmanabad","Maharashtra","","9370456333","true.honda@rediffmail.com"
"True Honda","Satish Shinde","Near New Bus Stand, Ausa Road, Tuljapur, Distt. Osmanabad 413601","Osmanabad","Maharashtra","","7385775929","true.honda@rediffmail.com"
"Shreekrishna Honda","Mr. Prashant Deshmukh","Datta Nagar, Paithan Road, Pachod, Tq. Paithan, Dist.- Aurangabad. 431121","Pachod","Maharashtra","02431-221531","9890376537","shreekrishnahondaservice@gmail.com"
"Vihaan Honda","Vinay Chaughule","Shop No.1 to 7 Lilavati Apartment,Ground Floor, Survry No.13/31,Village Padgha,Tal-Bhiwandi,Dist- THANE 421101","Padgha","Maharashtra","7039336060","7506336020","vihaanhonda@gmail.com"
"STS Honda","Mr. Sanket Patil","5/6/7/8 Kanchan Kunj Opp. 70 Gala, Mahim Road,Palghar ( West) 401404","Palghar","Maharashtra","","7722061684","palghar.sales@stsauto.co.in"
"Sangram Honda","Mr. Sanjay Dongare","Gat.No. 108/A/6/7 Kbp College Road Opp Market Yard 413304","Pandharpur","Maharashtra","","9850889001","sangram_auto@rediffmail.com"
"Tamboli Honda","Rafiq Tamboli","256, Miraj Road, Near Bharat Sales & Service, Sangola, Distt. Solapur 413307","Pandharpur","Maharashtra","","8275266551","tophik7869@gmail.com"
"Sharayu Honda","Mr. Aarif Shaikh","Plot No  79  Panvel Industril  Estate 410206","Panvel","Maharashtra","","8898130011","aarif_sk@sharayuhonda.com"
"Sharayu Honda","Shreenivas Pawar","Santosh Apart. Gala No. 3,4,5,6. At+ Po- Uran, Dist - Raigarh 400702","Panvel","Maharashtra","","","sharayuhonda@yahoo.com"
"Sharayu Honda","Harish Uttekar","Swastik Plaza , Plot No 12 To 15, Sector -11, Kamothe, Panvel 410206","Panvel","Maharashtra","","8888555791","sharayuhonda@yahoo.com"
"Sharayu Honda","Shreenivas Pawar","Plot 79 Panvel Co Op Industrial Estate Panvel Raigad : 410206  410201","Panvel","Maharashtra","","9820188201","sharayuhonda@yahoo.com"
"Ashapura Honda","Mr. Kirit Shah","Near Hotel Gulmohar, Basmath Road 431401","Parbhani","Maharashtra","","9422875455","ashapuramotors@hotmail.com"
"Sakuntala Honda","Mr. Sohel Patel","Parli Nanded Road, Opp. Raghuveer Jeening Gangakhed Dist.Parbhani 431514","Parbhani","Maharashtra","","9765275787","starhondagkd@gmail.com"
"Siddhi Honda","Santosh Deshmukh","Ganga Nagar, Jalna Road, Jintur 431509","Parbhani","Maharashtra","","9422968983","siddhimotorsjintur@gmail.com"
"Mahalaxmi Honda","Deepak Patil","Mahalaxmi Honda, Opp. Krupa Sindhu Mangal karyalya, At Post- Parite, Tal- Karveer, Dist- Kolhapur 416001","Parite","Maharashtra","9021493292 / 8888443548","9130203232","Sales@mahalaxmihonda.com"
"Deshmukh Honda","Tanaji Deshmukh","Ambajogai Road Opposite Shankar Parvati Nagar Parli V Dist Beed  431515","Parli","Maharashtra","2446223999","7030849999","deshmukhhondaparli@gmail.com"
"Parineeti Honda","Mr. Ashish Kothari","Next To Dominoz,Near Janata Sahakari Bank,Plot No. 288/S, Sector No. 4,Pcntda ,Pune - Nashik Highway,Moshi 411039","PCMC","Maharashtra","","9726914000","kothariautowings@gmail.com"
"Rohan Honda","Rahul  Imadshetti","33/A, Mumbai - Pune Road , Opp CME College , Dopodi, Pune 411012","PCMC","Maharashtra","02027143000 / 02027146565","7066714346","rohan.automotive@gmail.com"
"Rohan Honda","Yogesh Pawar","2491/2, Pune-Nashik Highway, Opp Swapngandha,Chakan,Tal-Khed,Dist.Pune 410501","PCMC","Maharashtra","9657021555","9850856060","rohanhonda.chakan@gmail.com"
"Rohan Honda","Vinit Sapkal","Solitare Residency, J-1 Sindhu Park Society, Sr No. 05 Pimple Saudagar Rahatani Road, Opp.Kunjir Ganpati Mandir,Rahatani, Pune. 411017","PCMC","Maharashtra","7709000079","8208009794","rohanautopimplesaudagar@gmail.com"
"Sterling Honda","Mr. Ayaz Thanawala","Plot No.65/7, D-Ii Block,M.I.D.C, Chinchwad 411019","PCMC","Maharashtra","","9850786666","sterlinghonda@rediffmail.com"
"Sterling Honda","A.S.Thanawala","28/24 D Ii Block Midc,Near Ksb Pump, Chinchwad, Pune 411018","PCMC","Maharashtra","","9850786666","sterlinghonda@rediffmail.com,"
"Yug Honda","Mr. Samrat Tyagi","Sr No 269/1/2/3,Aundh Hinjewadi 411057","PCMC","Maharashtra","","9923386911","yughondapune@gmail.com"
"Borawake Honda","Mr. Hemant Borawake","Near Jinti Bridge Pune Pandharpur Road 415523","Phaltan","Maharashtra","","9545771111","basphaltan@gmail.com"
"Deokar Honda","Nilesh Deokar","Opp-Public School, Main Road Pusegaon, Tal - Khatav, Dist- Satara 416602","Phaltan","Maharashtra","","7745080774","deokarauto@gmail.com"
"J K Auto","Rajendra Shivaji Katte","Near Dangare Mangal Karyalaya, Dahiwadi - Vaduj Road,Dahiwadi, Taluka - Man, Satara. 415508","Phaltan","Maharashtra","","9673005520","Jkauto34@yahoo.co.in"
"Khot Honda","Arjun Ananda Khot","At-Post Mhaswad , Near Kunjan Petrol Pump Satara Pandharpur Road,Tal - Man, Dist- Satara. 415509","Phaltan","Maharashtra","","901362359","khotautohonda2wheeler@gmail.com"
"Siddhanath Honda","Jitendra Uttam Adsul","Near Shivshakti Petroleam, Pune-Satara Road, Lonand, Tal- Khandala, Dist- Satara-415521. 415521","Phaltan","Maharashtra","","7776855050","jitendraadsul1984@gmail.com"
"Aero Honda","Mr. Chetan Doshi","1 Vega Center,401/1 Shankar Sheth Roadswargate 411037","Pune","Maharashtra","","9822246628","aerohonda@gmail.com"
"Aero Honda","Vinayak","Harshwardhan Pride, Survey 54/7C, Wadgaon Budruk, Tal. Haveli 411041","Pune","Maharashtra","","9764147070","aerohonda@gmail.com"
"Aero Honda","Sandeep Gosavi","Sr.No.17/1/1, Pl.No.10, Cst No.307, Chavan Nagar Dhankawadi, Pune 411043 411043","Pune","Maharashtra","","9657012834","aerohonda@gmail.com"
"Aman Honda","Mr. Aman Agarwal","Sr.No.264/7/2, Near Green Park Hotel, Baner, Pune, Maharastra 411007","Pune","Maharashtra","","9923752888","dinesh.swadeshi@gmail.com"
"Apurva Honda","Satish A Bankhele","A/P-Manchar, Opp Samadhan Resturant, Pune Nashik Highway, Manchar, Tal- Ambegaon,Dist-Pune. 410503","Pune","Maharashtra","","9970068555","apurvamotors2004@gmail.com"
"B.U.Bhandari","Chandhravadan. V. Bhandari","S.No-34-A/5, Shop No. 1 ,Lalwani Prestige, Viman  Nagar Corner, Nagar Road Pune. 412207","Pune","Maharashtra","","8888011555/9881714942","nsr@bubhandari.net"
"B.U.Bhandari","Mr. Deven Bhandari","Sr No 11/5 12/1 Petit Estate Cannught Road Pune 1 411001","Pune","Maharashtra","","9822654545","deven@bubhandari.net"
"Balaji Honda","Tushar Shendkar","Chandan Tekadi, Saswad -Hadapsar Road, Nr. Siddeshwar Hall, A/P- Saswad, Tal- Purandhar, Dist- Pune-412301. 412301","Pune","Maharashtra","","9822845599","balajimotors.saswad@gmail.com"
"Gagan Wings Honda","Sagar Dhimate","Survey No 21, Hissa No.4 Opp Colombia Asia Hospital, Kharadi By Pass Kharadi, Pune-411014. 411014","Pune","Maharashtra","","7768009029","sales@gaganhonda.in"
"Gagan Wings Honda","Mr. Vishal Agarwal","Gat No.1361(Old No. 2347) B/1/3C, Pune - Nagar Road, Opp. Poona Warehouse, Wagholi 412207","Pune","Maharashtra","","7768009025","vishal.agarwal@gaganhonda.in"
"Kanade Honda","Anil Kanade","Sr. No. 28/1, Kande Nagar, Undrigaon, Katraj-Saswad By Pass-Road, Pune-411060. 411060","Pune","Maharashtra","","9762999769","sales@kanadehonda.com"
"Kothari Honda","Mr. Rupesh Kothari","Plot No-111, Near Fakhari Hills, Opp, Fire Brigade Center,Kondhwa Road Pune 411040","Pune","Maharashtra","","9823059002","kothariwheels@yahoo.com"
"Kothari Honda","Rupesh Kothari","Survey No. 583/10, Shukrawar Peth, Tilak Road, Pune 411002","Pune","Maharashtra","","9823059002","kothariwheels@yahoo.com"
"Krishaa Honda","Mr. Kiran Pathare","S No. 2032/2 Mahadeo Nagar Joshiwadi Shirur Tal Shirur 412210","Pune","Maharashtra","","9146195099","sales@krishaahonda.com"
"Morya Honda","Vasant Bankar","Lande Vasti, Nagar Pune Roda, Ranjangaon, Tal- Shirur, Dist- Pune-412208 412220","Pune","Maharashtra","","9921381111","moryamotorsasc@gmail.com"
"My Wings Honda","Mr. Ajay Garg","S.N. 94/3/1, Near Bhusari Colony, Paud Road. Kothrud 411038","Pune","Maharashtra","","9326530000","sales@hondamywings.com  saleshead@hondamywings.com"
"My Wings Honda","Sumeet Dalvi","Opp. P L Deshpande Garden, Near Mseb Office Sinhgad Road Pune 411051","Pune","Maharashtra","","8600700720","salesheadsing@hondamywings.com"
"Om Wheels Honda","Mr. Inder Oswal","Om House, Plot No 1, Rao Colony, Talegaon Dabhade, Tal Mawal, Dist Pune 410506","Pune","Maharashtra","","9765459999","inder.oswal@omgrouptalegaon.com"
"Om Wheels Honda","Ronak Oswal","198/1, Old Mumbai Pune Highway, Naigaon, Near Om Petroleum ,Kamshet, Tal-Maval,Dist-Pune  410505","Pune","Maharashtra","","9923274999","rohan.oswal@omgrouptalegaon.com"
"Parashankar Honda","Pradeep","Bhakti Plaza,C.T.S.No2549,Opp Aundh Police Station,Aundh,Pune  411007","Pune","Maharashtra","","9923004453","pashankarauto@hotmail.com"
"Parashankar Honda","Sameer","Milkat No 2429/1 - 2429/6 S N 138 Krishna Complex,Pirangute,Pune Opp Iocl Pump Lavle Phata, Pirangut 411042","Pune","Maharashtra","","9049011000","pashankar.pirangut@gmail.com
,pashankarauto@hotmail.com"
"Parashankar Honda","Chintan","Sr. No. 24/62/09 Near Bp Petrol Pump, Daund, Pune 413801","Pune","Maharashtra","","9923005575","pashankarauto@hotmail.com"
"PASHANKAR AUTO PVT LTD","SAGAR PASHANKAR","364-365/2 Opp Jangali Maharaj Temple J.M.Road Shivaji Nagar Pune -5 411005","Pune","Maharashtra","020-25512033/66","9923005554","pashankarauto@hotmail.com"
"Samarth Honda","Shashikant Gaikwad","Survey No. 125 A/2, Old Mumbai-Pune Highway, Valvan, Nangargaon Road, Valvan, Lonavla-410401 410401","Pune","Maharashtra","","9370710806","samarthmotors.31@gmail.com"
"Shelar Honda","Sangam Dattatray Shelar","Pune Solapur Road, Urulikanchan, Opp Kasturi Lawn'S, Urulikanchan, Pune-412202 412202","Pune","Maharashtra","","9764452650","shelarautomotive2016@gmail.com"
"Shree Gurukrupa Honda","Subhash Namdev Dhumbre","A/P- Otur, Near Datta Mandir, Tal- Junnar, Dist- Pune-412409 412409","Pune","Maharashtra","","9970100545","subhashndumbre@gmail.com"
"Sky Honda","Mr. Amit Shah","S.No.77/2/1/1 Manjari Bk 412307","Pune","Maharashtra","","","amit.skyhonda@gmail.com"
"Sterling Honda","Mr Tanzeb","Jadhav Chambers, B-Wing, Shop No 1,2,3,4,5 Ground Floor, Akurdi Pune 411035","Pune","Maharashtra","","9850786666","sterlinghonda@rediffmail.com"
"Theurkar Honda","Dnyaneshwar Theurkar","A/P Shikrapur, Gat No. 1568, Bajarangwadi,Pune Nagar Road, Tal-Shirur, Dist-Pune-412208 412208","Pune","Maharashtra","","9822256464","theurkarautolines@gmail.com"
"Yash Honda","Bharat Deshmukh","Yash Honda ,Opp Sp Infocity Saswad - Pune Road Phursungi Pin 412307 412307","Pune","Maharashtra","","9850848303","yashhondapune@gmail.com"
"Yash Honda","Mr Vinayak P","Sr. No 106/A-1 Surylok Nagari Near Kirloskar Bridge,Hadapsar Pune 411013","Pune","Maharashtra","020 - 26816511","9049867133","yashhondapune@gmail.com"
"Yashraj Motors","Mr. Yogesh Keshav Magar","A/P- Boripardhi ( Chaufula ), Tal- Daund, Pune-413801. 413801","Pune","Maharashtra","","9850029964","yashrajmotors@rediffmail.com"
"Yug Honda","Rohan Gotpagar","Sr. No.268/2A, Ananta Nagar, Laxmi Chowk, Hinjawadi, Pune 411057","Pune","Maharashtra","","8237060010","yughinjawadi@gmail.com"
"Bhansali Honda","Mr. Siddharth Bhansali","Plot No: 31-32, Survey No: 444/1/27 & 444/1/28, At/Po: Sakuri, Tal: Rahata 423107","Rahata","Maharashtra","","8888550055","ceo@bhansalihonda.com"
"Jagrut Honda","Mr. Rajendra Joshi","Survey No.410/6/1B, Salvi Stop 415612","Ratnagiri","Maharashtra","",".","."
"Shree Ganesh Honda","Mr. Imran Shaikh","Chatori Road,, Near Sai Hospital, Saikheda. 422210","Saikheda","Maharashtra","9944227958","9944227958","ganeshhonda2014@gmail.com"
"Shree Rajendra Honda","Mr. Mr.Omkar Somani","3566B, Pune - Nasik Highway, Near Sahyadry College, 422605","Sangamner","Maharashtra","","9822391210","shreerajendrahonda@gmail.com"
"Shree Rajendra Honda","Mr. Vinod Waghchaure","Near Maharaja Lawns,Kolhar-Ghoti Road, Akole-422601 422601","Sangamner","Maharashtra","","7774059096","shreerajendrahonda@gmail.com"
"Vidya Auto","Dattatray Maruti Yadav","Vidya Auto,Peth Sangli Road,Islampur 415409","Sangli","Maharashtra","","9822765991","vidya@groupmillennium.com"
"Millennium Honda","Mr. Nikhil Patil","Venktesh Senate, Karmever  Bhaurao Patil Chawk, Sangli  Miraj  Road 416416","Sangli","Maharashtra","","9422616363","nikhilhonda@yahoo.co.in"
"Pattanshetti Honda","Mr. Sanjeev Pattanshetti","Pattanshetti Landmark S.N 127 +232 416416","Sangli","Maharashtra","","9422406660","pattanshettihonda@gmail.com"
"Pranavraj Honda","Sanjay Patil","Pune Banglore Highway , Near Prinkya Hotel, Kasegaon, Tal- Walva, Dist- Sangli. 415404","Sangli","Maharashtra","","9422034449 / 8275060444","pranavraj@groupmillennium.com"
"Yash Motors","Bajrang Mane","Tasgaon - Palus Road Palus 416308","Sangli","Maharashtra","","9922636391","yash@groupmillennium.com"
"Yashodhan Honda","Vikas Suryawanshi","At-Post-Kadepur  ( Dongrainagar ) Tal- Kadegaon, Dist Sangli-415305 415305","Sangli","Maharashtra","","7720937555","ssuryawanshivikas@gmail.com"
"Mayuresh Honda","Vipul Dilip Hyalij","Mayuresh Complex,Malegaon Road,A/P Nampur,Tal Baglan, Dist-Nashik. 423204","Satana","Maharashtra","","9764643326","vipulhyalij@gmail.com"
"Shree Ganesh Honda","","Kalwan Devola Road, Ganesh Nagar, Kalwan-423501 423501","Satana","Maharashtra","","9404577925","ratnadeepshirore8@gmail.com"
"Vijay Honda","Mr. Prakash Deore","Satana Sno.55/2 Nasik Road Morenagar 423301","Satana","Maharashtra","","9860292922","vijayhonda2013@gmail.com"
"Atharva Honda","Dinesh Mohan Thorat","Opp Circuit House, Satara-Pandharpur Road, Koregaon-415501 415501","Satara","Maharashtra","","9820892762 / 9075955125","dinuk24_86rediffmail.com"
"Hem Wings Honda","Mr. Ishan Shah","Plot No,A-2D,Old Midc ,Near Kalyan. 415001","Satara","Maharashtra","","9765555331","hemwingshonda@gmail.com"
"Kanase Honda","Sangram Sambhajirao Mane","S. No. 43/1/1A 42, NH-4, Near Bombay Restaurant Chowk, Flyover, Satara  415003","Satara","Maharashtra","7030900121","7030900127","gm.kanasehonda@gmail.com"
"Swaraj Honda","Ashish Kanse","Plot No 33, Wai-Pune Road, Opposite Cbd Compelx, Wai Dist Satara 412803","Satara","Maharashtra","","9922985696","aashish.kanse30@gmail.com"
"Shriniwas Honda","Amey Sananda","Opp Hotel Vighnaharta Inn, Bharat Nagar, Khamgaon Road, Shegaon 444203","Shegaon","Maharashtra","9552399799","8378999871","shegaon.shriniwashonda@gmail.com"
"Nikam Patil Honda","Shashikant Nikam","Nikam Patil Honda, Opp-Shirwal Polce Station, Tambe Mala, Mumbai bangalore Highway, Shirwal, Tal- Khandala, Dist- Satara 412801","Shirwal","Maharashtra","7066207207","7410570503","Nikampatilhonda@gmail.com"
"Bankar Honda","Mayur Bankar","Sonai Ghodegaon Road, Sonai, Tal Newasa, Ahmdenagar 414105","Shrirampur","Maharashtra","","7720032186 / 9860779566","mayurbankar.66@gmail.com"
"Khusagra Honda","Jagdish Somani","Gut No 75/2/B/2 Off Aurangabad Pune Highway Village Mukindpur Newasa Phata Taluka Newasa Dist Ahmednagar  414603","Shrirampur","Maharashtra","","9422202451","kushagra.honda@outlook.com"
"Oberoi Honda","Mr. Mr.Anil,Harishandinderjit Oberoi","Sr No. 68/2, F.P. No. 1178, Sangamner Road, 413709","Shrirampur","Maharashtra","","9822040599","oberoihonda@gmail.com"
"Hariom Honda","Mr. Rohit Agrawal","S.No.15 Plot No.165, Near Gramin Police Station Jalgaon Road Sillod 431112","Sillod","Maharashtra","","9823004337","SANTOSHTRADERSSILLOD@GMAIL.COM"
"Autorider Honda","Mr. Rahul Shrikhande","129/1 B, Shrikant Nagar ,Jule Solapur, 413004","Solapur","Maharashtra","","9850400010","rahul.shrikhande@ymail.com"
"Autorider Honda","Shrikant  Kshirsagar","Autorider Honda, Plot No. 27, Infornt Of Lokhandwala Vihar, Asara Chowk Industrial Estate, Solapur-413003. 413003","Solapur","Maharashtra","","7774090500 / 7774090500","dreamautoriders@gmail.com"
"Dhanshri Honda","Satish Bhau Dattu","Solapur Road Mangalwedha 413305","Solapur","Maharashtra","","9665695680","dhanshri.honda54@gmail.com"
"KAIZEN HONDA","PRACHI","165/8 OLD EMPLOYMENT CHOWK ,RAILWAY LINE ,SOLAPUR  413001","Solapur","Maharashtra","0217-2317303/04","8380027004","kaizenhonda@gmail.com"
"Kaizen Honda","RAHUL","15/A/1 RAVIWAR PETH, AKKALKOT ROAD, NEAR ESSAR PETROL PUMP, SOLAPUR  413006","Solapur","Maharashtra","2017-2375000","8380027129","kaizenhonda@gmail.com"
"Lokseva Auto","Vishwash Mule","Near Vithal Kamat Hotel Nh65 Mohol  413213","Solapur","Maharashtra","","7720066801","loksevahonda@gmail.com"
"Raj Auto","Rajshekhar Patil","A-1 Chowk, Station Road, Akkalkot, Distt. Solapur 413216","Solapur","Maharashtra","","7841070753","hondarajauto@gmal.com"
"Sai Point Honda","Mr. Dilip Patil","Ganesh Wadi Nr. Minal Apt, Opp Mohan Marriage Garden, Opp Tmc, 400601","Thane","Maharashtra","","9967453786","dilip@saipoint.com"
"Sai Point Honda","Mr. Sher Ali Khan","Shop No- 5-8, Sidhivinayak Plaza, Temghar, Kalyan- Bhiwandi Road, Bhiwandi 421301 421302","Thane","Maharashtra","","8452811222","ali@saipoint.com"
"Sai Point Honda","Mr. Rupesh Yadav","Lahoti Compound,? Dandekar Kalyan Bhiwandi Road Mira Road 421302 401107","Thane","Maharashtra","","9322809895","saipoint@saipoint.com"
"Sai Point Honda","Pushpak Ranka","5,6,7,8 Reva Chembers Opp Centre Point Hotel  Nr Jk Petrol Pump, Purna Villege, Kalher Thane 421301","Thane","Maharashtra","","9967453786","pushpak@saipoint.com"
"Sai Point Honda","Anuj","Shop No.2, Noorani Tower, Near Ambar Hotel, Kausa, Mumbra, Thane 400612","Thane","Maharashtra","","8691090005","ashwini@saipoint.com"
"Vihaan Honda","Mr. Anuj Singh","Shop No 8 & 9 , Mavis Tower , Next To Bank Of Maharashtra , Shree Nagar , Wagle Estate , Thane (West) 400604","Thane","Maharashtra","","9892843958 , 9322710021","vihaanhondashreenagar2014@gmail.com"
"Vihaan Honda","Mr. Shyam Pawar","New Vegas Plaza , B-Wing , Shop 1 To 7 , Ovala Naka , Ghodbunder Road , Thane (West) 400615","Thane","Maharashtra","","7506336026","vihaanhondaovala2013@gmail.com"
"Vihaan Honda","Mr. Suresh Kamwani","Gut No 147 , Survey No 34/6-7 , Old Agra Road, Cherpoli, Shahapur Dist Thane 421601","Thane","Maharashtra","","7506336027","vihaanhondashahapur2012@gmail.com"
"Vihaan Honda","Mr. Kishore Sejwani","Plot No 20 Soham Plaza Chitalsar Manpada G B Road 400607","Thane","Maharashtra","","9819820876","kishoresejwani@gmail.com"
"Anjali Honda","Mr. Balaji Polawar","Nath Krupa Bidar Naka, Bidar Raod Udgir 413517","Udgir","Maharashtra","","9890162689","ANJALIHONDA999@GMAIL.COM"
"V J Honda","Mr. Manojj. Lalwani","Shree Sainath Complax, Kalyan Ambernath Road, Shanti Nagar 421003","Ulhasnagar","Maharashtra","","9527499000","vjhonda1@yahoo.co.in"
"V J Honda","Manoj Lalwani","Shop No - 22 To 25 , Yog Vaibhav Chs. Surya Nagar Shirgaon  Midc Road , Badlapur,Thane 421503","Ulhasnagar","Maharashtra","","7798880823","vjhonda@rediffmail.com"
"V J Honda","Vanisha","Nr. Badlapur Phata Kalyan-Murbad Road, Devgaon, Murbad 421401","Ulhasnagar","Maharashtra","","9925004244","vjhonda@rediffmail.com"
"Lakhani Honda","Musharaf","Lakhani Honda Opp.Saint Monica School Railway Station Road Vaijapur  423701","Vaijapur","Maharashtra","9172788536","9172788536","lakhanihonda@gmail.com"
"Aditya Honda","Mr. Aditya Jakhete","Ram Rahim Shelter, Ambadi Road, 100 Ft Road, Vasai West 401202","Vasai","Maharashtra","","9371171111","aditya.jakhete@gmail.com"
"Aditya Honda","Chandra Nepune","Shop 1 To 6, Shivsthan Complex , Building No. -1,Agashi Road,Opp. Gokul Township.Thane 401 501","Vasai","Maharashtra","","9673043111","adityahonda@rediffmail.com"
"Aditya Honda","Harshil","Shop No. 2,3,4,& 5 , New Shree Trade Center, Nr. Reliance Office, Opp. Equity Resturant, Bhayander Fatak Rd.,Bhayander (E) 401105","Vasai","Maharashtra","","8898554755","prabhanjanvasai@gmail.com"
"Aditya Honda","Vipin Trivedi","Shram Safalya, Shriprashtha Road, Opp. Dominos, Nalasopara(W) 401203","Vasai","Maharashtra","","9420805411","prabhanjanvasai@gmail.com"
"Pharande Honda","Suryawanshi Govindsingh","Borbarn, Govardhan Ghat Road,Vazirabad, Tal-Nanded, Dist-Nanded. 431601","Vazirabad","Maharashtra","2462297553","8888399913","pharandeaut@gmail.com"
"Shanti Honda","Mr. Vikas Khandelwal","S.No-161, Plot No-132, Airport Vishrantwadi Road, Tingre Nagar, 411015","Vishrantwadi","Maharashtra","","9370281589","vikas.shantigroup@gmail.com"
"Shanti Honda","Nimesh Shirke","Shanti Honda, Alandi-Pune Road,At Post Alandi Dewachi,Near Pawana Sahakari Bank,Dehu Phata,Pune 412105","Vishrantwadi","Maharashtra","","8380011584","alandi.shantihonda@gmail.com"
"Shanti Honda","Mr. Vijay Agarwal","Mulani Plaza 4 Elphiston Road, Near Gurudwara Bopodi Khadki Pune 411003 411003","Vishrantwadi","Maharashtra","","9552633600","khadki.shantihonda@gmail.com"
"Millenium Honda","Mr. Arjun Bhinse","Millenium Honda , Opposite Bhairavnath Marriage Hall , Mayni Road , Vita   415311","Vita","Maharashtra","9922269450","9922269450","arjun.bhinse@groupmillennium.com"
"Sri Babuji Automobiles","Mohan Khilwani","Sri Babuji Automobiles.Bus Stand Road, Hinganghat 442301","Wardha","Maharashtra","","9975099997","babujiauto@gmail.com"
"Harison Honda","Mr. Dilip Kriplani","Opp Nagar Parishad Naka Nagpur Road Wardha 442001","Wardha","Maharashtra","","9850093345","harisonshonda1@gmail.com"
"Harison Honda","Dilip Kriplani","Harisons Honda Near Deoli Naka Yavmatal Road Wardha   442001","Wardha","Maharashtra","","9372455663","harisonshonda1@gmail.com"
"Kartik Honda","Anand Kumar Darda","Kartik Honda, Near Darda Agencies, Nachangaon Road, Pulgaon-442302 442302","Wardha","Maharashtra","","9850188000","dardamotors2015@gmail.com"
"R K Honda","Rahim Qureshi","At-Po- Mangrulpir, Tal-Mangrulpir,Dist-Washim 44406","Washim","Maharashtra","","9850692624","rkhondaampir@gmail.com"
"Shree Balaji Honda","Mr. Dilipshankarlal Heda","Gut No.354/2F,Akola Naka Road,Opp.Old Z.P.Office,Washim, Maharashtra 444505","Washim","Maharashtra","","9822452067","shreebalajiautobikes@gmail.com"
"Shree Balaji Honda","Nakul","Yavatmal Road, Nr. Rest House Karanja Dist Washim 444105","Washim","Maharashtra","","7774905555","shreebalajiautobikes@gmail.com"
"Raajvi Honda","Priyank Deshmukh","Plot No 1B, Wadgaon, Arni Road, Yavatmal  445001","Yavatmal","Maharashtra","9607500067","9607976000","sales@raajvihonda.com priyank@raajvihonda.com"
"Ritesh Honda","Amol Dattarao Bharwade","Fulsawangi Road, Near Mseb Office Mahagaon, Tal- Mahagaon, Dist-Yavatmal-445205 445205","Yavatmal","Maharashtra","","9423666601","ammyhonda11@gmail.com"
"Sai Point Honda","Mr. Dilip Bobade(Patil)","Sai Plaza, Dharya Road, Yavatmal. 445001","Yavatmal","Maharashtra","","9821553786","dilip@saipoint.com"
"Sai Point Honda","Mr Dilip B Patil","Plot No. 1,  Gut No. 105, Ckikhal Gaon, Survey No. 36/2A Taluka Wani 445304","Yavatmal","Maharashtra","","9821553786","saipointwani@hotmail.com"
"Sai Point Honda","Mr Dilip B Patil","Karla Road ,N.R.Naik Bunglow,Pusad. 445204","Yavatmal","Maharashtra","","9821553786","saipoint_pusad@hotmail.com"
"Sai Point Honda","Mr Dilip B Patil","Near Tahshil Office Yavatmal Road,Arni 445103","Yavatmal","Maharashtra","","9821553786","saipointarni@gmail.com"
"Shivshakti Honda","Bharat Shankarao Mahindre","Near Shankar Talkies , Pusad Road, Digras 445203","Yavatmal","Maharashtra","","9422868201","shivshaktihonda.digras@gmail.com"
"Shree Swami Smarth Honda","Milind Vishwanath Gawande","Arni Road, Shivaji Nagar, In Frount Jijamata Girl High School, Darwha 445202","Yavatmal","Maharashtra","","9422816222","mgawande35@gmail.com"
