"Dealer Name","Contact Person","Address","City","State","Contact 1","Contact 2","Email"
"Laxmi Honda","Naim Mohammad","Nh-55, Panchamahala, Karadagadia, Angul 759132","Angul","Odisha","8908025000","8908060000","laxmihonda@yahoo.com"
"Shyam Honda","Mr. Bignesh Agrawal","Near Womens College,  Nh 57, Boudh 762014","Angul","Odisha","","9937877888","bighnesh01@gmail.com"
"Dev Honda","Mr Sanjaya Jena","Bijupattnayak Square, Aska  761110","Aska","Odisha","6822273522","9439518363","devmotor.aska@gmail.com"
"Ajay Honda","Mr. Sanjay Kumar Agrawal","O.P. Jharwalia Chowk, Bazarpada, Kantabanji 767039","Balangir","Odisha","","8260211111","ajaymotorskbj02@gmail.com"
"Amarnath Honda","Mayur Ku Panchal","At-Ganghinagar Pada, Sambalpur Road, Balangir  767001","Balangir","Odisha","8895255855","8895255855","amarnathhonda@gmail.com"
"Ambika Honda","Prashant Panigrahi","At-Gotma,Khariar Road,Nuapada,Dist-Balangir  766104","Balangir","Odisha","9437643030","9938061333","hondaambika@gmail.com"
"Tanishta Honda","Madan Mohan Prusty","At-Sargiguda ,po-titlagarh,dist-bolangir  767033","Balangir","Odisha","9437037314","9777937314","tanishtahonda@gmail.com"
"Yours Honda","Indarjit Singh","Infront of New Bus Stand, Sahadevkhunta, Balasore  756001","Balasore","Odisha","06782-268060","9338479880","yourshonda@gmail.com"
"Yours Honda","Sanjay Das","Plot No. 194/81   Gadgadia Square, Nalamganj, Balasore (Odisha) 756003","Balasore","Odisha","06782-268070","7873029574","yourshonda@rediffmail.com"
"Yours Honda","Sanjay Das","Plot No. 194/81   Gadgadia Square, Nalamganj, Balasore (Odisha) 756003","Balasore","Odisha","06782-268070","7873029574","yourshonda@rediffmail.com"
"Baba Honda","Baba","Main Road, Baliapal 756001","Baleswar","Odisha","","8260233121","babaautumobiles@yahoo.in"
"Jain Honda","Mr. Rabindra Kumar Jain","Vill: Baramadhia, Po+Ps : Basta, Dist : Balasore 756029","Baleswar","Odisha","","9437055136","jainrabindra@yahoo.com"
"Sadhana Honda","Rashneshwer Day","Bhubaneswar-Kolkata Highway, Soro 756045","Baleswar","Odisha","","9437169336","sadhnahonda@gmail.com"
"Sakhi Honda","Mr. Purna Chandra Nayak","Near Khaira College, Khaira 756048","Baleswar","Odisha","","9437129051","sakhihonda14@gmail.com"
"Tarini Honda","Samar Senapati","Chandneshwar, Negua,Baleswar 753036","Baleswar","Odisha","","8455057309","tarinimotorssamar@yahoo.com"
"Swastik Honda","Biswajit Sahoo","Medical Road , Athantar, AT + PO:  Balipatna 752102","Baliapatna","Odisha","9937720816","9439744817","biswajitsahoo.939@gmail.com"
"Mahavir Honda","Sanjay Kumar Rout Ray","Thana Road, At + PO - Balichandrapur, Dist - Jajpur 754205","Balichandrapur","Odisha","9438553478","9438673737","sanjayroutray023@gmail.com"
"Khimji Honda","Deb Prasad Behera","Lic Road, Main Road, Balugaon 752030","Balugaon","Odisha","7735737648","7735734881","deba.behera45@gmail.com"
"Aashirwad Honda","Roshan Agrawal","At-Bandutikra Chowk, NH-06  768028","Bargarh","Odisha","6646246066","7873234466","honda.bgh@gmail.com"
"Abhishek Honda","Vinod Kumar Agarwala","Near Fossil Chowk,Kadlipali Kenal Road,Barpali,Bargarh 768029","Bargarh","Odisha","","9437056675","agrawalvinod9@gmail.com"
"Shree Shyamji Honda","Bajrang Kumar Agarwal","Shyam Complex, C0Llege Road, Rajkhariar 766107","Bargarh","Odisha","","9437427080","shyamjihonda@gmail.com"
"T.S.Honda","Mr. Parthasarathi Panda","Opp. Attabira Post Office,Near Police Station, Attabira 768027","Bargarh","Odisha","","9438771477/7064671477","partha009009@gmail.com"
"Krishiv Honda","Mr. Rohit Kumar Prusty","At Ward No. 4, Manika Chowk 757037","Baripada","Odisha","","9777774222","krishivkaranjia@gmail.com"
"Sai Honda","Mr. Rajat Kumar Biswal","Udala Town Unit No 10, Gopabandhunagar, Kaptipada Road, Mayurbhanj 757079","Baripada","Odisha","","9437238994","rajat69biswal@rediffmail.com"
"Siba Honda","Mr. Shayam Prasad Sahoo","At + Po: Rairangpur 757043","Baripada","Odisha","","7684950690","sibahondarrp@gmail.com"
"Sun Honda","Jaydev Das","Sun Honda Ward No-11, Station Road, Khata No 287/345, Plot No 289/1789, Baripada Town Mayurbhanj  757001","Baripada","Odisha","6792256999","7008827572","sunhondabaripada@gmail.com"
"Bharat Honda","Bharadwaj Sahoo","Gumadera, Infront of Magala Madir, Belpahar, Dist-Jharsuguda 768218","Belpahar","Odisha","8342842957","8018157547","bharathonda.belpahar@gmail.com"
"Abs Honda","Sanjay Kumar","Main Road , Purshottampur 761018","Berhampur","Odisha","","9938959999","absmotors.purushottampur@gmail.com"
"Ayam Honda","Subrat Kumar Pattanaik","Main Road, Near Bada Sankha, Buguda, Ganjam, Odisha 761118","Berhampur","Odisha","","7657035835","ayamhonda.buguda@gmail.com"
"Om Honda","Mr.Susanth Sahu","Tatabenz Square, Berhampur  760001","Berhampur","Odisha","0680229933","9937295070","omhonda@gmail.com"
"Rajaram Honda","G. Raja Reddy","At Dhanghar, Chikiti Road, Po Chikiti, Ganjam, Odisha 761010 761010","Berhampur","Odisha","","9953739353","rajaramhonda.chikiti@gmail.com"
"Rajaram Honda","Sanjay Kumar Jena","Biju Patnaik Chak, Aska, Ganjam, Odisha 761111 761111","Berhampur","Odisha","","8018100222","devmotors.aska@gmail.com"
"Sakuntala Honda","Mr. Â Ghanshyam Behera","Main Road, Rambha,Ganjam 761028","Berhampur","Odisha","","9861591441","sakuntalamotors@rediffmail.com"
"Swayam Honda","Jaswasi Bhusan Samal","Plot no-663, Aska Road, Pandara Street Squre, Near Bada Bazar Thana Berhampur, Odisha  760006","Berhampur","Odisha","0680-2271555/7608008385","9437044370","swyammotors@gmail.com"
"Banaja Honda","Mr Rajendra Kumar Sahoo","At/P:O - Chandbali , Near Kali Mandir, Dist - Bhadrak  756133","Bhadrak","Odisha","8093207050","9437297772","banajahonda@gmail.com"
"Das Honda","Mr Jagannath Das","Das Honda, Tahasil Road, Kachery Bazar, Bhadrak  756100","Bhadrak","Odisha","06784-240962","9437265455","dashondabdk@gmail.com"
"Laxmi Honda","Mr Dillip Kumar Behera","At/P:O- Basudevpur, Womens College Road, Dist-Bhadrak  756125","Bhadrak","Odisha","06784-271939","9937475386","laxmimotors79@gmail.com"
"Padmanav Honda","Mr Debadutta Mohapatra","At- Jay Nagar , Dhamnagar , Dist - Bhadrak  756117","Bhadrak","Odisha","06786-236004","9437271165","padmanavmotors@gmail.com"
"Pal Honda","Mr Gangadhar Pal","At /P:O - B.Tpur , Kupari Road , Agarpada ,Dist - Bhadrak  756115","Bhadrak","Odisha","7750861571","9337604884","palhonda2017@gmail.com"
"Omkar Honda","Mr Manoj Kumar Nayak","Baunsalundi, Main road, Bhanjanagar  761126","Bhanjanagar","Odisha","6821240140","9437382104","omkarhonda1@gmail.com"
"Jagajjanani Honda","Mr. Ajaya Mohanty","Near Pushpa Lodge, Junagarh, Kalahandi 766014","Bhawanipatna","Odisha","","9583794900","ajaya.mohanty94@gmail.com"
"Mahesh Honda","Manoj Kumar Agrawal","Near Check Gate kesinga Road Parmanandpur Bhawanipatna 766001","Bhawanipatna","Odisha","06670-231733","9437938985","maheshhonda@yahoo.co.in"
"Satya Sai Honda","Santosh Prusty","Main Road, Bhuban  759017","Bhuban","Odisha","8908303238","8908303238","satyasaihondabhuban@gmail.com"
"Gugnani Honda","Rajan Gugnani","2271,  Biswal Commercial Complex Cuttack Road Bbsr 751006","Bhubaneswar","Odisha","9778611111  / 7852930865 / 0674-2313812-716","9437016726","gugnanisindia@yahoo.co.in"
"Gugnani Honda","Rajesh Gugnani","391/343,Plot No 945   Village-Uttara Sasan,P.O.-Kausal Yaganaga,Tahasil-Pipli Ps-Pipli,Dist-Puri 751001","Bhubaneswar","Odisha","","9437031140","gugnanisindia@yahoo.co.in"
"Gugnani Honda","Manoj Kumar","Lewis Road,Samantarapur, Bhubaneswar, Odisha  751002","Bhubaneswar","Odisha","9853025566","9853025566","gugnanisindia@yahoo.co.in"
"Gugnani Honda","Manoj Kumar","Garage Chowk, Cuttack - Puri Road, Bhubaneswar  752104","Bhubaneswar","Odisha","9853025566","9853025566","gugnanisindia@yahoo.co.in"
"Khimji Honda","Trilochan Khuntia","Nirmalya Bhawan, Plot No.-516/1723/*3991, Patia, Chandrasekharpur, Bhubaneswar Odisha 751024","Bhubaneswar","Odisha","6747111999","7735734888","gm.khimjihonda@gmail.com"
"PGL Honda","Krushna Chandra Mallick","Plot No. M-18, Ground Floor, Fire Station Square, Baramunda, Bhubaneswar, Khorda.  751003","Bhubaneswar","Odisha","0674-2354418","7788001021","gm@pglhonda.com"
"Pgl Honda","Kamal Aggarwal","Ramchandrapur Bazar, Near Sandhapur Hospital Shop, Jatni 752050","Bhubaneswar","Odisha","","9437006984","pglramji1@gmail.com"
"Shivam Honda","Aswini Kumar Mishra","Plot No - 797, Saheednagar, Bhubaneswar   751007","Bhubaneswar","Odisha","0674 2546296,7873024320","7873024320","shivamhonda@gmail.com"
"Shree Ganesh Honda","Mr. Pravat Kumar Biswal","Medical Chakk, Main Road, Kakatpur 752018","Bhubaneswar","Odisha","","9437143735","sghondaautomobiles@gmail.com"
"Aditya Honda","Manoj Rajuka","Main Road Bisra  770036","Bisra","Odisha","9437403482","7008905713","adityahonda53@gmail.com"
"Bhama Honda","Dusmanta Kumar Sahoo","In Front of PNB, Bonaigarh 770038","Bonaigarh","Odisha","06626-244204","8280470204","bhamamotors2018@gmail.com"
"Om Sai Honda","Jayant Kumar Mohanty","Brahamgiri Bazar, Brhamgiri, Near bus stand, Puri 752011","Brahmagiri","Odisha","9078953555","9078953555","jayantamohanty3533@gmail.com"
"Om Sai Honda","Jayant Kumar Mohanty","Brahamgiri Bazar, Brhamgiri, Near bus stand, Puri 752011","Brahmagiri","Odisha","9078953555","9078953555","jayantamohanty3533@gmail.com"
"Jaiswal Honda","Binay Jaiswal","At- Gandhi Chowk, Brajrajnagar, Dist- Jharsuguda 768216","Brajrajnagar","Odisha","9938279444","9777477884","jaiswalmotors03@gmail.com"
"Ayam Honda","Mr Subrat Kumar Patnayak","At/PO - Main Road, Buguda  761118","Buguda","Odisha","6818251400","9937504114","ayamhonda.buguda@gmail.com"
"Maa Mangla Honda","Sajit Kumar Sahu","NH-26, Main Road, Charbhal  766017","Charbahal","Odisha","7609991841","7609991841","mmangalahonda@gmail.com"
"Rajaram Honda","Mr. G Raja Reddy","Dhanaghar Main Road, Chikiti  761010","Chikiti","Odisha","9778497782","9778497782","rajaramhonda.chikiti@gmail.com"
"Hindustan Motors","Furkan Ali Khan","Majhikhanda,Niali, Cuttack 754004","Cuttack","Odisha","","9861202345","hindustanhonda@yahoo.in"
"Shree Automobiles","Prashant Mohapatra","Main Road,Banki,Cuttack 754008","Cuttack","Odisha","","9938195936","shreehonda.banki@gmail.com"
"Siddhivinayak Auto","Subhash Kumar Sahoo","Near Bsnl Office,Athagarh 754029","Cuttack","Odisha","","9937060136","sidhivinayakhonda@gmail.com"
"Baba Honda","Purna Chandra Sahoo","Panchamukhi Chhak, Narsinghpur  754032","Cuttack","Odisha","8658264305","8658364305","babahonda2014@gmail.com"
"Durga Honda","Biswajit Ray","Near Axis Bank, Dolamundai  753009","Cuttack","Odisha","0671-2332462/63","9437962462","durgahonda@yahoo.co.in"
"Durga Honda","Suvendu Mohanty","Durga Honda,Jagatpur,Kendrapara Road,   Pin-754021 754021","Cuttack","Odisha","","988070096","durgahonda@yahoo.co.in"
"Saivinayak Honda","Mr. Ramesh Kumar Sahoo","At-Bidharpur, P. O. Abhimanpur, Via-Nuapatna, Dist - Cuttack 754035","Cuttack","Odisha","","9937060477","rameshkumar.sahoo@gmail.com"
"SGBL Honda","P.K Dash","Sai Enclave, Sati Chaura Chak, Cuttack  753008","Cuttack","Odisha","743701001,6712634100, 06712364000","9040433000","sgblhonda@yahoo.com,  sgblhonda9@gmail.com"
"SN Honda","Ashok Mishra","Machuati, R.K. Market Complex, Salepur  754202","Cuttack","Odisha","0671-2351401","9437439076","snhonda@gmail.com"
"Utkal Honda","Akhil Poddar","Holding No.735, Cantonment Road, Cuttack  753001","Cuttack","Odisha","8093033120/9439827522","9437052408","utkalhonda@gmail.com"
"Bharat Honda","Akash Kumar Jain","At Kashi Bhal, Dharamgarh 766015","Dhamanagar","Odisha","9437626616","9437626616","bharathonda01@gmail.com"
"Mahadev Ganapati Honda","Sudipan Dash","Gopabandhu Bazar Dhenkanal 759013","Dhenkanal","Odisha","7852949310/6762227299","7852949310","ganapati.auto@yahoo.co.in"
"Saikrupa Honda","Mr Chandan Kumar Choudhury","Punjikayan Square, Digapahandi  761012","Dighapahandi","Odisha","6814247999","9438750533","saikrupamotorsdig@gmail.com"
"Anil Honda","Amitabh Parida","At/Po-Bus Stand Square, Badapadia, Paradip 754142","Jagatsinghpur","Odisha","","9437480909","anilhonda@gmail.com"
"Kanchan Murali Honda","Chinmayee Sheety","Anand Palace, Balarampur, Kujang 754141","Jagatsinghpur","Odisha","6722236122","9040650040","kmhondakujang2016@gmail.com"
"Kanchan Murali Honda","Ganghadhar Singh","Central Market, Jaybad, Jagatsinghpur  754103","Jagatsinghpur","Odisha","06724 223112, 222122","9090876483","kmhonda2014@gmail.com"
"Navjyoti Honda","Swadhin Sahoo","Main Road Rahama, Jagatsinghpur 754140","Jagatsinghpur","Odisha","06722 248017","9937582514","navjyotihonda@gmail.com"
"Agasti Honda","Jiten Mohanti","Rani Ramchandrapur, Medical Road, Jajpur Town 755001","Jajpur","Odisha","","9437191310","agastihonda2013@gmail.com"
"Basanti Honda","Mr. Janmejaya Sahoo","NH-05, Near Chandikhole Cinema Hall, Chandikhole, Jajpur  754296","Jajpur","Odisha","9853066000 / 06725-227011","9853066000","basantihonda.chandikhole@gmail.com"
"Ramachandi Honda","Sanjay Mishra","College Square, Singhpur, Jajpur 755016","Jajpur","Odisha","","8339947444","honda.singhpur@gmail.com"
"Sai Honda","Suraj Joshi","Haripur Road, Kuakhia, Jajpur 755009","Jajpur","Odisha","","9938906077","hondashyam@yahoo.co.in"
"Tez Honda","Rakesh Kumar Rout","Dakabanglow Chowk, Jajpur Road, Jajpur  755019","Jajpur","Odisha","7504994444","9437049980","tez_honda1@yahoo.co.in"
"Radhagobinda Honda","Jitendra Nath Mohanty","At-Jhadeswarpur, Station Bazar, Po/Ps-Jaleswar, Dist-Balasore  756032","Jaleswar","Odisha","8018897744/06781-222950","7325864023","rgjautomobiles@gmail.com"
"Kesar Honda","Mr.Naveen Patel","Nh-26, Gandhi Chowk, Po-Jeypore  764001","Jeypore","Odisha","06854-230492","8895321212","kesarhonda@yahoo.com/kesarhonda@gmail.com"
"S.S.Honda","Mr. Pradeep Rout","At-Main Road, Po-Semiliguda  764036","Jeypore","Odisha","06853-225297","7799882597","sshonda2016@gmail.com"
"Bharat Honda","Mr. Bharadwaj Sahoo","Near Gumadera Mangala Mandir, Belpahar, Jharsuguda 768218","Jharsuguda","Odisha","","9861655482","bharathonda.belpahar@gmail.com"
"Gajraj Honda","Harshit Modi","In front of Reliance Pump, Ekatali, Beherapat, Jharsuguda  768201","Jharsuguda","Odisha","9337645411","9861604897","harshitmodi@gajrajhonda.com"
"Mahabir Honda","Rabindra Kumar Nayak","Kamakhyanagar, Near SBI 759018","Kamakhyanagar","Odisha","6769270266","9437425202","mahabirauto.knr@gmail.com"
"Jay Pee Honda","Mr. Ashok Kumar Mohanty","Plot No.238, Keshpur, Kandarpur, Cuttack  754100","Kandarpur","Odisha","9861007679","9438035352","mohantyashok7447@gmail.com"
"Baladev Honda","Mr.Sanjib Kumar Das","Near Bajaj Allianz Office,Guhalsing. 754211","Kendrapara","Odisha","","9937129275, 9437167191","baladevmotors@gmail.com"
"Satya Honda","Mr. Satyabrata Nayak","Pokhariapad College Road, Patamundai, Kendrapara 754215","Kendrapara","Odisha","","9438367899","satyahonda11@gmail.com"
"Pritam Honda","Prasanta Kumar Mahapatra","NH-6, Dhangarapada, Keonjhar  758002","Keonjhar","Odisha","06766-254138","9437054807","pritamhonda2013@gmail.com"
"Pritam Honda","Mr.Prashant Mohapatra","Sudsudia, Ghasipura, Anandpur (Odisha) 758021","Keonjhar","Odisha","","9437054807","pritamhonda2013@gmail.com"
"Royal Honda","Mr. Ramesh Ku. Atal","Barbil Joda Highway,  Barbil, Kendujhargarh 758035","Keonjhar","Odisha","","9937276163","royalmotorsbbl@gmail.com"
"Jagdamba Honda","Sourav Sharma","Near B.K feeling station, Bhawanipatna Road, NH 201, Kesinga 766012","Kesinga","Odisha","9643871662","9643871662","saurav.sharmaa92@gmail.com"
"N.C.Honda","Mr.Laxminarayan Sahu","Main Road, Rajsunakhala, Khorda 752065","Khordha","Odisha","","9778050000","laxminarayan.sahu@ymail.com"
"Sai Honda","Mr. Lala Manoj Ray","Plot No-1022&1023,Sanapalla,Near New Bus Stand,Khordha 752056","Khordha","Odisha","","",""
"Shree Krishana Honda","Suraj Rana","Near Mandir Chowk, Main Road, Kuchinda 768222","Kuchinda","Odisha","06642-220246","7894277470","skh.kcd@gmail.com"
"Laxmi Honda","Mr. Goutam Choudhary","At/Po-Muniguda, Dist-Rayagada  765019","Muniguda","Odisha","9583576687","9583576687","laxmihondamuniguda@gmail.com"
"Vardhmaan Honda","Mr. Bikash Jain","At-MTPL Junction, Po-Nabarangpur 764059","Nabarangapur","Odisha","06858-223929","8260020009","vardhmaanmotors@yahoo.co.in"
"Pattnaik Honda","Rajesh Pattnaik","At-Durgaprasad Po-Sinduria, Ps/Dist-Nayagarh  752069","Nayagarh","Odisha","9937083142","7008812540","pattnaik.honda@gmail.com"
"Bindhyabasini Honda","Nirodh Kumar Purohit","At-Bargarh Road,Padampur  768036","Padampur","Odisha","9937788078","9937788078","bindhyabasinimotor078@gmail.com"
"Hari Omm Honda","Susanta Dalabehera","Main Road, Parjang 759120","Parjang","Odisha","6768261289","9438417837","hariommmotors@gmail.com"
"Manas Honda","Mr. Manas Ranjan Patra","Circle Road,Near Rto Office 762001","Phulbani","Odisha","","8895568782","honda.phulbani@gmail.com"
"S R Honda","Sushanta Kumar Sahoo","Delta Chhak, Near Corporation Bank, Pipli, Puri 752104","Pipili","Odisha","9040991115, 06758 - 241122","9437885004","srautomobilespipli@yahoo.in"
"Konark Honda","Mr. Rajendra Behera","Near Police Station, Konark, Puri 752111 752111","Puri","Odisha","","9777565956","konarkhonda@gmail.com"
"Santosh Honda","Mr. Pradeepta Kumar Sahoo","Ganesh Bazar, Nimapada 752106","Puri","Odisha","","9439914501","nayak.kalpataru6@gmail.com"
"Shivam Honda","Mr. Badri Narayan Samantaray","Near Hotel Sakti International, 18/375, VIP Road,Puri  752001","Puri","Odisha","06752-297970","7735743520/9040088747","truptihonda@gmail.com"
"ABS Honda","Sanjaya Kumar Mohapatra","Kapileswar Vihar, Purushottampur  761018","Purusottampur","Odisha","6811275800","9938959999","absmotors.purushottampur@gmail.com"
"Naisha Honda","Sunil Agarwal","Liploi, Main Road, Rajgangpur 770017","Rajgangpur","Odisha","06624-220051","7008614081","naishahonda@gmail.com"
"Sakuntala Honda","Ghanashyam Behera","Rambha Main Road  761028","Rambha","Odisha","6810278444","9861591441","sakuntalamotors@rediffmail.com"
"Sri Aditya Honda","Mr. R.Ravi Kesava","Honda Showroom, Main Road Rayagada, Near Sale Tax Office  765001","Rayagada","Odisha","8280096999/06856224869","9938418969","adityahondargda@gmail.com"
"Bp Honda","Premasish Panda","At-Purna Basti, Rengali 768212","Rengali","Odisha","","9777663339","bphondargl@gmail.com"
"Dalaniya Honda","Sourav Dalaniya","SH-10, Biju Expressway, At-Post Kutra, Dis- Sundergarh  770018","Rourkela","Odisha","9937592255","9937060901","dalaniyahonda@gmail.com"
"Harsheel Honda","Amulya Kumar Barick","208/733, Near SBI, Panposh Chowk, Rourkela 769004","Rourkela","Odisha","9937507476","9937507476","harshelhonda@gmail.com"
"Koshala Honda","Kaushal Singh","Plot-184(P), Near SBI SME Branch Panposh Road, Rourkela  769004","Rourkela","Odisha","9861188888","9337749281","koshala_honda@yahoo.co.in"
"Jas Honda","Arijit Mohapatra","NH-6, Lath Complex, Ainthapali, Sambalpur  768004","Sambalpur","Odisha","","9178120526, 9238364199","mail_jasmotors@yahoo.co.in"
"Meher Honda","Ashish Meher","SBI Road, Majhipada, Sonepur, Dist- Subarnapur, Odisha  767017","Sonepur","Odisha","06654 220200","9937771704","meher.honda@gmail.com"
"Maa Samaleswari Honda","Harish Kumar Mishra","At-Mission Road, Po/Dist-Sundargarh  770001","Sundergarh","Odisha","9938198641","8093914054","maalaxmi.honda@gmail.com"
"Anupama honda","Bikash Kumar Sahoo","At/Po-Hatatota Road, Talcher, Ps-Talcher, Dist-Angul, Odisha  759100","Talcher","Odisha","7852930592","9583757065","anupamahonda@gmail.com"
