"Dealer Name","Contact Person","Address","City","State","Contact 1","Contact 2","Email"
"Bawa Honda","Mr.Yahya Khan","Bawa Honda , No 1, Mayiladuthurai Main Road,Akkur Mukutu,Nagapattinam District  609301","Akkur Mukutu","Tamil Nadu","","7373073893","bawaakkursales@gmail.com"
"Ishana Honda","Mr Thangharajen","No 623-D,PKV Complex, Tenkasi Main Road Alangulam 627851","Alangulam","Tamil Nadu","9626260021","9626260021","ishanahondaalangulam@gmail.com"
"Sri Yoga Honda","R.Mani","Sri Yoga Motors, Bye Pass Road, Near By Icici Bank,Ambur  635802","Ambur","Tamil Nadu","9585595981","9443324981","sriyogahondasales@gmail.com"
"RKM Honda","Mr E V Gowtham","RKM Honda , No 9/340, Bhavani Main Road,Anthiyur,Erode District  638501","Anthiyur","Tamil Nadu","7373839888","7373839888","rkmanthiyur88@gmail.com"
"Varshi Honda","Mr. Senthil Kumar","S3B, Tnhb, Jothy Nagar Post, Arakkonam 631003","Arakkonam","Tamil Nadu","","9443134883","varshihonda@gmail.com"
"Rainbow Honda","Mr. Alagudurai","2/455 A1,Rajiv Nagar,Jeyankondam Main Road, Valajanagaram 621704","Ariyalur","Tamil Nadu","","9585390596","rainbowmotorsariyalur@gmail.com"
"J.S.P. Automotive","J.Satish","Plot No. PC-45, Razack Garden Main Road,TNUDP MMDA Colony, Arumbakkam, Chennai  600106","Arumbakkam","Tamil Nadu","044-23630844","8144841707","jsparumbakkamsales@gmail.com"
"Dd Honda","Jayaprakash.K","9/368, Attur Main Road, Near Ioc Petrol Bunk, Gangavalli, Salem 636105 636105","Attur","Tamil Nadu","","9786588999","ddhonda626@gmail.com"
"Klm Honda","Mr. Kl Madeshwaran","52/3,Salem Main Road, Near Fire Office,Vinayagapuram,Attur(Tk),Salem(Dt) 636102","Attur","Tamil Nadu","04282-253242","9786644222","klmhonda@yahoo.in"
"Sivasakthi Honda","R.Selvam","6/380, Salem-Chennai Highway, Thalaivsal, Attur, Salem - 636112 636112","Attur","Tamil Nadu","","9361775999","sivasakthihonda@gmail.com"
"Sri Murugan Honda","G.Balaji","12/43, Udayarpalayam Near Govt Girls Hr Sec School Thammampatty Gangavalli Taluk Salem District - 636113 636113","Attur","Tamil Nadu","","9487600876","srimuruganhonda@gmail.com"
"Thriveni Honda","Vinothkumar.M","Masinaickanpatty(Village),Ayothiyapattanam(PO),Salem(DT)  636103","Ayothiyapattinam","Tamil Nadu","0427-2290900","9585317999","salesmanager@thrivenihonda.com"
"Advika Honda","Harish.N","No: 261/1, Sangeetha Complex, Near Girls School- Bagalur. 635103","Bagalur","Tamil Nadu","04944-254852","7094422407","prakrutihonda@gmail.com"
"Balaji Honda","Mohan","Old No.71,New No.143A,Prakasam Salai,Broadway,Chennai. 600108","Broadway - Chennai","Tamil Nadu","044-42104744","7397719543","broadwayhonda@gmail.com"
"Abhiram Honda","Mr. A. Viswanathan","No 86(Survey No 92/1A, 87/3A), Gst Road, Pulipakkam 603002","Chengalpattu","Tamil Nadu","044-37417676","8870013733, 9884254345","sales@abhiramhonda.com"
"Abhiram Honda","Mr. Sridhar Reddy Peduri","No. 662,  E C R Road  Puthupattinam , Kalpakkam 603102,  603102","Chengalpattu","Tamil Nadu","","8870013731","sridhar.peduri@abhiramhonda.com    -    sales@abhiramhonda.com"
"Vijaya Honda","Mr. Anup Kumar Jeyaseelan","Vijaya Automobiles Pvt Ltd 'Vijaya Honda', Sf No: 1373/2A3B1G, Old Mahabalipuram Road, Kelambakkam 603103","Chengalpattu","Tamil Nadu","","9994463777","vijayahonda@gmail.com"
"Vijaya Honda","","Sf No: 249/3, Omr, Thiruporur, Chennai-603 110 603 110","Chengalpattu","Tamil Nadu","","9789358555","thiruporur.vijayahonda@gmail.com"
"Global Honda","Jyothi Prasad","Opp Ibp Petrol Pump Tirupathi Road, Tiruttani 631209","Chennai","Tamil Nadu","","9444988446 / 9486423089","trt.globalhonda@gmail.com"
"Akshaya Honda","Veerraju","No.120, Krishnapuram,Ponneri  601204","Chennai","Tamil Nadu","","9840434242","akshayahonda@gmail.com"
"B M Honda","Shreyansh  Mutha","No 6 Kamaraj Salai Chinna Sekkadu Manali (Near Meenakshi Theatre) 600068","Chennai","Tamil Nadu","","9677037360","bm.honda.sales@gmail.com"
"Balaji Honda","Mr. P. Suresh Kumar","No.37, Voc Salai (Walltax Road)Sowcarpet, Chennai. 600079","Chennai","Tamil Nadu","","7397719543","balaji.honda.mint@gmail.com"
"Balaji Honda","Mr. P. Suresh Kumar","No.83/4, G N T Road, Erukkancherry, Chennai -600118 600118","Chennai","Tamil Nadu","","9940051841","balaji.honda.sales@gmail.com"
"Balaji Honda","Mr. Rajendar Kumar","#570,T.H.Road(Opp.Vaigai Mahal)Old Washermenpet 600021","Chennai","Tamil Nadu","044-25975577, 25975588, 25975599","9940051841","balaji.honda.sales@gmail.com"
"Balaji Honda","Mr. P. Suresh Kumar","No.1/230A.Bye Pass Road, Nh5, Redhills Chennai -600052 600052","Chennai","Tamil Nadu","","9940051841","balaji.honda.sales@gmail.com"
"Didar Honda","Arunjit Kaur Kohli","110,Egmore High Road,Chennai-600008. 600008","Chennai","Tamil Nadu","","9840827780","didarmotors.sales@gmail.com"
"Didar Honda","Mr. Kanwar Bir Singh Kohli","New #74, Greams Road,Chennai 600006","Chennai","Tamil Nadu","","9940070781","didarhonda@yahoo.co.in"
"Didar Honda","Arunjit Kaur Kohli","43,Thirumalai Pillai Road,T.Nagar,Chennai-600017 600017","Chennai","Tamil Nadu","","9840827780","didarmotors.sales@gmail.com"
"Didar Honda","Akash San","NO;9/17,Mc.Nicholas,Chetpet,Chennai 600031","Chennai","Tamil Nadu","4861 1075","9384012023","didarhonda.chetpet@gmail.com"
"Jk Honda","J  Mohammed Shareef","J.K Honda,P.No: 68,S.No:39,Naal Road Junction,Mangadu Road,Kollacherry,Kundrathur,Chennai  600069","Chennai","Tamil Nadu","","9840899331","jkdreamhonda@gmail.com"
"Jsp Honda","Mrs. P. Jhansi","No:6/69, Cth Road, Padi, Chennai-600050. 600050","Chennai","Tamil Nadu","","9841648501","sph219@yahoo.com"
"Jsp Honda","Mr. Ganesan","No:17, Balaji Nagar, Plot No :1&2, M.T.H.Road, Thirumullai Voyal Ambattur, Chennai-62. 600053","Chennai","Tamil Nadu","","9841648501","sph219@yahoo.com"
"Jsp Honda","Jayasakthi","No:G19,Ambathur Industrail Estate ,Wavin Junction ,Mogappair,Chennai -600058 600058","Chennai","Tamil Nadu","","9841648546","arafathb@gmail.com"
"Jsp Honda","Mr. Jhansi Ponraj","Tnscb,Thirumangalam,Off,Complex ,Anna Nagar West 600040","Chennai","Tamil Nadu","","9940277788","jhansi.ponraj@gmail.com"
"Jsp Honda","Mrs. P. Jhansi","No:87/225, Block No:9, Madhavaram High Road, North Perambur,Chennai-11. 600011","Chennai","Tamil Nadu","","9841648501","sph219@yahoo.com"
"Kkg Honda","R Shanmugavelu","83/A Ch Rd , Nerkundram,Maduravoyal Chennai. 600107","Chennai","Tamil Nadu","","8754421555","kkgmotorschennai@gmail.com"
"Ksn Honda","Mr. Manikandan","No -32,Iind Street , Anjugam Nagar,Jafferkanpet 600083","Chennai","Tamil Nadu","044-24710721","7299057002, 23","ksnhonda@ksngroup.in"
"Ksn Honda","Konda Ramprasad","No.11, Arcot Road, Lakshmi Nagar, Porur, Valasaravakkam, Cheenai - 600 116. 600087","Chennai","Tamil Nadu","","9840798968","ksnhonda@ksngroup.in"
"KUN Honda","Sri Hari","33, First Main Road, Kasthuriba Nagar, Adyar 600020","Chennai","Tamil Nadu","044-42070319 / 29 / 39","9941611777","kunhonda@vsnl.in"
"Kun Honda","Mr. Arun Uppusawmy","18 A Developed Plots  Perungudi Industrial Estate , Perungudi Ch 96 600097","Chennai","Tamil Nadu","","8086024555","kunhonda@vsnl.in"
"Kun Honda","Mr. Ganesan","No 1 , 14Th Avenue  Dr Amedkar Road  Ashok Nagar Chennai  600083 600083","Chennai","Tamil Nadu","","8086024555","kunhonda@vsnl.in"
"Lodha Honda","Mr. U. Vishal Lodha","31/10, Kamarajar Salai, Anakaputhur (Pammal), Chennai 600 070 600070","Chennai","Tamil Nadu","","9841015416","lodhahonda@yahoo.com, lodhahonda@gmail.com, salesmanager@lodhahonda.org"
"Lodha Honda","","18A, Kodhandam Street, Chrompet 600044","Chennai","Tamil Nadu","","9841409996",""
"Lodha Honda","Mr. U. Vishal Lodha","107, 109 Mudhichur Main Road, West Tambaram, Chennai - 600045 600045","Chennai","Tamil Nadu","","9841015416","lodhahonda@yahoo.com, lodhahonda@gmail.com, salesmanager@lodhahonda.org"
"Maansarovar Automobile","Deivasigamani M","No.46, Medavakkam Main Road, Ullagaram, Madipakkam, Chennai 600091","Chennai","Tamil Nadu","044-4232 1267","8939781272","mshondamadipakkam@gmail.com"
"Maansarovar Honda","Senthil Nathan.C","No.8, Tambaram Velachery Main Road, Pallikaranai, Chennai 600100","Chennai","Tamil Nadu","044-22461893","8939874290","mshondapallikaranai@gmail.com"
"Maansarovar Honda","Rupesh Jain","No.1/53 H, But Road, Sripuram Colony, 2nd Street, ST Thomas Mount, Chennai 600016","Chennai","Tamil Nadu","044-43599870","8939781693","mshondastmount@gmail.com"
"Maansarovar Honda","P.Suresh/Samuel Raj","New No.105, 100ft Velachery By Pass Road, Velachery, Chennai  600042","Chennai","Tamil Nadu","044-22592421 / 22592422","9566281461/89397 84433","maansarovar.honda@gmail.com"
"Maansarovar Honda","Dhayal Singh","No.5/569, G.B.Tower, Velachery-Tambaram Main Road, Medavakkam, Chennai 600100","Chennai","Tamil Nadu","044-22462302","9566281468","mshondamedavakkam@gmail.com"
"Red Honda","Mr. Kaviarasan S","Old.No-175,New No.214,R.K.Mutt Road,Mandaveli 600028","Chennai","Tamil Nadu","","9894501464","reddhondamd@gmail.com"
"Red Honda","Saravanan","New No 68, Eldams Road, Teynampet, Chennai  600018","Chennai","Tamil Nadu","044-42041155","7530079300","redhondasales@gmail.com"
"Shabeel Honda","Tajudeen","Plot No.6,Lakshmi Nagar,Mudichur Main Road, Mudichur,Chennai-600048 600048","Chennai","Tamil Nadu","","9003049596","sales@shabeelhonda.com"
"Surya Honda","Mr. Mahaveer Punmia","173, Mount Poonamallee Road, Kattupakkam, Poonamallee 600056","Chennai","Tamil Nadu","","9840036420","suryahonda@gmail.com"
"Surya Honda","Mr. Mahaveer Punmia","17/5,Bye-Pass Road,Periyakuppam, Thiruvallur 602 001 602001","Chennai","Tamil Nadu","","98400 36420","suryahonda@gmail.com"
"Surya Honda","Mr. Mahaveer Punmia","84,Mount Poonamallee Road, Porur, Chennai 600 116 631204","Chennai","Tamil Nadu","","98400 36420","suryahonda@gmail.com"
"Suryabala Honda","Mr. Thirupathy Murthy","Sf No:439/1B Old Mahabalipuram Road,Sholinganallur 600119","Chennai","Tamil Nadu","","9789444444","md@suryabalahonda.com"
"Svm Honda","K. Madhusudanarao","No:32, Aps Tower, Paper Mills Road, Kolathur, Chennai -99 600099","Chennai","Tamil Nadu","","9566177277","svm.chennai10@gmail.com"
"Svm Honda","Mr. Surekha Metla","New No:111, Old No:44,N.M.K Street, Ayanavaram,Chennai 600023","Chennai","Tamil Nadu","","8754043559","svmhondahr@gail.com"
"Svm Honda","K. Madhusudanarao","No:7,Ayappakkam Main Road,M.G.R.Puram,Ayappakkam,Chennai-600058. 600058","Chennai","Tamil Nadu","","8754598565","svm.ayapakkam.sales@gmail.com"
"Svm Honda","K. Madhusudanarao","No:58, Nehru Bazar Road, Avadi, Chennai-54 600054","Chennai","Tamil Nadu","","9566177277","svm.chennai10@gmail.com"
"Veera Honda","Malyadri","101A,Vettu Colony , Gnt Road, Gumminipoondi 601201","Chennai","Tamil Nadu","","8754225354","veeraahonda@gmail.com"
"Pressana Honda","Kamal","# 7/7A, Avinashi Road, G.K.R Nagar, Civil Aerodrome Post, Chinniyampalyam, Coimbatore 641062","Chinniyampalyam","Tamil Nadu","9843027903","9843027903","pressanamotorsbranch@gmail.com"
"Aadhi Honda","R.Sriram","1171 Sathy Main Road Ganapthy Coimbatore 641006","Coimbatore","Tamil Nadu","0422-3000600","7708807000","sm.sales@aadhihonda.com"
"Aadhi Honda","Mr.S.Srinivasan","220 B Barathi Complex ,Sathy Main Road ,Saravanampatti,Coimbatore 641035","Coimbatore","Tamil Nadu","","7708807000","sm.sales@aadhihonda.com"
"Aadhi Honda","Mr.S.Srinivasan","119 / 1 Jeevanager,Velankuruchi Road ,Chearan Manager ,Coimbatore- 641035","Coimbatore","Tamil Nadu","","7708807000","sm.sales@aadhihonda.com"
"Amma Honda","A.K.Rajendran","Ponnusamy Gounder Thottam Perur Main Road,Kovaipudur,Coimbatore 641042","Coimbatore","Tamil Nadu","","9363210466","ammaautoas@gmail.com"
"Chandhra Honda","Mr.E. Manikandan","Nos.5 & 6, Mettupalyam Road, Opposite to KR Hospital, Periyanaickenpalayam Post, Coimbatore.  641020","Coimbatore","Tamil Nadu","0422-2696691","8220045795","sales.chondapnp@chandraauto.com"
"Chandhra Honda","Mrs.S. Kalaivani","No.1/5-C, Thondamuthur Road, Vadavalli Post, Coimbatore.  641041","Coimbatore","Tamil Nadu","0422-2426001/9944967031","8220045783","branchincharge.chonda.vvi@chandraauto.com"
"Chandhra Honda","Mr.J. Selva Jayaprakash","No.1269, Mettupalyam Road, Saibaba Mission Post, Coimbatore.  641043","Coimbatore","Tamil Nadu","04222452569-70  9994500077","9500996801","chandrahonda@chandraauto.com"
"D.K Honda","Udaya Kumar","32-Avg Layout,Gandhi Nagar,Pollachi Road,Sundarapuram 641024","Coimbatore","Tamil Nadu","","9171117576","sivanesanhonda@gmail.com"
"Kammalam Honda","Mr. Niranjan Rajaa","Sf.No 195/1,Pollachi Main Road, Sundrapuram,Sidco (Po),Cbe - 641021 641021","Coimbatore","Tamil Nadu","","7373704004","md@kammalamhonda.com"
"Pressana Honda","Mr. P.S.Senthilkumar","No.3/5, A & B,Avinashi Road,Bharathipuram,Pappanaikenpalyam,Coimbatore. 641037","Coimbatore","Tamil Nadu","","8220066669","pressanamd@gmail.com"
"Pressana Honda","Mr. P.S .Senthil Kumar","Plot No 6, Opp Kongu Kalayarangam, Karumathampatty Main Road, Somanur, Coimbatore-641668 641668","Coimbatore","Tamil Nadu","","9843027903","pressanamotors@gmail.com"
"Suryabala Honda","Mr.K.Thirupati Moorthy","No: 216 To 218, Thiyagi Kumaran Street, Sukrawarpet, Coimbatore - 641 001 (Townhall) 641001","Coimbatore","Tamil Nadu","","9789466255","hondacbe@suryabala.com"
"Suryabala Honda","Mr.K.Thirupati Moorthy","15, Ranganathapuram, Trichy Road, Sulur, Coimbatore - 641 402 641402","Coimbatore","Tamil Nadu","","9789466255","hondacbe@suryabala.com"
"Suryabala Honda","Mr. Thirupathy Murthy Karunakaran","4, Rajaji Nagar, Trichy Road, Opp. Iyyer Hospital Bus Stop, Singanalur 641005","Coimbatore","Tamil Nadu","","9789466255",""
"Suryabala Honda","Mr.K.Thirupati Moorthy","S.F No: 264/2, Palakkad Main Road, B.K. Pudur, Kuniyamuthur, Coimbatore - 641 008 641008","Coimbatore","Tamil Nadu","","9789466255","hondacbe@suryabala.com"
"Abvr Honda","Mr. Barath","Ktr Buildings, Imperial Road 607002","Cuddalore","Tamil Nadu","","8903305554","abvr.honda@gmail.com"
"Abvr Honda","Barath V","No 63, Ellence Nagar , Near Vandigate Chidambaram 608001","Cuddalore","Tamil Nadu","","8903305554","abvr.honda@gmail.com"
"Abvr Honda","Barath V","No 60E/5, Opposite Govt. Iti , Panruti Main Road Semmandalam,Cuddalore 607001 607001","Cuddalore","Tamil Nadu","","9750918116","abvr.sem@gmail.com"
"Pspm Honda","Srinivasan.P","Pspm Mottors,No11F,Cuddalore Road , Panruti , Panruti Tk ,Cuddalore Dt 607106","Cuddalore","Tamil Nadu","","9688562636","sri.ps22@gmail.com"
"K.R.K.Honda","Mr. Kumarasamy","No,1 Kks Nagar ,Ellis Nagar (Po) Bye Pass Road 638657","Dharapuram","Tamil Nadu","","9842721912","krkhonda02@gmail.com"
"K.R.K.Honda","Mr.M.Kumarasamy","Karur Main Road, Vellakovil 638111","Dharapuram","Tamil Nadu","","8012566999","krkhonda02@gmail.com"
"S S Premier Honda","Mr. J.A.Dhandapani","24/1, Ward B, Krishnagiri Main Road, Near Ulavar Santhai, 636701","Dharmapuri","Tamil Nadu","04342-267771,267773","9677716160","sales.sspremierhonda@gmail.com"
"Sree Venkateswara Honda","Mr.M.Stalin","834-B,Bommidi Main Road,Pappireddipatti,Dharmapuri. 636905","Dharmapuri","Tamil Nadu","","9442147444","stalin.svt@gmail.com"
"Sreenevasha Honda","Mr. P.Kumaravel","3/3937, Salem Main Road, Karimangalam 635111","Dharmapuri","Tamil Nadu","","9865391436","sreenevashakrm123@gmail.com"
"Sri Krishna Honda","K. Santhosh Kumar","6/351, Bye Pass Road,Palakode 636808","Dharmapuri","Tamil Nadu","","9865453671","srikrishnahonda@gmail.com"
"Sri Venketshwara Honda","Mr. Chandrasekaran","111 G Salem Main Road Bharathipuram, 636705","Dharmapuri","Tamil Nadu","","9443271205","chandrasekaran.v@srivenkateshwarahonda.in"
"Sri Venketshwara Honda","Udhiyanila","Near Devi Department Stores, Tvk Nagar, Harur 636903","Dharmapuri","Tamil Nadu","","7418935088","harursales@srivenkateshwarahonda.in"
"Venkateshwara Honda","K Venkatesan","47/1,Mullvadi Bus Stop,Dharmapuri Main Road,Pennagaram P.O,626810 636810","Dharmapuri","Tamil Nadu","","9943312251","venkateshwarapennagaram@yahoo.com"
"Sai Kannan Honda","Akila","132, Kannan Complex, Karur Main Road, Vedasandur, Dindigul District - 624710 624710","Dindigul","Tamil Nadu","","9965242906","saikannanmotors@gmail.com"
"Saravana Honda","M.Saravana Kumar","36/1 A Dharapuram Road , Opp Gh , Oddanchatram 624619","Dindigul","Tamil Nadu","","7373727393","odc.saravanamotors@gmail.com"
"Sornam Honda","Mr. B S Murugesan","23,New Agraharam,Palani Road,Dindigul 624001","Dindigul","Tamil Nadu","0451-2422112, 2431856","9842131856","bmsornam@yahoo.co.in"
"Sornam Honda","Mr. Murgesan","72A Kv Hospital Near,Palani 624601","Dindigul","Tamil Nadu","","9842928040","bmsornam@yahoo.co.in, bmsornam@gmail.com"
"Sornam Honda","Mr. Murgesan","Near Rathakrishna Petrol Bunk,Periyakulam Road,Batlagundu 642202","Dindigul","Tamil Nadu","","9842928040","bmsornam@yahoo.co.in, bmsornam@gmail.com"
"Sri Hari Honda","Mr Praveen kumar","No 4/20-2 ,Sankarankovil Road, Elaiyarampannai, Virudhunagar 626201","Elaiyarampannai","Tamil Nadu","8870836755","8870836755","saiharihonda@gmail.com"
"Arvind Honda","Arvind","Near Tnstc Depot,Covai-Sathy(Nh-209),Rangasamudram,Sathyamangalam 638402","Erode","Tamil Nadu","","7402722212","aravindgovindraj2013@gmail.com"
"Classic Honda","Thirunavukarasu","Jagdalpur Road,Sukma 494111 638101","Erode","Tamil Nadu","","9976875707","akashmotors2016@gmailcom"
"Noble Honda","S.P Sathish","Perundura 638052","Erode","Tamil Nadu","","9500644664","noblehonda_erode@yahoo.com"
"Noble Honda","S.P Sathish","Near Annaamar Petrol Bunk, Karur Main Road, Moolapalayam, Erode-638002.  638002","Erode","Tamil Nadu","","9500644664","noblehonda_erode@yahoo.com"
"Noble Honda","Mr.K. Kathirvel","Near Sakthi Mahal, Perundurai Road, Erode - 638011, Tamil Nadu 638011","Erode","Tamil Nadu","0424-2255830, 2255840","9500644664","noblehonda.ed@gmail.com"
"Ponsakthi Honda","R Boopathi","171/17,Gh Road ,Sivagiri. 638109","Erode","Tamil Nadu","","9942412762","ponsakthihondasivagiri@gmail.com"
"Rkm Honda","Mr. Shanmugam","487/1,Mettur Road Bhavani 638301","Erode","Tamil Nadu","","9842893383","rkmhonda88@gmail.com"
"Royal Wings Honda","Mr. Vivekananthan","No-2,Sathy Road,Erode 638004","Erode","Tamil Nadu","","9688755588","royalhonda1@gmail.com"
"Sri Lakshmi Honda","Mr. P.N.Venkatachalam","36, Buddhar Street, Erode Main Road , Pudhupalayam, Gobichettipalayam 638476","Erode","Tamil Nadu","04285-228850/228860","9842729393","srilakshmihonda@gmail.com"
"Om Prakash Honda","Mr. Surya Prakash","No: 155A, G.S.T Road, Guduvanchery 603202","Guduvanchery","Tamil Nadu","","9940437788","prakashhondamd@gmail.com"
"Om Prakash Honda","","600063","Guduvanchery","Tamil Nadu","","",""
"Advika Honda","Mr. Vijay Jayapal","63/A1, Denkanikotta Road, Near Railway Station 635109","Hosur","Tamil Nadu","","9585511851","VIJAYJAYAPAL1977@GMAIL.COM"
"Keerthi Honda","Mr. K G Shyam Kiran","Nh 7 , Krishnagiri Bye Pass Road , Hosur 635109","Hosur","Tamil Nadu","04344-246428","9443245596","kgshyamkiran@rediffmail.com"
"Keerthi Honda","Mr. Shyam Kiran K.G","Kottai Vasal , Kelamangalam Road , Denkani Kotta - 635117 635107","Hosur","Tamil Nadu","","9944026600","keerthihondahosur@yahoo.com"
"Krithi Honda","Sridhar V","Hosur Main Road, Shoolagiri 635117","Hosur","Tamil Nadu","","9791582236",""
"S R Honda","S. Chandresh","5/239E, Jawalagiri Main Road, Thally - 635118 635118","Hosur","Tamil Nadu","","9943695969","schandresh70@gmail.com"
"Rainbow Honda","Parthiban K","No-31 D, Chidambaram Main Road, Jayankondam, Ariyallur Dist  621802","Jayankondam","Tamil Nadu","7373073255","7373073255","rainbowjykm@gmail.com"
"Ishana Honda","Mr.Kumar","Ishana Honda , No 237/32 Madurai Road, opp of Govt Boys High school,Kadayanallur, Tirunelveli District  627751","Kadayanallur","Tamil Nadu","04633-245051","7373062961","ishanakadayanallur@gmail.com"
"Subhasri Honda","Venkateshwaran","Subhasri Honda, No 748, Salem Main Road, Chinnasalem, Kallakurchi.  606201","Kallakurichi","Tamil Nadu","","9597825252 / 9443304030","subhasrihonda2016@gmail.com"
"Sri Lingam Honda","Mr. Sathish Lingam","17/1 B, Chengalpet Road, Tollgate, Periyathottam, 631501","Kanchipuram","Tamil Nadu","","9940031233","cssathish.kpm@gmail.com"
"Muthu's Honda","Mr Muthu Kumar","S.F NO 649/1A, Kovai Road, Kangeyam, Tirupur District 638701","Kangeyam","Tamil Nadu","9894021299","9894021299","kumar@muthushonda.com"
"Annai Honda","Mr. A.Aruputha Sahaya Raj","Annai Honda,Dr.No 7464, Kallal Road Kalayarkoil Sivagangai 630551","Karaikudi","Tamil Nadu","","8940777888","annaihonda2016@gmail.com"
"Meenu Honda","Kamal B","256C , Sri Kaderi Ambal Nagar,Thirupattur Main Road,Devakottai 630302","Karaikudi","Tamil Nadu","","9842484546","meenuhonda1212@gmail.com"
"Runish Honda","A.L.Shabudeen","No:562,Runish Nagar,Paramakudi Road,Near Sub Register Office,Ilayangudi-630702 630702","Karaikudi","Tamil Nadu","","9443490800/9443228887","runishmotorshonda@gmail.com"
"Sri Ganapathy Motors","T.Manivannan","457/1 Byepass Road ,Manamadurai,Sivagangai 630606","Karaikudi","Tamil Nadu","","9842521223","Ganapathymotors.Honda2Wheeler@Gmail.Com"
"Sri Kaveri Honda","Ramesh.Kr","Sakkottai Main Road,Puduvayal, Karaikudi Taluk,Sivagangai-630108 630108","Karaikudi","Tamil Nadu","","9788756677","kaverimotorspvl@gmail.com"
"Sundaravalli Honda","Mr.Kannan","Madurai Main Road,Koviloor,Karaikudi 630307","Karaikudi","Tamil Nadu","04565-239420","9043019411","svmghonda@gmail.com"
"Chakra Honda","Mr. Saravana Kumar.A","271/5,Covai Road 639002","Karur","Tamil Nadu","","7373731859","chakrahonda@gmail.com"
"Mp Honda","Pradeep Kumar.M","1-1, East Street, Near Makkal Theatre, Karur Main Road, Aravakurichi - 639201. 639201","Karur","Tamil Nadu","","8807795374","mpmotors.honda@gmail.com"
"Sivam Honda","Shiva T","19/4,Trichy-Karur,Main Road,Kulithalai 639104","Karur","Tamil Nadu","","8883522939","sivamhonda@gmail.com"
"Sun Honda","Manikandan","350/A1,  Katchery Street, Kattumannarkoil,  Cuddalore dt. 608301","Kattumannarkoil","Tamil Nadu","04144-262221","9688336222","sunmotors007@gmail.com"
"Srijan Honda","Sathish Kumar","Salem Main Road, Palathottam, Thimmapuram Post, Kaveripatnam, Krishnagiri District, Tamil Nadu 635112","Kaveripatnam","Tamil Nadu","95855 36970/04343 252207","96004 45977","srijanmotorskptm@gmail.com"
"Thamarai Honda","Mr Thamarai Selvan","NO.46, Pudukottai Main Road, Keeranur. 622504","Keeranur","Tamil Nadu","9842423231","9842423231","thamaraihonda@gmail.com"
"Noble Honda","K Dinesh kumar","No 394/4,Karur  Bypass Road ,Near Kodumudi New Bus stand , Erode District  638151","Kodumudi","Tamil Nadu","9791749664","9791749664","tnh.kodumudi@gmail.com"
"Pravin Honda","Mr Pravin","No 581-D/5, Ettayapuram Road, Kovilpatti -628501 Thoothukudi Dist 628501","Kovilpatti","Tamil Nadu","04632-222580","9443345885","b_pravinkumar@hotmail.com"
"Srijan Honda","Mr. Veera Reddy","8-3, Sidco Industrial Estate, Krishnagiri 635001","Krishnagiri","Tamil Nadu","","9626660275","srijanmotors9@gmail.com"
"Srijan Honda","G. Veera Reddy","Srijan Honda , Thrupathur Main Road ,Uthangarai 635207","Krishnagiri","Tamil Nadu","","9626660275","srijanmotors9@gmail.com"
"Srijan Honda","G. Veera Reddy","Srijan Honda , Thirupathur Main Road ,Pochampalli 635206","Krishnagiri","Tamil Nadu","","9626660275","srijanmotors9@gmail.com"
"Srijan Honda","G. Veera Reddy","Srijan Honda , Chennai Road ,Krishnagiri 600006","Krishnagiri","Tamil Nadu","","9626660275","srijanmotors9@gmail.com"
"Srijan Honda","G. Veera Reddy","Vaniyambadi Main Road ,Bargur 635104","Krishnagiri","Tamil Nadu","","9655636970","srijanmotors.brg@gmail.com"
"Sakthi Honda","Mr. Nowzath","#2/364,Mayiladuthurai Road,Ullur Vattam 612001","Kumbakonam","Tamil Nadu","","8489932603, 8489932613","sakthi.honda@yahoo.in"
"Mech Honda","Mr Vanjinathan","No  134 Madukkur Main Road ,Thanjavur District 614903","Madukkur","Tamil Nadu","8489932606","8489932606","mechhonda.mdu@gmail.com"
"Abhi Honda","","308/1, Trichy Main Road, Opp V.M. Thevar & Sons 625106","Madurai","Tamil Nadu","","9940911463","abhi.honda@yahoo.com"
"Abhi Honda","Mr. J. Senthil Kumar","Abhi Honda, Near Sivalingam Thetre Trichy Main Road ,Y.Othakadai Madurai- 625107 625107","Madurai","Tamil Nadu","","7373086465","abhihondaothakadai@gmai.com"
"Haritha Honda","Mr. Senthilkumar","T.S.No. 5/2C3,Lake View Road,Deputy Collector Colony,K.K.Nagar 625020","Madurai","Tamil Nadu","","9944008822","kgsk@ccsp-india.com"
"Haritha Honda","K.G. Senthil Kumar","No.4/3, Thevar Colony, Narayanapuram,Natham Main Road Iyer Bungalow),Madurai 625014","Madurai","Tamil Nadu","","9944008822","kgsk@ccsp-india.com,  kgsk19@gmail.com"
"Jeevan Honda","Mr.M.S.Sunther","33/9D, Virudhunagar Road, Tirumangalam, Madurai-625706 625706","Madurai","Tamil Nadu","","9444033499","mss@jeevanhonda.co.in"
"Jeevan Honda","Mr.M.S.Sunther","29/9C2, Bharathiyar Nagar, Theni Main Road, Nagamalai Pudukottai, Madurai - 625 019 625019","Madurai","Tamil Nadu","","9444033499","mss@jeevanhonda.co.in"
"Jeevan Honda","Mr. Sunther Ms","144/1 Tpk Main Road 625003","Madurai","Tamil Nadu","","9489061439","sfm@jeevanhonda.co.in"
"Muthiah Motors","Ramachandran.M","Muthiah Motors 1A, Suthanantha Bharathi St., Near Old Court, Sivagangai 630561","Madurai","Tamil Nadu","","9443502687","muthiahmotors@gmail.com"
"S.O.R Honda","S.O.R Elangovan","Madurai Main Road,Eb Office,Usilampatti 625532","Madurai","Tamil Nadu","","9842166606","sorhondausilai@gmail.com"
"Shurya Honda","Palaniappan","7-2-5/6, Main Road, T. Vadipatti,Madhurai 625218","Madurai","Tamil Nadu","","9842156021","shuryamotors@gmail.com"
"Bawa Honda","Mr. Abdul Basith","Dp Sv&Pa 609001","Mayiladuthurai","Tamil Nadu","04364-223551","9443527027 /7373073890","abdulbasith127@gmail.com"
"Pooja Honda","Mr. Padmanaban","150-B Kovai Main Roa  Mettupalayam 641301","Mettupalayam","Tamil Nadu","","9843966666","md.poojahonda2wheelersindia@gmail.com"
"Pooja Honda","Mr.A.Padmanaban","Pooja Honda, 507, Davisdale Road, Elkhill, Ooty 643001","Mettupalayam","Tamil Nadu","","9843966666","md.poojahonda2wheelersindia@gmail.com"
"Pooja Honda","Mr.A.Padmanaban","Pooja Honda, 323/2, Kovai Main Road, Annur 641653","Mettupalayam","Tamil Nadu","","9843966666","md.poojahonda2wheelersindia@gmail.com"
"Sss Honda","Mr. V Selva Kumar","3/176-1,E.C.R Puthur, 611106","Nagapattinam","Tamil Nadu","","9842148687","SKSELVA819@GMAIL.COM"
"Harini Honda","Mr. Vignesh Krishna","733-737 Tvm Road, Vadasery, Nagercoil 629001","Nagercoil","Tamil Nadu","","9443731773","vikky0707@gmail.com"
"Harini Honda","Mr.Vignesh Krishna","No:199/6, Aib, Next To Govt High School, Eraniel Road, Monday Market 629802","Nagercoil","Tamil Nadu","","9443731773","vikky0707@gmail.com"
"Harini Honda","Mr.Vignesh Krishna","No:23/188, Main Road, Panavilai, Thuckalay-629175 629175","Nagercoil","Tamil Nadu","","9443731773","vikky0707@gmail.com"
"Marikar Honda","Mr. Zulfiquar Marikar","253/1C, Marikar Building, Kp Road, Nagercoil 629002","Nagercoil","Tamil Nadu","","9443133336","sm@marikar.in"
"Marikar Honda","Mr. Zulfiquar Marikar","4/18-A,N.K. Rajarajeswari Building,Pammam,   Marthandam 629165","Nagercoil","Tamil Nadu","","9443133336","manager.ngl@marikarhonda.in"
"Bhagavaan Honda","Periasamy","2/145, Salem Main Road, Nh-7, Puduchatram, Namakkal - 637018 637018","Namakkal","Tamil Nadu","","9677755656","bhagavaanhonda@gmail.com"
"Noble Honda","Mr. Arul","Ponn Nagar, Salem Main Road, 637001","Namakkal","Tamil Nadu","04286-274155, 274199","9566589664","noblehonda.namakkal@gmail.com"
"Noble Honda","Mr. E.P. Sathish","Rasipuram 637408","Namakkal","Tamil Nadu","","9500644664","noblehonda_erode@yahoo.com"
"Venus Honda","Vasudevan","Near Gurubhavan Hotel, Tiruchengode Main Road, Velagoundampatty, Namakkal - 637212 637212","Namakkal","Tamil Nadu","","9788852050","venusenterpriises@gmail.com"
"Sornam Honda","Mr Manikandan","No.411/2, New Agraharam ,Palani Road ,Natham Dindigul 624401","Natham","Tamil Nadu","7373031859","7373031859","bmsornamnatham@gmail.com"
"Vijaya Honda","Sathyaraj","SURVEY NO 106/1A&1B,OMR ,NAVALLUR,CHENNAI 603103","Navallur","Tamil Nadu","9543305455","887097155","navallur.vijayahonda@gmail.com"
"S R Honda","Shakti Netesh","95B, Thozudur Main Road,Titttakudi 606106 606101","Neyveli","Tamil Nadu","","9442444411","srhondatitagudi@gmail.com"
"Sri Thillai Honda","Mr. Siva Senthil Murugan","249/1E,Cuddalore Main Road, Periyakurichi, 607802","Neyveli","Tamil Nadu","","9443411718","srithillaihonda@gmail.com"
"Sri Thillai Honda","Mr.S.Sivasenthil Murugan","Opp. Muthumariyamman Koil Arch, Cuddalore Main Road, Vridhachalam 606001","Neyveli","Tamil Nadu","","9443411718","srithillaihonda@gmail.com"
"S R K Honda","Mr Karthick Chinnasamy","No 602-A, 602-B, Thiru Nagar Palani, Dindigul District. Tamil nadu 624601","Palani","Tamil Nadu","6384497552","8148042887","mikadoz03@gmail.com"
"Vallalar Honda","Mr. Mr.Aravindan Jayabalan","No - 1, Palakarai Collector Office Road 621212","Perambalur","Tamil Nadu","","9842477204","vallalarmotors@yahoo.com"
"Balu Honda","Mohamed Thaslim","No 363, Avanam Road, Peravurani , Thanjavur Dist 614804","Peravurani","Tamil Nadu","7094433664","7094433664","peravuranibaluhonda@gmail.com"
"Hari Ram Honda","Mr. Shiv Prakash","No 120, Coimbatore Main Road, Pollachi 642001","Pollachi","Tamil Nadu","04259-223107","9843232336","subbukrishnankannan@yahoo.co.in"
"Hari Ram Honda","Shiv Prakash","1/64A,Coimbatore Main Road,Near Arasampalayam Pirivu,Kinathukadavu, 642109","Pollachi","Tamil Nadu","","7373747499","hariraams.sales@gmail.com"
"Moham Honda","Arun","No-07 , Kalar Street II , Sulthanpet , Villainur , Puducherry 605110","Pondicherry","Tamil Nadu","8608180184","7094497444","mohamhonda@mohaminfo.com"
"K K Honda","Senthil Kumar P","Vellaiyandipatti Vilakku Pudukkottai Main Road Ponnamaravathy 622408","Pudukkottai","Tamil Nadu","","9842421614","kkhondapmy@gmail.com"
"K.V. Honda","Mr. C. Aasai Thambi","No:9954/3B,Marthandapuram 3Rd Street,Alangudi Road 622001","Pudukkottai","Tamil Nadu","04322 -266622","9843007723","kvhonda@gmail.com"
"K.V. Honda","C. Aasai Thambi","No 67/18 Pudukkottai Road Near Check Post Aranthangi Pudukkottai Dist 614616","Pudukkottai","Tamil Nadu","","9843007723","kvhonda@gmail.com"
"Abi Honda","T.  Balamurugan","3/5-49, D.D. Main Road, Rs Mangalam,Ramanathapuram 623525","Ramanathapuram","Tamil Nadu","","7373999910","abihonda73@gmail.com"
"Rameshwar Honda","Mr.T.Srinivas","2/421-14,B1, Vasanthanager,Mani Nager,Paramakudi-623707 623707","Ramanathapuram","Tamil Nadu","","8122439899","rameswarhona@gmail.com"
"Saravana Honda","Navaneetha Krishnan","4/486-3, Devakottai Main Road , C.K. Mangalam, Thiruvadanai (Tk), Ramnad - 623402  623402","Ramanathapuram","Tamil Nadu","","9443860583","saravanahonda1314@gmil.com"
"Kumaran Honda","Mr Palanivel Kumar","No 138J, Arignar Anna Salai, Attur Main Road, Rasipuram, Namakkal District  637408","Rasipuram","Tamil Nadu","9442567890","9442567890","baran.28@gmail.com"
"K.M.P.Auto Agency","Saravanan K.S.","Plot No:-1/396,Dharampuri,Main Road,Omalur 636455","Salem","Tamil Nadu","","9443380564","kpm_9autoagency@yahoo.in"
"Kubera Honda","636455","1/396-1 S.NO 30/1A2C Dharmapuri Main Road, Balpakki perivu , Omalur   636455","Salem","Tamil Nadu","04290-220119","9944724333","sales@kuberahonda.com"
"Kumaran Honda","Harishankar.J","45/1B Subramanian Kovil Str, Salem Main Road,Elampillai,Salem (Tk) Pin -637502 637502","Salem","Tamil Nadu","","8825409100","kumaranhonda26@gmail.com"
"Pks Honda","Arun Chandhar","Bhavani Main Road, Pachakadu, Sankari 637301","Salem","Tamil Nadu","","9942998899","customercare.pkshonda@gmail.com"
"R V Honda","Ravikumar","Sf No.9/1C,Tharamangalam Main Road,Jalakandapuram,Salem 636501","Salem","Tamil Nadu","","9629911899","rvhondasalem@gmail.com"
"Ramani Honda","A Rameshkumar","SPR Milll Compound, Sandaipettai Main Road,Shevapet,Salem  636002","Salem","Tamil Nadu","95974 74111","96597 33111","shevapetramanihonda@gmail.com"
"Ramani Honda","S PRABHU","9/60,MKRP Complex, Trichy Main Road, Seelanaickenpatty,Salem, Tamil Nadu  636201","Salem","Tamil Nadu","81444 34444 / 77080 08800","96982 24444","ramanihondasm@gmail.com"
"Ramani Honda","P Balamurugan","40/AG,Nainampatti Road,Opp Kalki Gas Office,Salem Main Road,Edappadi  637101","Salem","Tamil Nadu","77089 49111 / 04283 223123","73975 26111","ramanihonda.edappadi@gmail.com"
"Rvs Honda","G.Senthil","1/A Cuddalore Main Road , Opp Thiyagarajar Iti , Vazhapadi , Salem 636115 636115","Salem","Tamil Nadu","","9942351678","rvshonda1@gmail.com"
"Select Motors","Althaf.A","268, Dharmapuri Main Road, Shamrajpet, Mecheri, Salem. 636453","Salem","Tamil Nadu","","7373778601","selecthonda786@gmail.com"
"Shree Honda","D Venkatesan","93/1A8A, Tvc Nagar,New Bypass Nh - 7, Deevattipatti,Salem  636351","Salem","Tamil Nadu","","9884598999","shreehonda3@gmail.com"
"Thriveni Honda","Mr. Syed Farhan","T.V.K.Road, Ammapet 636003","Salem","Tamil Nadu","","9786819999","CEO@THRIVENIHONDA.COM"
"Triummph Honda","Mr. Palanivela Babu","Salem Fuel Complex, Hasthampatty Circle, Hasthampatty,  Salem - 7. 636007","Salem","Tamil Nadu","","9994077111","gm@triummphhonda.com, sales@triummphhonda.com"
"Triummph Honda","Mr. SE Palanivel Babu","4/22,Sri Laksmi Complex, Omalur Main Road, Swarnapuri, 636004","Salem","Tamil Nadu","0427-2334571, 2334572","9500259900","triummphhonda@hotmail.com"
"Triummph Honda","Mr.Vinoth Kumar","109/4, Mohan Nagar ,Opp Salem Steel Plant Salem 636030","Salem","Tamil Nadu","0427-2385865","9994099445","sales@triummphhonda.com"
"Vedant Honda","Rameesh","Vedant Honda,No160, N-7,East Main Road Mettur Dam-636401 636401","Salem","Tamil Nadu","","9865698777","vedentsbikes@gmail.com"
"Mariyo Honda","G Valanarasu","5 /951-B,N G O Colony, Rajapalyam Road, Sankarankovil, Tirunelveli District. Tamil nadu 627756","Sankarankovil","Tamil Nadu","04636-222966","9842514966","mariomotorsrjpm@gmail.com"
"Pressana Honda","Rajesh","# 4/476, 478,  Annapathai Perur Main Road, Selvapuram, Coimbatore 641026","Selvapuram","Tamil Nadu","7094465155","7094465155","pressanamotorsbranch@gmail.com"
"Varshi Honda","Dilli Babu B","Varshi Honda  No 40/41 Gandhi Nagar Padmapuram Wallajah Road Sholinghur  631102","Sholinghur","Tamil Nadu","8940640122  /  8883204044","8919434643","varshimotors.s@gmailcom"
"Sundaravalli  Honda","karthik","Karaikudi Dindigul Main Road, RMS Mill opp, Singumpunari-630502  630502","Singampunari","Tamil Nadu","9043010315","9043010315","svm@singumpunari@gmail.com"
"Muthiah Honda","Ramachandran.M","16 / 17C,MUTHUSAMY NAGAR 2nd Street, THIRUPATHUR ROAD, SIVAGANGA 630561","Sivaganga","Tamil Nadu","04575-242287","9443502687","muthiahmotors@gmail.com"
"Mukesh Honda","Mr. Sundara Moorthi","462/1 Virudhunagar Road, Thiruthangal, Sivakasi. 626130. 626130","Sivakasi","Tamil Nadu","","9442612077","mukeshhonda@gmail.com"
"Mukesh Honda","Sundaramoorthy","1064/1, Madurai Road, Cotton Market, Rajapalayam - 626 117 626117","Sivakasi","Tamil Nadu","","9442612077","mukeshhonda@gmail.com"
"Mukesh Honda","Mr Senthil","Survey No. 403/2B, Madurai Main Road Srivilliputhur- 626125 626125","Sivakasi","Tamil Nadu","","","mukeshhonda@gmail.com"
"Ishana Honda","Mr Jude Roy Jeyaseelan","Ishana Honda , No 1/8/124 Sankrankovil Road, Surandai, Tirunelveli District, 627859","Surandai","Tamil Nadu","7373058725","7373058720","ishanahondasurandai@gmail.com"
"Ishana Honda","Mr. Muthukrishnan","5/1A Sri Sakthi Nagar Madurai Main Road 627811","Tenkasi","Tamil Nadu","04633 220050","7373062951","ishanahonda2014@gmail.com"
"Balu Honda","Mr. R.Siva Kumar","119 Abraham Pandithar Garden , Medical College Road 613007","Thanjavur","Tamil Nadu","04362-234556","7373017191","contact@baluhonda.com"
"Balu Honda","Mr.K.B.Sidarth","No:1/27-B, East Main Road, Chakkarapalli, Ayyampettai(Po), Papanasam(Tk), Thanjavur (Dt). 614201","Thanjavur","Tamil Nadu","","7373049999","sales@baluhonda.com"
"Mech Honda","Mr. C.Sundara Pandian","No:43/1,Thanjavur Road,Palayam,Pattukkottai-614601 641601","Thanjavur","Tamil Nadu","","9944128815","mechhonda@yahoo.co.in"
"Mech Honda","Mr. Subramanyam","2851-Trichy Road, M.S.Maniam Compound, Thanjavur, Tamilnadu 613007","Thanjavur","Tamil Nadu","04362-230266, 232166","9443335987","mechhonda@yahoo.co.in"
"Sri Balaji Honda","Pandian","3909/2,Madukkure Main Road,Mannargudi 614001","Thanjavur","Tamil Nadu","","9486021672","gmaruthupandian1@gmail.com"
"Classic Honda","D.Kumaresan","13/A Madurai Road, Vadakarai, Perriyakulam, Theni. 625601","Theni","Tamil Nadu","","9443904126","classicmotors.pkm@gmail.com"
"Haj Honda","Mohammed Alli","260,L F Road, Cumbam, Theni  625516","Theni","Tamil Nadu","","9442021395","hajhonda@gmail.com"
"Vikash Motors","Thambi Ramachandran","No:8/245,Theni Madurai Highway, Near Taluk Office,Aundipatty,Theni 625512","Theni","Tamil Nadu","","9655520095","Vikashhondamotors@gmail.com"
"Viveks Honda","Mr. E.J.Vivekram","1539,Periyakulam Road,Theni. 625531","Theni","Tamil Nadu","04546-250650","9942207997","vivekshonda@gmail.com"
"Viveks Honda","E.J. Vivekram","Deveram  Main Road, Opp Rmtc Dippo , Bodi 625513","Theni","Tamil Nadu","","9942207997","vivekshonda@gmail.com"
"Viveks Honda","E.J. Vivekram","Cumbum Main Road, Opposite Venkateswara Theatre, Chinnamanur  625515","Theni","Tamil Nadu","","9942207997","vivekshonda@gmail.com"
"Abarna Honda","S.Mohanraj","46B,Nagai Road,Vedaranyam 614810","Thiruvarur","Tamil Nadu","","7373050815","abarnahonda2vdm@gmail.com"
"Ca Honda","Mr. Ganesh Kumar","No-1A/10D/1, Bye Pass Road, Thiruvarur 610001","Thiruvarur","Tamil Nadu","04366-251555","7373099918","cahondatvr@gmail.com"
"Sri Ram Honda","Natarajan","No-3/143,Chidambaram Main Road,Nagapattinam 609110","Thiruvarur","Tamil Nadu","","9842327125","sriramhondaskl@gmail.com"
"Meenakshi Honda","Mr Gandhi","No 15,Tirunelveli Main  Road, Thisayanvillai 627657","Thisayanvillai","Tamil Nadu","9443970308","9443970308","tsysrimeenakshihonda@gmail.com"
"Sri SK Honda","Vignesh","""SF No :- 74/7A2C2,  Thuvaramkuruchi manaparai main Road, Thuvaramkuruchi, Trichy District, Tamil nadu""  621314","Thuvarankurichi","Tamil Nadu","8940772299","9965304617","skhondabranch@gmail.com"
"Kumar Honda","","262/108,Theppakulam Street, Sankari Road 637211","Tiruchengode","Tamil Nadu","","9842702222","kumarhondas@gmail.com"
"Kumar Honda","Mr.P.Kumar","Opp.Veterinary Hospital,Paramathi Road,Paramathivelur-638182 638182","Tiruchengode","Tamil Nadu","","9842701617","kumar@kumarhonda.com"
"Kumar Honda","Mr.P.Kumar","Opp. Corporation Bank, Sankagiri Main Road, Pallipalayam - 637211 638006","Tiruchengode","Tamil Nadu","","9842701617","kumar@kumarhonda.com"
"Sai Parthi Motors","N. Muthukumar","108-Trichy Road, Thuraiyur 621010","Tiruchirappalli","Tamil Nadu","","9095255099","saiparthihonda@gmail.com"
"Aks Honda","Ashok Krishnaswamy","No. 55, Bell Complex , Poovalur Main Road, Lalgudi 621601","Tiruchirappalli","Tamil Nadu","","9865457935","ashokakskavi@gmail.com"
"Kkm Honda","Manikandan K","Kkm Honda,Sf No 192/2C, 2D,Salem Main Road,Opp To Matha School,Thottiyam,Trichy  621215","Tiruchirappalli","Tamil Nadu","","9788528676","manikandanrmba@gmail.com"
"M.A.Honda","","No :20/2 ,Williams Road ,Cantonment 620001","Tiruchirappalli","Tamil Nadu","","9443141931","mahondatn05@gmail.com"
"M.A.Honda","Mr. Thomas Abraham","No:42/D2,Trichy Road,Manapparai 621306","Tiruchirappalli","Tamil Nadu","","9965505600","mahondatn05@gmail.com"
"Rockfort Honda","Mr.Anand.S","Old Chennai Trunk Road,Opp Rto Office, Tiruvankovil,Trichy-620005. 625005","Tiruchirappalli","Tamil Nadu","","7708008899","vignesh@rockforthonda.in"
"Rockfort Honda","","No:19,20 & 21 Satr Avenue, Karur Byepass Road, Trichy 620002","Tiruchirappalli","Tamil Nadu","","7708008899","vignesh@rockforthonda.in"
"Sm Honda","Muthu","52/3-2,  Trichy - Selam Main Road, Near Old Bustand, Opp. Of Petrol Bank , Musiri 621211 621211","Tiruchirappalli","Tamil Nadu","","9659088182","muthuvklt@gmail.com"
"Sri Sk Honda","Mr. Kishore S","51/4B2,Kumaran Nagar, Thiruverumbur 620013","Tiruchirappalli","Tamil Nadu","","7200600070","skhondamotors@gmail.com"
"Sugiram Honda","B.Dinesh Kumar","No: 348, Thuraiyur Road,Opp. Taluk Office,Mannachanallur,Trichy  621005","Tiruchirappalli","Tamil Nadu","","8428855555","Sugiramhonda@Gmail.Com"
"Mario Honda","Velanarasu","5/951-A, Ngo Colony,Sankarankoil  627719","Tirunelveli","Tamil Nadu","","9842984966","mariomotorsrjpm@gmail.com"
"Rehoboth Honda","Mr. K. Suthan","24C, S.N.High Road 627001","Tirunelveli","Tamil Nadu","0462-2337101","9500718887","rehobothhonda@gmail.com"
"Rehoboth Honda","K Sulthan Jafferson","78A 1Thilagarpuram Main Road  ; Ambasamuthiram 627401","Tirunelveli","Tamil Nadu","","8110088888","salesrehobothhonda@gmail.com"
"Sri Meenakshi Honda","Mr. D Dalton","144 Main Road, Vallioor, Radhapuram Taluk, Tirunelveli Dist 627117","Tirunelveli","Tamil Nadu","","9894023565","honda.dalton@gmail.com"
"Sri Meenakshi Honda","Mr. Dalton","10B/1H/2 Tiruvandurm Road Vannarpettai Palayamkottai 627002","Tirunelveli","Tamil Nadu","","9894023565","honda.dalton@gmail.com"
"Sri Yoga Honda","Mr. R.Mani","New No.338/1Z 4B, Vaniyambadi Main Road, Tirupattur 635601","Tiruppattur","Tamil Nadu","04179-224981","","sriyogahondasales@gmail.com"
"Sri Yoga Honda","Mrs. M.Urmila","Sri Yoga Motors, C.N.A Road, Noorullapet, Vaniyambadi 635751","Tiruppattur","Tamil Nadu","","9443324981","sriyogahondasales@gmail.com"
"King Honda","Palaniyappan","360/1 A, Perundurai Road, Kunnathur- 638103 638103","Tirupur","Tamil Nadu","","9842764747","kinghondakunnathur@gmail.com"
"Pressana Honda","Mr. P.S. Senthil Kumar","No 670 A.S Nagar Kangayam Main Road Tirupur-641606  M : 9790076767 641606","Tirupur","Tamil Nadu","","8870014449","pressanaautomobile@gmail.com"
"Pressana Honda","Mr. P.S.Senthilkumar Srinivasan","No.473(2)/366,Kamaraj Road, Palladam Road, Tirupur 641604","Tirupur","Tamil Nadu","","8220066669","pressanamd@gmail.com"
"Pressana Honda","Mr. P.S. Senthil Kumar","15/Aopp Marapalam Trichy Main Road,Pacha Palayam ,Palladam  641664 M: 9952494477 641664","Tirupur","Tamil Nadu","","8870014449","pressanaautomobile@gmail.com"
"Raba Krr Honda","Mr. R Balashanmugam","Avinashi 641654","Tirupur","Tamil Nadu","","9789466720","rabakrrhonda@gmail.com"
"Raba Krr Honda","Mr. Balashanmugam","No.73 , Avinashi Road,Sap Theatre Oppsite 641603","Tirupur","Tamil Nadu","","9789480905","rababalu@gmail.com"
"Raba Krr Honda","Mr. R Balashanmugam","Boyampalayam (Pn Road) 641666","Tirupur","Tamil Nadu","","9789466720","rabakrrhonda@gmail.com"
"Raba Krr Honda","Mr.R.Balashanmugam","1/137(4C),Raba Krr Nagar Near Indian Oil Petrol Bunk Perumanallur, Tamilnadu 641666","Tirupur","Tamil Nadu","","9789480905","rabakrrhonda@gmail.com;  rababalu@gmail.com; rabakrr@gmail.com"
"Global Honda","Jyothi Prasad","Global Honda, #3/30, Opp; Ioc Petrol Pump, Tirupati Road, Tiruttani, Tiruvallur Dist, Tamiilnadu 631209","Tiruttani","Tamil Nadu","442-7881196","8248070133","trt.globalhonda@gmail.com"
"Shubham Honda","C.Deepak","17/5. By-Pass Road, Periyakuppam  602001","Tiruvallur","Tamil Nadu","27663660 / 27663661","78258 88301","shubhamhonda.tvlr@gmail.com"
"Anu Honda","Ratheesh P","No.107/5A, Arcot Main Road, Opp To E.B Office, Cheyyar, Tiruvannamalai - 604407 604407","Tiruvannamalai","Tamil Nadu","","9751525050","anuhondacheyyar@gmail.com"
"Aravaazhi Motors","T Aravaazhi","No:2370 Thanipadi Main Road,Thandarampet,Thiruvannamalai District 606707","Tiruvannamalai","Tamil Nadu","","9944051580","aravaazhi.th@gmail.com"
"Bmv Honda","V. Prakash","2884D, Gandhi Road, Arani 632301","Tiruvannamalai","Tamil Nadu","","9360316185","bmvmotorsb@gmail.com"
"Deepam Honda","Mr. Singaravel","No 2420/2,Thindivanam Nh Road, 606601","Tiruvannamalai","Tamil Nadu","","9597082801","deepamhonda@gmail.com"
"Deepam Honda","A B Singaravelu","Survey No 20/3B & 22/1, Near Vkc Complex, Chetpet Road, Vandavasi Post, Tiruvannamalai - 604408 604408","Tiruvannamalai","Tamil Nadu","","9842766303","deepamhonda@gmail.com"
"Rps Honda","Mr. Ravi Krishnamoorthy","No 1540 Kanchi Road ,Vengikkal. 606604","Tiruvannamalai","Tamil Nadu","","9443335576","rpsmotors.tvmalai@gmail.com"
"RPS Honda","Ram Chandrian","Bengalur Main Road , Near Indian Oil Petrol Bunk, Thukkapettai,Chengam 606701","Tiruvannamalai","Tamil Nadu","04188 - 224576","9498853376","rpsmotorschengam18@gmail.com"
"Samy Honda","Yoganandam K","11, C.C Road , Near Fire Station , Polur - 606803 606803","Tiruvannamalai","Tamil Nadu","","7867012971","yogakkm@gmail.com"
"Sri Guru Honda","Prema Latha","No2/D,Arani Road,Chetpet, Tiruvannamalai. 606801","Tiruvannamalai","Tamil Nadu","","9597751321","srigurumotors.chetpet@gmail.com"
"Sundaram Honda","S.Ganesh Kumar","901 & 902,Bangalore Main Road,Thukkapet,Chengam,Tiruvannamalai 606709","Tiruvannamalai","Tamil Nadu","","9047577799","sundarammotors2014@gmail.com"
"Vsm Honda","Subramani V","Vsm Motors, 7/1691, Salem Main Road, Thanipadi-606708 606708","Tiruvannamalai","Tamil Nadu","","9488910502","vsmmotors.thanipadi@gmail.com"
"M.A.Honda","Sivramakrishnan","Shop No: 6&7  RR Complex, 135 Renga Nagar II nd St, Sundar Nagar Main Road,  Trichy 620021  620021","Trichy","Tamil Nadu","","9585874747","mahondatn05@gmail.com"
"Pearl  Honda","Mrs Rajalakshmi","No 93/A, Palayamkottai Road West, opp of Govt Polytechnic College, Tuticorin 628008","Tuticorin","Tamil Nadu","9524644200","9524644200","townbranch@pearlmotors.co.in"
"Pearl Honda","Mr.M.Balamurugan","53/3, Kayalpattinam Road, Tiruchendur - 628215 628215","Tuticorin","Tamil Nadu","","9524644600","bala@pearlmotors.co.in"
"Muthu’S Honda","M.Muthukumar","S.F# 649/1A, Kovai Road,Kangayam - 638701 638701","Udumalpet","Tamil Nadu","","9894021299","kumar@muthushonda.com"
"Srk Honda","Mr. Karthick Chinnasamy","S.R.K. Motors, Door No:-60, Kalyani Nagar,Palani Road,Gandhi Nagar Post, 642154","Udumalpet","Tamil Nadu","","9442089166, 8148042887","srkhonda@gmail.com"
"Murughan Honda","Mr. Jothiram Krishnamoorthy","Murughan Automotive, 28 Rs Road, Gudiyatham, Service 15 Rs Road, Gudiyatham, Vellore Dist 632601","Vellore","Tamil Nadu","","9944132800","murughan.motors@gmail.com"
"Selvam Honda","Mr. R.Lingeswaran","New Bye-Pass Road 632012","Vellore","Tamil Nadu","0416-3265036","9843440266","selvamhondavellore@gmail.com"
"Selvam Honda","Raja Selvaraj","Ammoor Road, Muthukadai, Ranipet 632401","Vellore","Tamil Nadu","","9843555966","selvamhondavellore@gmail.com"
"Selvam Honda","Raja Selvaraj","Sainathapuram 632001","Vellore","Tamil Nadu","","9843555966","selvamhondavellore@gmail.com"
"Selvam Honda","Mr .Dinesh","No 34 , Vellore Main Road , Opp Govt Girls School , Arcot 632503","Vellore","Tamil Nadu","","9894953555","selvamhondavellore@gmail.com"
"Sri Lakshmi Honda","Vedharajan","Mbt Road,Opp Bus Stand, Kaveripakkam, Vellore. 632508","Vellore","Tamil Nadu","","9443096832","srilakshmihonda.kpk@gmail.com"
"Pravin  Honda","Ponraj","# 12/7N, Ettayapuram Road, Vilathikulam - 628907, Tuticorin District.  628907","Vilathikulam","Tamil Nadu","8508222580","8508222580","pravinbikez.vilathikulam@gmail.com"
"Deen Honda","Mohammed Appas","2/43, Salem Main Road, Opp Bharat Petroleum, Karimsha Thakka, Prithivimangalam, Thiyagadurgam- 606206 606206","Villupuram","Tamil Nadu","","9578606143","deenmotors.honda@gmail.com"
"Jeevan Honda","Jeevan","S.No.264/3A1, Kallakurichi Main Road, Sankarapuram, Villupuram - 606401 606401","Villupuram","Tamil Nadu","","9677775676","jeevanhonda@hotmail.com"
"New City Honda","Mr. Mohamed Igbal","No 27B/4, Trichy Main Road, Villupuram 605602","Villupuram","Tamil Nadu","","9344993910","newcityhonda.md@gmail.com"
"Palaniyappa Motors","S.P Parthiban","Thiruvannamalai Main Road,Manapoondi,Tirukoilur 605759","Villupuram","Tamil Nadu","","9865202222","palaniyappamotors@gmail.com"
"Srimathi Honda","Ganesh T","Srimathi Motors,No.163 Tiruvanamalai Road,Gingee 604202","Villupuram","Tamil Nadu","","9488905517","srimathimotors@gmail.com"
"Star Honda","Mohamad Sherrif","Star Honda,No.63 Chennai Main Road,Opp Athilakshmi Marriage Hall,Ulundurpet 606107","Villupuram","Tamil Nadu","","9786186022","1starmotors@gmail.com"
"Unique Honda","Er. R. Jayakumar","99 Milam Road , Neer Jvs Mahal , Tindivanam 604001","Villupuram","Tamil Nadu","","9585503582","uniquemotors@hotmail.co.in"
"Vasavi Honda","Mr. Raj Kumar J","S.No.4/1, 5/1, Chennai Main Road, Ayyankovilpattu,Villupuram 605602","Villupuram","Tamil Nadu","04146-229444","9443087621","uniquemotors.sealesforce@gmail.com"
"Rathinaam Honda","Raajith","No.253A(7) 18,19Thd Complex, Thiruchuli Road ,Aruppukottai, Virudhunagar  626101","Virudhnagar","Tamil Nadu","","9442104573","rathinaamhonda@gmail.com"
"Sri Sai Hari Honda","Mr.D.S.Haribalan","631, Thillai Nagar, Srinivasa Bus Depo, Sattur - 626203 626603","Virudhnagar","Tamil Nadu","","9789772585","saiharihonda@gmail.com"
"Sri Sai Hari Honda","Mr. HARIBALAN.D.S","138-Katcheri Road 626001","Virudhnagar","Tamil Nadu","04562-246288","9789772585","saiharihonda@gmail.com"
