"Dealer Name","Contact Person","Address","City","State","Contact 1","Contact 2","Email"
"Shri Mahalakshmi Honda","Mr. N. Nakul Reddy","# 9-6, Sainagar, Dasnapur, Adilabad 504001","Adilabad","Telangana","","9010977760","nakul242@gmail.com"
"Shri Mahalakshmi Honda","Mr.Nalla Nakul Reddy","H.No: 1-3-155/26/2, Khanapur Road, Near Govt Degree College, Divya Nagar, Nirmal - 504106 504106","Adilabad","Telangana","","9963872963","nakul242@gmail.com"
"Sri Ganesh Honda","Chukka Ganesh","House No:19-67/1,Vidyanagar,Khanapur,Adilabad  504203","Adilabad","Telangana","","9494036111","Sriganeshmotors.honda@Gmail.Com"
"Raam Honda","P.Ramesh","H.No:1-5-48/1/NR,on Plot No. 20,Prakash Nagar colony,old alwal,Alwal Village 500010","Alwal","Telangana","9100091052","9100091054","Sales.alwal@raam2wheelers.com"
"Narmada Honda","Giri","Plot no 9 & 10,Opp:Ayyappa Konda,Hyd Road,Amangal 509321","Amangal","Telangana","9441274050","9441274050","narmadaahondaamangal@gmail.com"
"Jagadamba Honda","Nagaraju. Gunda","H.No. 6-55/4/2, Rajampet,  Asifabad  504294","Asifabad","Telangana","08736259303/ 9849113133","9849113133","gnr.usa@gmail.com"
"Sai SRK Honda","Gangadhar","H.no- 7-64/D-1 to 4, Tadkole Road, Banswada, Kamareddy  503187","Banswada","Telangana","9908393269","9908393269","banswada.saisrkhonda@gmail.com"
"Sri Vigneshwara Honda","K Ravinder","Sri Vigneshwara Honda Near Govt junior college,Opp:Kalyani Gardens,Cherial 506223","Cherial","Telangana","8464806750","9505556222","srivigneshwarahonda@gmail.com"
"Mereddy Honda","Srikanth","Opp: Ayyappa Swamy Temple, Mahaboob Nagar Road, Devarakonda  508248","Devarkonda","Telangana","08691-252225","9848906151","srihonda.dvk@gmail.com"
"Nagarjuna Honda","MD.Akbar Pasha","H.No: 16-3-793/794/795, Opp to Walmart, Khammam Road, Ekashilanagar,Warangal 506002","Ekashilanagar","Telangana","7095377444","7095477444","nagarjunaautoagency@gmail.com"
"Taj Honda","MD.Tajuddin","# 12-370/4 Main Reoad Eturunagaram 506165","Eturnagaram","Telangana","8179977999","9441933582","tajhonda1582@gmail.com"
"Lalit Honda","Mr. Anil Kumar Gadekarla","Opp Pjp Camp, Hyderabad Road, 509125","Gadwal","Telangana","","9908134444","herschelmotors@gmail.com"
"Mereddy Honda","L Yadilal","Miryalaguda road, Doravari Complex, Haliya 508377","Haliya","Telangana","08680-278822","9618688166","mereddyhaliyahonda@gmail.com"
"Mereddy Honda","K Suresh Reddy","Near New Bus Stand,Kodad Road,Huzurnagar 508201","Huzurnagar","Telangana","08683-242888","9618002354","mereddyhondahznr@gmail.com"
"A-1 Honda","Md. Abdul Latheef","Shop No : 8/91/4, Srd Road , Narsapur (V/M) 502313","Hyderabad","Telangana","","9440202875","a1motors01@gmail.com"
"Aadi Honda","Mr. M .Srinivasulu","N-38, Vanasthali Puram, Vijayawada Road, Hyderabad 500070","Hyderabad","Telangana","","9391148094","aadihonda@hotmail.com"
"Aadi Honda","Mr. M .Srinivasulu","8-2-53/3/62/2 Nr , New Maruthi Nagar, Karmanghat, Santhosh Nagar, Hyderabad 500059","Hyderabad","Telangana","","9391148094","aadihonda@hotmail.com"
"Aadi Honda","Mr. Muppa Srinivasulu","16-11-19/8/1,Appaji Complex Saleem Nagar Colony,Malakpet 500036","Hyderabad","Telangana","","9397999316","aadiedp@gmail.com"
"Aadi Honda","Mr. M .Srinivasulu","3-8-171/2, Aziz Estates, Chandrapuri Colony, Lb Nagar, Hyderabad. 500074","Hyderabad","Telangana","","9391148094","aadihonda@hotmail.com"
"Aadi Honda","Sashanka","11-9-43&44, Beside Omni Hospital,Nagole Road,Kothpet, Hyderabad 500035","Hyderabad","Telangana","9533120625","9533120625","aadihondakpt@gmail.com"
"Aadi Honda","G. K. Ramakrishna","Door No: 16-11-16/M/27, Plot No. 27, Prashanth Nagar, Opp Rto Office, Moosarambagh  500036","Hyderabad","Telangana","","9399999408","aadihondasales@gmail.com"
"Autofin Honda","Devender","3-6-729, St. No. 12, Main Road, Himayathnagar, Hyderabad. 500029","Hyderabad","Telangana","9985550099","8886629911 / 8008935000","autofin_motors@yahoo.com"
"Autofin Honda","C E Johnson","""11-5-131/3, Red Hills, Opp. Govt. Junior College, Bazarghat, Nampally, Hyderabad 500001","Hyderabad","Telangana","8008911000","9908055755","nampally@autofinhonda.com"
"Autofin Honda","Radha Krishna","1-1/6, Saraswathi Nagar Colony, Ring Road, Uppal, Beside RTA Office, Hyderabad. 500039","Hyderabad","Telangana","27606633/6644","9989129090","uppal@autofinhonda.com"
"Autofin Honda","A D Raj Kumar","H. No. 1-2-234/12, Lotus Golden Plaza, GaganMahal, Domalguda, Hyderabad. 500029","Hyderabad","Telangana","040-27671879","9177801000","domalguda@autofinhonda.com"
"Dwaraka Honda","Srinath Goud","Dwaraka Honda, A1 & 2, #15/2, Beside Vijaya Ganapathi Temple, Suncity, Rajendranagar ,Ranga Reddy Dist. Telangana  500091","Hyderabad","Telangana","9000633822","9000633822","asc.suncity@dwarakahonda.com"
"Dwarka Honda","Mr. Belman Abhishek Rao","#4-8-137/2, Opp Pillar No147, Attapur Main Road Rajendra Nagar 500048","Hyderabad","Telangana","","9848024408","dwarakahonda@gmail.com"
"Dwarka Honda","Mr.Abhishek Rao","Shamshabad 501218","Hyderabad","Telangana","","9246591001","dwarakahonda@gmail.com"
"Harmony Honda","Mr.Ashish Modi","Opp Bus Depo , Beside Vinayaka Temple Hyderabad Road, Siddipet 502103","Hyderabad","Telangana","","9848014968","info@harmonyhonda.net"
"Harmony Honda","Mr. Ashish Modi","#23-28/1 Main Road Near Jyothi Thatre Ashok Nagar R C Puram Medak 502032","Hyderabad","Telangana","","9848014968","director@harmonyhonda.net"
"Harmony Honda","Mr.Ashish Modi","P.No 11 & 12 Opp Mrh School, Alipur Main Road, Zaheerabad 502220","Hyderabad","Telangana","","9848014968","info@harmonyhonda.net"
"Jsp Honda","Mr. Sudharsan Ponraj","Hno 48-303, Ganesh Nagar, Chintal 500054","Hyderabad","Telangana","","9959251133","jsphyd@gmail.com, info@jsphonda.in"
"Jsp Honda","Mr. Sudharsan Ponraj","Hno 7-1-395/5, Balkampet, Sr Nagar 500038","Hyderabad","Telangana","","9959251133","jsphyd@gmail.com, info@jsphonda.in"
"Jsp Honda","Mr. Sudharsan Ponraj","Hno 7-14 ,Sri Krishna Devaraya Olony, Opp .Bpcl Petrol Pump,Madinaguda 500049","Hyderabad","Telangana","","9959251133","jsphyd@gmail.com, info@jsphonda.in"
"JSP Honda","Mr Phani Kumar","# 5-7-75/1, Oppsite Metro, Kukatpally, Hyderabad 500072","Hyderabad","Telangana","18005727177","7993312999","Businesshead@jsphonda.com"
"Maximus Honda","Sameer Ahmed Khan","# 19-5-10/3/A/4, Sri Rameshwar Bhavan, Opp: Meeseva / MRO Office, Bahadurpura Main Road, Bahadurpura 500064","Hyderabad","Telangana","7670820146 - 149","9705806484","maximushonda@yahoo.com"
"Maximus Honda","Mr.V.S.Hari Prasad","Plot No: 24 & 54 Opp: Ibrahimpatnam Bus Depot, Nagarjuna Sagar Road Ibrahimpatnam 501506","Hyderabad","Telangana","","9246354999","maximushonda@yahoo.com"
"Maximus Honda","Mr.V.S.Hari Prasad","18-1-350/A/14 Opp: Kohinoor Function Hall, Baba Nagar Road Chandrayangutta 500005","Hyderabad","Telangana","","9246354999","maximushonda@yahoo.com"
"Orange Honda","Mr.Yalamanchili Ramakoteswara Rao","#10-5-2/1/8/3, Opp. Paradise Hotel Masab Tank Hyderabad 500004","Hyderabad","Telangana","","9160188880","orangehonda2wheelers@gmail.com"
"Orange Honda","Mr. Darshan Kumar Pandikonda","8-1-351/3, Rahul Colony, Tolichowki. 500008","Hyderabad","Telangana","","8886623924","orangehonda2wheelers@gmail.com"
"Prathul Honda","Mr. Mr.B.S. Neelakanta","# 1-10-1 To 8D/2, Opp. Begumpet Airport, Beside Tmc 500016","Hyderabad","Telangana","","9955364009","prathulautomobiles@yahoo.co.in"
"Prathul Honda","Mr.B.S.Neelakanta","Erragadda_  # 8-3-166/1&2,Ground Floor,Challa Estate,Beside Gokul Theater,Erragadda,Hyderabad - 500018.  500018","Hyderabad","Telangana","","9959732323, 9908932323","prathulautomobiles@yahoo.co.in, prathul_accounts@rocketmail.com"
"Pratul Honda","Subrahmanyam yenugula","8-3-231/B/45, S.K.Nagar, Yousufguda 500045","Hyderabad","Telangana","9959882323","8498820323","subrahmanyam.y@buttagroup.com"
"Ride Honda","Mr.D.Sreedhar Reddy","D.No:7-189/1, Beside Svs Gardens,  Shivareddyguda Village, Ghatkesar Mandal & Village, Medchal District 501301","Hyderabad","Telangana","","9848042426","sreedhar@ridehonda.in"
"Ride Honda","Mr. P. Srinivas","# 14-44, Opp.Ngri, I.P.Uppal, Habisguda, 500039","Hyderabad","Telangana","040-65522299","9885418837","Salesmanager@Ridehonda.In"
"Sree Krishnna Honda","Phani Krishna","Sri Sai Complex,Nh - 65,Sadasivapet, Medak 502291","Hyderabad","Telangana","","9885921659","srikrisshnnahonda@gmail.com"
"Sri Ojasvi Honda","Ritesh Agarwal","Plot No.11,12&13, Niranjan Society, Bahadurpally Village, Gandimaisamma X Roads,Hyderabad 500043","Hyderabad","Telangana","","9000003315","ojasvihonda@gmail.com"
"Sri Sai Honda","Bhoopal Reddy","Plot No 220 , Sri Ram Nagar Colony,Turkayamjal,Himayat Nagar 501510","Hyderabad","Telangana","","9010444848","srisaimotors30@gmail.com"
"Sri Venkateshwara Honda","S.Naveen","H.No: 3-9-136/1 Near Welcome Board Autonagar  Medak,Medak 502110","Hyderabad","Telangana","","9963902800","srivenkateshwara.honda@gmail.com"
"Sun Honda","Chilkamarry Sudheer Reddy","House No 7-38 Nh 44 , Thimmapur ,Kothur Mandal , Rangareddy Dt 509325 509325","Hyderabad","Telangana","","9000245092, 8548256161","sunhonda2wheelers@gmail.com"
"Vaishnaoi Honda","Mr.Y.Sarath Chandra","Vikarabad 501101","Hyderabad","Telangana","","9701866242","srivaishnaoiautomobilesindia@gmail.com"
"Vaishnaoi Honda","Mr. T Krishna Kumar","Plot No 137, Kondapur, Rangareddy Dist 500084","Hyderabad","Telangana","040-42102323","9618277922","Srivaishnaoiautomobiles@Gmail.Com"
"Vaishnaoi Honda","Mr.Y.Sarath Chandra","Gachibowli 500032","Hyderabad","Telangana","","9701866242","srivaishnaoiautomobilesindia@gmail.com"
"Vaishnaoi Honda","Nitesh Yadav","1-65/2/63&70,Kavuri Hills Phase-III,Survey No-40&41,Guttalabegumpet,Serilingampally Mandal,Hyderabad ,R.R District,  500081","Hyderabad","Telangana","040-49503773","7799345543","srivaishnaoiautomobiles@gmail.com"
"Vennela Honda","Saiteja Malyala","SY No : 70 , Jagital to  Karimnagar Highyway , Dharoor village ,Jagital, Jagitial , Telangana   505327","Jagtial","Telangana","9618416377","9618416377","jagityal.hmsi@gmail.com"
"Jagadamba Honda","Nagaraju Gunda","Beside Vishwa Shanthi High School, Main Road, Kaghaznagar  504296","Kagaznagar","Telangana","08736-259303","9849113133","gnr.usa@gmail.com"
"Laxmi Honda","Srinivas Bandari","H.No-11-93/A/1,Hnk Road,Husnabad,Karimnagar 505467","Karimnagar","Telangana","","9949915222","laxmihonda2014@gmail.com"
"Saanvi Honda","Police Srinivas","Saanvi Honda, H.No.2-106/A, Venkatraopeta, Metpally 505325","Karimnagar","Telangana","","9848040678","saanvi2wheelers@gmail.com"
"Samrat Honda","Mohd Abdul Hameed","""6-6-653 Vavilala Ramreddy Nagar,  Mancherial Road, Karimnagar  505001","Karimnagar","Telangana","9849252091","9849252091","samrathondabranchknr@hotmail.com"
"Samrat Honda","Mr. Mohd Akbar","H.No 8-6-188/1,Hyd Road,Kothirampur 505001","Karimnagar","Telangana","","9866664514","samrathonda@hotmail.com"
"Samrat Honda","Mr. A.Sudhakar","Ganesh Nagar Karimnagar Roadn Jagtial 505327","Karimnagar","Telangana","","9866664514","samrathonda@hotmail.com"
"Srikanth Honda","S. Srikanth Reddy","H-No:2-8-5/6/7,Sanjeevaiahnagar,Autonagar, Sircilla,Karimnagar 505301 505301","Karimnagar","Telangana","","8886996888","srikanthreddy.s@gmail.com"
"Srikanth Honda","S. Srikanth Reddy","Near Sai Garden,Huzurabad Road, Jammikunta 505122","Karimnagar","Telangana","","8886996888","srikanthreddy.s@gmail.com"
"Srikanth Honda","Mr. Ravi Kiran","D.No 8/5/73-10,11,Korutla Rd , Vemulawada,Rajanna Sirieilla Dt 505302","Karimnagar","Telangana","","9177662757","srikanthhondavmd@gmail.com"
"Srikanth Honda","Mr. Somereddy Srikanth","H-N0:7-1-530,Old Labour Adda,Mankammathota Karimnagar 505001","Karimnagar","Telangana","","8886996888","srikanthreddy.s@gmail.com"
"Srikanth Honda","S. Srikanth Reddy","H-No:2-1-105/F,Shantihagar, Beside Trinity Degree College, Peddapally,Karimngar-505172 505172","Karimnagar","Telangana","","8886996888","srikanthreddy.s@gmail.com"
"Arka Honda","S.Srinivas","50,51,52 , Indiara Nagar, Mamatha Hospital Road, Khammam  507002","Khammam","Telangana","","7032146146","arkahondasales@gmail.com"
"Katkam Honda","Mr. Katakam Vvgv Prasad","5-1-662/1,Near:Dist Court, Wyra Road, 507002","Khammam","Telangana","","9885333450","girikatakam@rediffmail.com"
"Katkam Honda","Mr. V V G V Prasad Katakam","Katkam Honda, Cherla Road, Bhadrachala,M 507111","Khammam","Telangana","","9246832444","saikatakamhonda@gmail.com"
"Katkam Honda","Mr. V.V.G.V. Prasad Katakam","Katkam Honda, Wyra Road, Madhira 507203","Khammam","Telangana","","9885333450","katkamhonda@rediffmail.com"
"Shiva Sai Honda","Gurram Satyanarayana Reddy","Plot 46-47 , Kodad Main Road , Nelakondapalli , Khammam 507160","Khammam","Telangana","","9441010189","shivasaihonda@gmail.com"
"Vanama Honda","Vanama Karthik","Opp Hp Petrol Bunk , Khammam Rd , Wyra, Khammam Dt 507165","Khammam","Telangana","","9849157629","karthikvanama24@gmail.com"
"Varun Honda","D. Durga Rao","H.No-7-70/2, Badhrachalam Road, Aswaraopeta (P) & (M), Khammam - 507301 507301","Khammam","Telangana","","9441346689","ddurgarao689@gmail.com"
"GHR Honda","P Sharath","3-160/1, Beside Government Hospital, Main Road, Kodad  508206","Kodad","Telangana","8143121988","9542841888","sales@harshithmotors.com"
"Qadri Honda","Syed  Muneer","Qadri Honda,Near Bhavani Complexl Tandur Road - Kodangal,Vikarabad District 509338","Kodangal","Telangana","9553734786","9440943063","qadrihondakdl@gmail.com"
"Katkam Honda","Mr. Girivara Prasad","9-11, Opp. Grain Market Laxmidevipally 507101","Kothagudem","Telangana","","9885333450","saikatakamhonda@gmail.com"
"Mythri Honda","S Venkata Reddy","2-1-247/1, Opp. Telephone Exchange, Ashok Nagar, Manuguru 507117 507117","Kothagudem","Telangana","","9440322826","svrmythri999@gmail.com"
"Pingali Honda","Mr Naresh Kumar Pingali","Opp. Govt Hospital, Main Road, Yellandu 507123","Kothagudem","Telangana","","","pingalihonda@gmail.com"
"Lalit Honda","Karunakar","Shop No 18-160/2 Kurnool  Road, Kothakota 509381","Kothakota","Telangana","08545-226444","9493095555","rkmotorskkt2018@gmail.com"
"Elan Honda","Mr. Ramaswamy Sunil","D.No:5-78/1/A, Plot No:5, Near Yenugonda High School,Yenugonda, Mahbubnagar 509001","Mahabubnagar","Telangana","","7036068811","elanhonda.salesmanager@gmail.com"
"Elan Honda","Mr.Sunil Sunkara","Elan Honda,Near Andhra Bank,Hyderabad Road,Makthal-509208 509208","Mahabubnagar","Telangana","","8498078666","elanautomobile@gmail.com"
"Elan Honda","Mr.Sunil Sunkara","Elan Honda,Ho No 15-107/1/D,Near Telephone Exchange,Hyderabad Road,Nagarkurnool-509209 509209","Mahabubnagar","Telangana","","8498078666","elanautomobile@gmail.com"
"Narmada Honda","B. Venu Gopal Singh","Shop No: 18-374/2, Padmaja Complex, Parigi Road, Shadnagar. 509216","Mahabubnagar","Telangana","","9440295401","vg_singh@yahoo.com"
"Narmada Honda","Mr. Bondli Venugopal Singh","H No 6-5-56/A,Opp:R.T.A Office,Raichur Road,Mahabub Nagar,Telangana 509001","Mahabubnagar","Telangana","","9490140702","narmadahonda@gmail.com"
"Sai Honda","Muralidhar Reddy","Sai Hond,Sf No 12-114/2,12-114/3,12-114/4 Beside Apgvb Bank Hyderabad X-Raod Kalwakurthy 509324","Mahabubnagar","Telangana","","9788528666","chintala0999@gmail.com"
"Shubham Honda","Mohan Darak","1-6-63/1 B, Hyderabad Road, Narayanpet,Mahabubnagar 509210","Mahabubnagar","Telangana","","9000098396","shubhamhonda.nrpt@gmail.com"
"Jagadamba Honda","Mr. Nagaraju Gunda","12-487, Islampura, Near Bellampally Chowrastha 504208","Mancherial","Telangana","","","jagadamba.honda@gmail.com"
"Sainath Honda","S.Sadanandachary","H,No;-6-57/4   1,    Rajampet,Asifabad 504293","Mancherial","Telangana","","9010431431","sadanandachary.s@gmail.com"
"Tirumala Honda","Mokshanandam","Opp;2 Town Police Station,Caltex Area,Bellampalli 504251","Mancherial","Telangana","","9440010419","tirumalmotors2012@gmail.com"
"Ride Honda","K Yadagiri","Plot No.12, P&T Colony, Road No.1, Opp. APEX Hospital, Medipally 500098","Medipally","Telangana","9885014935","9885014935","salesmanager@ridehonda.in"
"Sri Honda","K Srinadh","Opp;Ayyappa Swamy Temple,Mbnr Road,Devarakonda,Nalgonda(District) 508248","Miryalaguda","Telangana","","9848544822","srihonda.dvk@gmail.com"
"Borra Honda","Adi Narayana Reddy","7-104/4/5, Eturunagram Road , Mulugu 506343","Mulugu","Telangana","9100441825","9963250946","borrahonda.mulugu@gmail.com"
"Sri Srinivasa Honda","Vishnu","gopalpur x road,naimnagar,hanamkonda  506001","Naimanagar","Telangana","9160414222","8374353999","srisrinivasahondanaimnagar@gmail.om"
"Kakateeya Honda","Ravi Shanker","M/S Kakateeya Honda  Plot:09,Sy No:603 Nh:163 ,Bibinagar  Pin:508126. Dist:Yadadri State:Telangana. 508126","Nalgonda","Telangana","","9949588911","kakateeyahonda@gmail.com"
"Kushal Honda","Mr. Parepalli Bharatchandra","Survey#-1475 Ward#-6 Block#-9 Raghvendra Colony , Hyderabad Road, Nalgonda 508001","Nalgonda","Telangana","","8008274242","BHARATPAREPALLI@GMAIL.COM"
"Kushal Honda","Bharat Chandra Parepalli","1-4-291/7 Tata Nagar , Hyd Road ,Bhongiri , Nalgonda , Telangana-508116 508116","Nalgonda","Telangana","","8008274242","bharatparepalli@gmail.com"
"Saraswathi Honda","Sahakar","Plot.No 470 , Suryapet Road, Thirumalagiri, District: Suryapet  508223","Nalgonda","Telangana","","9553551110","saraswathihonda1@gmail.com"
"Sri Vighneshwara Honda","Mr. Dhruva Kumar Yechuri","Hno:6-2-562,Hotel Siddhartha Complex,Hyd Road,Nalgonda 508001","Nalgonda","Telangana","","9963873787","dhruva_yechuri@yahoo.co.in"
"Sri Vighneshwara Honda","Mr. Dhruv Kumar Yechuri","Branch:-Hno:1-6-141/21/2,Vijayawada Highway,Nh-16,Vidya Nagar,Suryapet 508213","Nalgonda","Telangana","","9290143623","dhruva_yechuri@yahoo.co.in"
"Srilaxminarasimha Honda","Vidyasagar.Vasa","H.No : 6-75 Near Highschoolmaniroad,Chityala,Nalgonda 508114","Nalgonda","Telangana","","9948537805","srilaxminarasimhamoters@gmail.com"
"Druva Motors","Garipelli Veniugopal","13-69 -15 Opp. New Bus Stand, Velpur Road , Bheemgal  Nizamabad 503307","Nizamabad","Telangana","","9912151515 / 9848402175","druvamotors@gmail.com"
"Sai Krishna Honda","Krishna Bejugam","3-94/3/3/A, Main Road, Pitlam, Nizamabad 503310 503310","Nizamabad","Telangana","","9989518237","saikrishnahonda1@gmail.com"
"Sai Srk Honda","Mr. Katta Srikanth Reddy","H.No. 11-1-154,Plot No. 6,Kanteshwa 503002","Nizamabad","Telangana","","9959902626","saisrkhonda@yahoo.com"
"Sairam Honda","Mr. Nalla Dinesh","Dno: 5-6-570/2B/A Opp: Andhrabank,Hyd Road Branch Nizamabad 503001","Nizamabad","Telangana","","9848071476","dineshnalla@gmail.com"
"Sairam Honda","Mr. N Dinesh Reddy","Near Bus Stand,Satpul Road,Bodhan 503185 503185","Nizamabad","Telangana","","9848071476","hondasai@gmail.com"
"Sairam Honda","Mr. N Dinesh Reddy","Rajarajeshwara Recidency, Opp. Ibp, Petrol Bunk, Nh 7 Road Kamareddy.503111 503111","Nizamabad","Telangana","","9848071476","hondasai@gmail.com"
"Sairam Honda","Mr. N Dinesh Reddy","Hno: 1-34/2 Perkit Road Armoor 503224 503224","Nizamabad","Telangana","","9848071476","hondasai@gmail.com"
"Raghavendra Honda","Hemanth","Plot No 10/2 Kurnool Road,Chelimilla Village Pebbair Mandal 509104","Pebbair","Telangana","08545-220888","9492076006","raghavendrabikes@gmail.com"
"Aradana Motors","Prem Raj","H No:3-131/10,Karimnagar Road, Sulthanabad,Karimnagar 505185","Ramagundam","Telangana","","9849021453","premrajkurukuntla@gmail.com"
"Sai Ram Krishna Honda","Mr. Pramod Krishna Manchikatla","Near Lic Office, Srinagar Colony, Rajiv Rahadari Main Road, Godavarikhani 505209","Ramagundam","Telangana","","8100779999","info@srkhonda.in"
"Sairam Honda","Y.Jagadishwar Reddy","1-73/5,Main Road,Dharmaram,Karimnagar(Dist)Telanagana.505416 505184","Ramagundam","Telangana","","9642828885","sairamhondadrm123@gmail.com"
"Venkata Sai Honda","Mr. P Rajesh Yadav","Sy No 149 Main Road Pothyreddypally X Road 502001","Sangareddy","Telangana","","9849806789","VENKATASAAIHONDA@GMAIL.COM"
"Venkata Sai Honda","Rajesh Yadav","Plot. No.11 & 12, Beside Parthiveshwara Nagar Kaman, Gajwel Road, Pregnapur, Gajwel - 502278 502278","Sangareddy","Telangana","","9849806789","venkatasaaihonda@gmail.com"
"Venkata Sai Honda","Mr.Babu","H.No:13-239/1, Nh-44,Main Road,Toopran,Medak,Telangana. 502334","Sangareddy","Telangana","","9133975559","venkatasaaihonda@gmail.com"
"Fortune Honda","Mr. Peter Paul","D.No: 5-4-192/1, Aktc Buliding, Opp Ranigunj Depot 500003","Secunderabad","Telangana","","9948817222","ceo@fortunehonda.com"
"Fortune Honda","R Raj Kumar","Address: 37-11/11, G.K.Colony, Sainikpuri Main Road, Sainikpuri, Hyderabad, Telangana 500054","Secunderabad","Telangana","040 27114200","99488 88085","sales-sainikpuri@fortunehonda.com"
"Fortune Honda","Deep Puri","No 24-88-49/B, East Anandbagh, Near Raghavendra Hotel, Malkajgiri, Hyderabad  500047","Secunderabad","Telangana","040 27249188","9948831000","sales-malkajgiri@fortunehonda.com"
"Fortune Honda","Uma Maheswari","10-2-274/4, Opp: ST Anns Covent, West Marredpally, SP Road, Secunderabad. 500003","Secunderabad","Telangana","040 29709044 / 55","9948815000","sales-wmarredally@fortunehonda.com"
"Fortune Honda","Jahangir","160/A, Patny Nagar, Opp:. Ashok Bhupal Chambers, S P Road, Secunderabad. 500003","Secunderabad","Telangana","040 48541878","9948877736","sales-sproad@fortunehonda.com"
"Fortune Honda","Samson","#6-1-345 and 6-1-345/1, New Bhoiguda, Secunderabad. 500003","Secunderabad","Telangana","040 29888801","99488 88051","sales-newbhoiguda@fortunehonda.com"
"Fortune Honda","N Ravi Babu","No. B-5, Eletronic Complex, Phase-I, Kushaiguda, Secunderabad, Telangana  500062","Secunderabad","Telangana","040 65816112","9948888767","sales-ecil@fortunehonda.coma.com"
"Raam Honda","Nalla Amith Reddy","Kompally 500014","Secunderabad","Telangana","","9700008444","sales.network@raam2wheelers.com"
"Raam Honda","Nalla Amith Reddy","Thirumulgiri 508202","Secunderabad","Telangana","","9700008444","sales.network@raam2wheelers.com"
"Raam Honda","Nalla Amith Reddy","6-3-131/1/1-60, Balanagar Trade Centre,Narsapur X Roads, Balanagar, Hyderabad-500037 500037","Secunderabad","Telangana","","9700008444","sales.network@raam2wheelers.com"
"Raam Honda","Mr. Amith Reddy","Sy No : 176/2,176/3 ,Sripathi Venkata Rao Mansion,, Tadbund Cross Road, Bowenapally, 500009","Secunderabad","Telangana","","8886645007","amithnalla@gmail.com"
"Sowmya Automobiles","C.Sambasiva Rao","#1-35,Near Hdfc Bank Main Road,Medchal-501401 501401","Secunderabad","Telangana","","9948086984","csambasivarao@gmail.com"
"Dwaraka Honda","Yogeeswaraiah","Sri Sailam Highway, Near Outer Ring Road, App. Lakshmi Hospital, Tukkuguda, Rangareddy Dist 501359","Tukkuguda","Telangana","","7730888843","sales_tkgd@dwarakahonda.com"
"Deccan Honda","Srikanth Reddy","3-9-377 , survey number 51/2, mansoorabad village, saroornagar mandal, Ranga Reddy,Telangana  500068","Vanasthalipuram","Telangana","8340866660","8340866669","gm.deccanhonda@gmail.com"
"Borra Honda","Mr. Borra Dheeraj Reddy","Near : Gopalaswamy Temple 506001","Warangal","Telangana","","",""
"Gajalaxmi Honda","Heeradhar","H.No-17-9/1/F,Teacher Colony,Thorrur,Warangal 506163","Warangal","Telangana","","9441770871","gajalaxmi1972@gmail.com"
"Nagarjuna Honda","Mr.M.  Arun Kumar","C/108/1, Yellandu Road, Mahabubabad 506101","Warangal","Telangana","","9849177444","nagarjunahonda@hotmail.com, nagarjunahonda123@gmail.com"
"Nagarjuna Honda","Mr. Arun Kumar Muppasani","3-16-325, Mulugu X Roads, Warangal 506007","Warangal","Telangana","","9849177444","nagarjunahonda123@gmail.com"
"Nagarjuna Honda","Mr.M.  Arun Kumar","324, Jawahar Colony, Main Road, Bhupalpally 506169","Warangal","Telangana","","9849177444","nagarjunahonda@hotmail.com, nagarjunahonda123@gmail.com"
"Sneha Motors","Gulam Subhani","H.No; 1-1/5-7,Warangal Road 506132","Warangal","Telangana","","8886618190/ 9652397427","gulamsubhani.wgl@gmail.com"
"Sri Sai Honda","Bandi Madhu Goud","H-No:(6-398),Bhupala Pally Road,(V.M) Parkal,Warangal 506164","Warangal","Telangana","","8686477444","srisaihonda.pkl@gmail.com/
bandi.madhugoud@gmail.com"
"Sri Srinivasa Honda","Mr.Muneer","Sri Srinivasa Auto Agency , Plot No- A6-9,H.No-6-2-4/5-65 Glory Plaza Hyderabad Road Jangaon- 506167 506167","Warangal","Telangana","","9951202284","srisrinivasajangoan@gmail.com"
"Sri Srinivasa Honda","Mr. T.V.Krishna Rao","577/B,578,Orugallu Complex,Opp.Forest Office,Subedari,Hanamkonda 506001","Warangal","Telangana","","8374357999, 9966695555","Srisrinivasahonda@Gmail.Com"
"Sri Srinivasa Honda","Mr.Tummala Venkata Krishna Rao","Hyderabad Road,St. Ghanapur  506143","Warangal","Telangana","","9966695555","sales.srnivasa@gmail.com"
