"Dealer Name","Contact Person","Address","City","State","Contact 1","Contact 2","Email"
"Abhishek Honda","Avishek Bannerjee","Beniasol, Adra, Purulia 723121","Adra","West Bengal","7001063656","7001063656","banerjee.avisek872@gmail.com"
"Dooars Honda","Mill Road, Falakata, Alipurdwar","Mill Road, Falakata, Alipurdwar 735211","Alipurdwar","West Bengal","","8927232998","ronysahafkt@gmail.com"
"Kaysons Honda","Mr. Sandip Agrawal","Puran Bazar, Shantinagar, Ward No. 14, B.F. Road 736121","Alipurdwar","West Bengal","","9434743596","admin.apd@kaysonshonda.com"
"Shila Honda","Mr. Saurav Roy","Purba Chakchaka , Jorai Road,Barobisha, Alipurduar 736207 736207","Alipurdwar","West Bengal","","7001163030","shilaautomobiles.17@gmail.com"
"Janee Honda","Mr. Priyank Janee","79, G.T.Road - E, Murgasol, 713303","Asansol","West Bengal","","8001538680","janeehonda@yahoo.in"
"Jai Shree Honda","Anup Kumar Agarwal","Airport More,Above SBI,Bagdogra  734014","Bagdogra","West Bengal","7384408624","8250501221, 9002974322","hondajaishree@gmail.com"
"Jeet Honda","Priyajeet Garai","Ot Road, Beside Axis Bank, Bagnan, Howrah 711303","Bagnan","West Bengal","8170041999","9903355103","s.jeethonda@yahoo.com"
"Star Honda","Rahul Mandal","Hanskhali Road, P.O Bagula, Nadia 741502","Bagula","West Bengal","8436655554","8436655554","starhonda.bagula19@gmail.com"
"Tanima Honda","Soumyajit Ghosh","Baishnabnagar,Opp.Girls' High School,Baishnabnagar, Malda 732210","Baishnabnagar","West Bengal","8637361179","9635016509","tanimamotors@gmail.com"
"Aradhana Honda","Sandip Bhattacharya","22/24 Andul Road Howrah Near B.Garden 2nd Gate 711109","Bakultala","West Bengal","033-26580166","9830244256","aradhanaandulshowroom@gmail.com"
"Siddhi Honda","Dhilen Kumar Biswal","324, G. T. Road, Om Neer, Bally, Howrah 711201","Bally","West Bengal","3326544488","7980488608","siddhi.honda324@gmail.com"
"G.D Honda","Sarup Agarwala","City Plaza, New Market, Balurghat  733101","Balurghat","West Bengal","03522259111","8900776111","gitamotorsblg@gmail.com"
"Laxmishree Honda","Mr. Amit Kumar Saha","C.R. Market, Gangarampore 733124","Balurghat","West Bengal","","9002465520","laxmishree.honda@gmail.com"
"Aman Honda","Rabiul Islam","Bamanhat Bazar, Office Para 736168","Bamanhat","West Bengal","9679285012","9679285012","amanhondabamanhat@gmail.com"
"Dutta Honda","Anupam Dutta","Barjora Main Road District- Bankura 722202","Bankura","West Bengal","","8145301025","duttaauto.2018@gmail.com"
"Glorious Honda","Mr. Gautam Rakshit","At - Katjuridanga(Bankura-Chhatna Road),P.O- Kenduadihi,Distt- Bankura 722102","Bankura","West Bengal","","9474834187","glorious.honda@gmail.com"
"Ma Durga Honda","Mr. Nilanjan Dey","Station Road, Nh 60, Bishnupur, Bakura 722122","Bankura","West Bengal","","9732121498","madurgahonda@gmail.com"
"Puja Honda","Mr. Amit Biswas","At - Onda(Near Bdo Office), Po + Ps - Onda, Dist - Bankura 722146","Bankura","West Bengal","","7548946179","pujamotors66@gmail.com"
"Unique Honda","Mr. Atanu De","Rajapara More , P.O + P.S - Khatra , Bankura , West Bengal - 722140 722140","Bankura","West Bengal","","9474064391","uniquemotors.kht@gmail.com"
"Dan Honda","Aritra Dan","Manteswar Road, Kusumgram, Burdwan, West Bengal 713622","Bardhaman","West Bengal","","9775726096","danaritra@gmail.com"
"Ila Honda","Bishwajit Saha","Rameshwarpur, Stkk Road, Kalna, Dist: Burdwan 713409","Bardhaman","West Bengal","","9732191844","ilahondakalna@gmail.com"
"K.B. Honda","Mr. Yasmin Sk","Baolgona More, Suri To Barddhaman Road, Guskhara 713128","Bardhaman","West Bengal","","9749405450","k.b.automobiles2013@gmail.com"
"Star Honda","Mr. Moinuddin","Village Post, Amlia Bazar(Shera Bazar) 713423","Bardhaman","West Bengal","","9153770308","starhonda@gmail.com"
"Unique Honda","Arindam Chakraborty","G.T. Road,Nababhat,Burdwan 713104","Bardhaman","West Bengal","8145462323/ 8768311185/ 8768311186","9732050705","uniquehonda2009@gmail.com"
"Binayak Honda","Mr. Biprajit Singha Roy","Baruipur,Jogibottala,Khasmallick,Kolkata-700144 700144","Baruipur","West Bengal","","9830115949","binayak.automobiles@gmail.com"
"Binayak Honda","Mr.Biprajit Singha Roy","Near Ci Office, Ghatakpukur 743502","Baruipur","West Bengal","","9830075388","binayak.automobiles.ghatakr@gmail.com"
"Halder Honda","Mr. Ashutosh Halder","Basirhat College Para, Taki Road,P.O. -Basirhat College,P.S.-Basirhat , Dist.-North 24 Parganas 743412","Basirhat","West Bengal","","9088080142, 9333376340, 9333376332, 8642974257","haldarhonda@gmail.com"
"Halder Honda","Pritish Halder","No. 1 , Rail Gate, Jessore Road, Bongaon  743235","Basirhat","West Bengal","","9088080142","halderhonda@gmail.com"
"Abhinandan Auto","Habibur Rehman","Gopal Nagar, Raghunathgang,Murshidabad 742225","Berhampore","West Bengal","","9647440845","abhinandanauto@gmail.com"
"Hasan Automobiles","Hasan Automobiles","Hassan Automobiles, Barua Colon,P.S Beldanga, Dist. Murshidabad - 742189 742189","Berhampore","West Bengal","","9434855707","email2allarakha@gmail.com"
"New Glory Honda","Jahiruddin Sheikh","Kandi Petrolpump Road, Kandi, Murshidabad 742137","Berhampore","West Bengal","","9434533647","newglorymotors.kandi@gmail.com"
"Akd Honda","Mr.Ashok Kumar Saha, Mr. Prakash Ch. Saha","Plot No.327,Panchanantala(Kedbeltala)Ps:Berhampore,Dt. Murshidabad 742212","Berhampore","West Bengal","03482-255451","9434051879","mail2akdhonda@gmail.com"
"Bike Plaza Honda","Mr. Md.Jeker Ali","Vill. - Dihigram, Aurangabad, Murshidabad 742224","Berhampore","West Bengal","","8001757575","abdmotors4u!@gmail.com"
"Biswas Honda","Mr.Raju Biswas","Near Girls High School, Main Road, Domkal 742303","Berhampore","West Bengal","","9153322366","rajubiswas567@gmail.com"
"Ghosh Honda","Mr. Srikanta Ghosh","Vill - Ntpc More, Nh 34, Kashinagar, P. O - Beniagram, P. S. Farakka, Murshidabad 742212","Berhampore","West Bengal","","7872049386","santughoshhonda@gmail.com"
"Raj Honda","Reyat Hossain Sarkar","Board Bagan, P.O-Jiaganj,Murshidabad 742123","Berhampore","West Bengal","","9434050785","noorr044@gmail.com"
"Sahil Honda","Md. Azad Ali","Village + Post + P.S. Hariharpara, Dist. - Murshidabad 742166","Berhampore","West Bengal","","9733996002","sahil.motorshonda@gmail.com"
"Sharnagati Honda","Mr. Shaidul Islam","New Dackbunglow More, Nh 34, Besides Noor College, Dhulian , Murshidabad, West Bengal 742202","Berhampore","West Bengal","","9932246918","samotorsdhuliyan@gmail.com"
"Binayak Honda","Biprajit Singha Roy","1 No. Dighirpar, Near Canning Hospital, Canning  743329","Canning","West Bengal","6296745821","6296745821","binayak.automobiles@gmail.com"
"PMP Honda","Lakshmikanta Pradhan","At-Kishorenagar, P.O+P.S-Contai, Dist-Purba Medinipur 721401","Contai","West Bengal","8116600367","7031619619","pmphondacontai2016@gmail.com and pmphondasales@gmail.com"
"Debnath Honda","Debarshi Debnath","N.N Road, Opp Of N.N Park, Coochbehar 736101","Cooch Behar","West Bengal","9800505897","9547587405","debnathhonda@gmail.com"
"Dishan Honda","Mr. Chayan Chanda","Goshani Road , Dinhata , Cooch Behar , West Bengal - 736135. 736135","Cooch Behar","West Bengal","","9614828062","chayan.chanda10@gmail.com"
"Maa Mahalaxmi Honda","Mr. Bijoy Das","College Road,Mathabhanga 736146","Cooch Behar","West Bengal","","9832778168","hondamtb@gmail.com"
"Budbud Honda","Mr.Abhishek Khan","G. T Road, Opp. Debi Cinema Hall, Budbud, Burdwan (West Bengal) 713213","Durgapur","West Bengal","","9093047566","bengalauto.budbud@gmail.com"
"Das Honda","Shubodip Das","Andal More, Kolkata - Delhi Highway, Andal  713321","Durgapur","West Bengal","","9851642881","jayantadas731@gmail.com"
"Durgapur Sai Honda","Ullash Gutgutia","Nachan Road Bhiringee . Benachity 713213","Durgapur","West Bengal","8538028655 / 8436103755","7602510501","saiautodgp@gmail.com / sm.saiautodgp@gmail.com"
"ANB Honda","Braid  Baran Utthasani","At+P.O+P.S-Egra, Near Egra Central Bust Stand, Dist-Purb Medinipur 721429","Egra","West Bengal","03220-244553","9475822074/ 9153292369","anbhonda@gmail.com"
"J.C.Honda","Prasenjit Saha","352, Jessore Road, Deshbandhu Park, Habra, 24 PGS [N] 743263","Habra","West Bengal","03216-270004","8250499261","jchonda2012@gmail.com"
"Bisweswar Honda","Surajit Patra","Harisabha, Vill. Massat P.O.- Massat, P.S. Chanditala, Dist. Hoogly 712701","Hooghly","West Bengal","","9933580640","bisweswarauto@gmail.com"
"Premier Honda","Mr. Abhinav Agarwal","T.N Mukherjee Road, Dankuni Durgapur Express Way, Dankuni 712311","Hooghly","West Bengal","033-26594001, 2","9830143740","abhinav@premiergroup.in"
"Premier Honda","Mr. Abhishek Agarwal","78/P, G. T Road, Sreerampore 712311","Hooghly","West Bengal","","9830143740","abhinav@premiergroup.in"
"Sms Honda","Mrinal Ghosh","Arambagh Road, Arambagh 712123","Hooghly","West Bengal","","9831607707","smshonda@gmail.com"
"Sms Honda","Mrinal Ghosh","G.T.Road, Kakali Cinema Tala, Pandua, Hooghly 712149","Hooghly","West Bengal","","9830189289","smshonda@gmail.com"
"Sms Honda","Mrinal Ghosh","Bhimpur, Tarakeshwar Arambagh Road 712410","Hooghly","West Bengal","","7686964985","smshonda@gmail.com"
"Sms Honda","Mr. Mrinal Ghosh","G.T.Road, Kodalia, (Near Hooghly More), Hooghly. 712123","Hooghly","West Bengal","","9830189289","smshonda@gmail.com"
"Sms Honda","Mrinal Ghosh","Jirat Bus Stand, Jirat, Hoogly 712512","Hooghly","West Bengal","","9830259023","smshonda@gmail.com"
"Aradhana Honda","Sandip Bhattacharya","493 C/A G.T Road (South) Shibpur Howrah  711102","Howrah","West Bengal","033-26404755/56","9830244256","honda.sales@austingroup.in"
"Aradhana Honda","Sanjay Kumar Patodia","Aradhana Distributors Pvt. Ltd. 493 C/A G.T.Road(S) Vivek Vihar,Phase 3,Commercial Complex,Howrah 711103","Howrah","West Bengal","","9831006320","aradhana_honda@yahoo.co.in"
"Choice Honda","Mr. Amar Polley","Rajapur Joka, Udaynarayanpur, Howrah 711226","Howrah","West Bengal","","9732658616","choiceauto2015@gmail.com"
"Krishnadweep Honda","Bibhas Das Ghosh","18/1 , Brojo Nath Lahiri Lane , Bator , Santragachi , Howrah  711104","Howrah","West Bengal","","9734484777","krishnadweephonda@gmail.com"
"Shree Ganesh Honda","Mr. Soumen Mandal","Near Domjur Bdo, Howrah Amta Road, Domjur 711405","Howrah","West Bengal","","9836261762","shreeganeshmotors@ymail.com"
"Shree Guru Honda","Mr. Pradip Das","At + Po: Shayampur 711314","Howrah","West Bengal","","9830614724","shreeguruauto@hotmail.com"
"Runways Honda","Sumon Ghosh","Kadambagachi, Taki Road, Duttapukur, 24 PGS [N] 700125","Kadambagachi","West Bengal","8334066655","8336009980","runwayshondasales@gmail.com"
"Baba Honda","Mr. Anup Lodha","O.T.Road,Po.-Matkatpur,Ps.-Kharagpur(L),Paschim Medinipur 721305","Kharagpur","West Bengal","","9434017296","babahonda@ymail.com"
"Das Honda","Mr. Sankar Das","Gopalpur, Keshiary,Paschim Medinapur 721133 721133","Kharagpur","West Bengal","","9732573721","dasautomobile2015@gmail.com"
"Sonu Honda","Sekh Taiyab Ali","Dhaneswawarpur , Khakurda , Paschim Medinipur - 721445 721445","Kharagpur","West Bengal","","9932938431","sonu.motors12@yahoomail.com"
"Dugar Honda","Mr. Siddharth Dugar","Ghosh Dutta Para, Near Lokenath Mandir, P.O. Hatiara, P.S. Newtown, Kolkata, West Bengal 700157","Kolkata","West Bengal","","9831050222","mail@dugarhonda.com"
"Dugar Honda","Vinod Kumar Dugar","Shop No.12, Club Town Greens Hou. Complex, Primises No. 167, Jessore Road, Lake Town 700055","Kolkata","West Bengal","","9830620606","mail@dugarhonda.com"
"Leaders Honda","Mr. Rupa Mahansaria","61/1C, B. L. Shah Road 700053","Kolkata","West Bengal","","9830011113","leadershonda@gmail.com"
"Shah Honda","Mr. Jigar Shah, Manav Shah","38,Diamond Harbour Road,Kolkata 700063","Kolkata","West Bengal","033-24380990","9830065301, 9830265800, 9836277788","shahhonda@hotmail.com"
"Shah Honda","Jigar Shah / Sanjay Shah","Diamond Harbpur Road, Mouza - Bishnupur, Khatian No - 531 & 565, South 24 Parganas 743337","Kolkata","West Bengal","","9830065301","shahhonda@hotmail.com"
"Shiva Wheels Honda","Mr. Kaushik Paul","17, B.T. Road 700056","Kolkata","West Bengal","","9088990099","shivawhonda@gmail.com"
"Shiva Wheels Honda","Koushik Pal","40/17, Bt Road, P.S. Titagarh, Barrackpur, Talphukur, North 24 Pargana. 700123","Kolkata","West Bengal","","9088990099","shivawhonda@gmail.com"
"Shyam Honda","Mrs. Chandana Bannerjee","Ananda Bhawan, Kalyani Expressway, North Hansia, P. O. Shyamnagar, North 24 Parganas 743127","Kolkata","West Bengal","","9830660160","shyamauto4@gmail.com"
"Todi Honda","Naimul Ansari","1242, Elliot Road, Kolkata 700016","Kolkata","West Bengal","","9007035189/9831086786","sunita.todi@gmail.com"
"Todi Honda","Mr. Vivek Das","1 Bijoy Bose Road, Bhowanipur 700025","Kolkata","West Bengal","","9831447735","sunita.todi@gmail.com"
"Motherland Honda","Mr. Hapizur Sardar","Motiganj More, Santipur, Nadia 741404","Krishnanagar","West Bengal","","8926006811","motherland.santipur@gmail.com"
"Star Honda","Mr. Subrata Ghosh","Palpara More,Bhatjanla,Krishnagar,Nadia 741102","Krishnanagar","West Bengal","","9609935741","gsubrata1974@gmail.com"
"PAUL HONDA","ALOKESH PAUL","MAIN ROAD , KUSHMANDI, DAKSHIN DINAJPUR,   733132","Kushmandi","West Bengal","3524263333","9434325197","PAULAUTO.HONDA@YAHOO.COM"
"Cloud 9 Honda","Uttam Ghosh","20/A Jessore Road, Mangalam Building, Madhyamgram, Basunagar Gate No - 5, Kolkata 700129","Madhyamgram","West Bengal","033-25380217 / 9007564000","9007021312","cloud9honda@hotmail.com"
"Maa Kamakhya Honda","Mr. Bibhu Dey","Majhdia,College Road,Purnaganj,Nadia 741507","Majhdia","West Bengal","8348670826","7908414686","khonda.majdia@gmail.com"
"Kundu Automobiles","Ashoke Kundu","Station Road, Gazole, Malda 732124","Malda","West Bengal","","9593704039","ashimkundu00@gmail.com"
"Laxmi Honda","Koushik Roy","Pakuahat College Road,Pakuahat,Bamongola,Malda   732138","Malda","West Bengal","8016444505","8926573302","laxmiauto2016@gmail.com"
"M.A.Honda","Arif Ali Khan","Baliadanga,Kaliachak,nalda  732201","Malda","West Bengal","9733140140","8250308296","maautomobiles5@gmail.com"
"Mehi Honda","VIKRAM SHARMA","""Gaya Bhawan, Gabgachi, Jadupur, N.H. - 34, Malda,  West Bengal"" 732101","Malda","West Bengal","9593444333","9735066144","mehi.motors@gmail.com"
"Narayani Honda","Ananya Dasgupta","V.K.Pally, N.H-34, Mlada  732101","Malda","West Bengal","9733089898","7479010056","narayani_honda@hotmail.com"
"Narayani Honda","Gopal Saha","B.S.ROAD,Near Beltala kali Mandir,E.bazar, Malda 732101","Malda","West Bengal","9733040044","7872803608","servicehonda@hotmail.com"
"Paresh Honda","Koushik Saha","Ratua - Samsi Bypass Road, Ratua, Malda  732205","Malda","West Bengal","9382757248","7718410015","pareshhonda01@gmail.com"
"Puja Honda","Samir Halder","Samsi Hospital Road, PO - Smasi, PS - Ratua, Dist - Malda  732139","Malda","West Bengal","9635292872","9933077198","pujaautomobiles2016@gmail.com"
"Raj Honda","Alamgir Raj","Harischandrapur, Malda  732125","Malda","West Bengal","9851647224","8759027972","rajhondahonda87@gmail.com"
"Santosh Honda","Mukesh Agarwal","Paharpur, Kalitala, Chanchol, Malda  732123","Malda","West Bengal","9933479841","9932685737","santoshmotors70@rediffmail.com"
"Shrikanta Honda","Manoj Mandal","Kamalpur, Near Manikchak Petrol Pump, Manikchak, Malda 732202","Malda","West Bengal","9593859905","7431861912","srikant.sharma@honda2wheelersindia.com"
"Avijit Honda","Mr. Avijit Ghosh","Shayamsundarpur, Chandrakona Town, Paschim Midnapur 721242","Midnapore","West Bengal","","7384272124","avijitenterprise.ckt@gmail.com"
"Kusum Honda","Mr. Debasish Das","Tethibari, Bajkul 721695","Midnapore","West Bengal","","8116600344","kusumauto2014@gmail.com"
"Prashant Honda","Prasanta Mavai","Nh-41, Debhog Moram, Haldia 721657","Midnapore","West Bengal","","8116600366","prasantahonda2012@gmail.com"
"Prashant Honda","Mr. Prasanta Mavai","Barpadumbasan,Tamluk,Purba Medinipur 721636","Midnapore","West Bengal","03228-267093","9434454155, 8116600000","prasantahonda2012@gmail.com"
"R. K. Honda","Bajrang Lal Agarwal / Ritesh Agarwal(Son)","Gobindapur, Kushpata, Ghatal 721212","Midnapore","West Bengal","","8001883000","ghatal@rajkumargroup.com"
"R. K. Honda","Ritesh Agarwal","Sabujpally Near B.D.O.Office Belda, West Midnapore 721424","Midnapore","West Bengal","","9732537337","rkhonda@gmail.com"
"R.K Honda","Bajrang Lala Agarwal","R.K Honda, Midnapore, Near Station Road 721101","Midnapore","West Bengal","8001885000","9830032706","rkhonda@gmail.com"
"Rakesh Honda","Mr. Rakesh Agarwal","Rakesh Automobiles, Jamda, Jhargram 721507","Midnapore","West Bengal","","9932884080","rakesh.honda@rediffmail.com"
"Ts Honda","Mr. Apurna Jana","Chandipur,Purba Mednipore .  721633","Midnapore","West Bengal","","9593044410","apurna.jana@gmail.com"
"Usha Honda","Mr. Prodyut Manna","Nh 6 Bombay Road, Panskura 721139","Midnapore","West Bengal","","9775277173","ushamotorsmg@gmail.com"
"Beri Honda","Manoj Beri","Shop No.24/12, Central Park, Kalyani 741235","Nadia","West Bengal","","9830373263",""
"Hi-Choice Auto","Rajiv Sadhukhan","Jivan Sova Housing Complex,11 Behrampur Road , Ward No- 11 ,Ranaghat,West Bengal 741201","Nadia","West Bengal","","9434206117","hichoice_honda@rediffmail.com"
"Bhai Bhai Honda","Mr. Kechhabuddin Sheikh","Near Pwd Office, Plassey, Kaliganj, Nadia 741156","Nadia","West Bengal","","9434303588","hasibur901@gmail.com"
"Garai Honda","Mr. Madhusudan Garai","1No College Street, P.O- Krishnagar, P.S- Kotwali 741101","Nadia","West Bengal","03472-252307","9775001170, 9775000000","garaihonda@gmail.com"
"Garai Honda","Madhusudan Garai","Nh-34,Near Petrol Pump, Opp. Electric Power House, Kotwali, Bhatjangla 741102","Nadia","West Bengal","","9775200775","garaihonda@gmail.com"
"Ghosh Honda","Mr. Moloy Ghosh","Cb Road, Ranjanpally, Chakdaha, Nadia 741222","Nadia","West Bengal","","9476190005","ghoshhonda@gmail.com"
"WB21BC01","Mr.Prasanta Mavai","Nandigram,Purba Mednipur,Near Sitananda College 721631","Nandigram","West Bengal","7479011100 / 8972680681","8116600366","prasanthonda.nandigram@gmail.com"
"Dream Honda","Amal Bhattacharya","Narajole Bazar  721211","Narajole","West Bengal","9593023459","9932940613","dreammotors.narajole@gmail.com"
"Galaxy Honda","Partha Mukhopadhyay","Jyotipally More, Prafulla Nagar, Phulia 741402","Phulia","West Bengal","7908238583","7908238583","fuliagalaxy4@gmail.com"
"S P Honda","Rajib Kumar Sah","Deshbandhu Road, Purulia  723101","Purulia","West Bengal","9732010001 / 8170010361","9434021310","sphonda.prl@gmail.com"
"Swasti Honda","Subhash Gorai","Raghunathpur, Purulia  723133","Purulia","West Bengal","7584858676","7063619039","swastihonda@gmail.com"
"Mira Honda","Mr. MANOTOSH DAS","Nh-34,Sudharshanpur,Raiganj,Uttar Dinjapur 733134","Raiganj","West Bengal","03523-253474","9434347093","mirahonda12@gmail.com, miraauto12@gmail.com"
"Sarala Honda","Arjun Sarkar","Nh 34,Bidhanpally, P.O-Dalkhola, Ps Karandighi, Dist - Uttar Dinajpur 733201","Raiganj","West Bengal","","9933163280","saralahonda@yahoo.in"
"Shayamali Honda","Bishwapriya Das","East Akhanagar, Kaliyaganj, Dist: North Dinajpur 733129","Raiganj","West Bengal","","9800418203","shayamaliautocentre@gmail.com"
"HH Honda","Mr. Puspak De","At-Saiyadpur, Digha Contai Road, Opposit of Syndicate Bank, P.O+P.S-Ramnagar, Dist-Purba Medinipur 721441","Ramnagar","West Bengal","03220-264359","7550807888/ 9434346991","honda.ramnegar1957@gmail.com"
"M.D Motors","Abdul Karim Khan","Gangpura, Deulihat, Ramnagar, Purba Medinipur  721446","Ramnagar","West Bengal","8967339944","9593024652","mdmotors2017@gmail.com"
"Paras H Honda","Mr Ayush Saraf","A/37 Gt Road(W) Searsole Rajbari Raniganj 713358","Raniganj","West Bengal","","9775008881/2, 9332910536","parasauto.rng@gmail.com"
"Ukhra Honda","Mr. Prakash Gorain","Ananda More, M.G. Road, Ukhra 713363","Raniganj","West Bengal","","9732240244","chhandaauto.prakash.gorain@gmail.com,"
"Aadhya Honda","Mr. Vikas Kedia","Asansol Chittaranjan Road, Shree Gurupally More Rupnarayanpur 713386","Rupnarayanpur","West Bengal","0341-2530158","9434749091, 8170027083","aadhyahonda@gmail.com"
"Jai Bajrang Honda","Mr. Pankaj Kumar Gupta","Bdo Para, Near Ration Office, Kulti 713343","Rupnarayanpur","West Bengal","","8798102586","jaibajrangmotor@gmail.com"
"Maa Durga Auto","Goutam Choraria","Mahatma Gandhi Road Near Hari Mandir 735204 735204","Siliguri","West Bengal","","9434192131","maadurga.birpara@kaysonshonda.com"
"Ratna Automobiles","Deepak Kumar Behani","Raikatpara, P.S :- Kotwali, Distt:-Jalpaiguri 735101","Siliguri","West Bengal","","9434199165","ratna.jalpaiguri@kaysonshonda.com"
"B.D. Honda","Mr. Ankit Agarwal","Ward No.3,Mill Para, Gairkata Road, Dhupguri 735210","Siliguri","West Bengal","","9830445844","B D Honda"
"Binaa Honda","Amit Choudhary","Jalpaiguri Road,Subhash Nagar, Mainaguri 735224","Siliguri","West Bengal","","8967967161","bina.auto.tafe@gmail.com"
"Gitanjali Honda","Mr. Subhankar Sen","Caltex More, Nh 31, Malbazar 735218","Siliguri","West Bengal","","9641824065","gitanjalihonda@gmail.com"
"Kaysons Honda","Mr. Sandeep Agarwal","Kapil Centre,Sevoke Road 734001","Siliguri","West Bengal","","9434064141","admin@kaysonshonda.com"
"Manoj Honda","Mr. Manoj Kumar Agarwal","New Hasimara,Post : Hasimara, P.S. Jaigaon, Dist. - Alipurdwar 735215","Siliguri","West Bengal","","9434603104","manojauto.hasimara@kaysonshonda.com"
"Rajib Honda","Mr. Rajib Kundu","Deshbandhu Para,Haldibari,Cooch Behar. 735122 735122","Siliguri","West Bengal","","9932210880","rajibkunduhdb@gmail.com"
"Shree Shanti Honda","Mr. Rakesh Bansal","Burdwan Road 734005","Siliguri","West Bengal","","9434061227","shantimotors12@gmail.com"
"Sikkim Honda","Bhanu Pratap Rasaily","31 A - Nh, Near Tadong School, Gangtok 737102","Siliguri","West Bengal","","9735099622","sikkim.honda@kaysonshonda.com"
"Sunil Honda","Mr. Samir Ghosh","Satbhaiya, Naksalbari 734429","Siliguri","West Bengal","","9933829999","sunilmotors2013@gmail.com"
"Sunny Honda","Manish Singhal","Durga Nagar Colony, Islampur 733202","Siliguri","West Bengal","","9733015651","sunnyhonda14@gmail.com"
"Mondal Automobiles","Tarun Mondal","Suri Road, Rampurhat 731224","Suri","West Bengal","","8448876939","hondatarun@gmail.com"
"M.P. Honda","Mr. Sujit Paul","Dandhgora,Rabindrabichi By Pass Road, Post. Bolpur Dist. Birbhum 731204","Suri","West Bengal","","9474042487","sujitpaul.sainthia@gmail.com"
"Ndbp Honda","Mr. Badri Prasad Halder","Ravindra Pally (Subhaspally) 731101","Suri","West Bengal","","9800900499","ndbphonda@gmail.com"
