"Dealer Name","Address","City","State","Pincode","Contact"
"SIDDHIVINAYAK MOTORS PVT. LTD.","NEAR AMARDIP IOCL PETROL PUMP,","Bhavnagar","Gujarat","364710","8530967372"
"K. S. AUTOMOBILES PVT. LTD.","E-27,AMBAJI RIICO IND. AREA, NEAR DEV PETROL PUMP,PALANPUR- AHMEDABAD HIGHWAY","Sirohi","Rajasthan","307026","9928040209"
"AUTOMOTIVE MANUFACTURERS PVT. LTD.","ADOOR NO 1-418/Q, KORI ROAD( YR PATEL GARDEN), NEAR MCC, MANCHERIAL","Adilabad","","",""
"TARASANKAR MOTOR PVT LTD","CHINAIHANI, AIRPORT ROAD","West Tripura","Tripura","799009","8787482536"
"ATMARAM AUTO ENTERPRISES","MATHURA ROAD, ARTONI","Agra","Uttar Pradesh","282007","8477000120"
"KALYAN SALES LLP","7/52-B, NAGLA JAWAHAR, NEAR OMAXE MALL BYE PASS ROAD","Agra","Uttar Pradesh","282007","7617770501"
"PUNJAB AUTOMOBILES (INDIA) PVT. LTD","NEXT TO SOLA FLYOVER, NEAR NEW HIGHCOURT, SARKHEJ GANDHINAGAR HIGHWAY","Ahmedabad","Gujarat","380061","9879009100"
"PUNJAB AUTOMOBILES (INDIA) PVT. LTD","RAJPATH CLUB, AHMEDABAD","Ahmedabad","Gujarat","380061",""
"PUNJAB AUTOMOBILES (INDIA) PVT. LTD","GROUND FLOOR, BROOKLYN TOWER, NR. YMCA CLUB, SG HIGHWAY","Ahmedabad","Gujarat","380061",""
"SHITAL MOTORS PVT. LTD.","NEAR SANGAM CINEMA, SARKHEJ","Ahmedabad","Gujarat","380061","9428715087"
"SHITAL MOTORS PVT. LTD.","NEXT TO POLICE STATION, OPPOSITE SHARMA HYUNDAI, ASHRAM ROAD","Ahmedabad","Gujarat","380061","9825040919"
"CORNERSTONE AUTOMOBILES","SURVEY NO 7374-4-1, SARJEPURA","Ahmed Nagar","Maharashtra","414001","7888016020"
"CORNERSTONE AUTOMOBILES","PLOT NO. 55/1A/3, OPP. MIDC, POLICE STATION, NAGAR MANMAD ROAD, MIDC","Ahmed Nagar","Maharashtra","414001",""
"SABLOK CARS","PLOT NO. 57/ 2- B , NEAR HOTEL RAJ REJENCY NAGAR MANMAD ROAD, MIDC","Ahmed Nagar","Maharashtra","414001","9021688314"
"MANA MOTORS","V-131, BAWNGKAWN, SILCHAR ROAD","Aizawl","Mizoram","796014","8794787839"
"GREENLAND AUTOMOTIVE PVT LTD","NH-8 GRAM SENDERIYA, JAIPUR ROAD","Ajmer","Rajasthan","305002","7412069426"
"AMIT MOTORS PVT. LTD.","VILL- GOVIND GANESHPUR, POST,","Ambedkar Nagar","Uttar Pradesh","224122","9839090306"
"GADRE AUTOCON PVT. LTD","JALANA ROAD","Akola (mh)","","",""
"GADRE AUTOCON PVT. LTD","NH 6, SHIONI","Akola (mh)","","","7745000060"
"INTREPID WORKS PVT. LTD.","NEAR GOVT. GUEST HOUSE, ARATTUVAZHI","Alappuzha","Kerala","688007","9895190190"
"T V SUNDRAM IYENGAR AND SONS (P)LTD","PUNNAPRA PANCHAYATH, NORTH PARAVOOR","Alappuzha","Kerala","688007",""
"VINEET AUTOMOBILES PVT. LTD.","G. T. ROAD","Aligarh","Uttar Pradesh","202001","9917400097"
"AMBER AUTOMOTIVE","SH 26, ALIRAJPUR-KUKSHI ROAD, ALIRAJPUR","Alirajpur","","",""
"BRIJRAJ MOTORS PVT LTD","2-SARDAR PATEL MARG, CIVIL LIN","Allahabad","Uttar Pradesh","211001","7887226121"
"UNITED AUTOMOBILES","6-A, PATRIKA MARG, CIVIL LINES","Allahabad","Uttar Pradesh","211001","9839009547"
"UNITED AUTOMOBILES","509-A, TRANSPORT NAGAR, G. T.","Allahabad","Uttar Pradesh","211001",""
"BAJARANG MOTORS","LOWER MALL ROAD, ALMORA","Almora","","",""
"J. S. FOURWHEEL MOTORS PVT. LTD.","NEAR OCTROI POST, DELHI ROAD","Alwar","Rajasthan","301001","7230868444"
"KBS MOTORS PVT. LTD.","VILL. TEPLA, NR. TANEJA PUBLIC SCHOOL, AMBALA JAGADHARI ROAD-SAHA","Ambala","Haryana","133104","7206070210"
"STAR AUTOMOBILES","MANENDRAGARH, DIST. SURGUJA","Surguja","Chattisgarh","497001","9425813132"
"UNNATI MOTORS","B - 27, SAPURNA INDUSTRIAL ESTATE, BADNERA ROAD","Amravati","Maharashtra","444601","9503650304"
"SIDDHIVINAYAK MOTORS PVT. LTD.","LATHI ROAD, INFRONT OF LALAVAV","Amreli","","",""
"UNIVERSAL MOTORS","NEAR CANAL, G. T. ROAD, HUSSAINPURA","Amritsar","Punjab","143001","7986497067"
"WORLDWIDE AUTOZONE PVT. LTD.","NEAR CANAL, GT ROAD","Amritsar","Punjab","143001","6283364233"
"M. M. VORA AUTOMOBILES PVT. LT","ANAND, OPP. SHIV SHANTI CLUB,","Anand","Gujarat","388320","7041551464"
"M. G. B. MOBILES","1-374,SY.NO.241/2C,242 N243,NH-44,BANGALORE ROAD,KAKKALAPALLI (VILL)","Ananthapur","Andhra Pradesh","515002","6303804206"
"SIDDHI LAXMI MOTORS","PANCHAMAHALA, N.H 55","Angul","Odisha","759132","9078784466"
"MEGA AUTOMOBILES PVT. LTD.","OLD NATIOANL HIGHWAY NO.8","Vadodara","Gujarat","393002","9879109428"
"ROHIT AUTOMOBILES","ARA BUXAR ROAD, MAULA BAGH OPPOSITE MUFFASIL POLICE STATION, P.O NAWADA, DIST. BHOJPUR","Bhojpur","Bihar","802301","9934448690"
"BRAJESH AUTOMOBILES","NEAR RAMPUR PETROL PUMP, RAMPUR","Purnia","Bihar","854316","7321859389"
"RUDRA AUTOMART PVT. LTD.","BANKIDANGA, H 2","Medical Center","","713040","9002007004"
"C. I. AUTOMOTORS PVT. LTD.","RELIANCE PETROL, BHOPAL ROAD","Ashta","","",""
"SKS AUTOMOBILES","OPP.GREEN TECH WOMEN COLLEGE, SELLIAMPALAYAM, NARASINGAPURAM(PO)","Atur India Pvt. Ltd.","","",""
"RAJENDRA AUTOWHEELS PVT. LTD.","NEAR AMBEDKAR COLONY, DIBYAPUR ROAD","Auraiya","Uttar Pradesh","206244","8650501213"
"SUN SHINE AUTOS PVT. LTD.","N. H. 2, BYPASS ROAD,G. T. ROAD","Aurangabad(BH)","Bihar","824101","8102820007"
"RATNAPPRABBHA MOTORS","PLOT NO. E-32, MIDC, CHIKALTHANA","Aurangabad","Maharashtra","431006","9011008331"
"DEEP AUTOMOBILES","NEAR RELIANCE PETROL PUMP, SAI","Azamgarh","Uttar Pradesh","276001","9838501353"
"SNOWVIEW AUTOMOBILES PVT. LTD.","SHANTI COMPLEX,NH 21, NEAR TOL","Baddi","","",""
"AUTOMOTIVE MANUFACTURERS PVT. LTD.","1ST BLOCK, MADAKALAVARIGRAMAPOLLAM, BELLARY NELLORE HIGHWAY","Badvel","","",""
"SANTOSH AUTO WINGS","82,ROOPLAND ROAD,VIDYAGIRI","Bagalkot","","",""
"LOHCHAB MOTOR COMPANY PVT. LTD.","BESIDES GAURIYYA TOURIST COMPLEX,VILLAGE SANKHOL","Bahadurgarh","","",""
"AMIT MOTORS PVT. LTD.","3RD K.M. LUCKNOW ROAD, GOLWA G","Bahraich","Uttar Pradesh","271801","9839090311"
"J. S. FOURWHEEL MOTORS PVT. LTD.","DELHI ROAD, NEAR SHAKTI RESORT","Behror","","",""
"MINERVA AUTOMOBILES PVT. LTD.","NH-26,SAMBALPUR ROAD, MADHIAPALI, OPP. GARDEN INN RESTAURANT, BESIDES MARUTI SHOW ROOM","Balangir","Odisha","767001","8895557727"
"BASANTI AUTO AGENCY","N H 5, JANUGANJ GOLAI, GANESHS","Baleswar","Odisha","756001","7008466683"
"PRIME AUTOMOBILES PVT LTD","HASSANPUR CHOWK, NEAR BANSAL NURSING, HOME MATHURA RAOD","Faridabad","Haryana","121102","7290055625"
"BELLARY MOTORS SALES PVT. LTD.","BISILAHALLI BRIDGE, ANANTAPUR","Bellary","Karnataka","583101","9945597000"
"DEEP AUTOMOBILES","NEAR KAPILESHWARI TEMPLE, VILL","Etah","Uttar Pradesh","207243","9838076713"
"RALAS MOTORS","VILLAGE LIMAHI, RAIPUR ROAD","Baloda Bazar","","",""
"AMIT MOTORS PVT. LTD.","NEAR BAHADURAPUR RAILWAY CROSS","Bahraich","Uttar Pradesh","271801","9839090874"
"BRIJRAJ MOTORS PVT LTD","VEDI PULLIA KARVI","Chitrakoot","Uttar Pradesh","210205","8400300644"
"BUNDELKHAND AUTOMOBILES PVT LT","NEAR POWER HOUSE, TINDWARI ROA","Chitrakoot","Uttar Pradesh","210205","9721521484"
"AUTOMOTIVE MANUFACTURES PVT. LTD","1016, 6TH CROSS 4TH BLOCK HBR LAYOUT , BENGALURU","Bengaluru","","",""
"AUTOMOTIVE MANUFACTURES PVT. LTD","189, INDIRANAGAR DOUBLE ROAD STAGE 2, HOYSALA NAGAR, INDIRANAGAR BENGALURU","Bengaluru","","","6309555534"
"ANANTCARS AUTO PVT. LTD.","NO.151(600/677),OPP. IIMB, DOR","Bengaluru","","","9900500056"
"ANANTCARS AUTO PVT. LTD.","""327/1, """"PARAMDHAN"""" NEXT TO BHE""","Bengaluru","","","9900051285"
"ANANTCARS AUTO PVT. LTD.","60, R.J GARDEN, OUTER RING ROA","Bengaluru","","","9900048818"
"INDIA GARAGE","NO. 1, PALACE CROSS ROAD","Bengaluru","","","9740011254"
"INDIA GARAGE","NO- 2E4, 2ND PHASE, GARUDA CHARAPALYA, MAHADEVAPURA P.O, WHITEFIELD RD","Bengaluru","","","8884498957"
"PARADIGM MOTORS PVT. LTD.","187,INDIRA NAGR DOUBLE ROAD, S","Bengaluru","","","9606012707"
"PARADIGM MOTORS PVT. LTD.","1016, 6TH CROSS 4TH BLOCK, HBR","Bengaluru","","",""
"SIREESH AUTO PVT. LTD.","33/11,#68,RUPENA AGRAHARA,NR MADIWALA SILK BOARD, HOSUR ROAD","Bengaluru","","","8861286070"
"SIREESH AUTO PVT. LTD.","#5/6, BYPASS RD, OPP. VIDYA SHILP ACADEMY, YELHANKA","Bengaluru","","","9900341958"
"SIREESH AUTO PVT. LTD.","121, NEW-11/1, WEST OF CHORD ROAD, INDUSTRIAL SUBURB,1ST STAGE, RAJAJINAGAR","Bengaluru","","","9980549494"
"SIMLA AUTOMOBILES PVT LTD.","VILL JIA BY PASS ROAD PO JIA TEHSIL BHUNTER","Banjar","","",""
"AMIT AUTOMOBILES","KATORIYA ROAD, VIJAY NAGAR CHOWK, SARKIT HOUSE ROAD","Banka","","",""
"RUDRA AUTOMART PVT. LTD.","N. H. 60, HEAVY MORE, DURGAPUR","Bankura","West Bengal","722155","9434032219"
"K. S. AUTOMOBILES PVT. LTD.","JANAWARI, UDAIPUR ROAD","Banswara","Rajasthan","327001","9928040213"
"NARAIN AUTOMOBILES","OPP. KRISHI FORM , PALHARI CHAURAHA","Barabanki","Uttar Pradesh","225001","9956079203"
"BHARANE MOTORS","MIDC, NEAR HP PETROL PUMP, BHIGWAN ROAD","Baramati","","",""
"SILVER JUBILEE MOTORS LTD.","PLOT NO-20,SIDDHIVINAYAK COMPLEX BMT MIDC, BHIGWAN RD,NR HINDUSTAN PETROL PUMP","Baramati","","",""
"SHREE AUTOMOTIVE PVT. LTD.","PO KHILKAPUR, NAOPARA","North 24 Parganas","West Bengal","700125","8697732724"
"UTKAL AUTOMOBILES PVT. LTD.","AT-PO - BARBIL, DISTRICT KEONJHAR","Kendujhar","Odisha","758035","8888998899"
"MUKTAR AUTOMOBILES PRIVATE LTD.","NH 17, VAZE HEIGHTS, UPPER GROUND FLOOR","Bardez","","",""
"SALUJA AUTO RETAILS PVT. LTD.","METAL DVC, POST CHANDUL, POLICE STN BURDWAN","Bardhaman","West Bengal","713142","9734746083"
"MAHALAXMI MOTORS","5 K.M., RAMPUR ROAD","Bareilly","Uttar Pradesh","243502","8938802105"
"MOSARAM ENTERPRISES LTD.","NEAR SATELLITE CROSSING, PILIBHIT BYPASS ROAD, IN FRONT OF MARUTI DRIVING SCHOOL","Bareilly","Uttar Pradesh","243502","7570009800"
"KRISHNA AUTOMOTIVE","HALDIPALI CHOWK, BARGARH, N.H. -6","Bargarh","Odisha","768028","7852941737"
"BASANTI AUTO AGENCY","BASANTI AUTO AGENCY,SWARUP VIL","Mayurbhanj","Odisha","757029","9861191916"
"O. S. MOTORS PVT. LTD.","CHOHTAN BYE PASS ROAD, OPP. KAILASH INTERNATIONAL HOTEL","Barmer","","",""
"BHAGIRATH MOTORS INDIA PVT.LTD.","SH 18 BY PASS ROAD, UJJAIN-INDORE","Barnagar","","",""
"RAJ VEHICLES PVT. LTD.","DHANAULA ROAD","Sangrur","Punjab","148025","9216232180"
"INDUSTRIAL AND FARM EQUIPMENT","31 NH,WARD NO 1, PO- HOWLY","Barpeta","","",""
"HORA MOTORS","B-6, PLASTIC COMPLEX, INDUSTRIAL AREA","Basti","Uttar Pradesh","272002","8840855808"
"HORA MOTORS","B-4, PLASTIC COMPLEX, INDUSTRIAL AREA","Basti","Uttar Pradesh","272002",""
"J S GROVER AUTOS PVT LTD","VILLAGE GHASITPUR,NEAR G-STAR RESTAURANT, AMRITSAR ROAD","Batala","","",""
"AVC MOTORS","NEAR RAJA HYUNDAI, MANSA ROAD","Bathinda","Punjab","151001","8437005209"
"CORNERSTONE AUTOMOBILES","SURVEY NO.9, BARSHI NAKA, OPP OLD RTO OFFICE, NEXT TO BAFNA MOTORS","Beed","Maharashtra","431122","8149804087"
"SABLOK CARS","SHIVAJI CHOWK","Beed","Maharashtra","431122","8888873174"
"NEXGEN SOLUTION TECHNOLOGIES","BARAUNI ZEROMILE, NH 31, WARD NO-15, OPP TO HFC GATE NO-2","Begusarai","Bihar","851135","6207900198"
"SUTARIA AUTO CENTER","OLD PB ROAD, BESIDE GOTADKI YAMAHA SHOW ROOM","Belgaum","","",""
"TARASANKAR MOTOR PVT LTD","HALL CHOWMUHANI, MAIN ROAD, NEAR BLOODMOUTH CLUB","Beloniya","","",""
"S. N. MOTORS PVT. LTD.","VILL. BHAKURI-2, N.H.-34, P.O. SARGACHI","Murshidabad","West Bengal","742134","7001789926"
"MIDWAY MOTORS PVT LTD","PLOT NO. 684, AT-RAGHUNATHPUR, PO-NARENDRAPUR, DIST-GANJAM","Ganjam","Odisha","760007","7328821085"
"SHREE R C ENTERPRISES","NH 28B, NEAR MACCHALI LOK","West Champaran","Bihar","845438","8294630752"
"ACCORD MOTORS","BALAJIPURAM ROAD, BADORA","Betul","","",""
"RAJ INDIA AUTO PVT. LTD.","RAJ INDIA AUTO(P)LIMITED,NEAR","Ghazipur","Uttar Pradesh","233001","9695112999"
"BASANTI AUTO AGENCY","CHAARAMPA COLLEGE SQAURE, NH 5","Bhadrak","","",""
"AMIT AUTOMOBILES","NIRMALA HEIGHTS TILKA MAJHI, JAIL ROAD","Bhagalpur","Bihar","812001","7360024894"
"J. S. FOURWHEEL MOTORS PVT. LTD.","ALWAR ROAD, VILLAGE BORAI, TEH KUMHER","Bharatpur","Rajasthan","321026","8003397302"
"SIDDHIVINAYAK MOTORS PVT. LTD.","BHAVNAGAR - RAJKOT HIGHWAY, KA","Bhavnagar","Gujarat","364060","9879109030"
"MINERVA AUTOMOBILES PVT. LTD.","NH-26, KESINGA ROAD BESIDES TATA MOTORS BHAWANIPATNA, DIST KALAHAND","Kalahandi","Odisha","766001","8114378322"
"BHILWARA AGRO AUTO SERVICES PVT LTD","NEAR NOOR BAGH, AJMER ROAD","Bhilwara","Rajasthan","311001","8875014882"
"M & N MOTORS PVT LTD","BESIDE SRI VENKATESWARA SWAMY TEMPLE,UNDI RD,WESTGODAVARI DIST","Bhimavaram (mdl)","","",""
"SALASAR AUTOCRAFTS PVT. LTD.","YOGESH COMPOUND, NEXT PEDILITE COMPOUND, OPP. DURGESH PARK, KALHER","Thane","Maharashtra","421302","8104980239"
"SUPREME MOBILES PVT LTD.","LOHARU ROAD","Bhiwani","Haryana","127021","9812021745"
"C. I. AUTOMOTORS PVT. LTD.","189 JINSI MAIDA MILL ROAD","Bhopal","Madhya Pradesh","462008","8518885170"
"WIN WIN AUTOMOBILES PVT. LTD.","NH-12, MISROD, HOSHANGABAD RD","Bhopal","Madhya Pradesh","462008","7587962408"
"UTKAL AUTOMOBILES PVT. LTD.","S-3/61, CIIC, MANCHESWAR INDUSTRIAL AREA","Khorda","Odisha","751010","7008999820"
"B. MANGATRAM N CO.","MADHAPUR HIGHWAY,VILLAGE MADHAPUR","Kachchh","Gujarat","370001","9879085555"
"B. MANGATRAM N CO.","OUTSIDE WANIAWAR GATE, OPPOSITE BHUDARMAL PETROL PUMP","Kachchh","Gujarat","370001","8469392546"
"SHAH MOTORS","#19-4-200/1, OPP PKGB BANK ,HUMNABAD ROAD NAUBAD","Bidar","","",""
"Bhagirathi Automobiles","NH-13, SIDIGI CROSS ROAD","Vijayapura (karnataka)","","",""
"SANTOSH AUTO WINGS","8/5, NEAR RAMBHAPUR CROSS, SOLAPUR-CHITRADURGA NATIONAL HIGHWAY NO-13,","Vijayapura (karnataka)","","","8073057319"
"TIRUPATI VEHICLES PVT. LTD.","3 KM.NOORPUR ROAD","Bijnor","Uttar Pradesh","246701","9837973888"
"BIKANER MOTORS PVT. LTD.","6 K.M. STONE NH 11, JAIPUR ROAD","Bikaner","Rajasthan","334022","8104164736"
"BIKANER MOTORS PVT. LTD.","OPP. ASHISH PETROL PUMP, NH-11, JAIPUR ROAD","Bikaner","Rajasthan","334022",""
"SUN SHINE AUTOS PVT. LTD.","ARA ROAD, BIKRAMGANJ","Bikramganj","","",""
"AUTO CENTRE","SECTOR -C,PLOT NO.54/A","Bilaspur(CGH)","Chattisgarh","495001","9770322675"
"SALUJA AUTO RETAILS PVT. LTD.","NH 60 (SIURI BY PASS) ABDARPUR (OPP. MAHABIR HOTEL)","Birbhum","","",""
"BALAJI AUTO WORKS PVT LTD","OPP. WOMENS COLLEGE, JAMSHEDPUR ADITYAPUR LINK ROAD","Bistupur","","",""
"ASHOK MOTORS","BORGANG, DIST-BISWANATH","Charilai","","",""
"ANGEL AUTO WHEELS PVT. LTD.","J 217, MIDC, TARAPUR","Thane","Maharashtra","401501","9158899312"
"MODEL FUELS PVT. LTD.","TANDBALIDIH, JARIDIH","Bokaro","Jharkhand","827010","9304048583"
"ICONIC AUTOMOBILES","ICONIC AUTOMOBILES, KAKALING, NEAR PINE DALE SCHOOL","Bomdila","","",""
"HATORKI MOTORS PRIVATE LIMITED","CHAPAGURI ROAD, NATIONAL HIGHWAY 31C, P.O-CHAPAGURI, DIST- CHIRANG","Bongaigaon","Assam","783380","8134804383"
"VINEET AUTOMOBILES PVT. LTD.","NEAR BRB INTER COLLEGE, BAREILLY ROAD, KHERA NAWADA","Budaun","Uttar Pradesh","243601","9837848441"
"SHIVA AUTOCORP (A UNIT OF SHIVA SCOOTER AGENCIES P","GATA NO. 683M, NH 91, SIKANDRABAD -ALIGARH ROAD, VILLAGE- CHANDERU, NEAR BILSURI CHOWKI","Bulandshahr","Uttar Pradesh","203001","8010855603"
"EVERGREEN MOTORS","SILOR ROAD, NEAR NAWAL RICE MILLS","Bundi","Rajasthan","323001","7442980063"
"ROHIT AUTOMOBILES","AT PADRI MORE, NEAR CHURAMANPUR, PO+PS - BUXAR, INDUSTRIAL AREA","Buxar","","",""
"MOHAN MOTOR BUSINESS PVT LTD","55, CHOWRINGHEE ROAD","Kolkata","West Bengal","700071","8910237887"
"ROYAL MOTORS","(PROP.AUTO CARRIAGE PVT LTD) P","Kolkata","West Bengal","700071","9051883832"
"SHREE AUTOMOTIVE PVT. LTD.","VED BHUMI,KOYLA VIHAR,VIP ROAD","Kolkata","West Bengal","700071","8697732728"
"SHREE AUTOMOTIVE PVT. LTD.","HAUTE STREET,NO.86A,TOPSIA ROAD","Kolkata","West Bengal","700071","9830434646"
"ERAM MOTORS PVT. LTD.","8/3,FEROKE CHUNGAM","Kozhikode","Kerala","673631","7034030165"
"ERAM MOTORS PVT. LTD.","ROOM NO.15/347D, VP N KV TOWER, NEAR VENGALI RLY BRIDGE","Kozhikode","Kerala","673631","9388392256"
"SHREE R C ENTERPRISES","OJHA TOLA ,NEAR BYPASS EAST CHAMPARAN","Chakia (bihar)","","",""
"DEHRADUN PREMIER MOTORS PVT. LTD.","NAGAR PALIKA PARKING PLACE","Chamoli","","",""
"SUPREME AND COMPANY PVT LTD","VILLAGE -BAIDYAPUR, BAOUNARPARA, P.O+ P.S .TARAKESWAR","Chandannagar (hooghly 3)","","",""
"HARBIR AUTOMOBILE PVT. LTD.","PLOT NO.182/84, INDUSTRIAL AREA-1","Chandigarh","Chandigarh","160002","9355071545"
"RAJ VEHICLES MOHALI","SCO-322, SECTOR 35 B","Chandigarh","Chandigarh","160002","7888371369"
"PROVINCIAL AUTOMOBILE CO. PVT. LTD","YASHWANT NAGAR, NAGPUR ROAD, PADOLI","Chandrapur","Maharashtra","442406","7722086784"
"KIRAN AUTOMOBILES PVT. LTD.","GHEGHTA, OPP., NH-19","Saran","Bihar","841301","9263182049"
"SUPREME MOBILES PVT LTD.","OLD MAHENDARGARH ROAD","Charkhi Dadri","","",""
"ANAND MOTORS","COLLEGE ROAD, OPPOSITE STADIUM","Chatra (jharkhand)","","",""
"JAIN CARS","1, GST ROAD, NADAR SANGAM, PULIPAKKAM JUNCTION","Chengalpattu","","",""
"AUTOMOTIVE MANUFACTURERS PVT LTD","NO 107/2, AMPA MANOR, NELSON MANICKAM ROAD","Chennai","Tamil Nadu","600029","9100067033"
"INDIA GARAGE","184, ANNA SALAI","Chennai","Tamil Nadu","600029","9840105624"
"INDIA GARAGE","3-A, M I T GATE, G S T ROAD, NEAR PARVATHI HOSPITAL","Chennai","Tamil Nadu","600029",""
"T V SUNDRAM IYENGAR AND SONS (P)LTD","106, NELSON MANICKAM ROAD, AMINJIKARAI","Chennai","Tamil Nadu","600029","7094476514"
"ZULAIKHA MOTORS PVT. LTD.","398 N 398 A, VELACHERY TAMBARAM MAIN ROAD","Chennai","Tamil Nadu","600029","7708077706"
"ZULAIKHA MOTORS PVT. LTD.","NO.808, G.R. COMPLEX, ANNA SALAI, NANDANAM","Chennai","Tamil Nadu","600029",""
"M & N MOTORS PVT LTD","DR NO. 84-1-3/1, BESIDE ONGC BASE COMPLEX, NH5","East Godavari","Andhra Pradesh","533107","9299999502"
"RUDRA AUTOMART PVT. LTD.","TATA ROAD,DULMI BESIDE SUNIL P","Puruliya","West Bengal","723102","9434032279"
"STAR AUTOMOBILES","NH-75 PANNA KHAJURAHO ROAD (GATHEWARA MORE)","Narsinghpur","Madhya Pradesh","487001","9993743038"
"ACCORD MOTORS","PARASIA ROAD, PARTALA","Chhindwara","Madhya Pradesh","480001","9993254504"
"KARNATAKA AGENCIES","K.M ROAD, GAVANAHALLI","Chickmagalur","Karnataka","577101","8262224763"
"NAIK MOTORS","BAHADUR SHEK NAKA","Ratnagiri","Maharashtra","415605","9146035430"
"H D MOTORS","#73, KIADB, INDUSTRAIL AREA, NH-4","Chitradurga","","",""
"K. S. AUTOMOBILES PVT. LTD.","43, OLD INDUSTRIAL AREA, BYE PASS ROAD","Chittorgarh","Rajasthan","312001","9829440404"
"K S MOTORS (P) LTD.","E-189,UDHOG VIHAR, JAIPUR ROAD, JETPURA","Chomu","","",""
"SNOWVIEW AUTOMOBILES PVT. LTD.","SAI NIWASH, NEW RAMPUR (DHAKLO","Churchu","","",""
"BIKANER MOTORS PVT. LTD.","6TH KM STONE, OPPOSITE NARMADA DEVI SONI FARM HOUSE, RATANGARH ROAD","Churu","","",""
"T V SUNDRAM IYENGAR AND SONS (P)LTD","NEAR BTH SAROVARAM, NH BYE PASS, MARADU","Ernakulam","Kerala","682304","8606948280"
"T V SUNDRAM IYENGAR AND SONS (P)LTD","NATIONAL HIGHWAY","Ernakulam","Kerala","682304",""
"CAI INDUSTRIES PVT LTD","1547-A, AVINASHI ROAD, PEELAMEDU","Coimbatore","Tamil Nadu","641004","9787706610"
"CAI INDUSTRIES PVT LTD","1847 TRICHY ROAD, RMANATHAPURAM","Coimbatore","Tamil Nadu","641004",""
"RAJSHREE AUTOS PRIVATE LIMITED","963, HIDER ALI TIPPU SULTAN SUNATH MOSQUE, METTUPALAYAM ROAD, R S PURAM","Coimbatore","Tamil Nadu","641004","9943807220"
"STAR INDIA AGENCIES PVT LTD","PADMAPUKURIA, NR KHARAGPUR BYE PASS","Contai","","",""
"KHOKAN MOTOR WORKS PVT LTD","DAWAGURI, KOLAR PAR, NH31","Cooch Behar","West Bengal","736156","9735000955"
"SCHANGALAYA MOTORS","SIVA COMPLEX, IMPERIAL ROAD, CHELLANKUPPAM","Cuddalore","","697993","6383913116"
"AUTOMOTIVE MANUFACTURERS PVT. LTD.","4/201, AKKAYAPALLI","Cuddapah","Andhra Pradesh","516003","8374192233"
"ADITYA MOTORS","NH-5, BAMPHAKUDA, PHULNAKHARA","Cuttack","Odisha","754001","7873999500"
"UTKAL AUTOMOBILES PVT. LTD.","NH-5, GANDARPUR","Cuttack","Odisha","754001","7377713152"
"SAMRAT CARS PVT LTD","SHOP NO.1,2 N3, 'J' BUILDING, KASTURI SANKUL, YATRI NIWAS","Dadra Nhhaveli(dnagar)","","",""
"AMBER AUTOMOBILES","OPP RTO OFFICE, NEW INDORE HIG","Dahod","Gujarat","389151","9909599956"
"ANAND MOTORS","NAWATOLI DALTONGANJ PALAMAU","Palamau","Jharkhand","822101","7544003806"
"STAR AUTOMOBILES M. P. LTD.","NEAR DAMOH POWER GRID, SAGAR ROAD","Damoh","","",""
"SHIV SHAKTI WAHAN PVT. LTD.","N.H. - 57, NEAR DILLI MORE FLYOVER, BASUDEOPUR, MABBI ROAD","Darbhanga","Bihar","846005","9570231161"
"ADITYA MOTORS","NH-5, SUNGUDA, INFRONT OF DURGA MANDAP, CHANDIKHOLE","Darpan","","",""
"PUNJAB AUTOMOBILES (INDIA) PVT. LTD","GROUND FLOOR, IKONOPP.RELIANCE PETROL PUMP, VASTRAL RING ROAD","Ahmedabad","Gujarat","382418","9825006266"
"SHITAL MOTORS PVT. LTD.","N.H. 8, NEAR BHOJA TALAWADI, OPP JALARAM PETROL PUMP, LAMBHA ASLALI RD","Ahmedabad","Gujarat","382418","9825007967"
"ROYAL AUTOMOBILES PVT. LTD.","NEAR SUNDARANI PETROL PUMP","Datia","","",""
"UNNATI MOTORS","BORI-PARDHI, CHAUFULLA, PUNE SOLAPUR ROAD, NEAR INDIAN OIL PETROL PUMP","Daund","","",""
"K S MOTORS (P) LTD.","JAIPUR ROAD, N. H. 11","Dausa","","",""
"MAHANTH MOTORS","OPP GMIT COLLEGE, HARIHARA ROA","Davangere","Karnataka","577002","9611722006"
"SHIVAM SALES CORPORATION","BHOYAN APPROCH ROAD ,AT N TA DEESA","Disa","","",""
"DEHRADUN PREMIER MOTORS PVT. LTD.","HARIDWAR BYPASS ROAD, AJABPUR KALAN","Dehradun","Uttarakhand","248001","9634160606"
"INDRAPRASTHA AUTOMOBILES PVT. LTD.","B 72/4 , WAZIRPUR INDUSTRIAL AREA","North West Delhi","Delhi","110052","8130396450"
"INDRAPRASTHA AUTOMOBILES PVT. LTD.","I 5- I 6,DSIDC INDUSTRIAL AREA, UDHOG NAGAR, PEERAGARHI","North West Delhi","Delhi","110052","8130390903"
"INDRAPRASTHA AUTOMOBILES PVT. LTD.","D-4/885 KHASRA NO. 1021/719, ASHOK NAGAR, MAIN WAZIRABAD ROAD","North West Delhi","Delhi","110052","8130390940"
"INDRAPRASTHA AUTOMOBILES PVT. LTD.","I-5 N 6 DSIDC COMPLEX, ROHTAK ROAD, PEERA GARHI, NEAR UDYOG NAGAR, METRO STATION","North West Delhi","Delhi","110052","8130390907"
"KONCEPT AUTOMOBILES PVT. LTD.","B2/16, SAFDARJUNG ENCLAVE","North West Delhi","Delhi","110052","9999981407"
"KONCEPT AUTOMOBILES PVT. LTD.","24 A, PART 4, RING ROAD, ( NEAR MAX HOSPITAL )","North West Delhi","Delhi","110052","9811002105"
"KONCEPT AUTOMOBILES PVT LTD","B-1/A-10, MOHAN CO-OPERATIVE INDUSTRIAL ESTATE, MATHURA ROAD","North West Delhi","Delhi","110052","9999534841"
"SRI DURGA AUTOMOBILES","68/3, NAJAFGARH ROAD, NEAR MOMENTS MALL, MOTI NAGAR","North West Delhi","Delhi","110052","9582158230"
"SRI DURGA AUTOMOBILES","K28A,DEFENCE ENCLAVE,KALA ROAD,MAIN RAJAPURI ROAD","North West Delhi","Delhi","110052",""
"SHIVA AUTO CAR INDIA PVT. LTD.","90, PATPARGANJ, IND. AREA","North West Delhi","Delhi","110052","9582250028"
"SHIVA AUTO CAR INDIA PVT. LTD.","G-7, GROUND FLOOR, DILSHAD GAR","North West Delhi","Delhi","110052","8468885110"
"SKYLINE AUTOMOBILES","1 E/11, JHANDEWALAN EXTENSION","North West Delhi","Delhi","110052",""
"G. L. MOTORS PRIVATE LIMITED","C/O POKHNATILLA, NEAR HINDI VIDYAPEETH","Deoghar","","",""
"TEKRIWAL MOTORS PRIVATE LIMITED","KABILASHPUR, NEAR LEELA MANDIR, DUMKA ROAD","Deoghar","","","7033098231"
"DEEP AUTOMOBILES","PIPRA, CHANDRABHAN, SALEMPUR R","Deoria","Uttar Pradesh","274509","9838501666"
"HARBIR AUTOMOBILE PVT. LTD.","CHD-AMBALA HIGHWAY, VILLAGE: DEVINAGAR","Derabassi","","",""
"STAR AUTOMOBILES","NH-75, PANNA-CHHATTARPUR ROAD","Devandra Nagar","","",""
"T V SUNDRAM IYENGAR AND SONS (P)LTD","KOTHAMANGALAM ROAD, XV-317 BUILDING, MACHIPLAVU P.O, CHATTUPARA","Devikulam","","",""
"BHAGAWATI ELITE MOTORS","VILLAGE JETPURA, BHOPAL ROAD","Dewas","Madhya Pradesh","455001","6262001160"
"TIRUPATI VEHICLES PVT. LTD.","SEOHARA ROAD, NEAR RSM DEGREE COLLEGE","Bijnor","Uttar Pradesh","246761","7055317001"
"RALAS AUTOMOBILES","VILLAGE SEHARA DABARI, RAIPUR ROAD","Dhamtari","Chattisgarh","493773","9644402271"
"TIRUPATI VEHICLES PVT. LTD.","NH-24, MORODABAD- DELHI ROAD, OPPOSITE- BASANT HOTEL","Jyotiba Phule Nagar","Uttar Pradesh","244235","9837310077"
"MODEL FUELS PVT. LTD.","NH-2, DEOLI BAZAR, GOVINDPUR, DIST- DHANBAD","Dhanbad","Jharkhand","828109","9031084843"
"MODEL FUELS PVT. LTD.","AT DHANSAR, JHARIA ROAD,NEAR POST OFFICE DHANASAR, DIST-DHANBAD","Dhanbad","Jharkhand","828109",""
"SOMYA VEHICLES PVT LTD","41/2, GRAM MAGAJPURA, INDORE AHEMDABAD ROAD NR. BALAJI RESIDENCY, TRIMURTI NAGAR.","Dhar","","",""
"CAI INDUSTRIES PVT LTD","2/120, KOVAI MAIN ROAD, NEAR MAHARANI ARTS N SCIENCE WOMEN COLLEGE, NANJYAMPALAYAM, ELLISH NAGAR","Dharapuram","","",""
"TARASANKAR MOTOR PVT LTD","COLLEGE ROAD, VIDYASAGAR CHOWMUHANI","Dharmanagar","","",""
"BISHWANATH ASHOK AUTO LLP","STATION ROAD, DHEMAJI, NEAR SBI, DIST-DHEMAJI","Dhemaji","","",""
"J. S. FOURWHEEL MOTORS PVT. LTD.","AGRA - GWALIOR ROAD","Dholpur","","",""
"AAKASH AUTOMOTIVES","D-200 M.I.D.C. MUMBAI-AGRA HIGHWAY, AWDHAN","Dhule","Maharashtra","424006","8411059590"
"R. D. AUTOMOBILES","N.H.37, NATUN GAON, P.O. MOHAN GHAT, PUSHAKAR HOUSE","Dibrugarh","Assam","786008","9854026652"
"BISHWANATH ASHOK AUTO LLP","MADHABPUR, NH-15, NARAYANPUR","Dikrong","","",""
"APEX MOTOR ENTERPRISE","WALFORD ROAD, N.H. 39","Dimapur","Nagaland","797112","8974018266"
"R. D. AUTOMOBILES","KAMALABARI ROAD,OPP GULUKPUR NAMGHAR GATE","Dibrugarh","Assam","786602","9957309606"
"HIMATSINGKA BROTHERS","BHAGALPUR ROAD DUDHANI","Dumka","Jharkhand","814101","8864021629"
"K. S. AUTOMOBILES PVT. LTD.","RELIANCE PETROL PUMP, SAGWARA ROAD","Dungarpur","Rajasthan","314001","9001297956"
"SHIVNATH AUTOMOBILES PVT. LTD.","G.E. ROAD, SUPELA","Durg","Chattisgarh","490023","8720008734"
"RUDRA AUTOMART PVT. LTD.","NH2,L NT MORE, BAMUNARA","Bardhaman","West Bengal","713212","9434032249"
"M & N MOTORS PVT LTD","BESIDE AMBICA TEMPLE,FLOT NO A5/A6 ,IND AREA,SATRAMPADU,WESTGODAVARI","Eluru","","",""
"CAI INDUSTRIES PVT LTD","396, AISOHKAPURAM, BHAVANI MAIN ROAD","Erode","","",""
"CAI INDUSTRIES PVT LTD","396, AISOHKAPURAM, BHAVANI MAIN ROAD","Erode","","",""
"RAJSHREE AUTOS PRIVATE LIMITED","356A, PERUNDURAI ROAD, KEELTHINDAL, KEELTHINDAL POST","Erode","","",""
"KAMLESH AUTOWHEELS PVT. LTD.","NEAR BALVIR DHAM VILLAGE VIRAMPUR, G.T ROAD","Etah","Uttar Pradesh","207001","8192009911"
"RAJENDRA AUTOWHEELS PVT. LTD.","886, TAKIA AZAGAAN","Etawah","Uttar Pradesh","206001","9720105759"
"AMIT MOTORS PVT. LTD.","5 KMS ,LUCKNOW ROAD, PO: MUMTA","Faizabad","Uttar Pradesh","224001","9839090301"
"RAJENDRA AUTOWHEELS PVT. LTD.","NEAR CENTRAL JAIL CHAURAHA, BE","Unnao","Uttar Pradesh","209801","8650501251"
"GARG MOTORS","OPPOSITE JC MILLS, NEAR HANUMAN MANDIR, SIRSA ROAD","Fatehabad (haryana)","","",""
"DADA MOTORS","OPP-CHEEMA PETROL PUMP, NR-FLOATING RESTAURANT, MANDI GOBINDGARH, DISTT-FATEHGARH SAHIB","Fatehgarh Sahib","Punjab","140406","9876089200"
"GEHLOT MOTORS PVT. LTD.","NEAR JRG CINEMA HALL, RIICO INDUSTRIAL AREA, N.H.-11","Fatehpur (rj)","","",""
"V. C. MOTORS PVT. LTD.","KORAL MOAD, NEAR ANJANI DHAM MANDIR, KANPUR ROAD","Kanpur Nagar","Uttar Pradesh","208008","6388909911"
"BRAR AUTO WHEELS","VILL.MALWAL, MOGA ROAD","Firozpur","Punjab","152002","8437040338"
"KAMLESH AUTOWHEELS PVT. LTD.","ULFAT NAGAR,NEAR RAJA KA TAAL,NH-2","Firozabad","Uttar Pradesh","283203","8392947435"
"KAMLESH AUTOWHEELS PVT. LTD.","NEAR SANGAM MARRIAGE HOME ,AGRA ROAD, TUNDLA","Firozabad","Uttar Pradesh","283203",""
"B. MANGATRAM N CO.","SURVEY NO. 93/2, AIRPORT CROSSWAYS, ANJAR GALPADAR HIGHWAY","Kachchh","Gujarat","370240","9978998307"
"PARAM AUTOMOBILES PVT. LTD.","PLOT NO. 1001, SECTOR 28, GIDC, OPP. DSP OFFICE","Gandhi Nagar","Gujarat","382028","9925004817"
"BELLARY MOTORS SALES PVT. LTD.","SH-63, KOPPAL ROAD, NEAR VADDA","Gangavati","","",""
"TIRUPATI VEHICLES PVT. LTD.","GANGOH-SHAMLI BY PASS ROAD, OPPOSITE- HR INTER COLLEGE","Saharanpur","Uttar Pradesh","247341","9927019147"
"SIKKIM MOTORS","N. H. 31 A, 6TH MILE, TADONG","East Sikkim","Sikkim","737102","9733942966"
"BAJARANG MOTORS","BAGAESHWAR ROAD, BAIJNATH","Garur","","",""
"APR AUTOMOBILES PVT. LTD.","OPP. DAV PUBLIC SCHOOL (CANTT. AREA),NEAR GAYA AIRPORT, GAYA-BODH GAYA ROAD","Gaya","Bihar","823001","8406000663"
"SHIVA AUTO CAR INDIA PVT. LTD.","C-22, UPPER GROUND FLR, LOHIA","Ghaziabad","Uttar Pradesh","201001","8929088726"
"SHIVA AUTO CAR INDIA PVT. LTD.","A-4 INDRAPURI, DELHI-SAHARANPUR ROAD, LONI","Ghaziabad","Uttar Pradesh","201001",""
"Vigson Automobile","2ND C, 100A, NEHRU NAGAR","Ghaziabad","Uttar Pradesh","201001",""
"RAJ INDIA AUTO PVT. LTD.","NEAR MAHARAJGANJ RAILWAY CROSS","Ghazipur","Uttar Pradesh","233001","9936156587"
"NATRAJ MOBILES PVT. LTD.","CHANDERI INDUSTRIAL ESTATE","Azamgarh","Uttar Pradesh","275307","7007804821"
"SIMLA AUTOMOBILES PVT LTD.","GHUMARWIN VILLAGE KULARU, PO TAKREHRA","Ghumarwin","","",""
"MODEL FUELS PVT. LTD.","NEAR BAZAR SAMITI, BORO, P.O. PACHAMBA","Giridih","","",""
"MUKTAR AUTOMOBILES PRIVATE LTD.","PLOT NO: 28, PHASE III, KAKODA IND ESTATE, CURCHOREM","Verna","","",""
"INDUSTRIAL AND FARM EQUIPMENT","PANCHARATNA ROAD, IN FRONT OF KALPANA CINEMA HALL","Goalpara","","",""
"PODDAR AUTOCORP PVT. LTD.","SHRI PABITRA KUMAR RAY S/O SHYAMACHARAN RAY, SHOLMARI, KALYANPUR, BALIJANA, P.S.: AGIA, GOALPARA","Goalpara","","",""
"TEKRIWAL MOTORS PRIVATE LIMITED","AT-JAMUA, NEAR MUFFASIL THANA, SARKANDA","Godda","","",""
"EAST AFRICA MOTORS LTD.","DAHOD INDORE ROAD, VAVDI, DIST. PUNCHMAHAL","Panch Mahals","Gujarat","389001","9825175567"
"ASHOK MOTORS","VILL- PURABBARI, DIST-BISWANATH,","Gohpur","","",""
"AMIT MOTORS PVT. LTD.","RAJAPUR, POTAR GANJ, GONDA LUC","Gonda","Uttar Pradesh","271001","9839090308"
"PROVINCIAL AUTOMOBILE CO. PVT. LTD","FULCHUR NAKA, GOREGAON ROAD, IN FRONT OF MAHINDRA FINANCE","Gondia (mh)","","",""
"SIWAN TRACTORS PVT. LTD.","THAWE ROAD, TURKAHA DHALA","Gopalganj (bihar)","","",""
"SARDAR MOTORS (AUTOWHEEL) PVT LTD","NH DOUDUPUR","Gorakhpur","Uttar Pradesh","273001","9918901022"
"SAMRAT CARS PVT LTD","N H NO-8, NEAR JALARAM TEMPLE","Valsad","Gujarat","396191","9925103036"
"SAPTAGIRI MOTORS","OPP TO MR MEDICAL COLLEGE, SEDAM RD","Kalaburagi","","",""
"SHAH MOTORS","PLOT NO.7 SURVEY NO. 60 N68 NGO COLONY, NEAR ARIHANT NAGAR, SEDAM ROAD","Kalaburagi","","","7625096551"
"RISHAB MOTOR SALES PVT. LTD.","NEAR KUSHMODA CHOUKI A.B. ROAD","Guna","Madhya Pradesh","473001","8770899708"
"PIONEER AUTOWORLD (GUNTUR) P.LTD","#149, BESIDE MEHAR BABA TEMPLE, MANGALAGIRI ROAD","Guntur","Andhra Pradesh","522001","8885546884"
"J S GROVER AUTOS PVT LTD","BATALA ROAD, BABRI","Gurdaspur","Punjab","143521","7589201025"
"KONCEPT AUTOMOBILES PVT. LTD.","16 N 16 A, GROUND FLOOR, BESTECH BUSINESS TOWER SEC-48, SOHNA ROAD","Gurugram","","122019","9643136866"
"KONCEPT AUTOMOBILES PVT. LTD.","KILA NO-1, NEAR CHUNGI NO-1, GURGAON ROAD","Gurugram","","122019",""
"KONCEPT AUTOMOBILES PVT. LTD.","GF-19,20 N21 PLATINA BUILDING, OPP BRISTOL HOTEL M.G ROAD","Gurugram","","122019","9958553555"
"TROB AUTO INDIA PVT. LTD.","NEAR ATUL KATARIA CHOWK,OPPOSITE AIR FORCE STATION","Gurugram","","122019","9810532625"
"INDUSTRIAL AND FARM EQUIPMENT","G.S.RD, NR INT. NURSING HOME, WALFORD BUS STOP, DISPUR","Kamrup","Assam","781005","8133996145"
"PODDAR AUTOCORP PVT. LTD.","PASCHIM BORAGAON, NH 37","Kamrup","Assam","781005","8811090902"
"ROYAL AUTOMOBILES PVT. LTD.","NAKA CHANDRAVADNI, OPP. PLOYTECH. JHANSI ROAD, LASHKAR","Gwalior","Madhya Pradesh","474009","7747982621"
"ROYAL AUTOMOBILES PVT. LTD.","NEAR PREM MOTORS SHOWROOM, SHIVPURI LINK ROAD","Gwalior","Madhya Pradesh","474009","8349119389"
"CHANDAMAMA MOTORS","OPPOSITE POLICE LINE, N.H. 77, DIGHI","Vaishali","Bihar","844101","7061388740"
"BAJARANG MOTORS","RAMPUR ROAD","Nainital","Uttarakhand","263139","8126177775"
"BUNDELKHAND AUTOMOBILES PVT LT","NH 75, SAGAR KANPUR ROAD","Mahoba","Uttar Pradesh","210427","7317514561"
"BUNDELKHAND AUTOMOBILES PVT LT","NEAR RANI LAXMI BAI PARK","Mahoba","Uttar Pradesh","210427","9721521482"
"SUPREME MOBILES PVT LTD.","NEAR NEW COURT, OPPOSITE MARUTI SHOWROOM, DELHI ROAD, HANSI","Hansi","","",""
"V. D. MOTORS PVT. LTD.","NEAR 10 HMH ,OPP. NANDRAM KI DHANI ,TIBBI ROAD , HANUMANGARH TOWN","Hanumangarh","","",""
"SHIVA AUTO CAR INDIA PVT. LTD.","OPPOSITE THANA DEHAT, DELHI GA","Hapur","","",""
"NARAIN AUTOMOBILES","JAIL ROAD, IN FRONT OF POLICE","Hardoi","Uttar Pradesh","241301","9415019788"
"MIGHTY AUTOWHEELS PVT LTD","NH58, DELHI HARIDWAR NATIONAL HIGHWAY, NEAR PATANJALI","Haridwar","Uttarakhand","249402","7248483232"
"MIGHTY AUTOWHEELS PVT LTD","OPPOSITE HARIDWAR TEHSIL, HARIDWAR JWALAPUR MAIN ROAD, NEAR ASHOKA TALKIES","Haridwar","Uttarakhand","249402","7055009837"
"SHRIJEE MOTORS","OPP, RASHIYAN NAGAR SOCIETY PATAN SIDDHPUR ROAD","Harij","","",""
"KARNATAKA AGENCIES","D. M. HALLI, B. M. ROAD","Hassan","Karnataka","573201","8172256694"
"VINEET AUTOMOBILES PVT. LTD.","ALIGARH ROAD, DAYANAT PUR","Hathras","Uttar Pradesh","204101","9837848466"
"UNNATI MOTORS","JAIMALA BUSINESS COURT, SATYAM SHIVAM SUNDRAM COMPLEX, PUNE SOLAPUR HIGHWAY","Haveli","","",""
"NEXGEN SOLUTIONS TECH. PVT LTD","DEMOTAND, PO - MORANGI, MUFFASIL, NH 33","Hazaribag","Jharkhand","825301","7070990287"
"PRATIK AUTOMOBILES","SHOP NO-10, PALLIKA MARKET, OPP OLD GOVT BUS STAND","Hazaribag","Jharkhand","825301",""
"BHURAWALA MOTORS","SURVEY NO .97, MUMBAI-DELHI N.","Sabarkantha","Gujarat","383001","9825838625"
"V. V. C. MOTORS","3-6-310, OPP BIKANERVALA SWEETS, HYDERGUDA ROAD, AVANTI NAGAR, BASHEER BAGH","Himayathnagar","","",""
"J. S. FOURWHEEL MOTORS PVT. LTD.","NEAR KYARDA HANUMAN MANDIR, NEAR FOREST OFFICE KYARDA, MAHUA ROAD, HINDAUN CITY, KARAULI (RAJ.)","Hindaun","","",""
"SUPREME MOBILES PVT LTD.","473,474, AUTO MARKET","Hisar","Haryana","125001","9996632801"
"BELLARY MOTORS SALES PVT. LTD.","D.NO : 4/424, 4TH WORD, PATEL","Hospet","","",""
"VEER","PUTHIYAKANDAM, ANANANDASHRAM P.O, KANHANGAD","Kasargod","Kerala","671531","9446034168"
"WIN WIN AUTOMOBILES PVT. LTD.","NH-69, NEAR RAILWAY GATE","Hoshangabad","","",""
"PUNJ AUTOS PVT LTD","VILL. CHAK GUJJRAN, NEAR BPCL PETROL PUMP, JALANDHAR ROAD","Hoshiarpur","Punjab","146001","8699321742"
"SKS AUTOMOBILES","S.NO 1004, OPP.INCOME TAX OFFICE, KRISHNAGIRI NH-7","Krishnagiri","Tamil Nadu","635109","7708822232"
"SUPREME AND COMPANY PVT LTD","NH-6, SOUTH CHAMRAIL, BOMBAY ROAD, NEAR LOKENATH MANDIR","Howrah","West Bengal","711105","8585011136"
"SUPREME AND COMPANY PVT LTD","OFF NH6, VILLAGE-SURIKHALI POST, PANCHLA DISTRICT","Howrah","West Bengal","711105",""
"SUTARIA AUTO CENTER","OPP. UNKAL LAKE, P. B. ROAD, NEXT TO CHURCH","Dharwad","Karnataka","580031","9611168102"
"STAR AUTOMOBILES","STAR AUTOMOBILES ,NH 7 PADRA","Huzur","","",""
"AUTOMOTIVE MANUFACTURERS PVT. LTD.","3-12-75 N 76, BIG BAZAR LANE,BESIDE ANDHRA BANK MAIN ROAD,MANSOORABAD,L.B.NAGAR","Hyderabad","Telangana","500068","7093998911"
"AUTOMOTIVE MANUFACTURERS PVT. LTD.","FLAT NO 1285/A, ROOM NO.64, JUBILEE HILLS, NEAR CHECK POST","Hyderabad","Telangana","500068","9885503379"
"AUTOMOTIVE MANUFACTURERS PVT. LTD.","1-2-63/1-2-63/6 MAIN RD, NR MANJEERA WATER TANK, HYDERNAGAR","Hyderabad","Telangana","500068",""
"AUTOMOTIVE MANUFACTURERS PVT. LTD.","NO. 8571, P.B.NO. 1627, RASHTRAPATI ROAD","Hyderabad","Telangana","500068","9515108447"
"AUTOMOTIVE MANUFACTURERS PVT. LTD.","NO. 8571, P.B.NO. 1627, RASHTRAPATI ROAD","Hyderabad","Telangana","500068","7680854949"
"V. V. C. MOTORS","SURVEY NO.34, DOOR NP 2-15 N16/A, OLD BOMBAY H.WAY, KOTHAGUDA X ROADS,HI-TECH CITY","Hyderabad","Telangana","500068","7729992033"
"SHIVZ AUTOTECH PVT. LTD","AIRPORT ROAD, OPP. IMPHAL COLLEGE","Imphal West","Manipur","795001","7628965508"
"BHAGAWATI ELITE MOTORS","LASUDIYA MORI,DEWAS NAKA , A B ROAD","Indore","Madhya Pradesh","452010","6262001105"
"SOMYA VEHICLES PVT LTD","8-13, BABJI NAGAR, DEWAS NAKA, A.B.ROAD, NIRANJANPUR","Indore","Madhya Pradesh","452010","9111102113"
"STAR AUTOMOBILES M. P. LTD.","60, GARHA, NEAR TRIPURI CHOWK, NAGPUR ROAD","Jabalpur","Madhya Pradesh","482001","8982518603"
"BALAJI MOTORS","CAMPUS OF SRI BALAJI COLD STORAGE,N.H. 30","Bastar","Chattisgarh","494001","9826003404"
"AUTO WORLD","B-1,SEC. 5, NEAR PRATAP PLAZA, PRATAP NAGAR, TONK ROAD","Jaipur","Rajasthan","302033","9829013161"
"K S MOTORS (P) LTD.","NATIONAL MOTORS BUILDING, MI ROAD","Jaipur","Rajasthan","302033","7665795813"
"O. S. MOTORS PVT. LTD.","BARMER BYEPASS","Jaisalmer","","",""
"ADITYA MOTORS","PLOT NO- 209, NH-5, MIRZAPUR,","Jajapur","Odisha","755043","7873999633"
"MAKKAR MOTORS PVT. LTD.","KOTKALAN, JALANDHAR PHAGWARA HIGHWAY, NR PARAGPUR OCTROI POST","Jalandhar","Punjab","144001","9888810327"
"RAGA MOTORS","G T ROAD, OPPOSITE KHALSA COLLEGE","Jalandhar","Punjab","144001","9914553337"
"SATPUDA AUTOMOBILES","MIDC SQUARE, AJANTA RD","Jalgaon","Maharashtra","425003","7558215789"
"RATNAPPRABBHA MOTORS","AURANGABAD ROAD","Jalna","Maharashtra","431203","9011008393"
"ASTRO INDIA AUTOMOBILE PVT LTD","NEAR RAILWAY STATION EXIT , NATIONAL HIGHWAY","Jammu","Jammu & Kashmir","181133","9999037540"
"ASTRO INDIA AUTOMOBILE PVT LTD","NH-01, CHANNI BY-PASS","Jammu","Jammu & Kashmir","181133",""
"ASTRO INDIA AUTOMOBILE PVT LTD","GROUND FLOOR, GD PARADISE AKHNOOR ROAD, OPP TOPH SHER KHANIA BRIDGE, AKHNOOR ROAD","Jammu","Jammu & Kashmir","181133",""
"HIMALAYAN MOTORS","TENGPORA- BATMALOO BYPASS, NH-1","Srinagar","Jammu & Kashmir","190009","9596200116"
"ATUL AUTOMOTIVES","RAJKOT HIGHWAY, HAPA","Jamnagar","Gujarat","361120","9624486006"
"BALAJI AUTO WORKS PVT LTD","SAI COMPLEX ,PHASE 1, PLOT NO 1501, GROUND FLOOR, DIMNA PARDIH ROAD","East Singhbhum","Jharkhand","831020","7979895633"
"UTKAL AUTOCOACH PVT. LTD.","ADITYA INDUSTRIAL AREA, ADITYAPUR KANDRA ROAD","East Singhbhum","Jharkhand","831020","9204056778"
"BHAGAWATI ELITE MOTORS","SH-31 MANDSOUR RATLAM - DHAR ROAD JAORA","Jaora","","",""
"STAR MOTORS","POLYTECHNIC COURAHA, ALLAHABAD","Jaunpur","Uttar Pradesh","222002","9415315115"
"KONCEPT AUTOMOBILES PVT. LTD.","TAPPAL ROAD, NEAR KAILASH HOSP","Jewer","","",""
"PARAMOUNT AUTOMOBILES PVT LTD","BYPASS ROAD, GANDHI CHOWK","Koraput","Odisha","764001","7328826271"
"AMBER AUTOMOTIVE","UDAIPURAIYA MAGHNAGAR NAKA","Jhabua","Madhya Pradesh","457661","9522228692"
"LOHCHAB MOTOR COMPANY PVT. LTD.","OLD CIVIL ROAD, JHAJJAR","Jhajjar","","",""
"EVERGREEN MOTORS","VILLAGE VRINDAVAN, NH.12, KOTA ROAD","Jhalawar","Rajasthan","326001","9829117255"
"NATRAJ MOBILES PVT. LTD.","11TH MILE, JHANSI-KANPUR ROAD","Jhansi","Uttar Pradesh","284121","7081209415"
"GEHLOT MOTORS PVT. LTD.","E-1, RICCO INDUSTRIAL AREA, AUTO SERVICE ZONE","Jhujhunu","Rajasthan","333001","9785954295"
"LEKH RAJ AUTO PLAZA PVT. LTD.","ROHTAK ROAD, OPP HPCL BOTTLING PLANT","Jind","Haryana","126102","9992900295"
"O. S. MOTORS PVT. LTD.","NH-65 PALI ROAD,KUDI, NEAR TOYOTA SHOWROOM","Jodhpur","Rajasthan","342005","9829830007"
"RAMNARAYAN SHIWPRASAD","BORPOOL, KENDUGURI, A.T. ROAD","Jorhat","Assam","785010","8635590054"
"MARSHAL TRADING COMPANY","RAJKOT JUNAGADH HIGHWAY,NR BHESAN CHOKDI,OPP SUKHPUR GAM","Junagadh","Gujarat","362037","9978941730"
"M. G. B. MOBILES","SY NO. 181-A, OPP STSN GOVT DEGREE COLLEGE, SAIDAPURAM VILLAGE, MUNICIPAL AREA","Kadiri","","",""
"KARNATAKA AGENCIES","BH ROAD, 1ST MILE STONE, OPP.SHRUTHI MOTORS","Kadur","","",""
"BRAJESH AUTOMOBILES","AT+PO- PATUAHA GRAM","Saharsa","Bihar","852201","9560633636"
"LEKH RAJ AUTO PLAZA PVT. LTD.","NH 65 AMBALA ROAD","Kaithal","Haryana","136027","9728104567"
"M & N MOTORS PVT LTD","IDA,PLOT NO 36 N37, RAMANYAPETA, EASTGODAVARI DIST","Kakinada","","",""
"M & N MOTORS PVT LTD","D.NO 56/6, MAIN ROAD, THIMMAPURAM, EAST GODAVARI","Kakinada","","","7032666779"
"SNOWVIEW AUTOMOBILES PVT. LTD.","SHUDHARANG(DAKHO), PO-RECKONG PEO, KALPA","Kalpa","","",""
"JAIN CARS","1, RNJ HOUSE, BALUCHETTY CHATRAM, NH 4 HIGHWAY, THIRUPUTKUZHI","Kanchipuram","","",""
"J S GROVER AUTOMOTIVES","NH 154 VPO: HATWAS, NAGROTA BAGWAN","Kangra","Himachal Pradesh","176047","6230701737"
"RAJENDRA AUTOWHEELS PVT. LTD.","TIRWA ROAD,PAL CHAURAHA","Kannauj","Uttar Pradesh","209725","8650501244"
"ERAM MOTORS PVT. LTD.","NR NADAL VAYANSHALA, KIZHUNNA P.O","Kannur","Kerala","670007","9388396401"
"ERAM MOTORS PVT. LTD.","ERAM MOTORS PVT LTD, TMC XVII, 126A KUTTIKKOL P.O THALIPARAMBA","Kannur","Kerala","670007","9388392259"
"VEER","XX102A,XX102B,XX102C,MK TOWER, PODIKUNDU, PO PALLIKUNNU","Kannur","Kerala","670007","7558888199"
"SHREE TIRUPATI AUTO","ARAZI 1700, SACHENDI","Kanpur Nagar","Uttar Pradesh","208003","7706000922"
"V. C. MOTORS PVT. LTD.","PLOT NO. 608 N 609, VILL. N P. O. ROOMA, G. T. ROAD","Kanpur Nagar","Uttar Pradesh","208003","9793739111"
"RAGA MOTORS","VILL. BRINDPUR NEAR RELIANCE PETROL PUMP, SULTANPUR LODHI ROAD","Kapurthala","Punjab","144601","8437927733"
"SAHYADRI MOTORS PVT LTD.","SR.471 SHANIWAR PETH, OPP.SANGAM HOTEL ,P.B. ROAD","Karad","","",""
"ASHISHTA MOTORS","NO.133/ 5C, MADURAI-DEVAKOTTAI MAIN ROAD, MANAGIRI","Sivaganga","Tamil Nadu","630307","7021194589"
"J. S. FOURWHEEL MOTORS PVT. LTD.","NEAR MASALPUR CHUNGI, HINDAUN ROAD, KARAULI (RAJ.)","Karauli","","",""
"VEHICLEAGE KARGIL","INDUSTRIAL ESTATE, NATIONAL HIGHWAY 1-D,NEAR I.O.C.L","Kargil","","",""
"MOTORLINE AUTO PVT LTD","H NO: 1-81/3/10/2 REKURTHY VILLAGE","Karim Nagar","Telangana","505001","8886676064"
"GANDHI MOTORS","KARMALA PUNE ROAD, KARMALA MAIN MARKET","Karmala","","",""
"P. P. AUTOMOTIVE PVT LTD","119/4, OPP. HOTEL NEW WORLD, G.T. ROAD","Karnal","Haryana","132001","8395921200"
"SIMLA AUTOMOBILES PVT LTD.","KARSOG VILLAGE LATHERI, PO BHANTHAL, DISTT MANDI","Mandi","Himachal Pradesh","175021","9129900686"
"INTREPID WORKS PVT. LTD.","NEAR TAJ AUDITORIUM, KAREELAKULAMGARA P.O","Karthikappally","","",""
"SHIVA AUTOMOBILES PVT. LTD.","364/3-B,SALEM NEW BYE PASS ROAD","Karur","","",""
"ERAM MOTORS PVT. LTD.","CITIZEN NAGAR, CHENGALA.","Kasargod","Kerala","671541","9388396051"
"KUMAR AUTOWHEELS PVT. LTD.","CHAITI CHAURAHA, BAZPUR ROAD, U.S.NAGAR","Udham Singh Nagar","Uttarakhand","244713","8192835111"
"BRAJESH AUTOMOBILES","SIRSA DALAN, P.O-DALAN, P.S-MUFASSIL","Katihar","Bihar","854106","7632988652"
"STAR AUTOMOBILES M. P. LTD.","GULWARA NH 07 SATNA - JABALPUR BY PASS NEAR SYNA INTERNATIONAL SCHOOL","Katni","","",""
"BALAJEE AGENCIES N INDUSTRIES","MUSUNUR, NH-5, MUSUNUR [P]","Kavali","","",""
"SHIVNATH AUTOMOBILES PVT. LTD.","RAIPUR ROAD, INFRONT OF RAJNANDGAON BYPASS,VILLAGE - CHHIRAHA","Kawardha","","",""
"ADITYA MOTORS","AT/ PO GUALSINGH, P.S./ DIST.- KENDRAPARA","Kendrapara","","",""
"UTKAL AUTOMOBILES PVT. LTD.","AT/PO-DHRUPADA, NH-215","Kendujhar","Odisha","758013","7978267409"
"MINERVA AUTOMOBILES PVT. LTD.","AT- MOTER CHOWK, NH- 26, INFRONT OF- GOVT NODAL UP SCHOOL, DISTRICT- KALAHANDI","Kesinga","","",""
"ASHOK MOTORS","GATANGA, P.O. BALI PUKURI TINALI","Ketekibari","","",""
"AUTOMOTIVE MANUFACTURERS PVT. LTD.","8-2-248/1/7/13, NAGARJUNA CIRCLE, PUNJAGUTTA","Hyderabad","Telangana","500004","7331128763"
"GADRE AUTOCON PVT. LTD","GADRE AUTOCON PL., SHEGAON ROAD , NEAR ST WORKSHOP","Khamgaon","","",""
"V. V. C. MOTORS","GOPAL PURAM CROSS ROAD, WAIRA ROAD","Khammam","Telangana","507002","9160320143"
"CENTRAL MOTORS","BURHANPUR ROAD","East Nimar","Madhya Pradesh","450331","9111196721"
"STAR INDIA AGENCIES PVT LTD","234, NH 6, RUPNARAYANPUR","West Midnapore","West Bengal","721305","7479010531"
"CENTRAL MOTORS","CENTRAL MOTORS, BISTAN ROAD BESIDE MAHARISHI SCHOOL","West Nimar","Madhya Pradesh","451001","9425929038"
"KUMAR AUTOWHEELS PVT. LTD.","C/O DHAN SINGH, BHOOD MAHOLIYA, KANJABAG CHORAH, KHATIMA","Udham Singh Nagar","Uttarakhand","262308","8191899023"
"SAHYADRI MOTORS PVT LTD.","RAJGURUNAGAR CHAKAN HIGHWAY","Khed","","",""
"GEHLOT MOTORS PVT. LTD.","NIZAMPUR MODE","Khetri","","",""
"KUMAR AUTOWHEELS PVT. LTD.","7/1,KICHHA BYEPASS ROAD, INDUSTRIAL AREA RUDRAPUR","Udham Singh Nagar","Uttarakhand","263153","9997227999"
"BRAJESH AUTOMOBILES","NH 31, RAMPUR PETROL PUMP, RAMPUR","Kishanganj","Bihar","855107","9835875519"
"PRATIK AUTOMOBILES","OPP. OM TRADING, NEAR TAALA FACTORY, BYPASS ROAD, JHUMRI TELLIAH","Koderma","","",""
"APEX MOTOR ENTERPRISE","TSAKOU MERIEMA","Kohima","","",""
"TRENDY WHEELS PVT. LTD.","448/B, SHIROLI MIDC, PUNE-BANGLORE NATIONAL HIGHWAY NAGOAN PHATA","Kolhapur","Maharashtra","416122","9922508544"
"POTHEN AUTOS PVT. LTD.","DOOR NO: IX / 685A, OPP: JUMA MASJID, THATTAMALA","Kollam","Kerala","691020","7558889421"
"T V SUNDRAM IYENGAR AND SONS (P)LTD","MUSILIYAR BUILDING 2ND STONE MILE, KILIKOLLOR P.O","Kollam","Kerala","691020","9061067160"
"AUTO CENTRE","""""""RUK-MAA"""" 149, I.C.COMPLEX,TRANSPORT NAGAR""","Korba","Chattisgarh","495677","7415760405"
"EVERGREEN MOTORS","B-45-A, IPIA, OPP. AIRPORT ROAD NO. 2, JHALAWAR ROAD","Kota","Rajasthan","324005","9829228555"
"DEHRADUN PREMIER MOTORS PVT. LTD.","B.H.E.L. ROAD","Kotdwara","","",""
"K S MOTORS (P) LTD.","OPP. RTM HOTEL, NH-8, KOTPUTLI, DIST","Kotputli","","",""
"SRI ARN MOTORS","NO.3/1A, MAYILADUTHURAI MAIN ROAD, VANDAMPALAI","Tiruvarur","Tamil Nadu","610101","9566777969"
"HORIZON MOTORS INDIA PVT LTD","11/223-A, M.C.ROAD,OPP. GOVT. POLYTECHNIC COLLEGE, NATTAKOM","Kottayam","Kerala","686013","9847266166"
"T V SUNDRAM IYENGAR AND SONS (P)LTD","M C ROAD, OPP. GOVERNMENT POLY TECH COLLEGE","Kottayam","Kerala","686013","9061059726"
"INTREPID WORKS PVT. LTD.","MERIDIAN MOTO, MALLASSERY JUNCTION, KUMBUZHA","Pathanamthitta","Kerala","689653","7902279090"
"T V SUNDRAM IYENGAR AND SONS (P)LTD","KUNNATH BUILDING, T.K ROAD, NEAR ST. PETERS JUNCTION","Pathanamthitta","Kerala","689653","9447007273"
"SKS AUTOMOBILES","2/122 SALEM MAIN ROAD, AVATHANAPTTI POST, NEAR AISWARYA DHABA","Krishnagiri","","",""
"M. S. MOTORS","NH34, KALIRHAT, ITLA, OPP TO T","Krishnanagar (w.b.)","","",""
"NAIK MOTORS","A.P. GUDHIPOR PINGOLI","Sindhudurg","Maharashtra","416528","9146035436"
"ADITYA MOTORS","AT- UDAYABAT, NEAR IOCL PETROL PUMP, PARADEEP","Kujang","","",""
"BHAGAWATI ELITE MOTORS","KUKSHI BY PASS KUKSHI DISTRICT DHAR","Kukshi","","",""
"KARNATAKA AGENCIES","DOTRICH COMPLEX, N.H. 66, KOTESHWAR","Kundapura","","",""
"AUTOMOTIVE MANUFACTURERS PVT. LTD.","POST BOX NO.1, SANTOSH NAGAR COLONY","Kurnool","Andhra Pradesh","518003","9963345549"
"AUTOMOTIVE MANUFACTURERS PVT. LTD.","PO NO 1, NH 44, SANTOSH NAGAR COLONY","Kurnool","Andhra Pradesh","518003",""
"MOSARAM ENTERPRISES LIMITED","LRP ROAD, VILLAGE MEERPURI","Kheri","Uttar Pradesh","262701","7408425120"
"SABITA AUTOMOBILES","AIRPORT ROAD,VILL: BAHADURPUR, DIST. CACHAR.","Cachar","Assam","788002","9435071575"
"INDOMOBILE SALES N SERVICES PVT. LT","INDO HOUSE, P-52, MIDC","Latur","Maharashtra","413512","7757050051"
"MENTOKLING MOTORS","NEAR STATE BANK OF INDIA CHOGLAMSAR, LEH MANALI NATIONAL HIGHWAY","Leh","Jammu & Kashmir","194101","9797748757"
"A. AUTOMOVERS PVT. LTD.","NEAR HAL, FAIZABAD ROAD","Lucknow","Uttar Pradesh","226016","9198692133"
"A. AUTOMOVERS PVT. LTD.","CHINHUT, OPP. AKASHWANI, FAIZA","Lucknow","Uttar Pradesh","226016","9838377914"
"NARAIN AUTOMOBILES","4 SHAHNAJAF ROAD","Lucknow","Uttar Pradesh","226016","7081003816"
"NARAIN AUTOMOBILES","490, CHILLAWAN OPP. AMOUSI AIR","Lucknow","Uttar Pradesh","226016","7081003810"
"DADA MOTORS","SAVITRI COMPLEX-II, DHOLEWAL CHOWK, G.T. ROAD","Ludhiana","Punjab","141003","9876039014"
"NOVELTY WHEELS PVT. LTD.","B-30-114/3/1, ADJACENT BHARAT PETROL PUMP, OPP GS AUTO DHANDARI KHURD, G T ROAD","Ludhiana","Punjab","141003","9875947031"
"MANA MOTORS","RAMTHAR ( NEAR AOC PETROL PUMP)","Lunglei","","",""
"SHIV SHAKTI WAHAN PVT. LTD.","GANGA SAGAR ASTHAN, BHOWARA","Madhubani","Bihar","847212","9102990761"
"INDIA GARAGE","OMKARESHWARA TEMPLE ROAD","Madikeri","","",""
"MAYA AUTOMOBILE","GT ROAD , NORTH, HOSPITAL MORE","Mogra","","",""
"SARDAR MOTORS (AUTOWHEEL) PVT LTD","GAUNARIYA BABU","Maharajganj","Uttar Pradesh","273164","9839210000"
"MOSARAM ENTERPRISES LIMITED","BISWA ROAD, (SITAPUR)","Mahmudabad","","",""
"STAR AUTOMOBILES","SH-30, NEAR KADAMBARI HOTEL, KATNI SATNA ROAD","Maihar","","",""
"RAJENDRA AUTOWHEELS PVT. LTD.","BHOGAWN ROAD, GADIYA","Mainpuri","Uttar Pradesh","205262","9720105726"
"JITENDRA MOTORS PVT. LTD.","CHANDANAPURI SHIVAR, NEXT TO HERO HONDA SHOWROOM, MUMBAI-AGRA ROAD","Nashik","Maharashtra","423203","8643831111"
"PARAMOUNT AUTOMOBILES PVT LTD","AT-SAMBAIGUDA, PO-MALKANGIRI,","Malkangiri","","",""
"SIMLA AUTOMOBILES PVT LTD.","VPO PRINI TEHSIL MANALI, DIST - KULLU","Manali","","",""
"ERAM MOTORS PVT. LTD.","VALLIYOORKAVU BYPASS ROAD, NEAR VALLIYOORKAV TEMPLE, AARATUTHARA","Mananthavady","","",""
"SIMLA AUTOMOBILES PVT LTD.","BHANGROTU (NEAR CHOWK)","Mandi","Himachal Pradesh","175021","7018116041"
"STAR AUTOMOBILES","STAR AUTOMOBILES ,JKD ROAD INFRONT OF KHEDIA TALKIES","Koriya","Chattisgarh","497442","9425255497"
"ASHOK MOTORS","BORGANG, DIST-BISWANATH","Sonitpur","Assam","784501","9678957753"
"KARNATAKA AGENCIES","1-5-409/1, NH-66, KOTTARA CHOWKI, ASHOK NAGAR POST","Dakshina Kannada","Karnataka","575006","7022267000"
"EVERGREEN MOTORS","C.P. 1, RIICO INDUSTRIAL AREA, BARAN","Baran","Rajasthan","325205","8003092355"
"AVC MOTORS","OPP. ROYAL ENFIELD SHOWROOM, SIRSA ROAD","Mansa","Punjab","151505","8437005201"
"ATMARAM AUTO ENTERPRISES","NEAR SHEEL HYUNDAI, NAWADA, NH","Mathura","Uttar Pradesh","281001","9058069015"
"STAR AUTOMOBILES","OPPOSITE IOCL PETROL PUMP, MAUGANJ, REWA-VARANASI ROAD","Mauganj","","",""
"JAIKUMAR ARUNKUMAR PVT. LTD.","195, OPP. PARTAPUR POLICE STATION, DELHI ROAD","Meerut","Uttar Pradesh","250103","8006666711"
"SHREE SHYAM JI AUTOMOTIVE LLP","KHASRA NO-207 HAFIZABAD MEWLA PARGANA DELHI ROAD","Meerut","Uttar Pradesh","250103","7302255241"
"ROYAL AUTOMOBILES PVT. LTD.","NEAR SHARDA TALKIES LASHKAR ROAD","Bhind","Madhya Pradesh","477557","8770202992"
"SHRIJEE MOTORS","NEAR JANPATH HOTEL, STATE HIGHWAY, PALAVASANA","Mahesana","Gujarat","384002","9978984701"
"AGARWAL AUTO SALES","BHARUHANA, VARANASI ROAD","Mirzapur","Uttar Pradesh","231001","8004127406"
"BHURAWALA MOTORS","KHALITAT, AHMEDABAD HIGHWAY","Modasa","","",""
"DADA MOTORS","NEAR BUGHIPURA CHOWK, G.T.ROAD","Moga","Punjab","142001","9876044445"
"RAJ VEHICLES MOHALI","C-118, INDUSTRIAL AREA, PHASE 7","Rupnagar","Punjab","160055","8699082180"
"DEEP AUTOMOBILES","SHANKAR NAGAR,BADA GAON, AZAMG","Mau","Uttar Pradesh","275101","9838203819"
"ABHINANDAN AUTOZONE LLP","SINGH COMMERCIAL CENTRE, 3B - COM-1, ADJACENT KUNDAN PETROL PUMP","Moradabad","Uttar Pradesh","244001","9528900340"
"MAHALAXMI AUTOWORLD PVT LTD","10TH KM, RAMPUR ROAD (ZERO POI","Moradabad","Uttar Pradesh","244001","8194005933"
"ROYAL AUTOMOBILES PVT. LTD.","NEAR SHITLA SERVICE CENTER, DHAULPUR ROAD","Morena","Madhya Pradesh","476001","9109917011"
"SHREE R C ENTERPRISES","NH 28, BARIYARPUR, NEAR ZERO MILE","East Champaran","Bihar","845401","9771446371"
"AVC MOTORS","NEAR IMPERIAL SCHOOL BHATINDA ROAD","Muktsar","Punjab","152026","8437005192"
"HAREKRISHAN CLASSIC CAR CARES PVT. LTD.","1, UDYOG KSHETRA, MULUND GOREGAON LINK ROAD, MULUND (WEST)","Mumbai","Maharashtra","400080","9969676747"
"INFINITY AUTOLINKS PVT LTD (A DIVISION OF INFINITY","JASWANTI LANDMARK,GROUND FLOOR,LBS ROAD, VIKHORLI (WEST)","Mumbai","Maharashtra","400080","8879774213"
"NBS INTERNATIONAL LTD.","10, STONE BUILDING, OPP. GIRGAON CHOWPATTY","Mumbai","Maharashtra","400080","7738896325"
"NBS INTERNATIONAL LTD.","KURLA UNIT NO 1, GROUND FLOOR, KANAKIA ZILLION, LBS MARG, KURLA (W)","Mumbai","Maharashtra","400080",""
"NBS INTERNATIONAL LTD.","STANDFORD, SV ROAD, JUHU TARA LANE, NEAR SHOPPERS STOP, ANDHERI WEST","Mumbai","Maharashtra","400080","9004604299"
"RANDHAWA MOTORS (A DIV OF RANDHAWA AUTOMOBILE ENGI","GR. FLOOR, JASWANT LANDMARK, MEHRA COMPOUND, LBS MARG","Mumbai","Maharashtra","400080","9607959078"
"B. MANGATRAM N CO.","SURVEY NO 181/2, PLOT NO 5, MOTA KAPAYA","Mundra","","",""
"T V SUNDRAM IYENGAR AND SONS (P)LTD","BUILDING NO 7/196, VALAKOM VILLAGE, MEKKADAMPU P O, NEAR AMBALAMPADY BUS STOP, MUVATTUPUZHA","Muvattupuzha","","",""
"A 2 Z AUTO WHEELS PVT.LTD.","NEAR HOTAL SOLITEAR, MEERUT RO","Muzaffarnagar","Uttar Pradesh","251001","7417259565"
"RADHAHARI MOTORS","SIPAHPUR BAKHARI","Muzaffarpur","Bihar","842004","9264430972"
"SHASHANK AUTO PVT. LTD.","KALAMBAGH ROAD","Muzaffarpur","Bihar","842004","8102921194"
"INDIA GARAGE","SITE NO. 201/1, 201/2, MYSORE - HUSUR ROAD","Mysore","Karnataka","570017","8971162342"
"GANDHI MOTORS","297, KEGAON, PUNE RD","Solapur","Maharashtra","413001","7775036408"
"G. D. MOTORS","NHPC GODOWN, SENCHOWA","Nagaon","Assam","782002","7002931856"
"NAGAUR AUTOMOBILES PVT. LTD.","MUNDWA ROAD","Nagaur","Rajasthan","341001","9950998355"
"PROVINCIAL AUTOMOBILE CO. PVT. LTD","PLOT NO. G-17/18, CENTRAL MIDC MAIN ROAD, HINGNA","Nagpur","Maharashtra","440016","8888851297"
"UNNATI MOTORS","MOUZA KHAIRI, NR MHKS-BPCL PETROL PUMP, KAMPTHEE ROAD","Nagpur","Maharashtra","440016","8411005418"
"UNNATI MOTORS","DAWOODI BOHRA TRUST BLD.OPP MOHTA PETROL PUPM, OLS BHANDARA RD, WADHAMAN NAGAR","Nagpur","Maharashtra","440016","9503104506"
"UNNATI MOTORS","PL.NO-4 HINDUSTAN COLONY","Nagpur","Maharashtra","440016","8554990130"
"ICONIC AUTOMOBILES","LEKHI VILLAGE, NAHARLAGUN","Papum Pare","Arunachal Pradesh","791110","8403808876"
"RAGA MOTORS","OPP. TAJ CITY, JALANDHAR ROAD","Jalandhar","Punjab","144040","8725027813"
"SANSAI AUTO SERVICES PVT LTD","SY.NO.93, OPP: LAXMI GARDENS FUCTIONAL HALL, MARRIGUDA, HYDERABAD ROAD","Nalgonda","Telangana","508001","9160899965"
"SANSAI AUTO SERVICES PVT LTD","SY.NO.726/A, RAYINIGUDEM VILLAGE, NH-65","Nalgonda","Telangana","508001",""
"SANSAI AUTO SERVICES PVT LTD","BYPASS ROAD, RAMACHANDRAGUDEM","Nalgonda","Telangana","508001",""
"V. V. C. MOTORS","SREE LAXMI COMPLEX,NEAR RTO OFFICE ,HYDERABAD ROAD","Nalgonda","Telangana","508001",""
"UJWAL ENTERPRISES (I) PVT. LTD.","JANKI NAGAR, NEAR HANUMAN GADH, HINGOLI ROAD","Nanded","Maharashtra","431602","8999156151"
"PIONEER AUTOWORLD (GUNTUR) P.LTD","SRKT COLONY, NEAR RELIANCE PETROL PUMP, VINUKONDA BYEPASS ROAD","Narasaraopet","","",""
"DEWAN FOURWHEELS PVT LTD","MOHINDERGARH ROAD, OPP. PANCHAYAT BHAWAN","Mahendragarh","Haryana","123001","8607600220"
"STAR AUTOMOBILES M. P. LTD.","N.H.07 NEAR NEW RTO BUILDING, DEORI KALA","Narsinghpur (mp)","","",""
"LEKH RAJ AUTO PLAZA PVT. LTD.","HISAR ROAD, NARWANA, JIND","Narwana","","",""
"BHAVIN WHEELS PVT. LTD.","NEAR GOVT MILK DAIRY, NEXT TO HOTEL SEBLE","Nashik","Maharashtra","422005","7030942115"
"JITENDRA MOTORS PVT. LTD.","B-88, AMBAD MIDC, ARIHANT PLAZA, PATHRDI PHATA,MUMBAI AGRA RD, MIDC","Nashik","Maharashtra","422005","9890663460"
"HORA MOTORS","PIPRA, MAHULANI, USKA ROAD, SIDDHARTHNAGA","Naugarh","","",""
"UTKAL AUTOMOBILES PVT. LTD.","AT-PO-GHADUAL, MAIN ROAD","Nayagarh","Odisha","752069","9439928804"
"G3 MOTORS LTD. (NAVI MUMBAI DIVN)","G 238,TTC MIDC AREA,SHIRVANE","Thane","Maharashtra","400706","8850829519"
"PRESIDENT MOTORS","N.H. NO. - 8, GREED MAIN ROAD, NEXT TO MONARCH CARS PVT. LTD., GREED","Navsari","Gujarat","396445","9687692859"
"NAGAUR AUTOMOBILES PVT. LTD.","DIDWANA ROAD, SHIV MANDIR, KUCHAMAN CITY","Nawacity","","",""
"MAKKAR MOTORS PVT. LTD.","OPP. BARNALA BRICK KILN STORE, NEAR VILL. LANGROYA, CHANDIGARH ROAD","Nawanshahr","Punjab","144514","9041979031"
"SHRI KAKAJI AUTOMOTIVES","SURVEY NO 495 N 496 GRAM-HINGORIYA MHOW-NARSIRBAD ROAD","Neemuch","Madhya Pradesh","458441","7074741111"
"BALAJEE AGENCIES N INDUSTRIES","PLOT NO.198, AUTO NAGAR","Nellore","Andhra Pradesh","524004","9398626885"
"DEHRADUN PREMIER MOTORS PVT. LTD.","VILLAGE DIKHOL, NH RISHIKESH GANGOTRI","Tehri","","",""
"ADITYA MOTORS","NEAR NEW BUS STAND, NIMAPARA","Nimapara","","",""
"GEHLOT MOTORS PVT. LTD.","KHETRI ROAD NEEM KA THANA","Nimkathana","","",""
"AUTOMOTIVE MANUFACTURERS PVT. LTD.","A.M.REDDY COMPLEX,OPP.TELANGANA GRAMEENA BANK,MANCHERIAL ROAD, ADILABAD DISTRICT","Nirmal","","",""
"BHAGAWATI INDIA MOTORIZER PVT. LTD","TIDNI VILLAGE, JABALPUR ROAD","Niwas","","",""
"AUTOMOTIVE MANUFACTURERS PVT. LTD.","D.NO.3-108-75/31,BARDIPUR VILLAGE,DICHPALLI MANDAL","Nizamabad","Telangana","503101","9100935126"
"KONCEPT AUTOMOBILES PVT. LTD.","A-9, SECTOR-2, OPP. INDIAN OIL","Gautam Buddha Nagar","Uttar Pradesh","201301","9999534925"
"KONCEPT AUTOMOBILES PVT. LTD.","PLOT NO. D10, SITE-4, KASNA IN","Gautam Buddha Nagar","Uttar Pradesh","201301","8527965819"
"KONCEPT AUTOMOBILES PVT. LTD.","H 224 K , NEAR INDIAN OIL PETR","Gautam Buddha Nagar","Uttar Pradesh","201301","9999010039"
"STANLEY ROY CONSTRUCTION COMPANY","NEAR FOOTBALL GROUNDPHAM SYIEM","Nongpoh","","",""
"BISHWANATH ASHOK AUTO LLP","TOWN BANTOW, WARD NO. 14, BESIDE SHANTILAL PETROL PUMP","Lakhimpur","Assam","787001","7002972500"
"SHUHUL AUTOMOBILES PVT. LTD.","NATIONAL HIGHWAY 1A, BYE PASS, NEAR RAILWAY STATION, NOWGAM KASHMIR","Srinagar","Jammu & Kashmir","190001","9797090070"
"MINERVA AUTOMOBILES PVT. LTD.","MAHULBHATA CHAWK, NEAR CIRCUIT HOUSE, NUAPADA","Nuapada","","",""
"S. N. MOTORS PVT. LTD.","NARAYANPUR (OPP. JUBILLE PUMP), NH 34","Malda","West Bengal","732101","8170004115"
"PIONEER AUTOWORLD (GUNTUR) PVT LTD","BESIDE ITC BANGALOW, N.H-5, GUNTUR ROAD, THROVAGUNTA","Ongole","","",""
"CAI INDUSTRIES PVT LTD","VICTORIA HALL, 421/ D-10, ETINESS ROAD","Udagamandalam","","",""
"CAI INDUSTRIES PVT LTD","VICTORIA HALL, 421/ D-10, ETINESS ROAD","Udagamandalam","","",""
"BUNDELKHAND AUTOMOBILES PVT LT","KANPUR ROAD, OPP. HINDUSTAN LE","Jalaun","Uttar Pradesh","285001","9721521492"
"INDOMOBILE SALES N SERVICES PVT. LT","PLOT NO.W12/13, MIDC, AURANGABAD ROAD","Osmanabad","","",""
"ERAM MOTORS PVT. LTD.","VI / 637, PALAKKAD ROAD, MELEPATTAMBI P.O, PATTAMBI","Ottapalam","","",""
"SARDAR MOTORS (AUTOWHEEL) PVT LTD","KASIA ROAD SOHRAUNA PO PADRAUNA","Kushinagar","Uttar Pradesh","274304","8601876222"
"TEKRIWAL MOTORS PRIVATE LIMITED","GOKULPUR, NEAR D.C OFFICE","Pakur","","",""
"ERAM MOTORS PVT. LTD.","# 24/559 N 559(1),MOTHI MAHAL BUILDING, SHORNUR ROAD, NURANI","Palakkad","Kerala","678004","9388392323"
"SHIVAM SALES CORPORATION","N H NO 14, NEAR RTO, OPP GAYATRI TEMPLE, CHECKPOST","Banaskantha","Gujarat","385001","9512012486"
"GANDHI MOTORS","NEW SOLAPUR ROAD, A/P. BHATUMBARE","Pandharpur","","",""
"P. P. AUTOMOTIVE PVT LTD","NEAR TOLL BARIER, PANIPAT","Panipat","Haryana","132103","9812444553"
"SNOWVIEW AUTOMOBILES PVT. LTD.","NEAR BHATA BRIDGE, DEHRADUN RO","Sirmaur","Himachal Pradesh","173025","9817104204"
"UJWAL ENTERPRISES (I) PVT. LTD.","C 2, MIDC INDUSTRIAL AREA, BASMAT ROAD","Parbhani","Maharashtra","431401","9130026963"
"ICONIC AUTOMOBILES","2 MILE, NEAR IOCL","East Siang","Arunachal Pradesh","791102","9402053970"
"AUTO CENTRE","AMBIKAPUR ROAD,NEAR I.T.I","Pathalgaon","","",""
"J S GROVER AUTOS PVT LTD","MAMOON CHOWK, DALHOUSIE ROAD","Gurdaspur","Punjab","145001","6230701797"
"RAJ VEHICLES PVT. LTD.","DARERI JATTAN, BAHADURGARH, RAJPURA RD","Patiala","Punjab","147002","9216383180"
"ADITYA MOTORS","AT / PO-PATAMUNDAI","Pattamundai","","",""
"SHIVA AUTOMOBILES PVT. LTD.","2/341 -B, ARIYALUR MAIN ROAD, DURAIMANGALAM POST","Perambalur","","",""
"ERAM MOTORS PVT. LTD.","AP VIII/426(A,B,C,D,E NF), SANDRA TOWER, ANGADIPPURAM P.O.","Perintalmanna","","",""
"ERAM MOTORS PVT. LTD.","BUILDING NO : 23/148 A,B,C, THADATHIL VALAVU, THIRURKKAD (PO)","Perintalmanna","","","9388396239"
"AMIT AUTOMOBILES","NEAR NAZ CINEMA, PIRPAINTI BARAHAT ROAD","Pirpainti","","",""
"BAJARANG MOTORS","BIN, PITHORAGARH","Pithoragarh","","",""
"CAI INDUSTRIES PVT LTD","NEAR ALAGAPPA ENGINEERING MARAPETTAI STREET, UDUMALPET MAIN ROAD","Pollachi","","",""
"CAI INDUSTRIES PVT LTD","NEAR ALAGAPPA ENGINEERING MARAPETTAI STREET, UDUMALPET MAIN ROAD","Pollachi","","",""
"INDIA GARAGE","2/39,MOUNT POONAMALLE HIGH ROAD,KATTUPAKKAM","Poonamallee","","",""
"ATUL AUTOMOTIVES","PLOT NO.2,3 AND 4, ORIENT MAIN ROAD, GIDC","Porbandar","","",""
"JADWET TRADING CO PVT LTD","ATR ROAD, GARACHARMA A NN ISLANDS","South Andaman","Andaman & Nicobar","744105","7397444079"
"K. S. AUTOMOBILES PVT. LTD.","AMBEDKAR CHORAYA,CHITTORGARH ROAD","Chittorgarh","Rajasthan","312605","9001897397"
"UNITED AUTOMOBILES","R/O SARAI SAGAR, BAHLOL PUR","Pratapgarh","Uttar Pradesh","230001","9956391985"
"AUTOMOTIVE MANUFACTURERS PVT. LTD.","DOOR NO 321-1, CINE HUB ROAD","Proddatur","","",""
"SCHANGALAYA MOTORS","PRESHITHA COMPLEX, 116 VINLLIANUR MAIN ROAD, REDDIYARPALAYAM","Pondicherry","Pondicherry","605010","6383913335"
"SRI ARN MOTORS","NO:36 N 37 ASHOK NAGAR,ALANGUDI ROAD","Pudukkottai","Tamil Nadu","622002","7373713969"
"SAHYADRI MOTORS PVT LTD.","SR. NO. 43/1, 44/1/1, NEAR PASHANKAR AUTO CHEVROLET, AT POST BANER","Pune","Maharashtra","411045","8308517900"
"SAHYADRI MOTORS PVT LTD.","KEDARI COMPLEX, PIRANGUT-PAUD MAIN ROAD","Pune","Maharashtra","411045",""
"SAVAN IB AUTOWINGS PRIVATE LIMITED","MD BABAR BUSINESS CENTER,OPP.KAMAT COMPLEX, PIMPARI INDUSTRIAL AREA, MIDC BHOSARI","Pune","Maharashtra","411045","7410002777"
"SILVER JUBILEE MOTORS LTD.","12, MOLEDINA ROAD, CAMP","Pune","Maharashtra","411045","9881060036"
"SILVER JUBILEE MOTORS LTD.","PUNE SATARA ROAD, BESIDE SHANKAR MAHARAJ MATH","Pune","Maharashtra","411045",""
"UNNATI MOTORS","CITY SPACE PROJECT, OPP. IN ORBIT MALL, VIMAN NAGAR, AHAMADNAGAR ROAD","Pune","Maharashtra","411045","7020744414"
"UNNATI MOTORS","SR.NO. 45/3 TANNA TOWER, LAW COLLAGE ROAD, OPP. BSNL OFFICE,NALSTOP, KHOTHRUD","Pune","Maharashtra","411045",""
"BRAJESH AUTOMOBILES","MARANGA, NH 31","Purnia","Bihar","854301","7463863963"
"KARNATAKA AGENCIES","7E-7D, PUTTUR INDUSTRIAL AREA, MUKARAMPADY, DAKSHIN KANNADA","Puttur (karnataka)","","",""
"TARASANKAR MOTOR PVT LTD","FULKUMARI, MATABARI ROAD, (CANAL CHOWMUHANI)","Radhakishorepur","","",""
"OM AUTO PVT. LTD.","DIDAULI LUCKNOW-ALLAHABAD ROAD","Raebareli","Uttar Pradesh","229001","7704003687"
"STAR AUTOMOBILES","MUKTIYARGANJ","Satna","Madhya Pradesh","485001","7771003469"
"CORNERSTONE AUTOMOBILES","SURVEY NO. 1582, OPP. SAIRAJE HERO SHOWROOM, SHIRDI ROAD, SAKURI","Rahata","","",""
"SAPTAGIRI MOTORS","CHIKSUGUR HYDERABAD ROAD","Raichur","","",""
"SHAH MOTORS","SY NO. 309/B KOF HYDERABAD ROAD","Raichur","","",""
"AUTO CENTRE","KHARSIA ROAD ,DIMRAPUR CHAUK","Raigarh","Chattisgarh","496661","7762232722"
"RALAS MOTORS","TATIBANDH,G. E. ROAD","Raipur","Chattisgarh","492010","9171700021"
"SHIVNATH MOTORS (I) PVT. LTD.","VIDHAN SABHA RD, LIC COLONY, MOWA","Raipur","Chattisgarh","492010","9294634000"
"C. I. AUTOMOTORS PVT. LTD.","NEAR BHAGWATI GARDEN, SAGAR ROAD","Raisen","","",""
"RISHAB MOTOR SALES PVT. LTD.","BHOPAL BY PASSED ROAD","Rajgarh (mp)","","",""
"GALLOPS MOTORS PVT LTD","OPP. RELIANCE PETROL PUMP, NR. EAGLE FARM, KURAVADA ROAD, MALIYASAN","Rajkot","Gujarat","360003","9909992021"
"MARSHAL TRADING COMPANY","N.H 8N,NR KRISHNA PARK GONDAL ROAD, VADI","Rajkot","Gujarat","360003","7574864564"
"SHIVNATH AUTOMOBILES PVT. LTD.","VIILAGE BANDHEDI GE ROAD, PO JANGALPUR","Rajnandgaon","","",""
"ASTRO INDIA AUTOMOBILE PVT LTD","NEAR GRIFF GATE KALAKOTE RD. BADHOON","Rajouri","","",""
"BHILWARA AGRO AUTO SERVICES PVT LTD","BHAVA, BHILWARA ROAD, KANKROLI","Rajsamand","","",""
"ASHISHTA MOTORS","29A, KOORIYUR, MADURAI ROAD","Ramanathapuram","","",""
"MAHALAXMI MOTORS","JUDGES ROAD, BAREILLY GATE","Bareilly","Uttar Pradesh","243502","8194005591"
"NEXGEN SOLUTIONS TECH. PVT LTD","E-189/II, OPP. JHARKHAND VIDHAN SABHA","Ranchi","Jharkhand","834004","9570165624"
"PRATIK AUTOMOBILES","OLD HAZARIBAGH ROAD, NEAR GOVT BUS STAND","Ranchi","Jharkhand","834004","9264452271"
"AUTOMOTIVE MANUFACTURERS PVT. LTD.","1-2-63/1-2-63/6 MAIN RD, NR MANJEERA WATER TANK, HYDERNAGAR, HYD, AP","Hyderabad","Telangana","500072","9705178587"
"V. V. C. MOTORS","5-115, MOHAN REDDY COMMERCIAL COMP BLDG KOMPALLY MEDCHAL RD","Hyderabad","Telangana","500072",""
"BIKANER MOTORS PVT. LTD.","T POINT, SARDARSHAHAR ROAD, RATANGARH RAJGARH","Ratangarh","","",""
"BHAGAWATI ELITE MOTORS","MP SH 31, SALA KHEDI","Ratlam","Madhya Pradesh","457441","6262001012"
"NAIK MOTORS","NAIK COMPLEX, M. D. NAIK ROAD, SHIVAJI NAGAR","Ratnagiri","Maharashtra","415612","7083577159"
"PARAMOUNT AUTOMOBILES PVT LTD","NEAR NH 326, AMALABHATA, NEAR J.K. PUR","Rayagada","","",""
"DEWAN FOURWHEELS PVT LTD","DELHI ROAD, NEAR KAMLA FILLING STATION","Rewari","Haryana","123401","8607600205"
"AGARWAL AUTO SALES","URMAURA, PIPRI ROAD, ROBERTSGA","Sonbhadra","Uttar Pradesh","231216","9838118800"
"SNOWVIEW AUTOMOBILES PVT. LTD.","J.D COMPLEX, NEAR ACC PARK","Rohru","","",""
"LOHCHAB MOTOR COMPANY PVT. LTD.","ROHTAK TOWER, DELHI BYE-PASS","Rohtak","Haryana","124001","8059888886"
"ICONIC AUTOMOBILES","VILLAGE YIBUK","Roing","","",""
"MIGHTY AUTOWHEELS PVT LTD","MAKHANPUR NEAR AXIS BANK CHHUTMALPUR ROAD NH-73","Haridwar","Uttarakhand","247661","7055009840"
"KRISHNA AUTOMOTIVE","PLOT NO. BL/8, S.REVENUE PLOT NO. 494(P) INDUSTRIAL ESTATE, KALUNGA, PS BRAHMANITARANGA","Sundergarh","Odisha","770031","8763375300"
"KRISHNA AUTOMOTIVE","PLOT NO- BL/8, REVENUE PLOT NO- 494, KALUNGA INDL ESTATE, BELDIHI, ROURKELA","Sundergarh","Odisha","770031",""
"DEHRADUN PREMIER MOTORS PVT. LTD.","NEAR GURUDWARA NAGRASU, DISTT RUDRAPRAYAG","Rudraprayag","","",""
"RAJ MOTORS","VILL. N PO.CHHOTI GANDHON , NH-21","Rupnagar","Punjab","140001","7696090180"
"BIKANER MOTORS PVT. LTD.","HISAR CIRCLE, TARANAGAR ROAD, RAJGARH (SADULPUR)","Sadulpur","","",""
"STAR AUTOMOBILES","MAKRONIA, BAMORA DIST. SAGAR","Sagar","Madhya Pradesh","470002","9425886036"
"TIRUPATI VEHICLES PVT. LTD.","DELHI ROAD, NEAR MEDIGRAM, CHUNETI GADA","Ballia","Uttar Pradesh","277001","9837888925"
"SKS AUTOMOBILES","2/152, OMALUR MAIN ROAD, MAMANGAM POST, JAGIR REDDIYAPATY","Krishnagiri","Tamil Nadu","635109","9940931555"
"SRI LAKSHMI AUTOMOBILES WORLD","49/7, AMANI KONDALAMPATTI, NEAR RATION SHOP, KATTUR","Krishnagiri","Tamil Nadu","635109",""
"ADITYA MOTORS","AT- LUNAHAR, P.O./P.S. SALIPUR","Salipur","","",""
"CORNERSTONE AUTOMOBILES","SAMNAPUR ROAD NEAR PUNE BYPASS INFRONT OF SHIRODE TRACTORS SAMNAPUR","Ahmed Nagar","Maharashtra","422605","9607846846"
"SAHYADRI MOTORS PVT LTD.","PLOT NO. 81/82, SHIVAJI HSG SOC, MADHAVNAGAR ROAD","Sangli","Maharashtra","416406","8605013820"
"GANDHI MOTORS","SANGOLA-MIRAJ HIGHWAY","Sangola","","",""
"RAJ VEHICLES PVT. LTD.","MEHLAN ROAD","Sangrur","Punjab","148001","9914141180"
"RALAS MOTORS","/","Saraipali","","",""
"SUN SHINE AUTOS PVT. LTD.","NH-2, BUDHAN MORE, SIKARIA","Sasaram","","",""
"JITENDRA MOTORS PVT. LTD.","9/10/11,KRISHI UTTPAN BAZAAR SAMITEE, MARKET YARD, NEW SHOPPING CENTRE, MALEGAON ROAD","Satana","","",""
"SAHYADRI MOTORS PVT LTD.","SATRA MIDC, PLOT NO. A-22, OPP. IDBI BANK LTD","Satara","Maharashtra","415004","9422609486"
"C. I. AUTOMOTORS PVT. LTD.","SEKHDAKHEDI ROAD, NEAR UNION BANK","Sehore","","",""
"BHAGAWATI INDIA MOTORIZER PVT. LTD","VILLAGE JAMUI, BURHAR ROAD, TEHSIL SOHAGPUR","Shahdol","Madhya Pradesh","484771","9329289892"
"DUA CARS N MOTORS (INDIA) PVT. LTD.","OPP NAVE TECHNIAL INSTITUE (N.T.I),LODHI PUR","Shahjahanpur","Uttar Pradesh","242001","8601872369"
"RATHI MOTORS (SHUJALPUR) PVT LTD","INFRONT OF RUCHI J OIL LTD.,SH-41,AKODIA ROAD","Shajapur","Madhya Pradesh","465333","9109107536"
"RATHI MOTORS (SHUJALPUR) PVT LTD","AB ROAD, SHAJAPUR, OPP.OF RUCHI SOYA INDUSTRIES, AKODIA ROAD","Shajapur","Madhya Pradesh","465333","9425000767"
"A 2 Z AUTO WHEELS PVT.LTD.","KARANA PANIPAT ROAD","Shamli","","",""
"KAMLESH AUTOWHEELS PVT. LTD.","AVANTI NAGAR, MAINPURI ROAD","Shikohabad","","",""
"STANLEY ROY CONSTRUCTION COMPANY","G. S. ROAD, MAWLAI","East Khasi Hills","Meghalaya","793017","9538072269"
"SYRPAI AUTOMOTIVE","MAWIONG RIM, MAWALASHILLONG","East Khasi Hills","Meghalaya","793017","7005997209"
"SNOWVIEW AUTOMOBILES PVT. LTD.","OPP. GOVT. PRESS, MAIN HIGHWAY","Shimla","Himachal Pradesh","171005","9218599632"
"MAHANTH MOTORS","NEAR ALKOLA CIRCLE, SAGAR ROAD","Shimoga","Karnataka","577204","8861452525"
"UNNATI MOTORS","MALTAN FATA, NR. MAHAGANPATI TRADERS, NAGAR PUNE HIGHWAY","Shirur","","",""
"ROYAL AUTOMOBILES PVT. LTD.","NEAR KATHA MILL, A.B.ROAD","Shivpuri","Madhya Pradesh","473551","9713412166"
"GEHLOT MOTORS PVT. LTD.","DEVIPURA, JAIPUR ROAD","Sikar","Rajasthan","332001","9828813375"
"KHOKAN MOTOR WORKS PVT LTD","N. H. 31, PARIVAHAN NAGAR, MATIGARA","Darjiling","West Bengal","734010","9800377899"
"SONA WHEELS PRIVATE LIMITED","3RD MILE, SEVOKE ROAD","Darjiling","West Bengal","734010","9641481306"
"BHAGAWATI FRONTLINE MOTORIZER PVT.","VILLAGE-PODNI NOGAI, SIDHI ROAD","Sidhi","Madhya Pradesh","486886","7909901273"
"UNITED AUTOMOBILES","NEAR KAMASIN CROSSING, GHULAMI","Kaushambi","Uttar Pradesh","212207","9956734444"
"K. S. AUTOMOBILES PVT. LTD.","SHIVGANJ ROAD,OPP AMBIKA HOTEL","Sirohi","Rajasthan","307001","7727083939"
"GARG MOTORS","9TH MILESTONE, HISSAR ROAD","Sirsa","Haryana","125055","9215449085"
"SHASHANK AUTO PVT. LTD.","BAJITPUR, MUZAFFARPUR - SITAMARHI ROAD, NEAR POLICE LINE","Sitamarhi","","",""
"MOSARAM ENTERPRISES LIMITED","JAMAIYATPUR, SITAPUR-LUCKNOW HIGHWAY","Sitapur","Uttar Pradesh","261001","7408425122"
"KUMAR AUTOWHEELS PVT. LTD.","MAHARANA PRATAP CHOWK, SIDKUL ROAD, OPPOSITE SRI HARI HOTEL","Udham Singh Nagar","Uttarakhand","262405","8449904477"
"R. D. AUTOMOBILES","STATION CHARIALI, OPP. NEMCHAND MANIKCHAND PETROL PUMP","Sivasagar","","785460","7002070433"
"SIWAN TRACTORS PVT. LTD.","PURANI QUILA MORE BABUNIA ROAD","Siwan","Bihar","841226","7763806286"
"SNOWVIEW AUTOMOBILES PVT. LTD.","SOLAN KUMARHATTI BY PASS, VILL","Solan","Himachal Pradesh","173212","9218599661"
"AGARWAL AUTO SALES","BINA ROAD, AURIMORE","Sonbhadra","","",""
"PRESIDENT MOTORS","CHORLYA TOWNSHIP, MH8, VYARA-SONGADH ROAD","Songadh","","",""
"P. P. AUTOMOTIVE PVT LTD","PLOT NO. 41/2 OPP. H P PETROL PUMP, BAHALGARH ROAD","Sonipat","Haryana","131001","9812433342"
"P. P. AUTOMOTIVE PVT LTD","AMR MALL, G.T. ROAD NH-1, KUNDLI","Sonipat","Haryana","131001",""
"HIMALAYAN MOTORS","NH SANGRAMA BYE PASS","Sopore","","",""
"V. D. MOTORS PVT. LTD.","SURATGARH ROAD, SRIGANGANAGAR","Ganganagar","Rajasthan","335001","9414093078"
"GEHLOT MOTORS PVT. LTD.","JALPALI MOD SRIMADHOPUR","Srimadhopur","","",""
"DEHRADUN PREMIER MOTORS PVT. LTD.","BHATT COMPLEX, BADRINATH ROAD, UFFALDA","Dehradun","Uttarakhand","249201","9917171122"
"MINERVA AUTOMOBILES PVT. LTD.","BLOCK CHAWK, BALANGIR ROAD, PO/PS/DIST- SUBARNAPUR","Subarnapur","","",""
"NARAIN AUTOMOBILES","NEAR NARAYAN DHARAM KANTA, SULTANPUR ROAD","Lucknow","Uttar Pradesh","226501","7705023855"
"MEET ASSOCIATES PVT. LTD.","VPO AMHAT, LUCKNOW ROAD","Sultanpur","Uttar Pradesh","228001","7408419008"
"SNOWVIEW AUTOMOBILES PVT. LTD.","MOHAN VILLA VILL SYAR, PO DARLAGHAT, NH-205, SUB TEH. DARLAGHAT","Suni","","",""
"BRAJESH AUTOMOBILES","GAURAVGADH CHOWK,PIPRA ROAD NEAR GANGA PETROL PUMP","Supaul","","",""
"GEHLOT MOTORS PVT. LTD.","CHIRAWA- SURAJ GARH ROAD , P.O SHYALU TEH. SURAJ GARH","Surajgarh","","",""
"PRESIDENT MOTORS","UMAYANAGAR SOCIETY, NEAR JOGANIYA MATA MANDIR, UDHNA ROAD","Surat","Gujarat","394210","9099978812"
"PRESIDENT MOTORS","G1, GROUND FLOOR, SNS SYNERGY, OPP. CENTRAL MALL, SURAT DUMAS ROAD","Surat","Gujarat","394210","7211144293"
"SHITAL MOTORS PVT. LTD.","OPP. PEOPLE BANK, NR MEGHADEV, WADVAN RD","Surendranagar","","",""
"STAR INDIA AGENCIES PVT LTD","RATNALI OPPOSITE HP GAS GODOWN MECHEDA TAMLUK HIGHWAY","East Midnapore","West Bengal","721636","9800770289"
"ICONIC AUTOMOBILES","NEHRU MARKET, NEAR CANARA BANK, PO/PS-TAWANG","Tawang","","",""
"PIONEER AUTOWORLD (GUNTUR) P.LTD","OPPOSITE IOCL PETROL PUMP, NEAR JMJ COLLEGE, GUNTUR ROAD, SULTHANABAD","Tenali","","",""
"ASHOK MOTORS","BORGANG, DIST-BISWANATH","Sonitpur","Assam","784001","8638054534"
"SALASAR AUTOCRAFTS PVT. LTD.","PARASNATH GALAXY A , SURVEY NO. 47, HISSA NO.4, KASARWADAVLI, GHODBANDER ROAD","Thane","Maharashtra","400615","7045349705"
"PP SYSTEM AND SERVICES","VILL. KHANPUR KOLIAN, NEAR GLOBE TOYOTA, KURUKSHETRA HARYANA","Thanesar","","",""
"SRI ARN MOTORS","2C, MELAVASTHATHAVADI, PUDUKOTTAI ROAD","Thanjavur","Tamil Nadu","613403","7373743969"
"SKS AUTOMOBILES","105A/1, PALLIPALAYAM MAIN ROAD, RAJA GOUNDAM PLAYAM, THIRUCHENCODE","Tiruchengode","","636209","7708822238"
"SLEEBA AND SONS AUTOMOTIVE PVT. LTD.","KV/1/1711, VAZHAYILLA, PEROORKADA, THIRUVANATHAPURAM","Thiruvananthapuram","Kerala","695005","7994452059"
"T V SUNDRAM IYENGAR AND SONS (P)LTD","NEERAMANKARA, KAIMANAM.P.O","Thiruvananthapuram","Kerala","695005","9061059769"
"ERAM MOTORS PVT. LTD.","KUTTANALLOUR PO, NH 47, PASS RD","Thrissur","Kerala","680014","9388396044"
"ADITYA MOTORS","AT PO-BIDHARPUR, NAUPATNA, VIA TIGIRIA","Tigiria","","",""
"STAR AUTOMOBILES","INFRONT OF SHANIDEV TEMPLE,BESIDES OF SHUSHMA FILLING STATION MAMON","Chhatarpur","Madhya Pradesh","472001","7974206390"
"ASSAM MOTORS","HIJGURI GATE NO.1, A.T.ROAD","Tinsukia","Assam","786125","9706009817"
"SHIVA AUTOMOBILES PVT. LTD.","4, BYE PASS ROAD, 5 - TOLLGATE, JAMAL MOHAMED COLLEGE POST","Tiruchirappalli","Tamil Nadu","620020","9790056708"
"SHIVA AUTOMOBILES PVT. LTD.","26-A,DINDUGUL MAIN ROAD, PRATTIYUR (NEAR DEERAN NAGAR)","Tiruchirappalli","Tamil Nadu","620020","7373064077"
"SHIVA AUTOMOBILES PVT. LTD.","ERUTHUKARANPATTI BYE PASS ROAD,OPPOSITE REDHANYA KALYANA MANDAPAM","Tiruchirappalli","Tamil Nadu","620020",""
"DERIK MOTORS (P) LTD","7/147-A1, NAGERCOIL ROAD, TAKKARAMMALPURAM, TIRUNELVELI-627007","Tirunelveli","Tamil Nadu","627007","6384440322"
"BALAJEE AGENCIES N INDUSTRIES","SURVEY NO: 192/3B/1C, 2C N 3C, RENIGUNTA - CHITTOOR BYPASS ROAD","Chittoor","Andhra Pradesh","517501","9299999221"
"CAI INDUSTRIES PVT LTD","557-AVINASHI RD, NR VEERESWARA TEXTILES, AMMAPALAYAM","Tirupur","","",""
"CAI INDUSTRIES PVT LTD","557-AVINASHI RD, NR VEERESWARA TEXTILES, AMMAPALAYAM","Tirupur","","",""
"RAJSHREE AUTOS PRIVATE LIMITED","SF. NO. 585/2, PALLADAM ROAD, BHARATHI NAGAR, VEERAPANDI (POST)","Tirupur","","",""
"ERAM MOTORS PVT. LTD.","633, PARAMBILANGADI,CHERUSHOLA (P O)","Malappuram","Kerala","676510","9388396263"
"J. S. FOURWHEEL MOTORS PVT. LTD.","F-243-245, KAHRANI INDUSTRIAL AREA, BHIWADI","Zara","","",""
"H D MOTORS","68/3A, MARALUR VILLAGE, GUBBI RING ROAD","Tumkur","Karnataka","572105","9148156627"
"K. S. AUTOMOBILES PVT. LTD.","S-92 MAIN BYPASS ROAD, MEWAR INDUSTRIAL AREA, MADRI, TEH-GIRWA","Udaipur","Rajasthan","313001","9928067289"
"GEHLOT MOTORS PVT. LTD.","NEAR TRIPATI TAMPLE, SIKAR ROAD","Udaipurwati","","",""
"INDOMOBILE SALES N SERVICES PVT. LT","OPPOSITE MUKKAWAR PETROL PUMP, NANDED ROAD","Udgir","","",""
"ASTRO INDIA AUTOMOBILE PVT LTD","NEW BYE PASS ROAD NEAR REHEMBAL POLICE STATION","Udhampur","","",""
"T V SUNDRAM IYENGAR AND SONS (P)LTD","GOVERNMENT COLLEGE ROAD","Idukki","Kerala","685508","9999999999"
"KARNATAKA AGENCIES","ABCO STEEL COMPOUND, N.H.66, KAPPETTU, AMBALPADY","Udupi","Karnataka","576103","8202980904"
"BHAGIRATH MOTORS INDIA PVT.LTD.","SURVEY NO. 379/2, GRAM DHABLA REHWARI","Ujjain","Madhya Pradesh","456006","9109154106"
"J S GROVER AUTOMOTIVES","VILL. JHALERA, P.O. RAINSERI, UNA AMB ROAD","Una (hp)","","",""
"OM AUTOMOBILES PVT LTD.","LUCKNOW ROAD, DAHI CHOWKI, OPP POWER HOUSE","Unnao","Uttar Pradesh","209801","7704009176"
"CARAVEL MOTORS PVT. LTD","OPPOSITE GSFC, MUMBAI BYPASS, N.H. 8, CHANI","Vadodara","Gujarat","391750","8733071448"
"M. M. VORA AUTOMOBILES PVT. LTD.","OPP.OCTROI CHEK POST,DABHOI NAKA","Vadodara","Gujarat","391750","8238895965"
"M. M. VORA AUTOMOBILES PVT. LTD.","OPP. STATE BANK OF INDIA, NEAR HOTEL ROYAL ORCHID, MUNJ MAHUDA ROAD","Vadodara","Gujarat","391750","9099055104"
"RAJ INDIA AUTO PVT. LTD.","S.M.109/1 N 109/2 MAUZA KOIRAJ","Varanasi","Uttar Pradesh","221105","7355906793"
"ANGEL AUTO WHEELS PVT. LTD.","ANGEL BUSINESS CENTRE, OPP. TATA MOTORS, WALIV PHATA","Thane","Maharashtra","401208","9920762555"
"JAIN CARS","108, VENKATAPURAM, NEW VASOOR","Vellore","Tamil Nadu","632009","7998883000"
"JAIN CARS","NO-55, TBN BUILDING, DINDIVENAM ROAD","Vellore","Tamil Nadu","632009",""
"JAIN CARS","NO-65, TBN BUILDING, DINDIVENAM ROAD","Vellore","Tamil Nadu","632009",""
"MARSHAL TRADING COMPANY","NEAR JYOTI PETROL PUMP,UNA-VERAVAL HIGHWAY,KAJALI VILLAGE","Junagadh","Gujarat","362310","7567429708"
"MUKTAR AUTOMOBILES PRIVATE LTD.","NH 17, NEAR VERNA IDC JUNCTION, AIRPORT ROAD","South Goa","Goa","403710","7722096569"
"WIN WIN AUTOMOBILES PVT. LTD.","NEAR KRISHNA GARDEN, SANCHI ROAD","Vidisha","","",""
"AUTOMOTIVE MANUFACTURERS PVT. LTD.","4-151, NH-5, PRASADAMAPDU,ELURU ROAD, VIJAYAWADA, KRISHNA DIST, ANDHRAPRADESH","Krishna","Andhra Pradesh","521108","9515106713"
"DEHRADUN PREMIER MOTORS PVT. LTD.","NH YAMNOTRY, CHAKRATA ROAD, DAKPATHER RAOD, DOCTOR GANJ","Vikasnagar","","",""
"SCHANGALAYA MOTORS","NO. 37, MAMBAZHAPATTU ROAD","Villupuram","","",""
"INDIA GARAGE","NO.29/12, ALIGATTU VILLAGE PONNAMPET MANDAL PANCHAYAT, PONNAMPET POST","Virajpet","","",""
"ASHISHTA MOTORS","8-198/9,SIVAKASI ROAD","Virudhunagar","","",""
"AUTOMOTIVE MANUFACTURERS PVT. LTD.","D NO. 54-11-9 N 54-1-1/1, N H 5-MAIN ROAD, ISUKATHOTA, MADDILAPALEM","Visakhapatnam","Andhra Pradesh","530013","9550866396"
"NEON MOTORS PVT LTD","38-22-87, OPP TO REGIONAL PASSPORT OFFICE, NH5, BIRLA JUNCTION, MURALINAGAR","Visakhapatnam","Andhra Pradesh","530013","9581443507"
"ERAM MOTORS PVT. LTD.","NH 212, NR. INDUS MOTORS, KAKKAVAYAL","Vythiri","","",""
"ANGEL AUTO WHEELS PVT. LTD.","WADA-BHIWANDI ROAD, NEAR HOTEL SNEHA GARDEN, VILLAGE GANDHARE, PO-KONE","Wada","","",""
"MOTORLINE AUTO PVT LTD","DOOR NO;23-6-150\5,OPP LPG GAS BUNK, HUNTER ROAD","Warangal","Telangana","506002","8886676015"
"GADRE AUTOCON PVT. LTD","NEAR PATIL DHABA , R PATIL (JOHN DEERE TRACTOR ) , AKOLA WASHIM ROAD","Washim","","",""
"KBS MOTORS PVT. LTD.","OLD COURT ROAD, NEAR MATKA CHOWK , JAGADRI","Yamuna Nagar","","",""
"UNNATI MOTORS","B/9 MIDC LOHARA,NEAR RAYMOND FACTORY,DARWHA ROAD","Yavatmal","Maharashtra","445001","9503102003"
