Dealer Name,Address,City,State,Contact,Email
Rajesh Motors (Auto) Pvt. Ltd.,"44379 Behind Agarwal petrol Pump,Ajmer Road,NH8,Vill- Ramachandrapura,Teh: Sanganer",Jaipur,Rajasthan,9413337558,al.jhalawar@rajeshmotors.com
Venkateshwara Automotors,"Plot No.88, TSIICA Layout Autonagar, By Pass Road, 505001",Karim Nagar,Telangana,7032880005,service@vam.org.in
T V Sundram Iyengar and Sons Limited,"NH-48, Bangalore Road, Kannur Post,575007",Dakshina Kannada,Karnataka,7022025286-9845431105 / 9108464451-,alservice.mangalore@tvs.in
Himgiri Automobiles Pvt. Ltd.,A31/4 5 and 6  Industrial Area  Site II  Hindon Air force Road  Near Mohan Nagar Chowk201 007,Ghaziabad,Uttar Pradesh,01204758600/9717591670,himgiriservices@gmail.com
Mohan Tractors Pvt. Ltd.,"NH1, 54/1 Nangli Poona Industrial Area GT Karnal Road Opp Jain Mandir110036",North West Delhi,Delhi,011 2731837/8800692674-8800692672,virenderlakra@mohanindia.co.in
Himgiri Automobiles Pvt. Ltd.,"Village Bhainsia, 9 Kms  Stone Rampur Road, Moradabad244001",Moradabad,Uttar Pradesh,0591 2390888 / 8449710089 / 8449710060-8527947866,himgiriservices.mbd@gmail.com
GRD Trucks Pvt. Ltd.,"Plot No. 1152-1153, Transport Nagar, Sector Ã¢ÂÂ 58, Ballabgarh121004",Faridabad,Haryana,09643105580/09717893255,service.faridabad@grdtrucks.com
Himgiri Automobiles Pvt. Ltd.,C-88  Sec-88 Phase II  G B Nagar201301,Gautam Buddha Nagar,Uttar Pradesh,01202442900/9717591672/9717591673,himgiriservices.noida@gmail.com
T V Sundram Iyengar and Sons Limited,"(Only For Marine Engine Application)Branch Office 2/14B, II & III, Madurai Bye Pass Road,Madathur-PO.628008",Tuticorin,Tamil Nadu,9003039604/9677762143,micalservice.tuticorin@tvs.in
T V Sundram Iyengar and Sons Limited,"Branch Office XII/646,National Highway, Near Chungam, Feroke.637631",Kozhikode,Kerala,0495-2723416 / 8111889361 / 8111889535,sanju.thankappan@tvs.in
Mohan Tractors Pvt. Ltd.,"Soni path, NH 10, Road-Delhi Road124001",Rohtak,Haryana,01262246074/9812322222/9812000493 /  9728920144,serviceal@mohanindia.co.in
Suvidha Movers Pvt. Ltd.,NH 56  By Pass Faizabad Road  Near Pyarepatti Chauraha220 001,Sultanpur,Uttar Pradesh,9919704333/9307012751,kamleshtri@gmail.com
Mohan Tractors Pvt. Ltd.,"NH1, Near Dev Rishi School, Balgarg Chowk131001",Sonipat,Haryana,01302380333/9992200318/9812000375-9992200395,virenderlakra@mohanindia.co.in
Mohan Tractors Pvt. Ltd.,"9km Mile Stone, NH 10, OP Jindal Marg Nr, Janak Tube125044",Hisar,Haryana,01662220133/9812000376-9812000421 / 9812000383,servicealhsr@mohanindia.co.in
Himgiri Automobiles Pvt. Ltd.,"39 Km Stone,Delhi Jaipur Highway,Narsinghpur,Near Shani Mandir122001",Gurgaon,Haryana,8826198601 / 8826198590 - 8826198609,himgiriservices.ggn@gmail.com
GRD Trucks Pvt. Ltd.,7th Km from Palwal  Opp.Able Charitable Hospital  Behrolia Village  Palwal121102,Faridabad,Haryana,08930535342/09311036524,service.palwal@grdtrucks.com
Suvidha Movers Pvt. Ltd.,NH27 Dandi Bazar  Rewa Road Opp Bansal Farm House  Dabhaawan211008,Allahabad,Uttar Pradesh,05323204660/8795840838/9919704333-7705905118 /9415310871,alwsalld@suvidhamovers.com
Rahul Pam Pvt. Ltd.,"NH 73  Truck addanager , Dass Petrol Pump, Near PNB Bank, Saharanpur Road-Yamunanager135001",Yamuna Nagar,Haryana,9813589020/9215744551/967139800/9813589020 /  9215744551,rppl.ynservices@gmail.com
Yashodha Motors,"NH1  GT Road  Village Mohra, Ambala city133004",Ambala,Haryana,171-2871080/9815900080/ 8199048080-8607688080,serviceymambala@gmail.com
Yashodha Motors,"Adjoining-Budha Dal Complex,Lower Mall147001",Patiala,Punjab,1755001574/98159 00080,ympatiala@gmail.com
Mohan Tractors Pvt. Ltd.,Nikhri Hore  NH 8123401,Rewari,Haryana,01274 - 240050/9992200503 /8222899912,servicealrewari@mohanindia.co.in
Mohan Tractors Pvt. Ltd.,"Maduban,karnal, NH1, Mohan ashokleylad,near kampoura GT road,karnal132001",Karnal,Haryana,9992200503/9812461111/9992200318,servicealkarnal@mohanindia.co.in
AMCO� Automobiles,"Auqaf Building,  NH 1A Zero Bridge191001",Jammu,Jammu and Kashmir,01933222522/01942470163/01942470162/9906022594,amcoautomobiles@yahoo.com
TR Enterprises,Village Sheola Nauni Brahmpukar Road NH 88174001,Hamirpur,Himachal Pradesh,9459500318/9459500323,trebilaspur@gmail.com
AMCO Automobiles,"Zero Milestone By Pass, Near Toyota Showroom,  Narwal Bala180006",Jammu,Jammu & Kashmir,01942475644/01912490011/9906022598/ 9906022594,mushtaqsubla_amco@yahoo.co.in
TR Enterprises,Naloian Chowk Dasuva Road146001,Hoshiarpur,Punjab,9464326584/9417058184,trehsp@rediffmail.com
Padam Motors Pvt. Ltd.,NEAR HAMARA PETROL PUMP (HP) VILLAGE BHULADEWALA MUKTSAR ROAD151 001,Bathinda,Punjab,981400909/9855091909/8437010909/9216350021,Service.padam.ashokleyland@gmail.com
GD Autoservices Pvt. Ltd.,F1  Phase I  RIICO Industrial Area  Sangaria By Pass335512,Hanumangarh,Rajasthan,9413934644/9414088644,gdauto.al@gmail.com
TR Enterprises,"SH 32, V.P.O -Nandpur, Opp. Govt. High School , Nandpur, Tehsil. Amb177 211",Una,Himachal Pradesh,01976 261284/9218658184,tre.workshopamb@gmail.com
Globe Auto Parts,Nand Farms  Near Connect Office Paragpur NH1 Jalandhar Phagwara Highway GT Road144001,Jalandhar,Punjab,0181-5004906/98760 02314/8195096000,globeleyland_service@yahoo.com
Grover Motors Pvt. Ltd.,Village Dosanj   Amritsar Road142001,Moga,Punjab,01636 - 278139/01636 - 278140/94175 12893/97794 50173,groverleyland@gmail.com
Grover Motors Pvt. Ltd.,Plot No 274  Focal Point Road Aarti Steels  Industrial Area141010,Ludhiana,Punjab,0161 5083015/5083010/97794 55010,groverleyland@gmail.com
Power Diesel,33920 Plot No. 380/2  Industrial Area  248002,Dehradun,Uttarakhand,0135-27269903,kstpowerdiesel@gmail.com
Sandeep Motors Pvt. Ltd.,68-A Jodhpur Bikaner ByPass Riico Industrial Area341001,Nagaur,Rajasthan,01582244316/9413314414,smplnagour@gmail.com
Sandeep Motors Pvt. Ltd.,"NH79 Chittor Road,Village - Putholi Chanderiya312021",Chittorgarh,Rajasthan,9414014493 - 9413314416 / 9414165871,chittor@sandeepmotors.com
Aditya Agency,"23534 Padmaja city, SH3, Nanded Latur Highway  431606",Nanded,Maharashtra,"9422170680, 681",adityaagency@rediffmail.com
Sandeep Motors Pvt. Ltd.,NH8  F-228  Ajmeru Industrial Area  Palara311001,Bhilwara,Rajasthan,9413314401,sandeep@sandeepmotors.com
Abhiyan Dealcomm Pvt. Ltd.,"37583 Gaidua, NH-6, Bombay Road, PO: Hariatara, Kalaikunda 721303",West Midnapore,West Bengal,8017026711,sainialservicekgp@gmail.com
Sandeep Motors Pvt. Ltd.,NH79 Jaipur Highway Road305601,Ajmer,Rajasthan,01491224607/9413314436,smpl123n@rediffmail.com
Abhiyan Dealcomm Pvt. Ltd.,"32553 Surikhali, Beltala, P.O. – Panchala 711322",Howrah,West Bengal,8017016011,ashokleylandservice@gmail.com
Navneet Motors,S140NH8(M1A)Madri Industrial Area  Road No .1  Opp BSNL Office  Pratapnagar313001,Udaipur,Rajasthan,02942492145/02942493115/9929366690/0294-2493115 / 7665002264 /  7665002260,alworkshop@navneetmotors.in
Rajesh Motors (Agencies) Pvt. Ltd.,NH 15 Near Toll Naka  Jaipur By Pass  Sri Ganganagar Road334001,Bikaner,Rajasthan,01513021992/9414059800/9413337563,al.barmer@rajeshmotors.com
Sandeep Motors Pvt. Ltd.,"NH79,Ajmer Road, Mandal Chouraha,Mandal311001",Bhilwara,Rajasthan,01486-266772/8875002454/ 9413314430-8875006893 / 9024520440-8875002454,gmservice@sandeepmotors.com
Shree Automotive Pvt. Ltd.,NH41 BARSUNDRA POST ISWARDA JALPAL  HALDIA PURBAMEDINIPUR721654,East Midnapore,West Bengal,3224205299,saplhaldia@yahoo.com
Agarwal Autozone,"34147 NH 87, Village Tularampur, Bareilly Road, near mahalachmi road, 263139",Nainital,Uttarakhand,8477900030,support@ucagarwalgroup.com;info@ucagarwalgroup.com;service.lcv@ucagarwalgroup.com
Shree Automotive Pvt. Ltd.,NH34 Daripukur Khilkapur700125,North 24 Parganas,West Bengal,03325242182/9836709595,akmukhopadhyay09@gmail.com
Anil Motors,"32519 By Pass Square,NH7,Village Chaka 483501",Katni,Madhya Pradesh,"07622-266288, 266358",servicekatni@anilgroup.org
Sona Wheels Pvt. Ltd.,3rd Mile NH 31C Sevoke Road734008,Darjiling,West Bengal,03532778875/9563207232,vdhanotia@yahoo.com
Anil Motors,"29244 SH 14,village sidguan,Damoh Road 470 002",Sagar,Madhya Pradesh,8966000570,raklkain@anilgroup.org
Anil Motors,"23623 NH 12,Village Tewar,Bhedaghat Road 483 053",Jabalpur,Madhya Pradesh,89660 00588,"rajkjain@anilgroup.org, workshop@anilgroup.org, vrajesh@anilgroup.org"
Shree Automotive Pvt. Ltd.,NH2  Banskopa713212,Bardhaman,West Bengal,03432520066/9903557899,shree.durgapur@shreeautomotive.com
GNB Motors Ltd.,G.T.Road Ninga713370,Bardhaman,West Bengal,03412343955/9903411627,kbarat@gnbmotors.com
GNB Motors Ltd.,86 G.T.Road Fagpur Near by Pass Gurudwara713101,Bardhaman,West Bengal,03423291497/03412343955/9007021628,pritam@gnbmotors.com
Andaman Automobile Agency,"MB 46, Aberdeen Bazar744101",South Andaman,Andaman & Nicobar,03192211645/03192253066/9933263416,aaamohan@yahoo.co.in
Shree Automotive Pvt. Ltd.,NH 34 BHAKURI P O CHALITA BERHAMPUR MURSHIDABAD742101,Murshidabad,West Bengal,3482252289,shree.bhp@gmail.com
Shree Automotive Pvt. Ltd.,PO.Argora NH6 Jungelpur(Near Alampur)711032,Howrah,West Bengal,03326695161/03326695900/9830899083,shreeworkshop@gmail.com
Gulf Ashley Motor Ltd.,NH52 Barihargaon  PO.Dekargaon784 501,Sonitpur,Assam,03712259119/9854000280,gamiltezpur@gmail.com
Gulf Ashley Motor Ltd.,NH-37 At Road  P.O  Laipuli  Via Panitola786 183,Tinsukia,Assam,03742310120/9678903832,gaml.ghy@ashokleyland.com
Premsons & Poddars Trucking company LLP,"Namkum Garkey Near Ring Road, Rampur, Ranchi Tata Road, NH 33834010",Ranchi,Jharkhand,9835940911,pptciho@gmail.com
DCS Motors Pvt. Ltd.,"NH30, Sabalpur  Banstar800 009",Patna,Bihar,06122330921/9430516002/9835276782,dcsleyland@gmail.com
Arya Autowheels Pvt Ltd,"32011 16 KM Milestone, NH 6, Mahalgaon 423701",Aurangabad,Maharashtra,9822999999,vishal_barbate@yahoo.co.in
Antony Commercial Vehicles Pvt. Ltd.,"28279 Survey No. 48/3, Besides Arham LogiPark, 5 kms from Kalyan By pass, Village Valshind  Taluka Bhiwandi, Dist. Thana  Maharastra 421301",Thane,Maharashtra,8879645028 - 8879645038,bhiwandiservice@antonycv.com;awm.bhiwandi@antonycv.com
Antony Commercial Vehicles Pvt. Ltd.,"26879 GUT NO.36 , MUMBRA-PANVEL HIGHWAY, Near Dhansar Bus Stop, At Adivali-Kirwali 410208",Raigarh(MH),Maharashtra,8879645039 - 8879645045,awm.taloja@antonycv.com;service@antonycv.com;claims.taloja@antonycv.com;akhan@antonycv.com;wm.taloja@antonycv.com
Sona Wheels Pvt. Ltd.,NH34 Narayanpur732141,Malda,West Bengal,03512262790/9474653675,swplmld@yahoo.com
Anjali Service Centre,"7876 Jhansi Road, Transport Nagar 471001",Chhatarpur,Madhya Pradesh,99937 23186 / 8226000386,Anjalial7876@gmail.com
Sisodia Motors Pvt. Ltd.,NH 31  Near Eassar Pump  Lal Babu Chowk  Dagrua854326,Purnia,Bihar,9771469609/9771469613,sisodiamotors@gmail.com
Automotive Manufacturers Pvt Ltd,"7752 Sur No 140, Opp Seshagaripalli. 516162",Cuddapah,Andhra Pradesh,7330921216,dwm.kdp@automotiveml.com
Gulf Ashley Motor Ltd.,34  2nd Floor  Ashirwad Bhavan  Dr. Rajendra Prasad Road781 006,Kamrup,Assam,03612235780/9435550132,gaml.ghy@ashokleyland.com
Automotive Manufacturers Pvt Ltd,"3544 Dupadu,Chapi Revula 518675",Kurnool,Andhra Pradesh,9849122230,agmservice.dpd-knl@automotiveml.com
Imperial Agro Pvt. Ltd.,Neta Chowk kanti Muzaffarpur843109,Muzaffarpur,Bihar,9431018671,uday_imperial@sify.com
Automotive Manufacturers Pvt Ltd,"3617 Sur No 28P,  Block D  Plot no   223 -IDA, Autonagar 530 012",Visakhapatnam,Andhra Pradesh,8978856720,wm.auto-vzg39@automotiveml.com
Automotive Manufacturers Pvt Ltd,"3618 Survey No. 229/1A,NH 5,Gudavalli Village, Vijayawada Rural 521104",Krishna,Andhra Pradesh,9000131010,wmpa.gdv-vjw@automotiveml.com
Shree Ganesh Automobiles,NH5 Janugang Golai756 019,Baleswar,Odisha,06782269892/06782265278/9437159839,ganesh_auto@rediffmaill.com
Rashmi Motors,NH 5  Manguli  Post Choudwar754025,Cuttack,Odisha,06716451275/9437020075/9437740910,rashmimotors.cuttack@rashmigroups.com
Shree Ganesh Automobiles,NH 5  Patra  Sergarh756 060,Baleswar,Odisha,06782212798/9437075538/9040053156/9437009303,info@teamsga.com
Automotive Manufacturers Pvt Ltd,"7868 Plot N0-142-146-Katatur Post, Opp FCI Godown IDA 524320",Nellore,Andhra Pradesh,9959900685,wmnlr.nlr@automotiveml.com
Gulf Ashley Motor Ltd.,"NH- 33, ASANBANI, NEAR RELIANCE PETROL PUMP. JAMSHEDPUR, PIN.832401",Seraikela-kharsawan,Jharkhand,06572320948/06572320953/9771472131/9234560066,gaml.ho@ashokleyland.com
Paramount Automotives Pvt. Ltd.,NH43 Gandhi Chowk  Bye Pass Road764 001,Koraput,Odisha,06854251800/06854251767/9437032310,paramountauto@hotmail.com
Automotive Manufactures Pvt. Ltd.,"NH6, Gumthara Post, PO Sarvi Rice Mills441904",Bhandara,Maharashtra,9673004336/9673004331,lservice.bhn@automotiveml.com
Automotive Manufactures Pvt. Ltd.,"Survey No.32/1,Jaipuriya Layout,Nagpur, Nanded Byepass445001",Yavatmal,Maharashtra,9673004324,lservice.wani@automotiveml.com
Automotive Manufactures Pvt. Ltd.,"Plot No 1,  Ram Nagar445304",Yavatmal,Maharashtra,07239228363/9673004337,lservice.yavatmal@automotiveml.com
Automotive Manufacturers Pvt Ltd,"3615 N.H. No. 8B,OPP. PARIN FURNITURE, Gondal Road, Kotharia Village 360 022",Rajkot,Gujarat,7359677700,amlrajkot_lsls@yahoo.com amlrajkot_bm@yahoo.com
Automotive Manufacturers Pvt Ltd,"8137 Plot No. 11 &amp; 12, GIDC, Phase-II, Okha -Rajkot Bypass Road,Dared 361004",Jamnagar,Gujarat,9898955277 9173676720,ampldared@yahoo.com
Automotive Manufacturers Pvt Ltd,"8463 148/1D  Mahalunge  Talegaon Chakan Road ,Next to Rinder Co.  410 501",Pune,Maharashtra,"9,67,30,04,32,49,67,30,00,000",lservice.wardhagmail.com
Visha Automotive Sales And Services Pvt. Ltd.,NH 6  VIDC  Akola444 001,Akola,Maharashtra,9850966181/8308817493,vishaautomotive@gmail.com
Automotive Manufacturers Pvt Ltd,"31825 NH6, Gumthara Post, PO Sarvi Rice Mills 441904",Bhandara,Maharashtra,96730 04331,lservice.bhn@automotivesml.com
Arya Autowheels Pvt. Ltd.,"16 KM Milestone, NH 6, Mahalgaon423701",Aurangabad,Maharashtra,07109270505/8888811574/8888896802,aryaautowheelsngp.wm@gmail.com
Automotive Manufacturers Pvt Ltd,"7869 Plot No 45/1-2-Ward, Lakhanpur Padoli,  Nagpur road 442406",Chandrapur,Maharashtra,96730 04944,lstore.chd@automotive Eml.com
Shri Jagannath Motors,NH23 Nirmal Market Complex  Power House Road769 001,Sundergarh,Odisha,9437043799,shreejaganathmotors8@yahoo.co.in
Automotive Manufacturers Pvt Ltd,"33998 R.S.No.339, D.No.3-134 Besides Saibaba Temple, Bypass Road 534101",West Godavari,Andhra Pradesh,9676886565,ws.tpg@automotiveml.com
Automotive Manufacturers Pvt Ltd,"8222 Survey No 240/1, Parsannaya Palli Village 515641",Ananthapur,Andhra Pradesh,7702198887,wm.anp@automotiveml.com
Orissa Diesel Engines Pvt. Ltd.,A5  Macheswar Industrial Estate751 010,Khorda,Odisha,06742582615/9437963018/9437963023/9437004621,oridiesel.leylandservice@gmail.com
Automotive Manufacturers Pvt Ltd,"3611 D No 3-305/1, NH5 Velgubanda, Towards Rajanagaram  533294",East Godavari,Andhra Pradesh,9989482834,wm.rjy@automotiveml.com
Automotive Manufactures Pvt. Ltd.,"Plot No 45/1-2-Ward, Lakhanpur Padoli,  Nagpur road442406",Chandrapur,Maharashtra,07172250154/07172250108/9673004340/ 9673003158 / 9673009634,lservice.chd@automotiveml.com
Automotive Manufacturers Pvt Ltd,"8135 NH8, Shamla Ji Road, Near Maan Hotel 383001",Sabarkantha,Gujarat,9825567147 /9825570701,amplhmt@yahoo.com
Automotive Manufacturers Pvt Ltd,"7821 Plot No 344/1, GIDC  Chitra 364004",Bhavnagar,Gujarat,9909434351 9227500187,amplbhavnagar@yahoo.com amplbhvservice@yahoo.in
Automotive Manufactures Pvt. Ltd.,"574 Kamptee Road,440026",Nagpur,Maharashtra,07122640056/07122642010/9673004319/9673004334 / 7122640056 / 9673002878,lservice.ngp1@automotiveml.com
Automotive Manufacturers Pvt Ltd,"7063 Plot No 987/8, NH 8, Opp-Makarpura Bus Depot,Makarpura,Vadodara 390010",Vadodara,Gujarat,9824006847,amplbrd2004@yahoo.co.in
Automotive Manufacturers Pvt Ltd,"3607 Plot no:66, Block no: 613(Part) 615, 715 &amp; 717, NH8, Transport Nagar, 382 425",Ahmedabad,Gujarat,98240 21450 / 98240 06832,automotiveahmedabad@yahoo.com
Automotive Manufacturers Pvt Ltd,"3614 Hissa no 3/4/5 Ambegaon Budruk Tal.Haveli , Dist.Pune 411046",Pune,Maharashtra,"91580 09066,9923436607(BD in charge), 9850809664 (Service Advisior)",sanjay.pna@automotiveml.com
T V Sundram Iyengar and Sons Limited,29 Lasudia Mori Dewas Naka Agra Bombay Road452010,Indore,Madhya Pradesh,9826729816,alsalesadmin.tvsind@tvssons.com
Goel Cargo Pvt. Ltd.,Nh 7  Near Bela satna Road Village Umari  Rewa485116,Rewa,Madhya Pradesh,7389917770/7389917767,service.galrewa@gmail.com
Automotive Manufacturers Pvt Ltd,"7118 PLOT NO. D 229, MIDC, TRANS THANE CREEK INDUSTRIAL AREA, THANE BELAPUR ROAD, SHIRVANE VILLAGE, NERUL, NAVI MUMBAI   400 706",Thane,Maharashtra,"9769210259(sal), 9769210380(ser)","lsales.nm1@automotiveml.com,lservice.nm1@automotiveml.com"
Anil Motors,"SH 14,village sidguan,Damoh Road470 002",Sagar,Madhya Pradesh,07582286388/8966000570,raklkain@anilgroup.org
Anil Motors,"By Pass Square,NH7,Village Chaka483501",Katni,Madhya Pradesh,7622266358,spareskatni@anilgroup.org
Automotive Manufacturers Pvt Ltd,"7363 P-1-12,MIDC Area Ambad, Nashik  422 010",Nashik,Maharashtra,"9673006871(sal), 9673000873(ser)",bhaleraos.nsk1@automotiveml.com;lservice.nsk2@automotiveml.com
Automotive Manufacturers Pvt Ltd,"7363 P-1-12,MIDC Area Ambad, Nashik  422 010",Nashik,Maharashtra,"9673006871(sal), 9673000873(ser)",bhaleraos.nsk1@automotiveml.com;lservice.nsk2@automotiveml.com
Anil Motors,"NH 12,Village Tewar,Bhedaghat Road483 053",Jabalpur,Madhya Pradesh,07612830489/8966000588,rakjain@anilgroup.org
Automotive Manufacturers Pvt Ltd,"3609 B-5, Shram Jeevan Building,Wadal RTO, Behind IOC petrol Pump,Wadala,Mumbai  400 070",Mumbai,Maharashtra,"9769210259(sal), 9769210380(ser)","lsales.nm1@automotiveml.com,lservice.nm1@automotiveml.com"
Anjali Service Centre,"Near Bus stand,  Sudha sagar road, MRF tyre agency471002",Tikamgarh,Madhya Pradesh,8226000388,anjali_al7876@gmail.com
Anjali Service Centre,"Jhansi Road, Transport Nagar471001",Chhatarpur,Madhya Pradesh,07682240470/9993723186/8226000386,anjalial7876@gmail.com
Satyam Solutions Ltd,NH 3  M-7  Laxmipuram  Near Parking No.2  Transport Nagar474010,Gwalior,Madhya Pradesh,"0751-2495041, 2495042,2490817 / 8718809868 / 8718809855, 09669743685",navneetjha@satyamsolutions.co.in
Duggal Automobiles Pvt. Ltd.,"157/3,NH 12,Bhopal Hoshangabad Road, Near Mandideep462046",Bhopal,Madhya Pradesh,9826021012/07480 232311 / 8458800204 / 8458802635,service@duggalauto.com
Vardhaman Automotives,NH6 GREAT EASTERN ROAD490092,Durg,Chhattisgarh,07821-247228-07821-247226 / 9907114110 /9826720000,leylandraipur@sify.com
Gulf Ashley Motor Ltd.,13th Km milestone NH 200 Raipur Bilaspur Road495001,Bilaspur(CGH),Chattisgarh,07752-212093 / 9111102809 /  9111102810,dineshsingh.rajpoot@gamltrucks.com
Gulf Ashley Motor Ltd.,13th Km milestone Patadi  Korba Champa Road495677,Korba,Chattisgarh,07759217566/07759217567/9962127384,gaml.korba.bm@gamil.com
Goel Cargo Pvt. Ltd.,Jayant Road  Rewa Tower486889,Sidhi,Madhya Pradesh,7389917777/7389917752 / 7389917753,gyan.jnt@gmail.com
Automotive Manufacturers Pvt Ltd,"8165 Sasunavghar,Next to Kinara Dhaba, NH No 8,Naigaon 401208",Thane,Maharashtra,"9769210370(sal), 9619663140(ser)",lsales.vasai@automotiveml.com;lservice.vasai@automotiveml.com
Automotive Manufacturers Pvt Ltd,"8371 Survey no.219/1 221/2,NH9,Swaleshwar , Pune Solapur Highway 413 213",Solapur,Maharashtra,91580 01072 98507 71614,kalyani.sol@automotiveml.com/   lservice.sol@automotiveml.com
T V Sundram Iyengar and Sons Limited,13 Govardhan Colony Jaora Road Behind Sharma Fabrication457001,Ratlam,Madhya Pradesh,(07412) 260037/47 / 9589007493 / 7024121347,manoj.pandey@tvs.in
Automotive Manufacturers Pvt Ltd,"8164 P No 1A/12/14-18 29 33, Sur No-47 288  NH9, Vijayawada Road 508206",Nalgonda,Telangana,9963553570,wm.kdd@automotiveml.com
Automotive Manufacturers Pvt Ltd,"8164 P No 1A/12/14-18 29 33, Sur No-47 288  NH9, Vijayawada Road 508206",Nalgonda,Telangana,9963553570,wm.kdd@automotiveml.com
T V Sundram Iyengar and Sons Limited,Opp Rakesh  Chhabra  Madhuban Plaza451666,Barwani,Madhya Pradesh,9589012682 / 7024121323,sunil.rajpoot@tvs.in
T V Sundram Iyengar and Sons Limited,Village Sameli Chaudhey Behind ITC Warehouse Four Line ByePass Road458441,Neemuch,Madhya Pradesh,(07423)264100/264099 / 9589012876 / 9589007493,manoj.pandey@tvs.in
Automotive Manufactures Pvt. Ltd.,"Plot No 344/1, GIDC  Chitra364004",Bhavnagar,Gujarat,0278-2444716/0278- 2565240/9909434351/9227500187,amplbhavnagar@yahoo.com
Duggal Automobiles Pvt Ltd.,"34687 Near A- B Road Toll Barrier (NH3) , Near IITS college 473001",Guna,Madhya Pradesh,8458802639/ 9826729893,gm@duggalauto.com  service@duggalauto.com  dhakad.narendra@gmail.com
Duggal Automobiles Pvt Ltd.,"30129 157/3,NH 12,Bhopal Hoshangabad Road, Near Mandideep  462046",Raisen,Madhya Pradesh,"84588 00208, 84588 00203",gm@duggalauto.com  service@duggalauto.com
Automotive Manufactures Pvt. Ltd.,"N.H. No. 8B,OPP. PARIN FURNITURE, Gondal Road, Kotharia Village360 022",Rajkot,Gujarat,0281-2782000/0281-2782062/9712322256/9377716850,amlkth@yahoo.com
GD Auto Services Pvt Ltd,30066 F1  Phase I  RIICO Industrial Area  Sangaria By Pass 335512,Hanumangarh,Rajasthan,9413934644(CMD) 9414088644 (Director),gdauto.al@gmail.com
Durga Motor Company,"39905 NH Ã¢ÂÂ 66, Tallur Junction,Kundapura Taluk 576201",Udupi,Karnataka,"9,44,81,20,81,89,74,14,00,000","uday@durgamotors.com,gnanesh@durgamotors.com"
Automotive Manufactures Pvt. Ltd.,"NH8, Shamla Ji Road, Near Maan Hotel383001",Sabarkantha,Gujarat,02772-234344/234345/9825567147 /9825570701,amplhmt@yahoo.com
Automotive Manufactures Pvt. Ltd.,"Plot No. 11 & 12, GIDC, Phase-II, Okha -Rajkot Bypass Road,Dared361004",Jamnagar,Gujarat,0288-2730844/2730771/9898955277/9173676720,ampldared@yahoo.com
Durga Motor Company,"7958 NH17, Kulur Junction,400C-1, KIADB,BAIKAMPADY INDL AREA 575 013",Dakshina Kannada,Karnataka,9900505818,durgamotorscompany@yahoo.co.in
Vardhaman Automotives,NH6  Opp Shital Chaya Restaurant  Manaki491441,Rajnandgaon,Chattisgarh,9826021302/8889150999/7869987072/9826721306,vardhman.service.rjn@gmail.com
Vardhaman Automotives,Darshan Lochan Complex  Shop No 9 Opp Gidam Naka494 001,Bastar,Chattisgarh,07821-247228-07821-247226 / 9907114110 / 9826720000,leylandraipur@sify.com
DCS Motors Pvt Ltd,"8420 NH30, Sabalpur  Banstar  800 009",Patna,Bihar,98352 76782/ 9304074148,dcsleyland@gamil.com
Bachhav Motors,"25859 Gate no: 2158, NH-6,near chirmade petrol pump 425309",Jalgaon,Maharashtra,"9822661122(sal), 9822663355(ser)","sales@bachhavmotors.com,service@bachhavmotors.com"
Automotive Manufactures Pvt. Ltd.,"Survey no.219/1 221/2,NH9,Swaleshwar , Pune Solapur Highway413 213",Solapur,Maharashtra,02176060111/9769206011/9421287112,anands.sol@automotiveml.com
Automotive Manufactures Pvt. Ltd.,"Hissa no 3/4/5 Ambegaon Budruk Tal.Haveli , Dist.Pune411046",Pune,Maharashtra,2024362961,lservice.pna@automotiveml.com
Automotive Manufactures Pvt. Ltd.,"148/1D  Mahalunge  Talegaon Chakan Road ,Next to Rinder Co.410 501",Pune,Maharashtra,02135679730/02135679731/9881726077/9850990070,lsales.chakan@automotiveml.com
Goel Cargo Pvt. Ltd.,26402 Nh 7  Near Bela satna Road Village Umari  Rewa 485116,Rewa,Madhya Pradesh,7389917770,"service.galrewa@gmail.com, director.gelashokleyland@gmail.com"
Pagariya Auto Pvt. Ltd.,SH 60 At Post Valad Gaon Opp Bajaj Auto Main Gate Pandharpur431133,Aurangabad,Maharashtra,9975895845/ 8600037207/ 9970012348/ 0240-6455187/ 0240-6455188,alsales@pagariyaauto.com
Goel Cargo Pvt. Ltd.,"8501 NH 75 PANNA ROAD,ITORA SOHAWAL 485001",Satna,Madhya Pradesh,73899 17753,service.goelashokleyland@gmail.com  director.goelashokleyland@gmail.com
Automotive Manufactures Pvt. Ltd.,"P-1-12,MIDC Area Ambad, Nashik422 010",Nashik,Maharashtra,9673006871/9673000873/9673000895,lservice2.nsk1@automotiveml.com
Automotive Manufactures Pvt. Ltd.,"Sasunavghar,Next to Kinara Dhaba, NH No 8,Naigaon401208",Thane,Maharashtra,9769210342/9769210344,lservice.vasai@automotiveml.com
Globe Auto Parts (Regd),7826 Shukrana Farms-Opp Amristar Engineering College  Manawala  GT Road 143001,Amritsar,Punjab,"8283838400, 8283838200","sethiglobe@live.com, globeauto_wsasr@rediffmail.com"
Nanavati Automobiles,At PO Dhoran Pardi NH8 Ghalapatia394150,Surat,Gujarat,/9727748461 / 02621-290459 / 9727748018,NAPL.SERVICE@gmail.com
Globe Auto Parts (Regd),7001 Nand Farms  Near Connect Office Paragpur NH1 Jalandhar Phagwara Highway GT Road 144001,Jalandhar,Punjab,"98760 02314, 8195096000","sethiglobe@live.com, globeleyland_service@yahoo.com"
Gemini Motors,"8478 NH17, Colvale Industrial Estate Bardez, 403513",North Goa,Goa,9422393288,geminimotorsgoa@gmail.com
Kandla Motors Pvt. Ltd.,Survey No.2000/32 NH8A Near swami narayan Gurukal Bachau kandla Highway370201,Kachchh,Gujarat,2837291020,kmplworks@agrawalgroup.in
Automotive Manufactures Pvt. Ltd.,"PLOT NO. D 229, MIDC, TRANS THANE CREEK INDUSTRIAL AREA, THANE BELAPUR ROAD, SHIRVANE VILLAGE, NERUL, NAVI MUMBAI400 706",Thane,Maharashtra,9769210269/9769210256/9769210369,lservice.nm1@automotiveml.com
Landmark Commercial Vehicles Pvt. Ltd.,Old NH 8  Landmark Compound  460  G.S.F.C. Nagar  Dashrath391740,Vadodara,Gujarat,02652306000/8141155000/7567811666/ 9099084896-9099239014 / 8238061598,servicebaroda.hcv@landmarkindia.net
Automotive Manufactures Pvt. Ltd.,"B-5, Shram Jeevan Building,Wadal RTO, Behind IOC petrol Pump,Wadala,Mumbai400 070",Mumbai,Maharashtra,9769210257/9769210276/9769210374,lservice.mum@automotiveml.com
Yashwant Auto Pvt. Ltd.,"238/239 SH 60 ,Aurangabad road, Pokhardi414001",Ahmed Nagar,Maharashtra,02412726125/8805001111/9881515555,jitu_5055@yahoo.co.in
Rajesh Motors (Agencies) Pvt. Ltd.,Gat No 323 NH4 Ambap crossing/PB Road Hatkanangle416 112,Kolhapur,Maharashtra,02303940001/02302407613/9422415119/9422415113,kolhapur@rajeshmotors.com
Gulf Ashley Motor Ltd 8114,NH-53 FCI Godown road  Ramnagar  788 003,Cachar,Assam,9435172284,gamlsilchar@gmail.com
Aditya Agency,"Padmaja city, SH3, Nanded Latur Highway431606",Nanded,Maharashtra,02462229033/9422170681,adityaagency@rediffmail.com
Gulf Ashley Motor Ltd,7929 NH52 Barihargaon  PO.Dekargaon 784 501,Sonitpur,Assam,98599 52606,gamiltezpur@gmail.com
Gulf Ashley Motor Ltd,7919 NH-37 At Road  P.O  Laipuli  Via Panitola 786 183,Tinsukia,Assam,96789 03832,gaml.ghy@ashokleyland.com
Rajesh Motors (Agencies) Pvt. Ltd.,101/A5 NH4  Jai Malhar  Housing Society  Khed Chowk415 001,Satara,Maharashtra,02162233045/9422415112/9881726699/9881788834,satara@rajeshmotors.com
Grover Motors Pvt. Ltd.,8319 Plot No 274  Focal Point Road Aarti Steels  Industrial Area 141010,Ludhiana,Punjab,97794 55010,"groverleyland@gmail.com, jssandhu.grovermotors@gmail.com, rajkumargrovermotors@gmail.com"
Sagar Motors,Surveyno13 1OppIOC Pump MIDCNH9SolapurUmarga Highway Umarga413606,Osmanabad,Maharashtra,02475202111/9764449550,wm.omg@sagarmotor.com
GRD Trucks Pvt. Ltd.,33936 7th Km from Palwal  Opp.Able Charitable Hospital  Behrolia Village  Palwal 121102,Faridabad,Haryana,"08930535342,  09311036524",service.palwal@grdtrucks.com
GRD Trucks Pvt. Ltd.,"35056  101-B, Khasara No 732-734,  J Block, Prem Nagar, Opp to Okhla Turn, M-B Road, 110044",New Delhi,Delhi,9643105581,service.delhi@grdtrucks.com
Sagar Motors,Sagar House Vivekanand Chowk  Nanded Road413 512,Latur,Maharashtra,02382257333/9823107111,manohar_ltr@rediffmail.com
Goel Cargo Pvt. Ltd.,28858 Jayant Road  Rewa Tower 486889,Sidhi,Madhya Pradesh,98930 68999,"sgrl.goelal@gmail.com, director.gelashokleyland@gmail.com"
Mahesh Auto Engineering,"D-199, near maitreya dairy, MIDC, Avadhan424006",Dhule,Maharashtra,9922828115/08408852000/9960822000/9960835556,maheshautoservice@gmail.com
Gulf Ashley Motor Ltd,"35855 NH 37,Barsajai,Beharbari,Kamrup 781029",Kamrup,Assam,9954040508,ratan.adhikary@gamltrucks.com
Sagar Motors,Survey No.131/166  NH 211 Ghosapuri Village  Jalna Road431122,Beed,Maharashtra,02442227726/9764449550/9049011111,shekhar.kore@sagarmotors.com
Automotive Manufactures Pvt. Ltd.,"Sur No 28P,  Block D  Plot no   223 -IDA, Autonagar530 012",Visakhapatnam,Andhra Pradesh,7093006286-8978856720 / 9866733633-7032724248-9701064690,dwm.auto-vzg39@automotiveml.com
Automotive Manufactures Pvt. Ltd.,"Survey No. 229/1A,NH 5,Gudavalli Village, Vijayawada Rural521104",Krishna,Andhra Pradesh,9848010000-8008012134 / 8790177788-7032724248-9701064690,mastan@automotiveml.com
Automotive Manufactures Pvt. Ltd.,"Sur No 140, Opp Seshagaripalli.516162",Cuddapah,Andhra Pradesh,9989218885-9849726024,sivaprasadrdy.kdp@automotiveml.com
Automotive Manufactures Pvt. Ltd.,"8571 RP Road , Raniganj500003",Hyderabad,Telangana,04027543701/04024128891/04064639888-9,headalservice@automotiveml.com
Automotive Manufactures Pvt. Ltd.,"NH 5 Plot no.48 49 and 50 Indusrial Park,Apiic NH 5523101",Prakasam,Andhra Pradesh,9949041244,Workshop.skonda@automotiveml.com
Automotive Manufactures Pvt. Ltd.,"P No 1A/12/14-18 29 33, Sur No-47 288  NH9, Vijayawada Road508206",Nalgonda,Telangana,9848010000-8008012134 / 8790177788-7032724248-9701064690,mastan@automotiveml.com
Automotive Manufactures Pvt. Ltd.,"D No 3-305/1, NH5 Velgubanda, Towards Rajanagaram533294",East Godavari,Andhra Pradesh,9704234020-9989482834 / 9949422277-7032724248-9701064690,mastan@automotiveml.com
Automotive Manufactures Pvt. Ltd.,"5-100/26/A, In front of Andhra Bank, Beside TRS Office, Warangal Road, Thimmapur (M.O.),505527",Karim Nagar,Telangana,8978299667-8008412323 / 7093939414-9949821107-9701064690,mastan@automotiveml.com
Automotive Manufactures Pvt. Ltd.,"Pappireddy palli Bangalore Highway,Ankisettypalli Pancha517325",Chittoor,Andhra Pradesh,8978801835 / 9989218883-8106977788-9701064690,wm.mdpl@automotiveml.com
Automotive Manufactures Pvt. Ltd.,"192,NH4,Bangalore Highway,  Kukalapalli Village517 218",Chittoor,Andhra Pradesh,9000526862/9849536275,wm.ctr@automotiveml.com
Automotive Manufactures Pvt. Ltd.,"Survey No 111, 100 Feet Road,  Industrial Area  Sarpavaram533005",East Godavari,Andhra Pradesh,08842345161/9676590101,Dwm.kkdW@automotiveml.com
Automotive Manufactures Pvt. Ltd.,"Survey No.283/2 and 284,NH 5,Budumpadu Post, Guntur Rural522017",Guntur,Andhra Pradesh,8790811557-9000131010 / 8790177788-7032724248-9701064690,wm.gnt@automotiveml.com
Automotive Manufactures Pvt. Ltd.,"Plot N0-142-146-Katatur Post, Opp FCI Godown IDA524 320",Nellore,Andhra Pradesh,08612383066-67 / 9000012194-9959900685 / 9849534576-7032724248,wmnlr.nlr@automotiveml.com
T V Sundram Iyengar and Sons Limited,Thanniruhalla Chikkamandiganahalli NH48 BM Road573201,Hassan,Karnataka,08172257377/9900567948,smwhassan@sundarammotors.com
T V Sundram Iyengar and Sons Limited,Survey No 100 NH4 Sri Ranganatha Mills Compound  Bypass Road  Opp  AMPC Yard577 501,Chitradurga,Karnataka,9845521118/8861179407,Shankar.shetty@tvs.in
Gulf Ashley Motor Ltd,8398 13th Km milestone Patadi  Korba Champa Road 495677,Korba,Chattisgarh,9111102801,sunilkumar.lal@gamltrucks.com
T V Sundram Iyengar and Sons Limited,NH13 Indi Road Cross586101,Bijapur(KAR),Karnataka,8352254423 / 7022564999 / 9108050695-7022264402-9108050696,alservice.bijapur@tvs.in
Gulf Ashley Motor Ltd,8377 13th Km milestone NH 200 Raipur Bilaspur Road 495001,Bilaspur(CGH),Chattisgarh,9111102801,sunilkumar.lal@gamltrucks.com
T V Sundram Iyengar and Sons Limited,NH17 Near Vardharaja Hotel Shirkvli village581314,Uttara Kannada,Karnataka,08388-231656 / 7760501411 / 9108464451-7022024515,alservice.ankola@tvs.in
T V Sundram Iyengar and Sons Limited,76  Opp to PEPSI Kemwell Factory   Tonnathinnakuppe  T- Begur  Tumkur Main560049,Bangalore,Karnataka,8027733789,bijujohn.cheriyan@tvs.in
T V Sundram Iyengar and Sons Limited,Plot No 21D  Survey No 78 KIADB Ind.Estate  Jadikatte Village  Nibige Post577222,Shimoga,Karnataka,9740035707-9916757800 / 9741011665-7022024515,alworkshop.shimoga@tvs.in
T V Sundram Iyengar and Sons Limited,52/A  II STAGE  INDUSTRIAL SUBURB MYSORE SOUTH570008,Mysore,Karnataka,8105166377-7022024831 / 9741011665-7022024515,alservice.mysore@tvs.in
T V Sundram Iyengar and Sons Limited,147/5B2 147/6A-6C Cuddalore Chittor Road606604,Tiruvannamalai,Tamil Nadu,04175-241500 / 8056775539 / 04175-241510 / 9566961751,alservice.tiruvannamalai@tvs.in
T V Sundram Iyengar and Sons Limited,"Bangalore Road, Konavattam632013",Vellore,Tamil Nadu,0416-2290097 / 9940178158 - 9894903255 / 0416-2290098 / 9092400752,alcre.vellore@tvs.in
T V Sundram Iyengar and Sons Limited,"No.52, Madhavaram Redhills High Road, Vadaperumbakkam, Chennai, Madhavaram600060",Tiruvallur,Tamil Nadu,8056052223 / 9840257307,aldwm.madhavaram@tvs.in
Gulf Ashley Motor Ltd,"37221 NH-27, Survey No.261/2, Village Nani Chirai, Bhacchau  370140",Kachchh,Gujarat,"7574810870, 7574810868,  7574810867",radheyshyam.rathor@gamltrucks.com service.gandhidham@gamltrucks.com
T V Sundram Iyengar and Sons Limited,Plot No.24B KIADB NH4 Tamaka Industrial Area563101,Kolar,Karnataka,08152223324/08152223325,alservice.kolar@tvs.in
Gulf Ashley Motor Ltd,"39980 Bilaspur Main Road, Near Mahamaya Petrol Pump, Lakhanpur  497116",Surguja,Chattisgarh,9111102801,sunilkumar.lal@gamltrucks.com
T V Sundram Iyengar and Sons Limited,Survey No 119 Opp TV Station Humnabad Road Kanpoor Village585104,Gulbarga,Karnataka,9900261634 / 7676792029-9148587292,alworkshop.gulbarga@tvs.in
Gulf Ashley Motor Ltd,"39979 Main Road, Gerwani, 496001",Raigarh,Chattisgarh,9111102801,sunilkumar.lal@gamltrucks.com
T V Sundram Iyengar and Sons Limited,"Ecomet Workshop 29A/ 30/1 20/2B By Pass road , Poonamallee600056",Kanchipuram,Tamil Nadu,9940123266 - 9003030911 / 9940029803,alservice.icvworkshop@tvs.in
T V Sundram Iyengar and Sons Limited,NH 17  N.B.Compound  Near Air Station  Brahmavar576 213,Udupi,Karnataka,0820-2505122 / 7022375666 / 9108464451-7022024515,alservice.udupi@tvs.in
Gulf Ashley Motor Ltd,"7789 NH- 33, ASANBANI, NEAR RELIANCE PETROL PUMP. JAMSHEDPUR, PIN. 832401",Seraikela-kharsawan,Jharkhand,"990538777(ser), 9934316144(sal)",amit.pandey@ashokleyland.com;(ser);suvrakanti.chowdhury@ashokleyland.com(sal)
T V Sundram Iyengar and Sons Limited,1 NH45 New Madras Highway Subramaniapuram620020,Tiruchirappalli,Tamil Nadu,0431-2333736 / 9894668714 / 9840758621,vigneshkumar.m@tvs.in
Imperial Agro Pvt. Ltd.,28247 Neta Chowk kanti Muzaffarpur 843109,Muzaffarpur,Bihar,"94310 18671,  94310 22755,  94310 00201","uday_imperial@sify.com arun_patliputra@sify.com,  rajkishore.budha@gmail.com"
Himgiri Automobiles P Ltd,8367 C-88  Sec-88 Phase II  G B Nagar 201301,Gautam Buddha Nagar,Uttar Pradesh,"9717591672(WM),  9958694625(BM)",himgirisales.noida@gmail.com
T V Sundram Iyengar and Sons Limited,Plot no 62 NH7 SIDCO Industrial Estate635001,Krishnagiri,Tamil Nadu,04343-231338 / 9677129185-9677717759-9500441786 / 8754024048-9677762104,micalsbu.krishnagiri@tvs.in
Himgiri Automobiles P Ltd,8267 A31/4 5 and 6  Industrial Area  Site II  Hindon Air force Road  Near Mohan Nagar Chowk  201 007,Ghaziabad,Uttar Pradesh,"9717591670,  8130022435","himgiriservices@gmail.com,  himgirisales@gmail.com"
Kandla Motors Pvt Ltd.,8390 Survey No.2000/32 NH8A Near swami narayan Gurukal Bachau kandla Highway 370201,Kachchh,Gujarat,"9099072090,  9099072094,  9099072096","""marketingkmpl@agrawalgroup.in,  kmplworks@agrawalgroup.in,  kmplstores@agrawalgroup.in"
T V Sundram Iyengar and Sons Limited,NH210 Thirumayam Road622001,Pudukkottai,Tamil Nadu,04322-265511 / 8754027150,micalservice.pudukottai@tvs.in
KGN Motors Pvt. Ltd.,"39730 At+PO Malad, Kurkumbh MIDC NH-65, Pune-solapur, Tal âDaund, NH- 65 413130",Pune,Maharashtra,9822687786,kgnmotorsgm@gmail.com
KGN Motors Pvt. Ltd.,"39729 AT-Loni, Post Ã¢ÂÂ Majari Farm, Tal Ã¢ÂÂ Haveli, Manali Resort, NH- 65, Pune-Solapur Road   412307",Pune,Maharashtra,9822687786,kgnmotorsgm@gmail.com
T V Sundram Iyengar and Sons Private Limited,NH 67 SF 298/1 KovaiRoadPavithramPOAravakkurichiTaluKarur639002,Karur,Tamil Nadu,04324-286299 / 9944403560  / 9585597788,ramesh.duraisamy@tvs.in
KGN Motors Pvt. Ltd.,"39728 AT+PO â Khalumbre Talegaon â Chakan Road, NH-6, Tal  - Khed 410501",Pune,Maharashtra,9822687786,kgnmotorsgm@gmail.com
Gulf Ashley Motor Ltd,"37868 Pitabali Chowk,PS-Sadar, NH-53,Sindurpank 768005",Sambalpur,Odisha,9937047564,amitkumar.bose@ashokleyland.com
T V Sundram Iyengar and Sons Limited,241/4A NH49 Madurai Rameswaram Main Road  Manjur Panchayat623707,Ramanathapuram,Tamil Nadu,04564-260225 / 9786493777,alservice.paramakudi@tvs.in
Gulf Ashley Motor Ltd,7913 At Bandhdih  Ps   Jaridih  PO   Jenamore - Ramgarh - Bokaro Road 829 301,Bokaro,Jharkhand,7260817900(ser);  9934316144(sal),jabed.alam@ashokleyland.com(ser); suvrakanti.chowdhury@ashokleyland.com(sal)
T V Sundram Iyengar and Sons Limited,211 NH7 South Veli Street625001,Madurai,Tamil Nadu,0452-2356306 / 9677762142 /999491100,micalservice.madurai@tvs.in
T V Sundram Iyengar and Sons Limited,"Kappalur Industrial Estate,NH 7,Uchapatty Village625008",Madurai,Tamil Nadu,0452-2489532 / 9894904879,micalsbu.kappalur@tvs.in
T V Sundram Iyengar and Sons Limited,"Post box No 7021, 368, Mettupalayam Road, Near Avinashilingam Home Science College641 043",Coimbatore,Tamil Nadu,9944416120 / 9677762152 / 9840325329,alservice.coimbatore@tvs.in
Himgiri Automobiles P Ltd,"33819 39 Km Stone,Delhi Jaipur Highway,Narsinghpur,Near Shani Mandir 122001",Gurgaon,Haryana,8826198601,himgiriservices.ggn@gmail.com
T V Sundram Iyengar and Sons Limited,PO No 919 No 4 NH7 Omalur Main Road636009,Salem,Tamil Nadu,0427-2351686 / 9944433647-9677762148 /8220048958-9677762104,Sivakumar.Muthirulan@tvs.in
Himgiri Automobiles P Ltd,"34887 Khasra No 14/21,Samalkha Village, Samalkha Crossing,Old Delhi Gurgaon Road 110037",South West Delhi,Delhi,8826198606,himgiriservices.kps@gmail.com
Himatsingka Brothers,"41478 Dumka Deoghar Road, Maharo  814101",Dumka,Jharkhand,9608534105,himatsingka.alservice@gmail.com; mustafiz@himatsingkabrothers.com; nhimatsingka@gmail.com
Gulf Ashley Motor Ltd,"40118 Araji No. 63, Plot No.66, Ramnagar, Tengra Mod, NH-7 221008",Varanasi,Uttar Pradesh,"7379049333, 9415618526","kuntak.mishra@ashokleyland.com, vijay kumar srivastava@gamltrucks.com"
T V Sundram Iyengar and Sons Limited,"No.83 , Kadalur main road, Mudaliyar pettai, Mudaliyar pettai605004",Pondicherry,Pondicherry,9840237527/9840614209,panneerselvam.appadurai@tvs.in
T V Sundram Iyengar and Sons Limited,No 2/212A Elambalur Post NH45 Chennai National Highways Indira Nagar621212,Perambalur,Tamil Nadu,"04328-290987, 990 / 9677762144 / 9566089178",alservice.perambalur@tvs.in
T V Sundram Iyengar and Sons Limited,Alagapuri Post NH45 Theni Periyakulam Main Road625531,Theni,Tamil Nadu,04546  269676 / 9944450043 / 9790055776,petchimuthu.balakrishnan@tvs.in
Lerinah Motors,7736 Shop No 15/1 Circular Road  Opp  Gilead Nursing Home  Kher Mahal 797 112,Dimapur,Nagaland,98562 30981,lerinah_motors@yahoo.co.in
T V Sundram Iyengar and Sons Limited,NH 47B  Vishuvasapuram PO  Tirunelveli Main Road  Thovalai  Nagercoil629302,Kanyakumari,Tamil Nadu,0465-2293727 / 9952076303,Sridhar.subburam@tvs.in
Landmark Commercial Vehicles Pvt. Ltd.,"33316 Road Transport Corporate CPD Aslali Ring Road Circle, Aslali Village 382427",Ahmedabad,Gujarat,9099981905,servicebaroda.hcv@landmarkindia.net ashok.adatia@landmarkindia.net (VP-Sales); michel.g@landmarkindia.net
Landmark Commercial Vehicles Pvt. Ltd.,30927 Old NH 8  Landmark Compound  460  G.S.F.C. Nagar  Dashrath  391740,Vadodara,Gujarat,81411 55000 75678 11666,servicebaroda.hcv@landmarkindia.net ashok.adatia@landmarkindia.net (VP-Sales)
T V Sundram Iyengar and Sons Limited,176D/E NH7 Thiruvananthapuram Road  Vannarapettai627003,Tirunelveli,Tamil Nadu,0462-2502051/53/2502576 / 9677762177,alservice.tirunelveli@tvs.in
T V Sundram Iyengar and Sons Limited,Vallipuram PO NH7 Karur Salem Highway637003,Namakkal,Tamil Nadu,04286-285949 / 9840806709-9952401183-9952035860 / 0 / 9677762147-9677762104,Balasubramaniyan.Arumugam@tvs.in
Liando Auto Works,73211 KL-C124 NH54 Aizwal Lunglei Road Zemabawk 796 017,Aizawl,Mizoram,9436198997,liandoauto@qmail.com
T V Sundram Iyengar and Sons Limited,"101 NH45 Trichy Mani Road, Salamedu605602",Villupuram,Tamil Nadu,"04146-259334,164 / 9677762150-7358026061 / 9003015863 /",Jai.Shankar@tvs.in
T V Sundram Iyengar and Sons Limited,MANJERI ROAD  BLOCK NO XI/26and27 VALLUVAMBARAM673651,Malappuram,Kerala,0483-2105666 / 8111887696 / 8111889535,Sanooj.narayanan@tvs.in
T V Sundram Iyengar and Sons Limited,8/337  Kilikolloor(PO) NH208 Musaliar Complex 2nd Milestone  Kollam Sengokattai Road691004,Kollam,Kerala,0474-2732331 / 8111990116 / 9656602277,Shaji.sreekantan@tvs.in
T V Sundram Iyengar and Sons Limited,Kinnassery PO NH47 Near Yakkara Bridge Kadunthuruthy678707,Palakkad,Kerala,0491-2528372 / 8111887669 / 8111889535,Arunkumar.ir@tvs.in
T V Sundram Iyengar and Sons Limited,National Highway682017,Ernakulam,Kerala,4842536277,c.senguttuvan.tvsmdu@tvssons.com
T V Sundram Iyengar and Sons Limited,NH47 Salem Main Road637301,Namakkal,Tamil Nadu,04283294034/9894754006/9952133004/9944434844,micalsbu.tvssank@tvssons.com
T V Sundram Iyengar and Sons Limited,NH47 By Pass Road Ollukara Mannuthy680655,Thrissur,Kerala,0487-2372046 / 8111887720 / 8111889535,Ajayakumar.av@tvs.in
T V Sundram Iyengar and Sons Limited,Elanthoor East PO Variyapuram689643,Pathanamthitta,Kerala,8111990175 / 8111990175 / 9656602277,Vishnu.surendran@tvs.in
T V Sundram Iyengar and Sons Limited,Kaimanam Post Neeramankara695040,Thiruvananthapuram,Kerala,0471-2495603 / 8111887695 / 9656602277,Sreekumar.gk@tvs.in
Mahesh Auto Engineering Works,"8129 D-199, near maitreya dairy, MIDC, Avadhan 424006",Dhule,Maharashtra,"09881422000/09960795558(Sal), 08408852000/9552522000(Ser)","maheshautoew.sales@gmail.com(Sal), maheshautoservice@gmail.com(ser)"
N. Odedra & Co,"41265 Nr. Jasani T.B. Hospital, N.H.27, Kangashiyali 360004",Rajkot,Gujarat,9913473333,owner@nodedra.com
Muneer Motors,"39104 Survey No: 7/A/B3, MUNDARGI INDUSTRIAL AREA, Hulkundi village, Bangalore Road 583101",Bellary,Karnataka,9449842755,mahim.mmpl@muneergroup.co.in
Muneer Motors,"38482 SURVEY NO.174/A2,SANKLAPUR,BELLARY ROAD,HOSPET 583201",Bellary,Karnataka,9449845751-9449845772,warranty.mmpl@muneergroup.co.in
Navneet Motors,3629 S140NH8(M1A)Madri Industrial Area  Road No .1  Opp BSNL Office  Pratapnagar 313001,Udaipur,Rajasthan,7665002264,alworkshop@navneetmotors.in
Makroo Motor Company,"35743 Jeobehara Awantipora, Near AC Floor Mill, NH-1A  192122",Ananthnag,Jammu & Kashmir,"9697005913, 9697005920",mmc.ashokleyland@gmail.com
Paramount Automotives (P) Ltd,7350 NH43 Gandhi Chowk  Bye Pass Road  764 001,Koraput,Odisha,"94370 91878,  87632 91721",paramountauto@hotmail.com
Pagariya Auto Pvt. Ltd.,23058 SH 60 At Post Valad Gaon Opp Bajaj Auto Main Gate Pandharpur 431133,Aurangabad,Maharashtra,9970499275 - 8411961176,alwm@pagariyaauto.com;alservice@pagariyaauto.com
Orissa Diesel Engines Pvt Ltd,"29484 Daruthenga, Near Pitapalli Bypass, Bhubaneshwar, Khurda, Pin-754005, Odisha 751 010",Cuttack,Odisha,"0674-2466030/40,  09437004621",oridiesel.md@gmail.com
Pooja Marketing,"33799 Takarwada cross road, At. Jagana, Palanpur Banaskantha 385001",Banaskantha,Gujarat,9662100044,poojamarketing.ashokleyland@gmail.com
Lerinah Motors,Shop No 15/1 Circular Road  Opp  Gilead Nursing Home  Kher Mahal797 112,Dimapur,Nagaland,03862229151/9856230981,lerinah_motors@yahoo.co.in
Liando Auto Works,KL-C124 NH54 Aizwal Lunglei Road Zemabawk796 017,Aizawl,Mizoram,3892351830,liandoauto@gmail.com
KGN Motors,"AT+PO – Khalumbre Talegaon – Chakan Road, NH-6, Tal  - Khed410501",Pune,Maharashtra,8380032985,kgnmotorsk@gmail.com
Durga Motor Company,"NH17, Kulur Junction,400C-1, KIADB,BAIKAMPADY INDL AREA575 013",Dakshina Kannada,Karnataka,08242458329/08242452329/08242454829/9900505818,durgamotorscompany@yahoo.com
Kgn Motors,"At+PO – Malad, Kurkumbh MIDC NH-65, Pune-solapur, Tal –Daund, NH- 65413130",Pune,Maharashtra,8380032985,kgnmotorsk@gmail.com
KGN Motors,"AT-Loni, Post â Majari Farm, Tal â Haveli, Manali Resort, NH- 65, Pune-Solapur Road412307",Pune,Maharashtra,8380032985,kgnmotorsk@gmail.com
Sumer Sons Autotech Pvt. Ltd.,"38 Agra Milestone,NH 2,Village,Post Barari,Mathura281005",Mathura,Uttar Pradesh,9258025701,sumersons@yahoo.co.in
GD Auto Services Pvt. Ltd.,NH 15  Suratgarh-Bikaner Road VPO Piperan335804,Ganganagar,Rajasthan,9214088644,gdauto.alservice@gmail.com
Automotive Manufactures Pvt. Ltd.,"R.S.No.339, D.No.3-134 Besides Saibaba Temple, Bypass Road534101",West Godavari,Andhra Pradesh,9676886565 / 9949422277-7032724248-9701064690,ws.tpg@automotiveml.com
Abhiyan Deal Comm,NH 6711322,Howrah,West Bengal,3365009111,amrik@sainigroups.in
T V Sundram Iyengar and Sons Limited,Survey No.87/1  87/3  Village Surasa   Tehsil Ghatla456001,Ujjain,Madhya Pradesh,9752494150,jitendrakumar@tvs.in
Rajesh Motors (Mah.) P Ltd,7729 101/A5 NH4  Jai Malhar  Housing Society  Khed Chowk  415 001,Satara,Maharashtra,9422415113,kolhapur@rajeshmotors.com
Rajesh Motors (Mah.) P Ltd,3634 Gat No 323 NH4 Ambap crossing/PB Road Hatkanangle 416 112,Kolhapur,Maharashtra,9422415113,kolhapur@rajeshmotors.com
Rajesh Motors (Auto) Pvt. Ltd.,"44443 Choutan Road,NH-15, 344011",Barmer,Rajasthan,9414057061,al.barmer@rajeshmotors.com
Rajesh Motors (Auto) Pvt. Ltd.,"44428 E1/41, 2nd Phase, RIICO,Police Line,Near Crossing 333001",Jhujhunu,Rajasthan,9414048190,al.jjn@rajeshmotors.com
Rishi Auto Sales Pvt. Ltd.,"7388 NH28, Lucknow road bypass, Saadatganj 224001",Faizabad,Uttar Pradesh,9792201072,rishiauto@hotmail.com
Rashmi Motors,29483 NH 5  Manguli  Post Choudwar 754025,Cuttack,Odisha,"94370 20075,  94377 40910",rashmimotors.cuttack@rashmigroups.com
Rajesh Motors (Mah.) P Ltd,"37542 Sangli Islampur Road, Plot No:203/3, Laxmi Phata, Sangliwadi  415605",Ratnagiri,Maharashtra,9422415111,sangli@rajeshmotors.com
Rahul Pam Pvt Ltd.,"30037 NH 73  Truck addanager , Dass Petrol Pump, Near PNB Bank, Saharanpur Road-Yamunanager  135001",Yamuna Nagar,Haryana,"9813589020, 9215744551, 967139800","krishangupta.rppl@rahulgroup.in,  rppl.ynservices@gmail.com"
Prakalpa Automotive Pvt. Ltd.,"41470 SR No.13, PB Road, Halaga  590001",Belgaum,Karnataka,7624980608,md.prakalpaautomotives@gmail.com
Prakalpa Automotive Pvt. Ltd.,"39767 Before Kundgol cross, Near Gabbur, 74/3,Hubballi,  580023",Dharwad,Karnataka,9844665786/8971766251,"mominjaheer@gmail.com,sachin.gavakwad29@gmail.com"
Rajesh Motors (Auto) Pvt. Ltd.,"44381 E-711 MIA,Behind Krishan dharam Kanta, 2nd  Phase  342005",Jodhpur,Rajasthan,9414057031,Maheep.dhing@rajeshmotors.com
Rajesh Motors (Auto) Pvt. Ltd.,"44442 Plot No.B- 259, IPIA Road No.6 324005",Kota,Rajasthan,9414057012,Mahendra.choudhary@rajeshmotors.com
Rajesh Motors (Auto) Pvt. Ltd.,"44380 KhasraNo.2345, Near Tulers Bypass,200ft Road, 301001",Alwar,Rajasthan,9414057015,Op.Sharma@rajeshmotors.com
Rajesh Motors (Auto) Pvt. Ltd.,"44429 72, Goner Turn, NH 11,Agra Road, 302004",Jaipur,Rajasthan,9414055453,al.agraroad@rajeshmotors.com
Sagar Motors,24358 Surveyno13 1OppIOC Pump MIDCNH9SolapurUmarga Highway Umarga 413606,Osmanabad,Maharashtra,"90490 11111, 9764449550","manohar.kore@sagarmotors.com,  shekhar.kore@sagarmotors.com"
Sandeep Motors Pvt. Ltd.,"7290 NH79,Ajmer Road, Mandal Chouraha,Mandal 311001",Bhilwara,Rajasthan,8875002454,wmmandal@sandeepmotors.com
Sagar Motors,31391 Survey No.131/166  NH 211 Ghosapuri Village  Jalna Road 431122,Beed,Maharashtra,"90490 11111, 9764449550","manohar.kore@sagarmotors.com,  shekhar.kore@sagarmotors.com"
Sagar Motors 7,880  Sagar House Vivekanand Chowk  Nanded Road  413 512,Latur,Maharashtra,95455 50667,manohar_ltr@rediffmail.com
Shivashish Motors India Pvt. Ltd.,"35380 Mustafabad, NH-58, Paragana Sadar, Tehsil Sadar, Muzaffarnagar 251001",Muzaffarnagar,Uttar Pradesh,8392913687,alservice.mzn@shivashishmotors.com
Shree Automotive (P) Ltd.,"8427 N.H. 41, VILL - BARSUNDRA, PO - ISWARDA, JALPAI, PS - BHOWANIPORE, DIST. PURBA MEDINIPUR, 721654",East Midnapore,West Bengal,98305 51127,saplhaldia@yahoo.com
Shree Automotive (P) Ltd.,"8372 VILL: KHILKAPUR, P.O. NAOPARA, DARIPUKUR, NH-34,KOLKATA- 700125 700125",North 24 Parganas,West Bengal,98367 09595,akmukhopadhyay09@gmail.com
Shree Automotive (P) Ltd.,"7972 VILL : MANKARA, P.O.  BALARAMPUR, P.S. BERHAMPUR, MURSHIDABAD- 742 101",Murshidabad,West Bengal,97328 46742,sapl.bhp@gmail.com
Shree Automotive (P) Ltd.,"7661 NH-6, Junglpur, PO: Argora, Junglepur, Dist.Howrah, Pin-711302, WEST BENGAL 711032",Howrah,West Bengal,98308 99083,shreeworkshop@gmail.com
Satyam Solutions Ltd.,30577 NH 3  M-7  Laxmipuram  Near Parking No.2  Transport Nagar 474010,Gwalior,Madhya Pradesh,9425118512,sharadgarg1980@gmail.com
Sandeep Motors Pvt. Ltd.,30945 NH8  F-228  Ajmeru Industrial Area  Palara 311001,Bhilwara,Rajasthan,"9414165871, 9587007720",gmservice@sandeepmotors.com; smplpalra@gmail.com; ajmer@sandeepmotors.com
Sandeep Motors Pvt. Ltd.,8228  NH79 Jaipur Highway Road 305601,Ajmer,Rajasthan,9413314436,smpl123n@rediffmail.com
Sandeep Motors Pvt. Ltd.,"7685 NH79 Chittor Road,Village - Putholi Chanderiya 312021",Chittorgarh,Rajasthan,94133 14416/9414014493,"chittor@sandeepmotors.com, wmchittor@sandeepmotors.com"
Shivashish Motors India Pvt. Ltd.,"35170 NH 58, Khasra No.89/3,Village-Mukarrabpur Palheda, Modipuram, Roorkee Raod 250 110",Meerut,Uttar Pradesh,9319408666,alservice.mrt@shivashishmotors.com
Shivang Automobiles,"37517 NH-30,Dhanupra, Ara Bhojpur-802301",Bhojpur,Bihar,9955080500,shivang.leyland@gmail.com
Satyam Solutions Ltd.,"39273 247/1 opposite sharda solvent ltd., shivpuri guna road gram baskhedi NH 3 Shivpuri 473551",Shivpuri,Madhya Pradesh,9425118512,sharadgarg1980@gmail.com
Shree Ganesh Automobiles,30621 NH 5  Patra  Sergarh 756 060,Baleswar,Odisha,"94370 75538,  9040053156,    9437009303","info@teamsga.com, santosh.panda@teamsga.com,  sudhasindhu.pada@teamsga.com"
Shree Automotive (P) Ltd.,"31786 Banskopa, N.H.-2, Bardhaman, Durgapur, WEST BENGAL, Pin-713212",Bardhaman,West Bengal,99035 57899,"shree.durgapur@shreeautomotive.com,  nb.bagchi@shreeautomotive.com"
T.R. Enterprises,33671 Village Sheola Nauni Brahmpukar Road NH 88 174001,Bilaspur (HP),Himachal Pradesh,9459500318,trebilaspur@gmail.com
Suvidha Movers Pvt. Ltd.,8423 NH27 Dandi Bazar  Rewa Road Opp Bansal Farm House  Dabhaawan 211008,Allahabad,Uttar Pradesh,8795840838,alwsalld@suvidhamovers.com
T.R. Enterprises,8453 Naloian Chowk Dasuva Road 146001,Hoshiarpur,Punjab,94643 26584(GM)/94170 58184/ 9478869684 (WM),trehsp@rediffmail.com
Sona Wheels P Ltd,7844 3rd Mile NH 31C Sevoke Roa 734008,Darjiling,West Bengal,95632 07232,vdhanotia@yahoo.com
Shree Jagannath Motors,7549 NH23 Nirmal Market Complex  Power House Road  769 001,Sundergarh,Odisha,9437043799,shreejaganathmotors8@yahoo.co.in
Supreme Automobiles,"8306 NH 21, P.O.Dudar Tehsil Sadar-Mandi Kullu Road  Brindabanj 175001",Mandi,Himachal Pradesh,94180 63292,"supremeashokleyland@gmail.com, mandiservice2009@gmail.com"
Sunrise Automobiles Pvt Ltd,"39261 Sunrise house, Near Ramosana circle, Mehsana Palanpur highway 384002",Mahesana,Gujarat,02762-245155,sunriseauto96@gmail.com
Sumer Sons Autotech Pvt. Ltd.,"27775 KHASRA NO.164, NH 2, OLD FIROZABAD ROAD PHEERA KHAR, SHAHDRA  282006",Agra,Uttar Pradesh,92580 25701,sanjeevjain@sumersons.com
Sumer Sons Autotech Pvt. Ltd.,"37865 NH-2, Near  Manikpur Chauraha, Kanpur Highway  206001",Etawah,Uttar Pradesh,9258025701,sumersons@yahoo.co.in
TVS & Sons Pvt. Ltd.,3639 (ICV Sales Office)No.37/2B  Bangalore to Hosur Road Near Gauveri school 560068,Bangalore,Karnataka,9591211707,alservice.dbkallur@tvs.in
Triveni Autotech Pvt. Ltd.,"41113 Plot No. 1015, 1016,AT- Jharbelda,PS- Sadar, NH-6,Keonjhar 758002",Kendujhar,Odisha,9433042460,salilbasuroy@gmail.com
TVS & Sons Pvt. Ltd.,7905 Survey No 100 NH4 Sri Ranganatha Mills Compound  Bypass Road  Opp  AMPC Yard 577 501,Chitradurga,Karnataka,8861179407,"alservice.chitradurga@tvs,in"
TVS & Sons Pvt. Ltd.,7196 Plot No 21D  Survey No 78 KIADB Ind.Estate  Jadikatte Village  Nibige Post 577222,Shimoga,Karnataka,9740035707,alservice.shimoga@tvs.in
TVS & Sons Pvt. Ltd.,3643 52/A  II STAGE  INDUSTRIAL SUBURB MYSORE SOUTH 570008,Mysore,Karnataka,8105166377,alservice.mysore@tvs.in
TVS & Sons Pvt. Ltd.,3645 National Highway 682017,Ernakulam,Kerala,"0484-2671399, 7510610091, 8111887679, 8111889492",Roymon.Joseph@tvs.in; vineeth.vettath@tvs.in; suresh.ayyappan@tvs.in; crmalservice.alangad@tvs.in
TVS & Sons Pvt. Ltd.,"7162 Branch Office XII/646,National Highway, Near Chungam, Feroke, 637631",Kozhikode,Kerala,"8111889361,9446000256, 8111887675",sanju.thankappan@tvs.in
TVS & Sons Pvt. Ltd.,"37520 Survey no 32, yarandi village, Mudbi cross 585327",Bidar,Karnataka,7022264390 / 7022264394,alservice.basavakalyan@tvs.in
TVS & Sons Pvt. Ltd.,7460 MANJERI ROAD  BLOCK NO XI/26and27 VALLUVAMBARAM 673651,Malappuram,Kerala,8111887696,alservice.malappuram@tvs.in
TVS & Sons Pvt. Ltd.,"3642 NH-48, Bangalore Road, Kannur Post,  Mangalore Mangalore Karnataka 575007",Dakshina Kannada,Karnataka,7022025286,alservice.mangalore@tvs.in
TVS & Sons Pvt. Ltd.,7605 NH13 Indi Road Cross 586101,Bijapur(KAR),Karnataka,7022564999,aslervice.bijapur@tvs.in
TVS & Sons Pvt. Ltd.,7983 NH17 Near Vardharaja Hotel Shirkvli village 581314,Uttara Kannada,Karnataka,7760501411,alservice.ankola@tvs.in
TVS & Sons Pvt. Ltd.,7984 Thanniruhalla Chikkamandiganahalli NH48 BM Road 573201,Hassan,Karnataka,7022627999,alservice.hassan@tvs.in
TVS & Sons Pvt. Ltd.,"36504 No.14,Lingapura village,Kasaba Hobli,Tumkur 572107",Tumkur,Karnataka,7022421999,alservice.tumkur@tvs.in
TVS & Sons Pvt. Ltd.,8469 NH 17  N.B.Compound  Near Air Station  Brahmavar  576 213,Udupi,Karnataka,7022375666,alservice.udupi@tvs.in
TVS & Sons Pvt. Ltd.,8428 Plot No.24B KIADB NH4 Tamaka Industrial Area 563101,Kolar,Karnataka,9844068544,alservice.kolar@tvs.in
TVS & Sons Pvt. Ltd.,7834 Survey No 119 Opp TV Station Humnabad Road Kanpoor Village 585104,Gulbarga,Karnataka,9900261634,alservice.gulbarga@tvs.in
TVS & Sons Pvt. Ltd.,alworkshop.vellore@tvs.in; alwm.vellore@tvs.in,Vellore,Tamil Nadu,"9940178158, 9894903255","3658 Bangalore Road, Konavattam 632013"
TVS & Sons Pvt. Ltd.,8318 147/5B2 147/6A-6C Cuddalore Chittor Road 606604,Tiruvannamalai,Tamil Nadu,8056775539,alservice.tiruvannamalai@tvs.in
TVS & Sons Pvt. Ltd.,8318 147/5B2 147/6A-6C Cuddalore Chittor Road 606604,Tiruvannamalai,Tamil Nadu,8056775539,alservice.tiruvannamalai@tvs.in
TVS & Sons Pvt. Ltd.,31558 Opp Rakesh  Chhabra  Madhuban Plaza 451666,Barwani,Madhya Pradesh,7024121323,"murugan.ramaiyan@tvs.in, ashutosh.thakur@tvs.in"
TVS & Sons Pvt. Ltd.,33710 Survey No.87/1  87/3  Village Surasa   Tehsil Ghatla 456001,Ujjain,Madhya Pradesh,9589012195,"murugan.ramaiyan@tvs.in, jitendra.kumar@tvs.in"
TVS & Sons Pvt. Ltd.,"7195 29A,30/1,30/2B BYE PASS ROAD,POONAMALLEE 600056",Kanchipuram,Tamil Nadu,"9940104822, 9952064490",reception.poonamallee@tvs.in; manivannan.jayaraman@tvs.in
TVS & Sons Pvt. Ltd.,"8181 Ecomet Workshop 29A/ 30/1 20/2B By Pass road , Poonamallee 600056",Kanchipuram,Tamil Nadu,"9940123266, 9003030911",alservice.icvworkshop@tvs.in
TVS & Sons Pvt. Ltd.,7403 8/337  Kilikolloor(PO) NH208 Musaliar Complex 2nd Milestone  Kollam Sengokattai Road 691004,Kollam,Kerala,"8111889351, 8111887710","shibu.sudhakaran@tvs.in, alservice.kollam@tvs.in"
TVS & Sons Pvt. Ltd.,7452 Kinnassery PO NH47 Near Yakkara Bridge Kadunthuruthy 678707,Palakkad,Kerala,"8111887669, 8111887612",arunkumar.ir@tvs.in
TVS & Sons Pvt. Ltd.,3952 EP4 Thottada PO NH17 National Highway 104A 670007,Kannur,Kerala,"9061050867, 8111887727",vipin.raj@tvs.in
TVS & Sons Pvt. Ltd.,"39467 Anangoor, Kasaragod 671121",Kasargod,Kerala,9840803822,vigneshkumar.m@tvs.in
TVS & Sons Pvt. Ltd.,7257 29 Lasudia Mori Dewas Naka Agra Bombay Road 452010,Indore,Madhya Pradesh,"7389912637, 9589010869",alservicepdi.indore@tvs.in
TVS & Sons Pvt. Ltd.,7319 13 Govardhan Colony Jaora Road Behind Sharma Fabrication 457001,Ratlam,Madhya Pradesh,9589007493,"murugan.ramaiyan@tvs.in, Manojkumar.Pandey@tvs.in"
TVS & Sons Pvt. Ltd.,28447 Village Sameli Chaudhey Behind ITC Warehouse Four Line ByePass Road 458441,Neemuch,Madhya Pradesh,9589012876,"murugan.ramaiyan@tvs.in, vijay.gupta@tvs.in"
Automotive Manufactures Pvt. Ltd.,"Survey No.56/1,Chintal Kunta, Mansoorabad village, Saroornagar--",Ranga Reddy,Telangana,9849522030,koti.sec@automotiveml.com
T V Sundram Iyengar and Sons Limited,(ICV Sales Office)295  TRICHY ROAD  RADHA RANI THEATRE SINGANALLUR  COIMBATORE641005,Coimbatore,Tamil Nadu,9944464014,ecometsales.coimbatore@tvs.in
T V Sundram Iyengar and Sons Limited,(ICV Sales office)near AMW Showroom Madathur Sipcot Rd628008,Tuticorin,Tamil Nadu,9894353632,ecometsales.tuticorin@tvs.in
TVS & Sons Pvt. Ltd.,8296 Elanthoor East PO Variyapuram 689643,Pathanamthitta,Kerala,"8111990175, 8111889634",alservice.pattamanitta@tvs.in; vishnu.surendran@tvs.in
Automotive Manufactures Pvt. Ltd.,"NH7,  Near Jadcherla flyover,(Next to JCB Outlet)509301",Mahabub Nagar,Telangana,8008399442/8790800000,showroom.boss@automotiveml.com
TVS & Sons Pvt. Ltd.,7408 NH47 By Pass Road Ollukara Mannuthy 680655,Thrissur,Kerala,"8111887747, 8111889449",ajayakumar.av@tvs.in
T V Sundram Iyengar and Sons Limited,"ICV Sales OfficeNH 47FPV116/NearMosquePillamukk,EramalloorPO688 537",Alappuzha,Kerala,9446306277,arun.varghese@tvs.in
T V Sundram Iyengar and Sons Limited,(ICV Sales Office) CHW 15/310 A2 TVS Building Melechovva670006,Kannur,Kerala,04972727126/9447178904,c.rajasekar.tvscnr@tvssons.com
TVS & Sons Pvt. Ltd.,3652 Kaimanam Post Neeramankara 695040,Thiruvananthapuram,Kerala,"8111887695, 8111887741","Sreekumar.gk@tvs.in, alservice.trivandrum@tvs.in"
T V Sundram Iyengar and Sons Limited,(ICV Sales Office)No.10  Maaposisalai (Old Bye Pass Road)--,Vellore,Tamil Nadu,--,--
T V Sundram Iyengar and Sons Limited,(ICV Sales Office)NO.5  SAKTHI NAGAR  KARUMANDABAM TRICHY DINDIGUL MAIN ROAD620001,Tiruchirappalli,Tamil Nadu,9894640589,ecometsales.trichy@tvs.in
T V Sundram Iyengar and Sons Limited,(ICV Sales Office)No.37/2B  Bangalore to Hosur Road Near Gauveri school560068,Bangalore,Karnataka,9980818944,dasaraju.tvsblr@tvs.in
T V Sundram Iyengar and Sons Limited,(ICV Sales Office)Opposite International Airport Entry  NH Bye Pass Chackai695011,Thiruvananthapuram,Kerala,8111887642,pradeepkumar.sasidharan@tvs.in
Gulf Ashley Motors Ltd,NH 37 (AT Road)785001,Jorhat,Assam,9864081583,Arvind.Shukla@ashokleyland.com
T V Sundram Iyengar and Sons Limited,"(ICV Sales Office) No 70,Second Stage, Industrial Suburb,Yeswanthpur560022",Bangalore,Karnataka,8065475171,siva.subramanian@tvs.in
Automotive Manufactures Pvt. Ltd.,"Dupadu,Chapi Revula518675",Kurnool,Andhra Pradesh,08518287667-8 / 9949159992-9849122230 / 9701522344-8106977788-9701064690,wm.dpd-knl@automotiveml.com
Agarwal Autozone,"NH 87, Village Tularampur, Bareilly Road, near mahalachmi road,263139",Nainital,Uttarakhand,9917620003-9917620004 / 9917620002,saurabh@ucagarwalgroup.com
T V Sundram Iyengar and Sons Limited,"K V Jetty Jn.Thamallackal PO , Karuvatta , Haripad690548",Alappuzha,Kerala,8111887575 / 9656602277,predeesh.kumar@tvs.in
T V Sundram Iyengar and Sons Limited,"Siva Roller Flour Mill,NH-47,Salem Main Road, Gangalapuram, 1/467,Nallampalli(po)636701",Dharmapuri,Tamil Nadu,9500460606-9003261756 // 8220048958-9677762104,Alservice.dharmapuri@tvs.in
JRD Trucks,"41601 Udairamsar Jodhpur Road, NH-89 ,334002",Bikaner,Rajasthan,9413388829,jrdtrucks@gmail.com
Power Diesel,"41112 C/o. Rao MS Market and Parking,Salempur Mehdood ,SIDCUL Bypass Road,Bahadrabad Ã¢ÂÂ,249402",Haridwar,Uttarakhand,8958999925,ktpowerdiesel@gmail.com
Duggal Automobile Pvt. Ltd.,"Near A- B Road Toll Barrier (NH3) , Near IITS college473001",Guna,Madhya Pradesh,8458802639/9826729893/ 8458800185 / 8458800201,Serviceguna1@gmail.com
TVS & Sons Pvt. Ltd.,3647 211 NH7 South Veli Street 625001,Madurai,Tamil Nadu,"9,97,77,62,14,29,84,08,00,000","micalservice.madurai@tvs.in, Sekar.Viswanathan@tvs.in"
TVS & Sons Pvt. Ltd.,"30209 SH 48 No.387/1A, Vandalur-Walaja High road, Kilpadappai, Kundrathur town panchayath, Sriperumpudhur Taluk 601301",Kanchipuram,Tamil Nadu,9940047506,"alservice.padappai@tvs.in, alworksmanager.padappai@tvs.in"
TVS & Sons Pvt. Ltd.,22499SH 45  262/1  Krishnapuram Village  Kilambi  Vellore Main Road  Kanchipuram Guduvanchery Kanchipuram Tamil Nadu 631 551,Kanchipuram,Tamil Nadu,8754466777,"alwarranty.kanchipuram@tvs.in, jaiganesh.sundarapandian@tvs.in"
TVS & Sons Pvt. Ltd.,"8435 No.52, Madhavaram Redhills High Road, Vadaperumbakkam, Chennai, Madhavaram 600060",Tiruvallur,Tamil Nadu,8056052223,"aldwm.madhavaram@tvs.in, alworksmanager.madhavaram@tvs.in"
Future Trucks,"41872 C 24-B, Panki Site 1",Kanpur Nagar,Uttar Pradesh,"208022 0512-2216266,2216157",futuretrucksknp@gmail.com
Pooja Marketing,"Takarwada cross road, At. Jagana, Palanpur Banaskantha--",Banaskantha,Gujarat,9662100044,poojamarketing.ashokleyland@gmail.com
GRD Trucks Pvt. Ltd.,"33935 Plot No. 1152-1153, Transport Nagar, SectDealer",Palwal,Haryana,9643105580 - 9311136524,service.faridabad@grdtrucks.com;wm.faridabad@grdtrucks.com
Dhruv Motors Pvt. Ltd.,"41603 AT-Ichhapore,NH.No.6,Near Railway Crossing,Opp.A.K.Patel Camp,Hazira Road,394510",Surat,Gujarat,"0261-2796444,2797444",Chetan.patel1186@gmail.com
TVS & Sons Pvt. Ltd.,8482 NH 47B  Vishuvasapuram PO  Tirunelveli Main Road  Thovalai  Nagercoil  629302,Kanyakumari,Tamil Nadu,"9677762145, 9944419898","Sridhar.Subburam@tvs.in, seeni.shunmugam@tvs.in"
TVS & Sons Pvt. Ltd.,3650 176D/E NH7 Thiruvananthapuram Road  Vannarapettai 627003,Tirunelveli,Tamil Nadu,9677762177,"kanagaraj.v@tvs.in, remi.jeyapaul@tvs.in, alservice.tirunelveli@tvs.in"
TVS & Sons Pvt. Ltd.,3648 NH210 Thirumayam Road 622001,Pudukkottai,Tamil Nadu,"9677762149, 9944494195","micalservice.pudukottai@tvs.in, Lalit.Ashok@tvs.in"
TVS & Sons Pvt. Ltd.,8521 NH 67 SF 298/1 KovaiRoadPavithramPOAravakkurichiTaluKarur 639002,Karur,Tamil Nadu,04324-286299,"ramesh.duraisamy@tvs.in, ravichandran.solaimalai@tvs.in, Gurunathan.Sundaresan@tvs.in, accounts.karur@tvs.in, alservikarur.alservice@tvs.in"
TVS & Sons Pvt. Ltd.,"3653 No.83 , Kadalur main road, Mudaliyar pettai, Mudaliyar pettai 605004",Pondicherry,Pondicherry,0413-2359635,"venkatagiri.ramasamy@tvs.in, ravi.ram@tvs.in, Vineshkumar.Prabhakar@tvs.in"
TVS & Sons Pvt. Ltd.,7310 Vallipuram PO NH7 Karur Salem Highway  637003,Namakkal,Tamil Nadu,04286-285949,"jaikumar.anguchamy@tvs.in , ravichandran.solaimalai@tvs.in, Gurunathan.Sundaresan@tvs.in, alservicecrm.namakkal@tvs.inl, frontoffice.namakkal@tvs.in,  alwarranty.namakkal@tvs.in"
TVS & Sons Pvt. Ltd.,"7369 101 NH45 Trichy Mani Road, Salamedu 605602",Villupuram,Tamil Nadu,"04146-259334, 164","alworksmanager.villupuram@tvs.in, ravi.ram@tvs.in, Vineshkumar.Prabhakar@tvs.in, p.nachimuthu@tvs.in, saravanan.gk@tvs.in"
TVS & Sons Pvt. Ltd.,"3644 Avinashi Road, Arasur post Nilambur"" Mettupalayam Coimbatore Tamil Nadu 641047",Coimbatore,Tamil Nadu,"9944437288, 9994655399","jayakumar.selvaraj@tvs.in, Thangamani.Subramanian@tvs.in"
TVS & Sons Pvt. Ltd.,8335 241/4A NH49 Madurai Rameswaram Main Road  Manjur Panchayat 623707,Ramanathapuram,Tamil Nadu,"9944450043, 9840820913","alservice.paramakudi@tvs.in, Sekar.Viswanathan@tvs.in"
TVS & Sons Pvt. Ltd.,"25857 Kappalur Industrial Estate,NH 7,Uchapatty Village 625008",Madurai,Tamil Nadu,"9,89,49,04,87,99,84,08,00,000","micalsbu.kappalur@tvs.in, Sekar.Viswanathan@tvs.in"
TVS & Sons Pvt. Ltd.,3651 1 NH45 New Madras Highway Subramaniapuram 620020,Tiruchirappalli,Tamil Nadu,"9894668714, 9842316644","ecometservice.trichy@tvs.in, Venkatesan.Subramaniyan@tvs.in"
TVS & Sons Pvt. Ltd.,8338 Plot no 62 NH7 SIDCO Industrial Estate Krishnagiri Tamil Nadu 635001,Krishnagiri,Tamil Nadu,"9677717759, 8056279447","micalsbu.krishnagiri@tvs.in, alsales.krishnagiri@tvs.in"
TVS & Sons Pvt. Ltd.,3649 PO No 919 No 4 NH7 Omalur Main Road 636009,Salem,Tamil Nadu,"9944433647, 9944424048","Sivakumar.Muthirulan@tvs.in, Chandrasekar.Shanker@tvs.in"
TVS & Sons Pvt. Ltd.,"33033 3/542,East Garden, Panapalayam, Trichy Road, Palladam 641605",Erode,Tamil Nadu,"9003918525, 9777134185","mahadevan.ramani@tvs.in, Mohan.Jagadeesan@tvs.in"
TVS & Sons Pvt. Ltd.,8245 NH47 Salem Main Road 637301,Namakkal,Tamil Nadu,"9894754006, 9840749628","tamizhvel.krishnan@tvs.in, srinivasan.ramamoorthy@tvs.in"
TVS & Sons Pvt. Ltd.,8236 No 2/212A Elambalur Post NH45 Chennai National Highways Indira Nagar 621212,Perambalur,Tamil Nadu,"9677762171, 9840261570","Velmurugan.P@tvs.in,alsales.perambalur@tvs.in"
TVS & Sons Pvt. Ltd.,8160 Alagapuri Post NH45 Theni Periyakulam Main Road 625531,Theni,Tamil Nadu,"8754027150, 9840820913","micalsbu.krishnagiri@tvs.in, Sekar.Viswanathan@tvs.in"
TVS & Sons Pvt. Ltd.,"7877 Branch Office 2/14B, II &amp; III, Madurai Bye Pass Road,Madathur-PO. 628008",Tuticorin,Tamil Nadu,9677762143,"micalservice.tuticorin@tvs.in, alservice.tuticorin@tvs.in"
Gulf Ashley Motor Ltd,"41459 Sang: Jaklipara Mouza:Howly, PS: Barpeta Mahkuma:SaibariNH-31, Barpeta Road, Baksha(BTC),781315",Barpeta,Assam,8811048944,arindambaishya@gamltrucks.com
Yashodha Motors Pvt. Ltd.,"42389 C-149, Phase â  VII,Industrial Area,Sas Nagar,160055",Rupnagar,Punjab,9217029080 - 8872430964,service.ymmohali@gmail.com;WM.ALMOHALI@YASHODHA.IN;gm.alservice@yashodha.in
Ahuja Automobiles Pvt.Ltd,"43787 Opp Wallfort City,Ring Road No.1,Bhatagaon,NH-6,492013",Raipur,Chattisgarh,9826023558,bb@ahujaautomobiles.com ;  bhilai@ahujaautomobiles.com
Jai Ambay Automobiles,"39455 V.P.O. Rait, NH-20, 42 Miles Rait, Rait,176208",Kangra,Himachal Pradesh,8894484590,Rajdeep18464@gmail.com
Sumer Sons Autotech Pvt. Ltd.,"31460 38 Agra Milestone,NH 2,Village,Post Barari,281005",Mathura,Uttar Pradesh,9219429006 / 9258025757 / 0562-4026446 / 9258025740,sumersonsautotech_mt@yahoo.in;sumersons.service@yahoo.in
Vardhman Automotive,7846 NH6 GREAT EASTERN ROAD 490092,Durg,Chhattisgarh,98265 40999 / 99071 14110,vardhmanleyland@gmail.com
TVS & Sons Pvt. Ltd.,"41333 Near JR Fuels(IOC Petrol Pump),10th KM Opp to TVS Petrol Pump,Hosur-Krishnagiri road, Perandapally Village, NH-7   635109",Krishnagiri,Tamil Nadu,8939755777,Siva.an@tvs.in
TVS & Sons Pvt. Ltd.,"34998 Siva Roller Flour Mill,NH-47,Salem Main Road, Gangalapuram, 1/467,Nallampalli(po) 636701",Dharmapuri,Tamil Nadu,"9500460606, 9840264078","alservice.dharmapuri@tvs.in, srinivasan.ramamoorthy@tvs.in"
Visha Automotive Sales & Services Pvt. Ltd.,23732 NH 6  VIDC  Akola 444 001,Akola,Maharashtra,98509 66181,dipen@vishaautomotive.com
Power Diesel 1,"45480 Plot No. 581, Lakshman Jhula Road,Near Hemkhund Sahib Gurudwara,24920",Dehradun,Uttarakhand,8958999925,pdservicehrd@gmail.com
Pal Sales & Service Pvt. Ltd.,"39193 National Highway 1-A, Bye-Pass Road, Sunjwan Tehsil, Behind Fair Deal Motors,180011",Jammu,Jammu & Kashmir,9811042580,nishantluthra@luthragroup.net
Imperial Agro Pvt. Ltd,"45055 NH-30, Neura, Didarganj,800008",Patna,Bihar,7544002314 - 7544002322,imperialpatnaservice@gmail.com;saurabhkumar28247@gmail.com;service.imperialhcv@gmail.com
Indian Auto Wheels,"46534 B1/3, Sector-15, Gida, Sahjanwa, 273209",Gorakhpur,Uttar Pradesh,9415243690,dilshad@indiantankers.com
Gupta Automobiles,"45479 Panchamahala Chowk,PO- Karadagadia, NH 55,759132",Angul,Odisha,8599019117,gaplang9backoffice@gmail.com
Jagritri Motors 41336,"PO- Phuloguri, PS- Raha,Vill â Pubsalmara,NH37,782103",Marigaon,Assam,7663008080,Debajitsaikia2054@gmail.com
Automotive Manufacturers Pvt Ltd,"46171 Sy No,597,Plot No- 1,40,41&amp;80,81,NH-5 Road,Laxma Reddy Palem,opp: Word &amp; Deed ITI College,500035",K.V.Rangareddy,Telangana,7093467222,ws.pdap@automotiveml.com
TVS & Sons Pvt. Ltd,"51383 No.1, GST Road, Sothupakkam Village,Cheyyur Taluk, 603319",Kanchipuram,Tamil Nadu,9003258761,vineshkumar.prabhakar@tvs.in
D.R.Brijmohan & Sons (P) Ltd,"43234 Rahul weigh bridge,781101",Kamrup,Assam,9508931237,rishi@drbsons.com
Ahuja Automobiles Pvt.Ltd,"43954 Plot NO.53/3, Opp Super Fuels Pump,Vill : Umda Hathkhoj Ind.Area,490026",Durg,Chattisgarh,7611100363,works@ahujaautomobiles.com
Dhruv Motors Pvt. Ltd,"44621 Plot No. 18/4, AT+PO- Vagusna,B/S Guchko Masul,Nh No.8 Bharuch,392210",Bharuch,Gujarat,9727764833,wm.bharuch@dhruvmotors.in
Ahuja Automobiles Pvt.Ltd,"67623 Bhatapara Bypass Road,Ring Road, 493332",Raipur,Chattisgarh,7611100363,aa@ahujaautomobiles.com
Pal Sales & Service Pvt. Ltd,"63190 Nation Highway, Vill- Kallar, 185 131",Rajauri,Jammu & Kashmir,9697513846,Naveen.kumar@palsspl.net
Grover Motors Pvt. Ltd,"63188 Bathinda Malout Road,Gate No. 2. Opp Ambuja Cement Factory,151001",Bathinda,Punjab,9779455901,Devender4028@gmail.com
Pawansut Automobile India Pvt. Ltd,"63289 Jamaniya more infront , If Singh Life Care Hospital, NH 97, Baksupur,233001",Ghazipur,Uttar Pradesh,9555436667,Jainendrapratapsingh2@gmail.com
Premsons & Poddars Trucking Company Llp,"67322 Namkum Garkey,Near Ring Road, Rampur, Ranchi Tata Road, NH 33,834010",Ranchi,Jharkhand,9835940911,pptciho@gmail.com
Premsons & Poddars Trucking Company Llp,"67321 Demotand, Near SBI Bank,Ranchi Patna Road,Morangi, NH 33,825301",Hazaribag,Jharkhand,9835940911,pptciho@gmail.com
JRD Trucks,"68972 Khasra No. 1905/373,NH-65, 334002",Churu,Rajasthan,9313388829,dharniya@hotmail.com
Jai Ambay Automobiles,"63279 Near Nalti Bridge, VPO- Pharer,Tehsil â,Palampur,176064",Kangra,Himachal Pradesh,8091080555,Jaiambayautomobiles@gmail.com
Gulf Ashley Motor Ltd,"64940 Plot No. 3, Survey No.303,Mota Kapaya,On Pragpar-Mundra New Road,370415",Kachchh,Gujarat,7574810866,service.mundra@gamltrucks.com
Bharat Engineering Works,"63204 Adda Sugar Mill GT Road,143505",Gurdaspur,Punjab,0186-2244957,bharatengg.works@yahoo.com
Rajgarhia Motor,"65724 Ward No. 30,Subarnapur,Barashat Road,PO- Gola Bazar,700111",North 24 Parganas,West Bengal,9073686507,ashishrajgarhia@hotmail.com
Prakalpa Automotive Pvt. Ltd,"60491 Survey No.167/B,Hangal Road Behind GO- Gas Filling Station Haveri, 581110",Haveri,Karnataka,7022803985,service.prakalpaautomotives@gmail.com
Natraj Mobiles Ltd,"7217 Badagaon,284002",Jhansi,Uttar Pradesh,Gaurav Sengar(9415059870),natarajmobiles@gmail.com
Automotive Manufacturers Pvt Ltd,"8321 Taluka haveli,412207",Pune,Maharashtra,"91580 09066,9923436607(BD in charge) 9850809664,(Service Advisior)",sanjay.pna@automotiveml.com
Grover Motors Pvt. Ltd,"73284 Beside Mann Roadlines Barnala-Bhatinda Road,National Highway,Rampura Phull Bhatinda, Punjab,151103",Bathinda,Punjab,8288026814 - 9779455912 - 9779455913,Jagmeet@grovermotors.net
Sagar Motors,"40990 Taluka:Mohol,413213",Solapur,Maharashtra,02382-257333,service.solapur@sagarmotor.com;wm.solapur@sagarmotor.com
Rashmi Motors,"40163 ANGUL Dhenkanal ,759121",Dhenkanal,Odisha,"8,09,30,94,46,48,09,30,00,000",rashmimotors.angul@rashmigroups.com
TVS & Sons Pvt. Ltd,"71356  No.69, Srivilliputtur Road,NR Jayalakshmi Ammal Puram,Nearby Shri Padmavathi cotton Mills 744,626117",Virudhunagar,Tamil Nadu,9677762147,ravichandran.solaimalai@tvs.in
KHT Agencies Pvt. Ltd,"73347 305, 5th Main, 2nd cross, 4th Phase,Peenya Indl area,  560058",Bangalore Urban,Karnataka,9844771111,customercare@khtagencies.com
Himatsingka Next LLP,"74678 Panduki,826004",Dhanbad,Jharkhand,7070894101,khimatsingka@gmail.com
Sidhbali Motors Pvt Ltd,"74340 Moradabad,244001",Moradabad,Uttar Pradesh,9258025701,sumersons@yahoo.co.in
Gulf Ashley Motor Ltd,"75030 KARMBELLI,396105",Valsad,Gujarat,9879528942,Annathurai.M@ashokleyland.com
Navneet Motors,"74850 Banswara ,327001",Banswara,Rajasthan,9828058515,inmathur@navneetmotors.in
Satyam Solutions Ltd,"71240 Banmore,476444",Morena,Madhya Pradesh,8718809868,navneetjha@satyamsolutions.co.in
Dhruv Motors Pvt. Ltd,"44620 KAMREJ,394180",Surat,Gujarat,9727766112,service.kamrej@dhruvmotors.in;wm.kamrej@dhruvmotors.in
TVS & Sons Pvt. Ltd,"42290 Unjavelampatti,642003",Coimbatore,Tamil Nadu,9677762151 - 7550078175,alservice.pollachi@tvs.in
Himatsingka Automotives LLP,"74337 Banka,813107",Banka,Bihar,9258025701,sumersons@yahoo.co.in
Yashodha Motors Pvt. Ltd,"74257 NALAGARH,174101",Solan,Himachal Pradesh,9648511110,kamleshtripathi0111@gmail.com
JRD Trucks,"77811 6kms stone, vill - Netwala, Abhohar Bye Pass, Suratgarh Road,335002",Ganganagar,Rajasthan,9610123670,jrdtrucks@gmail.com
Anil Motors,"78281 Seoni Road, ,NH 347,Near Dainik Printing Press,480001",Chhindwara,Madhya Pradesh,8966000588,rajkjain@anilgroup.org
Lamjingba Motors Pvt. Ltd,"77822 Kiyam Siphai, Near Babu Bazar, Asian Highway 1, Thoubal,795138",Thoubal,Manipur,9774196886,herosandhya@yahoo.com
Yashodha Motors Pvt. Ltd.,"31466 NH1  GT Road  Village Mohra, Ambala city 133004",Ambala,Haryana,8607178080 (WM),serviceymambala@gmail.com
Yashwant Auto Pvt. Ltd.,"29102 238/239 SH 60 ,Aurangabad road, Pokhardi 414001",Ahmednagar,Maharashtra,"8805001111, 98815 15555, 97650 98209",jitu_5055@yahoo.co.in
Yashodha Motors Pvt. Ltd.,"40525 Vill - Mohra,NH 1,GT Road, 133 004",Ambala,Haryana,987899331,ympatiala@gmail.com
Yashodha Motors Pvt. Ltd.,"8294 Adjoining-Budha Dal Complex,Lower Mall 147001",Patiala,Punjab,9815900080,ympatiala@gmail.com
JRD Trucks,"78322 Bikaner Road,NH 89,341001",Nagaur,Rajasthan,9413388829,jrdtrucks@gmail.com
Gulf Ashley Motor Ltd.,"NH 37,Barsajai,Beharbari,Kamrup781029",Kamrup,Assam,8811048944,arindam.baishya@gamltrucks.com
Shivashish Motors India Pvt. Ltd.,"NH 58, Khasra No.89/3,Village-Mukarrabpur Palheda, Modipuram, Roorkee Raod250 110",Meerut,Uttar Pradesh,0121-2575990/9319408666/8859008068 / 8859008075-8859008066,alservice.mrt@shivashishmotors.com
T V Sundram Iyengar & Sons Pvt Ltd,"No.14,Lingapura village,Kasaba Hobli,Tumkur572107",Tumkur,Karnataka,9008264741,alservice.tumkur@tvs.in
GRD TRUCKS PVT. LTD.,"101-B, Khasara No 732-734,  J Block, Prem Nagar, Opp to Okhla Turn, M-B Road,110044",South Delhi,Delhi,011-69413416/9643105581,service.delhi@grdtrucks.com
RAHUL PAM PVT LTD,Opp. P& T Center V.P.O. Mehjchapaar Ambala Road247001,Saharanpur,Uttar Pradesh,9813100004,maheshsharma@rahulgroup.in
GOEL CARGO PVT LTD,"NH 75 PANNA ROAD,ITORA SOHAWAL485001",Satna,Madhya Pradesh,07672409601/7389917753,service.goelashokleyland@gmail.com
GULF ASHLEY MOTOR LTD,"G.T.Road, Panduki, P.O. Nag Nagar, NH  2826004",Dhanbad,Jharkhand,0326-555562,gaml.hzb@ashokleyland.com
Himgiri Automobiles Pvt. Ltd.,"Khasra No 14/21,Samalkha Village, Samalkha Crossing,Old Delhi Gurgaon Road110037",South West Delhi,Delhi,8826198602 / 011-46017123 / 8826198595-7042001088,himgiriservices.kps@gmail.com
MSY Motors,"Maranpur Khatkachak Bypass Road,PO Chandchaura PS Civil Line823001",Gaya,Bihar,6312212045,msy.leyland@gmail.com
Orissa Diesel Engines Pvt Ltd,"NH-5,Pathara Junction Bahadurpetta,Gopalpur-On-Sea,760006",Ganjam,Odisha,9437004621,oridiesel.berhampur@gmail.com
VISHA AUTOMOTIVE SALES & SERVICE,P/4 MIDC CHIKLI443001,Buldhana,Maharashtra,8308817491,vasschikhli@gmail.com
RISHI AUTO SALES pvt ltd,"NH28, Lucknow road bypass, Saadatganj224001",Faizabad,Uttar Pradesh,05278 - 236486/9792201072// 9919610000,ashishsood2011@gmail.com
SUMER SONS AUTOTECH (P) LTD,"KHASRA NO.164, NH 2, OLD FIROZABAD ROAD PHEERA KHAR, SHAHDRA282006",Agra,Uttar Pradesh,"9258025701/0562 402643/0562 – 4026418,9258025760",sumersons.service@yahoo.in
Landmark Commercial Vehicles,"Road Transport Corporate CPD Aslali Ring Road Circle, Aslali Village382427",Ahmedabad,Gujarat,079-65150046,michel.g@landmarkindia.net
T V Sundram Iyengar and Sons Limited,"29A,30/1,30/2B BYE PASS ROAD,POONAMALLEE600056",Kanchipuram,Tamil Nadu,9952064490,manivannan.jayaraman@tvs.in
T V Sundram Iyengar and Sons Limited,"NO-111-208/14,15 Jamalbettu, Kariya Kallu576104",Udupi,Karnataka,8258235522,rajesh.hosangady@tvs.in
TVS and sons,"Survey no 32, yarandi village, Mudbi cross585327",Bidar,Karnataka,7022264390 / 9686663082-9686661407,alservice.bsk@tvs.in
Rajesh Motors (MAH) Pvt Ltd,"Sangli Islampur Road, Plot No:203/3, Laxmi Phata, Sangliwadi415605",Ratnagiri,Maharashtra,9422415111,sangli@rajeshmotors.com
Gemini Motors,"NH17, Colvale Industrial Estate Bardez, Goa403513",North Goa,Goa,8322299199,geminimotorsgoa@gmail.com
Gulf Ashley Motor Ltd,"NH-27, Survey No.261/2, Village Nani Chirai, Bhacchau370140",Kachchh,Gujarat,02836 -285703/9/13,gandhidham@gamltrucks.com
MUNEER MOTORS PVT LTD,"SURVEY NO.174/A2,SANKLAPUR,BELLARY ROAD,HOSPET583201",Bellary,Karnataka,9449845765/9449845751,sm.mmpl@muneergroup.co.in
GRD Trucks,"Badkhali Pali Road, faridabad121001",Faridabad,Haryana,9810221110,construction@grdtrucks.com
Pal Sales & Services,"National Highway 1-A, Bye-Pass Road, Sunjwan Tehsil, Behind Fair Deal Motors, Jammu180011",Jammu,Jammu & Kashmir,9697513846,Service@palsspl.net
Makroo Motor Company,"Jeobehara Awantipora, Near AC Floor Mill, NH-1A192122",Ananthnag,Jammu & Kashmir,9697005913/9697005920,mmc.ashokleyland@gmail.com
Abhiyan Dealcomm Pvt Ltd,"Gaidua, NH-6, Bombay Road, PO: Hariatara, Kalaikunda721303",West Midnapore,West Bengal,8017026711,ashokleyland@sainigroups.in
Satyam Solutions Ltd,"247/1 opposite sharda solvent ltd., shivpuri guna road gram baskhedi NH 3 Shivpuri 473551473551",Shivpuri,Madhya Pradesh,8718809433 / 9977007996 / 8718809868 / 9907639871,siraj.khan@satyamsolutions.co.in
Sunrise Automobiles Pvt. Ltd,"Sunrise house, Near Ramosana circle, Mehsana–Palanpur highway384002",Mahesana,Gujarat,"9,82,50,48,29,69,92,42,00,000",sunriseauto96@gmail.com
T V Sundram Iyengar &Sons Private Ltd,"Anangoor, Kasaragod671121",Kasargod,Kerala,04994-223220 / 8111887697 / 4994223220 / 8111889535,vishnu.sethu@tvs.in
Automotive Manufacturers Pvt Ltd,"Survey No.48, Matwada village, Padipally, Opposite Aishwarya Gardens, Near Hanuman Junction, Mulugu X road506002",Warangal,Telangana,9515100958 / 9949821107-9701064690,mastan@automotiveml.com
Antony Commercial Vehicles Pvt Ltd,"GUT NO.36 , MUMBRA-PANVEL HIGHWAY, Near Dhansar Bus Stop, At Adivali-Kirwali410208",Raigarh(MH),Maharashtra,8879645013/8879645045/8879645023,Service@antonycv.com
Antony Commercial Vehicles Pvt Ltd,"Survey No. 48/3, Besides Arham LogiPark, 5 kms from Kalyan By pass, Village Valshind  Taluka Bhiwandi, Dist. Thana  Maharastra421301",Thane,Maharashtra,8879645013/8879645054/8879690252,bhiwandiservice@antonycv.com
Automotove Manufacturers Pvt. Ltd,"Survey No. 125/B,1262,126/4,126/5, Palaspe Village, Near Palaspe Bus Stop, Panvel, Dist. Raigad410206",Raigarh(MH),Maharashtra,9769206172/9769210381/9920957460,lservice.panvel@automotiveml.com
MUNEER MOTORS PVT LTD,"Survey No: 7/A/B3, MUNDARGI INDUSTRIAL AREA, Hulkundi village, Bangalore Road583101",Bellary,Karnataka,9449845775/8095554075,wmbly.mmpl@muneergroup.co.in
GULF ASHLEY MOTOR LTD,"Pitabali Chowk,PS-Sadar, NH-53,Sindurpank768005",Sambalpur,Odisha,9937047564,amitkumar.bose@ashokleyland.com
Bacchav Motors,"Gate no: 2158, NH-6,near chirmade petrol pump425309",Jalgaon,Maharashtra,"0257-6600451,9822661122/9822663355/8975813700",service@bachhavmotors.com
SHIVANG AUTOMOBILES PVT LTD.,"NH-30,Dhanupra , Ara Bhojpur-802301 Bihar802301",Bhojpur,Bihar,9955080500,shivang.leyland@gmail.com
Gulf Ashley Motor Pvt Ltd,"A.T. Road, Tarajan, Near Ganga Bibah Bhawan785001",Jorhat,Assam,8811048974,durlovkumar.satola@gamltrucks.com
Liando Auto Works,"Opposite IDBI Bank, Aizawl, Mizoram796007",Aizawl,Mizoram,9436146382,liandosale@gmail.com
Sumer Sons Autotech Pvt. Ltd.,"NH-2, Near  Manikpur Chauraha, Kanpur Highway206001",Etawah,Uttar Pradesh,9258025701/0562-4026446 / 9258325714 /  9258025740,sumersons.service@yahoo.in
Adhunik Motors,"Colonel Choumuhoni, Agartala799001",West Tripura,Tripura,9436461667,adhunikmotors.prasanta@gmail.com
Durga Motors & Co.,"NH â 66, Tallur Junction,Kundapura Taluk576201",Udupi,Karnataka,9900505818,durgamotorscompany@yahoo.com
Gulf Ashley Motor Ltd,"Main Road, Gerwani,496001",Raigarh,Chattisgarh,9111102801/9926059365,Jamal.uddin@gamltrucks.com
Gulf Ashley Motor Pvt Ltd,"BG Road, Sivasagar, Opposite ONGC.785640",Sibsagar,Assam,8811046596,zakirhussain.gaml@gmail.com
Imperial Agro Pvt Ltd,"Jasauli, Chapra Siwan Road, NH 85841226",Siwan,Bihar,9955666871/9771423295,imperial.service002@gmail.com
Sisodia Motors,"Anamika Enclave, Sharsa-Baijanathpur Main Road, Patuaha852202",Saharsa,Bihar,09771469609/09771444972,sisodiamotors@gmail.com
Prakalpa Automotive Pvt Ltd,"SR No.13, PB Road, Halaga590001",Belgaum,Karnataka,7022003000/7022700909,service.prakalpaautomotives@gmail.com
Gulf Ashley Motor Ltd,"West Kanishile, PO-Kanishile, NH-44788711",Karimganj,Assam,8811048980,malay.bharadwaz@gamltrucks.com
T V Sundram Iyengar and Sons Pvt Ltd,"Near JR Fuels(IOC Petrol Pump),10th KM Opp to TVS Petrol Pump,Hosur-Krishnagiri road, Perandapally Village, NH-7635109",Krishnagiri,Tamil Nadu,9677129185/ 9677762140,alstores.hosur@tvs.in
Jai Ambay Auto Mobiles,"V.P.O. Rait, NH-20, 42 Miles Rait, Rait176208",Kangra,Himachal Pradesh,9418569477,rakesh9387@gmail.com
Automotive Manufacturers Pvt Ltd,"Near Vishwa Hindi Vidhyalay, Yavatmal by pass, Umarimeghe, NH 7442203",Wardha,Maharashtra,9673004327,lservice.wardha@gmail.com
Gulf Ashley Motor Ltd,"Araji No. 63, Plot No.66, Ramnagar, Tengra Mod, NH-7221008",Chandauli,Uttar Pradesh,9415618526/7706871702,sitaram.singh@gamltrucks.com
Gulf Ashley Motor Ltd,"Bilaspur Main Road, Near Mahamaya Petrol Pump, Lakhanpur497116",Surguja,Chattisgarh,9617993477,sureshkumar.pradhan@gamltrucks.com
Sona Wheels Pvt.Ltd.,"East Dhantala, Fulbari, PS â Bhaktinagar, Siliguri734015",Jalpaiguri,West Bengal,9434755636/9933446109,manojkumar.slg1711@yahoo.com
Prakalpa Automotives Pvt.Ltd.,"Before Kundgol cross, Near Gabbur, 74/3,Hubballi,580023",Dharwad,Karnataka,7022700101/7022700909/0836-2218322,service.prakalpaautomotives@gmail.com
N Odedra & Co.,"Nr. Jasani T.B. Hospital, N.H.27, Kangashiyali360004",Rajkot,Gujarat,9913673333/9913183333,warranty@nodedra.com
T V Sundram Iyengar and Sons Limited,"SH 48 No.387/1A, Vandalur-Walaja High road, Kilpadappai, Kundrathur town panchayath, Sriperumpudhur Taluk601301",Kanchipuram,Tamil Nadu,9940047506 /  / 9840260549,alwm.padappai@tvs.in
Shree Automotive Pvt.Ltd,"Via Khana Junction, Post Shyamsundarpur,PS- Burdwan, NH-2713141",Bardhaman,West Bengal,8697747579/8336927946,parvaje.bapl@rediffmail.com
JRD TRUCKS,"Udairamsar Jodhpur Road, NH-89334002",Bikaner,Rajasthan,9413388829,jrdtrucks@gmail.com
Rajgarhia Motor,"A1/48, New Paharpur Road, Taratala Opp. Nature Park Kolkata â 700 066 West Bengal700 066",Kolkata,West Bengal,033-2248626,rajgharhiamotor@gmail.com
T.R. Enterprises,"MH 88,Village Bira Hamirpur, Bhaota Rd, Tehsil177 001",Hamirpur(HP),Himachal Pradesh,9459500315,trehamirpur@gmail.com
Pal Sales & Service Pvt Ltd,"Opp. Chenab Textile Mills (CTM), NH-1A,Kharote Mord,184102",Kathua,Jammu & Kashmir,9855545702,Bhupinder.saini@palsspl.net
Yashodha Motors Pvt Ltd,"Vill - Mohra,NH 1,GT Road,133 004",Ambala,Haryana,9217023080,Service.ymropar@gmail.com
Imperial Agro Pvt Ltd,"Near Chand Suraj Hospital NH-31, Papraur,851210",Begusarai,Bihar,7541817028,imperial.begusarai002@gmail.com
Dhruv Motors Pvt Ltd,"AT-Ichhapore,NH.No.6, Near Railway Crossing, Opp.A.K.Patel Camp,Hazira Road,394510",Surat,Gujarat,"9099020394 ,9727700000",wm.hazira@dhruvmotors.in
Future Trucks,"C 24-B, Panki Site 1208022",Kanpur Nagar,Uttar Pradesh,7311122261,Service.futuretrucksknp@gmail.com
T.V.SUNDRAM IYENGAR & SONS PVT LTD,"15TH KM,BANGALORE TUMKUR ROAD560073",Bangalore,Karnataka,080-22270584,Senguttuvan.Chokkalingam@tvs.in
Rahul Pam Private Limited,"Near Rohti Bridge,Patiala Road,147 201",Patiala,Punjab,9888490000 / 8054080540,rppl.punjab@gmail.com
Yashodha Motor Pvt Ltd,"Adjoining Hira palace,Patiala Road, Nabha Dist.,147 201",Patiala,Punjab,0175-5001574 / 9813100001,yashodhapta@yahoo.co.in / ymnabha@ymail.com
Andaman Automobile Agency,"3801 Portblair MB 46,Aberdeen Bazar 744 101",South Andaman,Andaman & Nicobar,9933263416,aaamohan@yahoo.co.in
Gulf Ashley Motor Ltd,"40692 Karimganj West Kanishile, PO-Kanishile, NH-44 788711",Karimganj,Assam,8811048980,malay.bharadwaz@gamltrucks.com
Automotive Manufacturers Pvt Ltd,"31825 Bhandara  NH6, Gumthara Post, PO Sarvi Rice Mills 441904",Bhandara,Maharashtra,9673004331,lservice.bhn@automotivesml.com
Jagritri Motors,"41336 / 78500 Nagaon PO:Phuloguri, PS: Raha,Nh37,Vill: Pub Salmara 782103",Marigaon,Assam,7663008080,jagritrimotors@gmail.com
Gulf Ashley Motor Ltd,75030 Vapi KARMBELLI 396105,Valsad,Gujarat,9879528942,Annathurai.M@ashokleyland.com
TVS & Sons Pvt. Ltd.,"71356 Rajapalayam No.69, Srivilliputtur Road,NR Jayalakshmi Ammal Puram, Nearby Shri Padmavathi cotton Mills 744, 626117",Virudhunagar,Tamil Nadu,9677762147,ravichandran.solaimalai@tvs.in
JRD Trucks,"68972 Ratangarh Khasra No. 1905/373, NH-65, 334002",Churu,Rajasthan,9313388829,dharniya@hotmail.com
Satvik Automobiles,"77303 Bhawanipatna Kesinga Road, Dokabahali, Near Prgoti Collage, NH-26, Bhawanipatna to Kesinga Highway 766002",Kalahandi,Odisha,9437024577,satvikautomobiles09@gmail.com
DCS Motors Pvt Ltd,"78084 Purniya Lal Balu Chowk,Barsouni,NH31 854326",Purnia,Bihar,7763802901,abhishek.rge.singh@gmail.com
Lamjingba Motors Pvt. Ltd.,"77822 Imphal Kiyam Siphai, Near Babu Bazar, Asian Highway 1, Thoubal 795138",Thoubal,Manipur,9774196886,herosandhya@yahoo.com
JRD Trucks,"77811 Sri ganganagar 6kms stone, vill - Netwala, Abhohar Bye Pass, Suratgarh Road 335002",Ganganagar,Rajasthan,9610123670,jrdtrucks@gmail.com
Jagannath Vahan Pvt. Ltd.,"79254 Silchar FCI Godown Road, Ramnagar,NH53 788003",Cachar,Assam,9435070026,jagannathvahan@gmail.com
Anil Motors,"78281 Chhindwara Seoni Road,NH 347,Near Dainik Printing Press,Madhya Pradesh  480001",Chhindwara,Madhya Pradesh,8966000588,rajkjain@anilgroup.org
Paras Trucks,"78679 Sirsa Village Moriwalla,NH 9,Hisar Delhi Road 125055",Sirsa,Haryana,8114431528,ceo.parastrucks@gmail.com
Paras Trucks,"78702 Hisar 11th KM Stone,NH 9,Delhi Bye Pass Road,Opp.Bhanu Wine Factory 125001",Hisar,Haryana,8114431528,ceo.parastrucks@gmail.com
JRD Trucks,"78322 Nagaur Bikaner Road,NH 89 Nagaur Nagaur Rajasthan  341001",Nagaur,Rajasthan,7340032288,servicenagaur.jrdtrucks@gmail.com
Automotive Manufacturers Pvt. Ltd.,"79833 Nashik Near Adgaon Octroi Check Post,Gat No. 2034/1,Next to Indian Oil petrol pump,Mumbai Agra Road, NH-3 423101",Nashik,Maharashtra,9673000873,wm.nsk1@automotiveml.com
VMT Motors,"80039 Mayapuri (Delhi) Industrial Area Phase-II,A-6,Mayapuri 110064",West Delhi,Delhi,9990616183,gangasb97@gmail.com
Gulf Ashley Motor Ltd,"Sang: Jaklipara Mouza:Howly, PS: Barpeta Mahkuma:Saibari NH-31, Barpeta Road, Baksha(BTC)--",Barpeta,Assam,9954040508,Raktimjyoti.Hazarika@ashokleyland.com
Jagritri Motors,"PO- Phuloguri, PS- Raha Vill –Pubsalmara NH37782103",Nagaon,Assam,9435220055,Debajitsaikia2054@gmail.com
Himatsingka Brothers,"Dumka Deoghar Road, Maharo814101",Dumka,Jharkhand,7761980658,ahimatsingka@gmail.com
Indian Auto Wheels,"B1/3, Sector-15, Gida, Sahjanwa,273209",Gorakhpur,Uttar Pradesh,9648938201,dilshad@indiantankers.com
ADHUNIK MOTORS,"NAGICHARA, BYE PASS ROAD, PO - RENTER'S COLONY, NH 44, AGARTALA799004",West Tripura,Tripura,9862008437,adhunik.workshop@gmail.com
Rajesh Motors (Auto) Pvt.Ltd,"Plot No.B- 259, IPIA Road,324007",Kota,Rajasthan,0744-3008246,isn@rajeshmotors.com
Rajesh Motors (Auto) Pvt.Ltd,"KhasraNo.2345, Near Tulers Bypass,200ft Road,301001",Alwar,Rajasthan,0144-3010814,opsharam@rajeshmotors.com
SHREE JAGANNATH MOTORS,"Near Raghav Petrol Pump,Bypass Road, SH-10, Bhawanipur,770020",Sundergarh,Odisha,9437047959,Sjm_rkl8@yahoo.com
Gulf Ashley Motor Ltd,"Plot No. 3, Survey No.303,Mota Kapaya,On Pragpar-Mundra New Road,370415",Kachchh,Gujarat,7574810866,service.mundra@gamltrucks.com
Rajesh Motors (Auto) Pvt.Ltd,"Choutan Road,NH-15,344502",Barmer,Rajasthan,9414057061,barmer@rajeshmotors.com
Rajesh Motors (Auto) Pvt.Ltd,"E-711 MIA,Behind Krishan dharam Kanta, 2nd  Phase Basni342802",Jodhpur,Rajasthan,0291-3048201,lsn@rajeshmotors.com
Rajesh Motors (Auto) Pvt.Ltd,"E1/41, 2nd Phase, RIICO,Police Line,Near Crossing333001",Jhujhunu,Rajasthan,01592-300801,yagvendra.singh@rajeshmotors.com
Rajesh Motors (Auto) Pvt.Ltd,"Near Indian Oil Petrol Pump,Kojra Chouraha,Chavarli, NH-27, Pindwara307023",Sirohi,Rajasthan,9001173222,sharvik@rajeshmotors.com
Jai Ambay Automobiles,"Near Nalti Bridge, VPO- Pharer, Tehsil – Palampur,176064",Kangra,Himachal Pradesh,8091080555,Jaiambayautomobiles@gmail.com
Pal Sales & Service (P) Ltd,"Nation Highway, Vill- Kallar,185 131",Rajauri,Jammu & Kashmir,9810269827,naveen.kumar@palsspl.net
Pawansut Automobile India Pvt Ltd,"Jamaniya more infront , If Singh Life Care Hospital, NH 97, Baksupur,233001",Ghazipur,Uttar Pradesh,9555436667,Jainendrapratapsingh2@gmail.com
Ahuja Automobiles,Bhatapara Bypass Road Ring Road493332,Raipur,Chattisgarh,7611100363,aa@ahujaautomobiles.com
IMPERIAL AGRO PVT.LTD.,"NH-30, Neura, Didarganj,800008",Patna,Bihar,0162-2321002,imperialagro.acc@gmail.com
JRD Trucks,"Khasra No. 1905/373, NH-65,334002",Churu,Rajasthan,9313388829,dharniya@hotmail.com
SHREE AUTOMOTIVE PVT.LTD,"KH NO:174,PLOT NO: 8 10 11 14,N H – 60, MD BAZAR731127",Birbhum,West Bengal,8335069428,shree.birbhum@shreeautomotive.com
SHREE AUTOMOTIVE (P) LTD,"NH2, Banki Danga,Opp. Ghagarburi Mandir,PO - Kalla(C.H),Asansol713340",Bardhaman,West Bengal,9830026464,ak.dubey@shreeautomotive.com
TRIVENI AUTOTECH PVT LTD,"Plot No. 1015, 1016,AT- Jharbelda,PS- Sadar, NH-6,Keonjhar758002",Kendujhar,Odisha,9437557570,sagartcpl@gmail.com
POWER DIESEL,"Plot No. 581, Lakshman Jhula Road,Near Hemkhund Sahib Gurudwara249201",Dehradun,Uttarakhand,8958999925,ktpowerdiesel@gmail.com
AHUJA AUTOMOBILES,"Plot NO.53/3, Opp Super Fuels Pump,Vill : Umda Hathkhoj Ind.Area,490026",Durg,Chattisgarh,7611100363,bhilaiparts@ahujaautomobiles.com
BHARAT ENGINEERING WORKS,"NH-1, Jammu Road,Sujanpur,145023",Gurdaspur,Punjab,"0186-2244957,9888532927",Bharatengg.works@yahoo.com
AHUJA AUTOMOBILES,"Opp Wallfort City,Ring Road No.1,Bhatagaon,NH-6,492013",Raipur,Chattisgarh,9826023558,bb@ahujaautomobiles.com
D.R.BRIJMOHAN & SONS (P) LTD,Rahul weigh bridge781101,Kamrup,Assam,9435552092,rishi@drbsons.com
GUPTA AUTOMOBILES,"Panchamahala Chowk,PO- Karadagadia, NH 55,759132",Angul,Odisha,8599019121,gaplang9backoffice@gmail.com
Premsons & Poddars Trucking Co LLP,"Demotand, Near SBI Bank,Ranchi Patna Road,Morangi, NH 33,825301",Hazaribag,Jharkhand,9835940911,pptciho@gmail.com
"Rajgarhia Motor, Unit of Onkar","Ward No. 30,Subarnapur,Barashat Road,PO- Gola Bazar700111",North 24 Parganas,West Bengal,033-65022222,ashishrajgarhia@hotmail.com
YASHODHA MOTORS PVT LTD,"C-149, Phase – VII,Industrial Area,Sas Nagar (Mohali)160055",Rupnagar,Punjab,9872832427,ympatiala@gmail.com
Grover Motors Pvt Ltd,"Bathinda Malout Road,Gate No. 2. Opp Ambuja Cement Factory151001",Bathinda,Punjab,9779455901,Devender4028@gmail.com
AUTOMOTIVE MANUFACTURES PVT LTD.,"Sy No,597,Plot No- 1,40,41&80,81,NH-5 Road,Laxma Reddy Palem opp: Word & Deed ITI College500035",K.V.Rangareddy,Telangana,9652253962,mastan@automotiveml.com
DHRUV MOTORS INDIA PVT LTD,"Plot No. 18/4, AT+PO- Vagusna,B/S Guchko Masul,Nh No.8392210",Bharuch,Gujarat,0261-2796444,wm.kamrej@dhruvmotors.in
Automotive Manufacturers Pvt Ltd,"R.S.No.154 & 155,Mavullamma Street,Undi By Pass Road,Near Raju Gari Statue,West Godavari Dist534202",West Godavari,Andhra Pradesh,9701064690,mastan@automotiveml.com
TV Sundram Iyengar & Sons Pvt Ltd,"No.69, Srivilliputtur Road,NR Jayalakshmi Ammal Puram, Nearby Shri Padmavathi cotton Mills 744,626117",Virudhunagar,Tamil Nadu,9677762147,ravichandran.solaimali@tvs.in
GRD Trucks Pvt Ltd,"D1, Okhala Phase-1, Industrial Area, New Delhi110020",South Delhi,Delhi,9810099188,mayank@grdtrucks.com
KHT Agencies Pvt.Ltd,"305, 5th Main, 2nd cross, 4th Phase, Peenya Indl area,560058",Bangalore,Karnataka,9845073000,customercare@khtagencies.com
MSY Motors,"NH-2, Ram Khelawan Nagar Near San Bridge824112",Aurangabad(BH),Bihar,7070894571,msyleyland_aurg@gmail.com
Himatsingka Next LLP (3S),"GT Road, Panduki, Barwadda,PO- Nagnagar,826004",Dhanbad,Jharkhand,7070894101,khimatsingka@gmail.com
TV Sundram Iyengar & Sons Pvt Ltd,"129/2A, Perode Village, Chittode Post, NH 544,638102",Erode,Tamil Nadu,9894902807,t.kumaresan@tvs.in
Yashodha Motors Pvt Ltd,"Opp. Hotel Gainz, Nalagarh-Baddi Road, Vill-Bagbania174101",Solan,Himachal Pradesh,9648511110,kamleshtripathi0111@gmail.com
Gulf Ashley Motors Pvt Ltd,"survey No. 151/1(1), Near Shere-e Punkaj hotel, Opp to Shivdhara Marba World, Karambeli NH-8,396105",Valsad,Gujarat,9879528942,Annathurai.M@ashokleyland.com
D.R.Brijmohan & Sons Pvt. Ltd,"Rahul Weigh Bridge, chowki Gate NH37,781101",Kamrup,Assam,9435552092,rishi@drbsons.com
Suvidha Movers Pvt Ltd,"Gata No.581/578, Sayira, Meethepur,Kada212207",Kaushambi,Uttar Pradesh,9648511110,kamleshtripathi0111@gmail.com
Sidhbali Motors Pvt Ltd,"8km Stone, Kashipur Tirha, Rampur Road,244001",Moradabad,Uttar Pradesh,9258025701,sumersons@yahoo.co.in
Himatsingka Automotives LLP,"Katiyama mod, Hansdiah - Bhagalpur Road, Rajoun813107",Banka,Bihar,7280006101,gaurav@hallp.in
Abhiyan Dealcomm pvt Ltd,"NH-60, Morgram-panagarh state highway, Mallarpur731216",Birbhum,West Bengal,9926126443,sainimallarpur@gmail.com
Navneet Motors,Banswar -Udaipur Main Road327001,Banswara,Rajasthan,9828058515,inmathur@navneetmotors.in
KHT Elite (KHT Agencies Pvt.Ltd),"7A, Devasandra Industrial Area, survey No.35, Mahadevpura560036",Bangalore,Karnataka,,adit_morzaria@khtmotors.com
T V Sundram Iyengar & Sons Pvt Ltd,"92/2B4C & 92/2B5, Near Selvam College Bus Stop, Opp. Relaince Petrol Pump, Pappinaykkanpatti637003",Namakkal,Tamil Nadu,,gurunathan.sundaresan@tvs.in
Pawansut Automobiles India Pvt. Ltd.,"80498 Lucknow (Bkt) Milestone Delhi-476 KM, Sitapur Road, Khasra No.842, Gram Rampur Behera, Bakshi Ka Talab,2    226 202",Lucknow,Uttar Pradesh,9918001122,info.lko@psauto.in
Rajesh Motors (Auto) Pvt. Ltd.,"80462 Kotputli Near Devnarayan Mandir, N.H.-8, Kotputali",Jaipur,Rajasthan,9414015015,praveen.sharma@rajeshmotors.com
Rajesh Motors (Auto) Pvt. Ltd.,"80969 Sanchore Dhamana, Sanchore  343 041",Jalor,Rajasthan,9414015015,praveen.sharma@rajeshmotors.com
Rajesh Motors (Auto) Pvt. Ltd.,"80808 Chandwaji Vill- Surendrapura, NH 8, Khasra No. 667 & 675, TEHSIL Chandwaji, Amer Road, Chandwaji,  303104",Jaipur,Rajasthan,9414015015,praveen.sharma@rajeshmotors.com
