"Dealer Name","Dealer Type","Address","City","State","Pincode","Contact","Email"
"A M Suzuki","Domestic Bike Dealers","Showroom / Workshop: Ward No-15, Holding No-86/410, Dag No 2407, Mouja- Harishpur, Basirhat, Maitrabagan -743412, West Bangal","North 24 Parganas","West Bengal","743412","8637082229, 9064354004","basirhat.amauto.sales@suzukidealers.net"
"AADARSH SUZUKI","Domestic Bike Dealers","15, A/2 Ravivar Peth, Akkalkot Road, Solapur- 413006, Maharashtra","Solapur","Maharashtra","413006","9922279911 (Partner), 9284000039 (SM), 9284000041 (WM), 7499915761 (SP)","solapur.aadarsh.sales@suzukidealers.net"
"AAKASH SUZUKI","Domestic Bike Dealers","Sr. No. 496/A-2 (North Side), Near Gurudwara, Dhule - 424001, Maharashtra","Dhule","Maharashtra","424001","02562 297090 / 7722013990 / 7447767990 (Showroom) / 7447768990 (Workshop)","dhule.newaakash.sales@suzukidealers.net"
"AARADHYA SUZUKI","Domestic Bike Dealers","Plot No.5 Survey No.301 A/6, Opp. Xaviers School, Nashik , Pune Highway, Nashik -422101, Maharashtra","Nashik","Maharashtra","422101","9890164787 /7066753770 /9730732436  /9594124943","nashik.aaradhya.sales@suzukidealers.net"
"ABHISHEK SUZUKI","Domestic Bike Dealers","107/63 A Mauza, Dewai Govindpur Ryytwari, Abhishek Enterprises, Mul Road, Chandrapur-442401, Maharashtra","Chandrapur","Maharashtra","442401","Sales: 9890293525 , 9022458721<br/>
Service: 9022464381","chandrapur.abhishek.sales@suzukidealers.net"
"ABT","Domestic Bike Dealers","416-A, Anna Salai, (Opp. YMCA) Nandanam,Chennai - 600034","Chennai","Tamil Nadu","600034","044- 43150009 / 10 / 11, 9944402327 , 9566657639,9500996052,9500998036, 9677774532","chennai.abt.sales@suzukidealers.net"
"ACE KUDALE SUZUKI","Domestic Bike Dealers","Vishrantwadi, Airport Road, Near Road No. 5 & 6, Tingre Nagar, Vishrantwadi Pune- 411015,  Maharashtra","Pune","Maharashtra","411015","7722091812(SM) / 9552904458(WM) / 7722021843(SP)","pune.acekudalecar.sales@suzukidealers.net"
"ACTIVE SUZUKI","Domestic Bike Dealers","Krishna Enclave, TPS II, Jehan Circle, Gangapur Road, Nasik-422005","Nashik","Maharashtra","422005","Dealer Principal: 9921009955 
<br/>
Sales: 7499918299, 7499918288, 7499918266, 0253-2347834
<br/>
Service: 9765342644, 9822404534, 7499918255","nashik.saipooja.sales@suzukidealers.net"
"Akshar Suzuki","Domestic Bike Dealers","Showroom: Shubh Arcade Shop No. 1, CTM Cross Road, Ahmedabad -380007, GujaratWork Shop: Opp.  Jalaram Party Plot, Nathalal Estate, Near Jasodanagar, Highway Road, Ahmedabad -380008, Gujarat","Ahmedabad","Gujarat","380007","7925855558, 7925855557, 8154094949, 8156094949","ahmedabad.aksharkrupa.sales@suzukidealers.net"
"Akshay Suzuki","Domestic Bike Dealers","Bara Gas Godam, Near Bhadrika HERO Motors Agency, Allahabad Road, Urrahat, Rewa Distt., REWA (Madhya Pradesh) PIN -486001","Rewa","Madhya Pradesh","486001","9425824843, 9425184836","rewa.akshay.sales@suzukidealers.net"
"ALFA SUZUKI","Domestic Bike Dealers","1-7 shaheed gunj,karangar Road,Srinagar below Jsk bank-190001","Srinagar","Jammu & Kashmir","190001","9419051101 (MD), 9070118054","alfaautomobilespvtltd@gmail.com"
"ALIGARH SUZUKI","Domestic Bike Dealers","Banna Devi, G.T. Road, Aligarh, Uttar Pradesh-202002","Aligarh","Uttar Pradesh","202002","9359741721/0571-3258844/9897315729,9997827401","aligarh.competent.sales@suzukidealers.net"
"ALWAR SUZUKI","Domestic Bike Dealers","A-15, Ashok Vihar, Karamchari Colony, Alwar-301001, Rajasthan","Alwar","Rajasthan","301001","9314168810 /9351228264  8940887766 /9928215910  /8290255280","Alwar.ARJmotors.sales@suzukidealers.net"
"ALY SUZUKI","Domestic Bike Dealers","Door No.14/674/1, SY No.698/P, Guruvayoor Road, Puzhakkal Padam, Thrissur, Kerala-680001","Thrissur","Kerala","680001","8111996636 (Sales), 8111996655 (Service), 8111996626 (Spares)","thrissur.hp.sales@suzukidealers.net"
"AMRUTH SUZUKI","Domestic Bike Dealers","14-309,310, Sri Ram Enclave, Railway Feeder Road, Anantapur-515001","Ananthapur","Andhra Pradesh","515001","9618839666, 9154121351, 9154121352","anantpur.amruth.sales@suzukidealers.net"
"ANAND SUZUKI","Domestic Bike Dealers","Showroom :- E 1, Bali Nagar, New Delhi 110015workshop- 5/8, Kirti Nagar Industrial Area, New Delhi","West Delhi","Delhi","110015","SHOWROOM - 9810001568, 01147597504, 01125105287 / WORKSHOP - 9810001479, 01145073500","delhi.anandswaroop.sales@suzukidealers.net"
"AONE SUZUKI","Domestic Bike Dealers","Plot No-35A, BP, Neelam-Bata Road, NIT Faridabad - 121001","Faridabad","Haryana","121001","8750300099 / 8750300090","faridabad.aone.sales@suzukidealers.net"
"APOORVA SUZUKI","Domestic Bike Dealers","Apporva Motors Satanpur Mandi Road Farukhabad-209625","Farrukhabad","Uttar Pradesh","209625","9451880650 /9044496958 /8874315988  /9369652106","farrukhabad.apoorva.sales@suzukidealers.net"
"ARADHYA SUZUKI","Domestic Bike Dealers","VPO-Katharua, NH-19, Aurangabad, Bihar-824101","Aurangabad(BH)","Bihar","824101","9471003271 (MD), 9608601125 (SM), 9608601126 (WM), 9608601127 (SP)","aurangabad.pramila.sales@suzukidealers.net"
"Arihaan Suzuki","Domestic Bike Dealers","Sr no.- 31/2/3/2, Hingane Khurd, Pune- Sinhgad Road, Pune- 411051,  Maharashtra","Pune","Maharashtra","411051","9175631068, 7276466669","pune.arihaan.sales@suzukidealers.net"
"ARIHANT SUZUKI","Domestic Bike Dealers","10595, P.B. Road Belgaum- 590010 Karnataka","Belgaum","Karnataka","590010","0831-2471047/ 2471326/ 0831-4212560(Fax)/ 9341101066/ 9343636307 / 9343636303/ 9343564729","belgaum.arihant.sales@suzukidealers.net"
"Arora Suzuki","Domestic Bike Dealers","Amau, Tanakpur Road, Khatima, Udham Singh Nagar-262308, Uttarakhand","Udham Singh Nagar","Uttarakhand","262308","9675696939","khatima.sriramsai.sales@suzukidealers.net"
"ARSAM SUZUKI","Domestic Bike Dealers","C-919,Awas Vikas Colony,Unnao-209801,Uttar Pradesh","Unnao","Uttar Pradesh","209801","9839831113 /9839386000 /7275900127  /7275795511 /9554677771/2/3/4","unnao.sarojani.sales@suzukidealers.net"
"ARUN SUZUKI","Domestic Bike Dealers","Near Bade Nahar, Bathena Nahar, Dhamtari, Chhattisgarh Pin Code 493773.","Dhamtari","Chattisgarh","493773","8889999166 /8120938621 /9754922314  /8236966910","dhamtari.arunvehicles.sales@suzukidealers.net"
"ARYAN SUZUKI","Domestic Bike Dealers","Sr. No. 127/2 + 3, Baner Mahalunge Road, Opp Kapil Complex, Baner, Pune-411045, Maharashtra","Pune","Maharashtra","411045","Sales- 9325201620 / Service-020- 65301620 / Spares-020-65401620","pune.aryan.sales@suzukidealers.net"
"Arzoo Suzuki","Domestic Bike Dealers","N. H. 8, bye pass chowk, Motihari-845401, Bihar","East Champaran","Bihar","845401","7280999665","motihari.arzoo.sales@suzukidealers.net"
"AUTO CENTRE SUZUKI","Domestic Bike Dealers","D-58/30 C, Sigra, Varanasi-221010","Varanasi","Uttar Pradesh","221010","9453309886, 0542-2360707 / 2363107 Fax,2361087","ggr.sales@suzukidealers.net"
"Avadh Suzuki","Domestic Bike Dealers","Near Avadh University, Allahabad Road, Distt. Faizabad - 224001, Uttar Pradesh","Faizabad","Uttar Pradesh","224001","9919490111(Partner), 8115033428(SM),9452700312(WM),8574710376(SP)","faizabad.avadhpuri.sales@suzukidealers.net"
"AVI SUZUKI","Domestic Bike Dealers","Guru Nanak Market, Subhash Gate, Near Meera Ghati Chawk, Karnal - 132001, Haryana","Karnal","Haryana","132001","9,417,033,116,904,190,000,000,000,000,000,000,000,000","karnal.avitaj.sales@suzukidealers.net"
"AYAN SUZUKI","Domestic Bike Dealers","Showroom & Workshop :- Fram Ji ka bada, Near Raja Cycle Circle, Arya Nagar, Srinagar Road, Ajmer – 305001,  Rajasthan","Ajmer","Rajasthan","305001","9414332269, 9983332269, 9829806532, 9214208965","ajmer.ayan.sales@suzukidealers.net"
"Baba Suzuki","Domestic Bike Dealers","Building No.545, Kashipur Road Near Sanjivani Hospital, Rudrapur Distt. Udham Singh Nagar - 263153, Uttarakhand","Udham Singh Nagar","Uttarakhand","263153","7900407407, 7900500000","anjaneya.sales@suzukidealers.net"
"BANSAL SUZUKI","Domestic Bike Dealers","Opp. Harichar Bagichi, Jaghina Gate, Circular Road, Near Neetan Hospital, Bharatpur - 321001, Rajasthan","Bharatpur","Rajasthan","321001","9829527841, 9414023437, 05644-221600","bharatpur.bansal.sales@suzukidealers.net"
"BARDDHAMAN SUZUKI","Domestic Bike Dealers","Khatian no. 1112, Plot no. 1062, G. T. Road, Near Health City, Nawabhat, Burdwan - 713104, West Bengal","Bardhaman","West Bengal","713104","9434002425/ 0342-2646275/9126322535","burdwan.ppauto.sales@suzukidealers.net"
"BASTAR SAZUKI","Domestic Bike Dealers","Plot No. 60, Dalpat Sagar Road, rajmahal Parisar Opp. Chamber of commerce 494001, Jagdalpur, Chattishgarh","Bastar","Chattisgarh","494001","9425261207 /8871058992 /9425596420  /7389561238","jagdalpur.bastar.sales@suzukidealers.net"
"BEDI SUZUKI","Domestic Bike Dealers","Opposite P N B Bank, Kather, Solan Bye Pass, Solan - 173212 Himachal Pradesh","Solan","Himachal Pradesh","173212","9857500002 / 9217550022 /9569449494  /9041696541","urban.sales@suzukidealers.net"
"BELLAD SUZUKI","Domestic Bike Dealers","Beside Hans Hotel, P.B.Road, Vidyanagar, Hubli-580031","Dharwad","Karnataka","580031","9880285047/9880297023/9880285015 / 9880285011 / 98802850320 / 9880285048 / 0836-2374551 / 2374896","hubli.bellad.ceo@suzukidealers.net"
"Bhagalpur Suzuki","Domestic Bike Dealers","Hussainabad Bousi Road Bhagalpur - 812005 Bihar","Bhagalpur","Bihar","812005","9431214993 /9955709530 /95344070707  /8294022345 /0641-2407715","bhagalpur.arshparwaz.sales@suzukidealers.net"
"BHAGIRATH SUZUKI","Domestic Bike Dealers","Plot No.90, 'Swarajya'Indraprastha Nagar,Madhavnagar Road,Sangli-416416","Sangli","Maharashtra","416416","9822417999/9423868999/ 0233-2321999/2327999/230099(Fax)","sangli.bhagirath.sales@suzukidealers.net"
"BHAGIRATHI MOTORS","Domestic Bike Dealers","CTS No-1914 A/2D, Ward-III, Station Road, Bijapur-586104,Karnataka","Bijapur(KAR)","Karnataka","586104","09448142188, 9900258889 / 9900258888 / 9900258894 / 08352- 259310 telefax","bijapur.bhagirathi.sales@suzukidealers.net"
"BHAGVATI SUZUKI","Domestic Bike Dealers","Opposite Dhwarkesh Complex,Motipura Himmatnagar,Distt- Sabarkantha,gujrat-383001","Sabarkantha","Gujarat","383001","9825076416 /9427618491 /9925002298  /8758445107 02772 - 229514/ 229515","bhagvati.sales@suzukidealers.net"
"BHARAT SUZUKI","Domestic Bike Dealers","Shop No. 1 & 2, Mihir Apartments,Bhairobanala, Wanwadi, Hadapsar, Pune- 411040, Maharashtra","Pune","Maharashtra","411040","9422000099, 9371092420, 020-26819999/785991188","pune.bharat.sales@suzukidealers.net"
"Bharat Suzuki","Domestic Bike Dealers","Punay Two Wheelers Private Limited, Delhi Road, Rewari-123401, Haryana","Rewari","Haryana","123401","9215044112, 9215044114","rewari.punay.sales@suzukidealers.net"
"BHAWANI SUZUKI","Domestic Bike Dealers","Chak dhanauti,NH-19,Mahatma Gandhi Setu road,opp-Bhawani petrol pump,Near Paswan Chowk,Hajipur-844101","Vaishali","Bihar","844101","9835295645 /9430484333/9470841605 /9162605333  /9771802505 /00224-275001 S/R/295158","hajipur.bhawanimaa.sales@suzukidealers.net"
"BHAWNIT SUZUKI","Domestic Bike Dealers","Showroom / Workshop: No. 1679/566/1, PID No. 20-3-2-T9, (Old number 1679/566/1), B.B. Road,  Near Indian Oil Petrol pump, Chikkaballapur-562101, Karnataka","Chikkaballapur","Karnataka","562101","8088137199","chikkaballapur.bhawnit.sales@suzukidealers.net"
"Bokaro Suzuki","Domestic Bike Dealers","Shop: M-4, City Centre, Sector-4, Bokaro Steel City-827004, JharkhandWork shop: S-21, City Centre, Sector-4, Bokaro Steel City-827004, Jharkhand","Bokaro","Jharkhand","827004","06542-233077/232576,9431127441","uuea.sales@suzukidealers.net"
"BRAJ SUZUKI","Domestic Bike Dealers","Vishvasakha Colony, Bistan Road, Khargone-451001, Madhya Pradesh","West Nimar","Madhya Pradesh","451001","9687032221 (MD), 9691441199 (SM), 9806707177 (WM), 7359830023 (SP)","khargone.brajshree.sales@suzukidealers.net"
"Brijwasi Suzuki","Domestic Bike Dealers","Showroom: 68 Maholi, Near Kiran Hospital, NH-2, Mathura - 281004 Workshop: 68 Maholi, Near Kiran Hospital, NH-2, Mathura - 281004","Mathura","Uttar Pradesh","281004","9897518971, 9412727941","mathura.gsautomotive.sales@suzukidealers.net"
"CAPITAL SUZUKI","Domestic Bike Dealers","Bailey Road, Sagunan More, Danapur, Patna, Bihar-801503","Patna","Bihar","801503","7280014500; 9199900900; 7280014506","patna.narayan2.sales@suzukidealers.net"
"CHAWLA SUZUKI","Domestic Bike Dealers","Khasra No 310/6, Mhow Road, Ratlam- 457001, Madhya Pradesh.","Ratlam","Madhya Pradesh","457001","9425333244  /9424709712  /9584912521  9893398330","ratlam.chawla.sales@suzukidealers.net"
"CHHINDWARA SUZUKI","Domestic Bike Dealers","M/s Fast Track Wheels Pvt. Ltd. Beside Makka Masjid, Sukludhana, Near Railway Station, Seoni Road, Chhindwara (M.P) - 480001","Chhindwara","Madhya Pradesh","480001","9425005843, 9301226340 , 9301226348, 9302226941","chhindwara.fasttrack.sales@suzukidealers.net"
"CHILUPURI SUZUKI","Domestic Bike Dealers","15-2-27,Mulug Road,Warangal,A.P.-506002","Warangal","Telangana","506002","9849140300/ (0870)-2530504","warangal.chilupuri.sales@suzukidealers.net"
"CHITRA SUZUKI","Domestic Bike Dealers","Plot No. 92, Shantinagar, Opp. Gayatri Mandir, Rajkot Highway, Bhavnagar, Pin-364003, Gujarat","Bhavnagar","Gujarat","364003","9824991219, 9428231516 , 02782447298/99","bhavnagar.vaishali.sales@suzukidealers.net"
"CJ SUZUKI","Domestic Bike Dealers","Showroom: 7/1C, Hazra Road, Ground floor, Kolkata-700026, West Bengal / Wokshop: 20/1/1, Chetla Road, Kolkata-700027, West Bengal","Kolkata","West Bengal","700026","Sales: 9330119592, (033)4600-4045, Service : 9883295941,9883823463, Spares: 9883820730","kolkata.chunnilal.sales@suzukidealers.net"
"DAIVIK SUZUKI","Domestic Bike Dealers","Site Survey No.352/20, Shiva Garden, NH4, Hoskote-562114, Bangalore, (Karnataka)","Bangalore Rural","Karnataka","562114","9741162318  /9449046049 /8123702625  /8904401322","hoskote.lakshmi.sales@suzukidealers.net"
"Darshan Suzuki","Domestic Bike Dealers","KH. No.57/14, 58/14, 59/14, 60/14, 61/14, P.H No.41, Kourinbhata, G. E. Road, Ward No.19, Rajnandgaon- 491441, Chhattisgarh","Rajnandgaon","Chattisgarh","491441","7067906100, 9770601133","rajnandgaon.darshan.sales@suzukidealers.net"
"DECCAN SUZUKI","Domestic Bike Dealers","1196/B, Shrishti Chambers, Ghole Road, Shivaji Nagar, Pune- 411004","Pune","Maharashtra","411004","Sales: 7499918300, 7499918301
<br/>
Service: 7499918311, 7499918322, 7499918344","pune.saipooja.sales@suzukidealers.net"
"DECCAN SUZUKI","Domestic Bike Dealers","Deccan House, House no. 26/593/1, Near Danyaneshwar Mandir, Aurangabad Road, Osmanabad - 413501","Osmanabad","Maharashtra","413501","9850141000  /9423717374 /8007077765  /9604067064","osmanabad.deccan.sales@suzukidealers.net"
"DELUXE SUZUKI","Domestic Bike Dealers","1,2,3,4,DELUXE BAZZAR,BEED BYPASS,DEOLAI CHOWK,AURANGABAD-431001","Aurangabad","Maharashtra","431001","S/R-PH.NO.0240-2654477,9168699771/2/3 W/S-PH.NO.9168699774/5","aurangabad.deluxebikes.sales@suzukidealers.net"
"DEV SUZUKI","Domestic Bike Dealers","College Road Corer, main road Kareli, Dist Narshingpur - 487221","Narsinghpur","Madhya Pradesh","487221","Showroom - 07793-271525 , 9399920024 / Workshop - 9407375919","kareli.devvehicles.sales@suzukidealers.net"
"DEVANAND SUZUKI","Domestic Bike Dealers","Plot No.5&7, CTS No.859/6 & 859/7, Sy.No.22/2, Vakkalgera, Gunj Road, Gulbarga-585104","Gulbarga","Karnataka","585104","09448042449; 8762047999 /9620683607 SM/7829533303 WM8050162221","gulbarga.devanand.sales@suzukidealers.net"
"DEVBHOOMI SUZUKI","Domestic Bike Dealers","7, Shashtri Nagar, Haridwar Road, Rishikesh-249201, Uttarakhand","Dehradun","Uttarakhand","249201","9897273265; 9897273282","rishikesh.devrakshak.sales@suzukidealers.net"
"Dharam Suzuki","Domestic Bike Dealers","A-12, Aman puri, Nangloi, Delhi - 110041","West Delhi","Delhi","110041","9911401401 , 9911402402 , 9311665957","delhi.dharamautoworld.sales@suzukidealers.net"
"DIHINGIA SUZUKI","Domestic Bike Dealers","Town Bantow, P.O. Khelmati Near Assamiya News Paper Office North lakhimpur-787031,Assam","Lakhimpur","Assam","787031","9957251456 /7896524173 /8876118256  /9954762770","lakhimpur.dihingia.sales@suzukidealers.net"
"DINDIGUL SUZUKI","Domestic Bike Dealers","34 A, New Agraharam, Palani Road, Dindigul-624001","Dindigul","Tamil Nadu","624001","9443029565, 9443709565, 0451-2430456,9442109565,0451-2432807 Fax","dindigul.vvr.sales@suzukidealers.net"
"DOLPHIN SUZUKI","Domestic Bike Dealers","Gala no. 10, 11 & 12, Raza Estate, Opp. BMC School, Andheri Ghatkopar Link Road, Asalfa Village, Sakinaka, Mumbai - 400072, Maharashtra","Mumbai","Maharashtra","400072","9323430756, 9920301097, 022-25160100, 25160101, Fax-022-25160102","mumbai.dolphin.sales@suzukidealers.net"
"DOON SUZUKI","Domestic Bike Dealers","174, Haridwar Road, Next to Tula Palace, Dehradun, Uttrakhand-248001","Dehradun","Uttarakhand","248001","9897006128, 9027536128, 0135-2623366","dehradun.vbauto.sales@suzukidealers.net"
"DREAM SUZUKI PUNE","Domestic Bike Dealers","6, Mahatma Gandhi Road, Pune - 411001, Maharashtra, Pune","Pune","Maharashtra","411001","9921525555, 9657777569, 9767156666, 020-26054705","pune.dreambikes.sales@suzukidealers.net"
"Drona Suzuki","Domestic Bike Dealers","Raje Babu Road BulandshahrUttar Pradesh-203001","Bulandshahr","Uttar Pradesh","203001","9837886644, 8899122227","bulandshahr.droona.sales@suzukidealers.net"
"DURGA BHAVANI SUZUKI","Domestic Bike Dealers","3/26 Sitaram nagar Nh7 Krishnagiri main road hosur-635109","Krishnagiri","Tamil Nadu","635109","04344-246555 fax/09443240876,246116","hosur.durgabhavani.sales@suzukidealers.net"
"EASTERN SUZUKI","Domestic Bike Dealers","Thangmeiband khoyathong Road,Imphal-795001","Imphal West","Manipur","795001","Sales - 7085831690 / Spares- 8731017382 / Manager - 9077010028","imphal.eastern.sales@suzukidealers.net"
"ELITE SUZUKI","Domestic Bike Dealers","Showroom: No.208, Avadi-Poonamailee Road, Nehru Bazzar, Avadi, Chennai-600054, TamilNadu Workshop: No.27, Periyar Street, Kannigapuram,  Avadi, Chennai-600054, TamilNadu","Tiruvallur","Tamil Nadu","600054","9841677714 (MD)","chennai.bnb.sales@suzukidealers.net"
"ERISH SUZUKI","Domestic Bike Dealers","Sambalpur Road, Balangir, Odisha, Pin- 767025","Balangir","Odisha","767025","9438777117 (MD), 9681742777 (SM), 8249254528 (WM), 9348368200 (SP)","balangir.erish.sales@suzukidealers.net"
"ETAWAH SUZUKI","Domestic Bike Dealers","320, Katra Bal Singh, Near Gurudwara, Farrukhabad Crossing, Etawah-206001","Etawah","Uttar Pradesh","206001","9219429429 / 9219608480/82 / 9219402201, 9219607031","etawah.tripathi.sales@suzukidealers.net"
"Express Suzuki","Domestic Bike Dealers","Laipuli A.T. Road, Dist-Tinsukia, Assam-786183","Tinsukia","Assam","786183","7392929216 / 0374-2312245 / 2312246","tinsukia.express.sales@suzukidealers.net"
"GANESH SUZUKI","Domestic Bike Dealers","Plot No. 13, Survey No. 46A, Barshi Road, MIDC Corner 1, Latur-413512","Latur","Maharashtra","413512","9423776085,02382-221199(tele fax)/222288","latur.anilmotors.sales@suzukidealers.net"
"GANGANAGAR SUZUKI","Domestic Bike Dealers","B-3,4,5, Rohit Udyog Premises, NH-15, Ganganagar-335001","Ganganagar","Rajasthan","335001","09414090250, 0154-2474425 Telefax, 9413377425","ganganagar.shriganga.sales@suzukidealers.net"
"GOD SPEED MOTORCYCLE","Domestic Bike Dealers","God speed Motorcycle, Near Udeshna Cinema,G.S. Road, Dispur, Guwahati - 781006","Kamrup","Assam","781006","0361-2228746/ 2226022/9954197900/0,2228745 Fax,9954196373","guwahati.godspeed.sales@suzukidealers.net"
"GOLU SUZUKI","Domestic Bike Dealers","(Near Maa Bindhyawasini Petrol, Pump), NH-31, Ward No. 04, Begusarai-851101, Bihar","Begusarai","Bihar","851101","9431211525, (06243) 241552, 240762(Telefax)","begusarai.golu.sales@suzukidealers.net"
"GYANI SUZUKI","Domestic Bike Dealers","Bank of Baroda building, Nautanwa road, Anand Nagar, Maharajganj-273155 U.P.","Maharajganj","Uttar Pradesh","273155","9984262511 / 9792102594","maharajganj.gyani.sales@suzukidealers.net"
"HABIBUR SUZUKI","Domestic Bike Dealers","Showroom & Workshop: V.P.O. Umarpur(Talai), P. O. - Ghorshala, P.S. Raghunathganj, Mouza Sadhua, Distt. Murshidabad-742235, West Bengal","Murshidabad","West Bengal","742235","9647499555, 9647440845","raghunathganj.habibur.sales@suzukidealers.net"
"HASSAN SUZUKI","Domestic Bike Dealers","No-980,opp S.D.M. Ayurvedic Collage, B.M.Road, Thaneerhalla Extension,Hassan,Karnatka-573201","Hassan","Karnataka","573201","9845862362 /9964024891 /9972964432  /8095357355 /08172-257700","hassan.nischay.sales@suzukidealers.net"
"HEDGE SUZUKI","Domestic Bike Dealers","Showroom / Workshop: No.1/106B, Vengalloor P.O., Thodupuzha- 685584, Idukki District, Kerala","Idukki","Kerala","685584","9072333566, 9072333561","thodupuzha.hedge.sales@suzukidealers.net"
"HEERA SUZUKI","Domestic Bike Dealers","S.P. Height, Near New Sher-e-Punjab Hotel, Kasarwadi, Pune- 411034, Maharashtra.","Pune","Maharashtra","411034","9923771175  /9011860916 /8149473380  /7276725152","pune.heeraprobike.sales@suzukidealers.net"
"HEET SUZUKI","Domestic Bike Dealers","Plot No. -5, S. No-92,Shivshankar Colony, Shahada, tal-Shahada,Dist-Nandurbar,Maharashtra-425409","Nandurbar","Maharashtra","425409","9326010894 /9657533524 /7588733121  /9503074635","shahada.heetautomotive.sales@suzukidealers.net"
"HEND SUZUKI","Domestic Bike Dealers","HEND MOTORS LLP, Opp Govt ITI, Malkapur Road, Buldhana-443001, Maharashtra","Buldhana","Maharashtra","443001","8806191970 /9960401332 /9850825988  /9604770472","buldhana.hendmotors.sales@suzukidealers.net"
"HIMGIRI MOTORS","Domestic Bike Dealers","2nd Mile, Sevoke Road, ITI More, Siliguri, West Bengal-734001","Darjiling","West Bengal","734001","0353-2777263/9434046743","siliguri.himgiri.sales@suzukidealers.net"
"HP Suzuki","Domestic Bike Dealers","Showroom: Mangalmurti Complex, College Road, Nadiad-387001, Kheda, Gujarat / Workshop: Down Side Axis Bank, Opp HP Motors, College Road, Nadiad-387001, Kheda, Gujarat","Kheda","Gujarat","387001","Sales- 0268-2522789, 9879772789 Service-0268-2520789, 9924477188","nadiad.hpautotech.sales@suzukidealers.net"
"I G SUZUKI","Domestic Bike Dealers","Near Saibaba Temple, Veraval Junagadh Highway, Veraval- 362265, Dist: Gir Somnath, Gujarat","Junagadh","Gujarat","362265","8153071777, 8153871777, 7211115580, 9714942209","veraval.igautolink.sales@suzukidealers.net"
"IMPERIAL SUZUKI","Domestic Bike Dealers","Showroom: Shop No. 1 & 2, Banegar Jupitor Apartment, Next To Mcdonald, Mira-Bhayandar Road (East), Thane -401107,  Maharashtra.Workshop: F-1, Hatkesh Udyog Nagar, Behind Maruti Car Showroom, Mira Road - East, Thane-401107, Maharashtra.","Thane","Maharashtra","401107","8898125188","thane.imperial.sales@suzukidealers.net"
"Indu Suzuki","Domestic Bike Dealers","Showroom-Indu Motors, 6, Sankuntala Road, Agartala, Tripura-799001Workshop- Panchbati Nutan Nagar, Airport Road, Agartala-799004","West Tripura","Tripura","799001","9862005245 / 9436135381","agartala.addrita.sales@suzukidealers.net"
"JALARAM SUZUKI","Domestic Bike Dealers","Opp Radhika Eye Hospital, Rajkot Road, Amreli, Gujarat - 365601","Amreli","Gujarat","365601","9879767345 /9099075345 /9426471380  /9724445665 /02792-222622/07383438345/07383438344","amreli.jalarammotors.sales@suzukidealers.net"
"JALORE SUZUKI","Domestic Bike Dealers","Near Circuit house,Jalore-343001,Rajasthan","Jalor","Rajasthan","343001","Tel- 02973-226555 / Mobile - 7615858105","jalore.jalore.sales@suzukidealers.net"
"JANAK SUZUKI","Domestic Bike Dealers","Suchak Nagar, Mahadev Mandir Road, Yavatmal- 445001, Maharashtra","Yavatmal","Maharashtra","445001","Showroom Ph.07232-237813 / 8600779377/9096133188, Workshop : 07232-244733 / 9860038976","yavatmal.janakauto.sales@suzukidealers.net"
"JAYA SUZUKI","Domestic Bike Dealers","Shri Dharson, No. 747, Salem Road, Namakkal,Tamilnadu-637001","Namakkal","Tamil Nadu","637001","9443225800 /9842261313 /9788185172  /9788185173 /04286-277728/277758","namakkal.jaya.sales@suzukidealers.net"
"JK SUZUKI","Domestic Bike Dealers","171, Kovai Road,  Opposite to LNS Temple, LNS Post,  Karur-639002, Tamil Nadu","Karur","Tamil Nadu","639002","7373755123","karur.sreejayalatha.sales@suzukidealers.net"
"JOHAL VEHICLES","Domestic Bike Dealers","Vill.- Singriwala, Jalandhar Road, Hoshiarpur-(punjab)-146001","Hoshiarpur","Punjab","146001","01882-264582/264583/9417017582","hoshiarpur.johal.sales@suzukidealers.net"
"JUGAL SUZUKI","Domestic Bike Dealers","In Front Of Bus Stand, NH-75, Jhansi Road, Chhatarpur, Madhya Pradesh - 471001","Chhatarpur","Madhya Pradesh","471001","07682-241814, 8827541134","chhatarpur.jugal.sales@suzukidealers.net"
"K G N SUZUKI","Domestic Bike Dealers","Hindustan Velancia, SR No-11/9+14/2B216, Kausar Baug, Kondhwa Khurd, Pune - 411048, Maharashtra.","Pune","Maharashtra","411048","SM 7720015474,9822820009,9850470008, 020-26832491","pune.kgnauto.sales@suzukidealers.net"
"K.P.R. Suzuki","Domestic Bike Dealers","D2, 1538/1794/S.No.11, Bandigowda Badavane, Mandya-571401, Karnataka.","Mandya","Karnataka","571401","Showroom - 9538879989, Workshop - 9538879989","mandya.kpr.sales@suzukidealers.net"
"KACHHWAHA SUZUKI","Domestic Bike Dealers","Gargoda Road, Jagatpur, Dhimrapur Chowk, Raigarh-496001, Chhattisgarh","Raigarh","Chattisgarh","496001","9691441199 (MD), 9303852533 (SM), 7869993175 (WM), 9009919397 (SP)","raigarh.kachhwaha.sales@suzukidealers.net"
"KALAIMAGAL SUZUKI","Domestic Bike Dealers","No.82,Kooriyur Village,Near MR Petrol Bulk,Ramanathapuram-623502,Tamilnadu","Ramanathapuram","Tamil Nadu","623502","9442322235 /9655811889 /9789975644  /9842043221 /04667-223299","ramnathapuram.km.sales@suzukidealers.net"
"KANAK SUZUKI","Domestic Bike Dealers","Shop No. 3 & 4, Royal Residency, Vidhrali Naka, Old Panvel-410206. Dist; Raigad, Maharashtra","Raigarh(MH)","Maharashtra","410206","9870432028 (Partner), 8879478020 (SM), 7798880802 (WM), 8655286773 (SP)","panvel.kanank.sales@suzukidealers.net"
"KANYA SUZUKI","Domestic Bike Dealers","322/2B, Kattuvillai, Nalloor, Marthandam, Kanyakumari District - 629165, TamilNadu","Kanyakumari","Tamil Nadu","629165","Sales-8220472266, Service-8220482266, Spares-8148709026","marthandam.kanya.sales@suzukidealers.net"
"KAPURTHALA SUZUKI","Domestic Bike Dealers","Circular Road,Kapurthala, Punjab-144601","Kapurthala","Punjab","144601","01822-234263/234963/9876438963, 9877008963,9872808963,9815508963","kapurthala.radhe.sales@suzukidealers.net"
"KARAN SUZUKI","Domestic Bike Dealers","Plot No. 2/11, 12, 13, Vijay Vasant Complex, G.E. Road, Power House, District - Durg, Bhilai - 490023, Chhattisgarh","Durg","Chattisgarh","490023","9993456789, 9993918000, 0771-2426430, 4025757, 4281313","bhilai.kanki.sales@suzukidealers.net"
"Kella Suzuki","Domestic Bike Dealers","Opp. Sub Urban Bank, Vidya Nagar, Yellapur Road, Sirsi, -581402, Uttar Kannada, Karnataka.","Uttara Kannada","Karnataka","581402","Showroom : 9632922770, Workshop : 9845970770","sirsi.kella.sales@suzukidealers.net"
"KESHAV SUZUKI","Domestic Bike Dealers","VPO Bhira Tehsil and Distt. Hamirpur - 177001 (Himachal Pradesh)","Hamirpur(HP)","Himachal Pradesh","177001","7807100277 / 7807500277 / 7807700277","hamirpur.keshavbike.sales@suzukidealers.net"
"KESHAV SUZUKI","Domestic Bike Dealers","Near Bank of Baroda, KDB Road, Kurukshetra - 136118","Kurukshetra","Haryana","136118","9813147343/7027170902 /9729527603  /7027170904","kurukshetra.keshav.sales@suzukidealers.net"
"KESHAV SUZUKI?","Domestic Bike Dealers","Sun Center, Manhalli, Road Bidar-585403, Karnataka","Bidar","Karnataka","585403","9448132716 .9620992546 / 9916980688  /7795218407 /08482-234027","bidar.keshav.sales@suzukidealers.net"
"Khatwani Suzuki","Domestic Bike Dealers","Showroom Address: Kartar Cottage, Ward No.18, Burhar Road, Suhagpur, Shahdol- 484001, Madhya Pradesh Workshop Address: Kartar Cottage, Ward No.18, Burhar Road, Suhagpur, Shahdol- 484001, Madhya Pradesh","Umaria","Madhya Pradesh","484001","6262070777, 07652-230255","shahdol.khatwani.sales@suzukidealers.net"
"KHURANA MOTORS","Domestic Bike Dealers","Plot No.1A, Sudarshan Nagar, Link Road, Saharanpur - 247001","Saharanpur","Uttar Pradesh","247001","0132-2716014 / 2715054telefax / 9837637747, 9837033905","saharanpur.gskhurana.sales@suzukidealers.net"
"KIRAN MOTORS SUZUKI","Domestic Bike Dealers","Nr. Devasya International School, Nr. Haridarshan Cross Road, Nikol Road Nava Naroda - 382330, Ahmedabad, Gujarat.","Ahmedabad","Gujarat","382330","9824061111 (M.D.), 9924324243,(GM)9924209904 (SM),8758684144 (WM), 9737476501 (SP)","ahmedabad.kiran.sales@suzukidealers.net"
"Kiran Suzuki","Domestic Bike Dealers","Showroom - MG-6, 1/1, Sion Trombay Road, Suman Nagar,Chembur, Mumbai-400071, MaharashtraWorkshop - Unit No-E1, E2, Mangalmurti Industrial Premises, CST Survey No-22, Part Village, Deonar, Govandi STN Road, Govandi, Mumbai-400088, Maharashtra","Mumbai","Maharashtra","400071","Showroom - 9326813976,  Workshop - 9326813976","chembur.kiran.sales@suzukidealers.net"
"KISHANGANJ SUZUKI","Domestic Bike Dealers","Rabbani Automobiles, Ekbal Colony Thakurganj Road, Amera Samsi, Near Paschimpali, Kishanganj - 855107, Bihar","Kishanganj","Bihar","855107","9973107885  /9801349696 /9096746969  /7654357142","kishanganj.rabbani.sales@suzukidealers.net"
"KRISHNA SUZUKI","Domestic Bike Dealers","Plot No. 325, Ward 12B, P.O. No. 77, Gandhidham (Kachchh) 370201","Kachchh","Gujarat","370201","91-2836-239712? /98252-27000/95252-26000","gandhidham.kbikes.sales@suzukidealers.net"
"Krishna Suzuki","Domestic Bike Dealers","1.4th KM Bareilly Gate, Opp Sayyed Market, Bilaspur Road - 244901, Rampur Uttar Pradesh","Rampur","Uttar Pradesh","244901","9927752100 / 7055505341 / 7055505342 / 7055505343-45","rampur.krishnaauto.sales@suzukidealers.net"
"KRP SUZUKI","Domestic Bike Dealers","176, Rani Bazar Industrial Area,Bikaner - 334001","Bikaner","Rajasthan","334001","Sales : 9829027254, 8875029385 Service : 9783828406","bikaner.krp.sales@suzukidealers.net"
"KRYSTAL SUZUKI","Domestic Bike Dealers","Dwarka Puram, Opp. Kamla Nagar ByPass Road, Agra - 282005","Agra","Uttar Pradesh","282005","7454966111; 9837217111","agra.kalyan.sales@suzukidealers.net"
"KSS SUZUKI","Domestic Bike Dealers","No:-3,Nivathana Nagar,Palakkad Main Road,Pollachi-642001","Coimbatore","Tamil Nadu","642001","9894624989 /9095388644 /9095488644  /9095688644 /9095588644","pollachi.kss.sales@suzukidealers.net"
"KUBER SUZUKI","Domestic Bike Dealers","Road No 3 ,Jhunjhunu - 333001, Rajasthan","Jhujhunu","Rajasthan","333001","9672940555, 9672941555, 9672979810, 9672942555, 9672979812","jhunjhunu.gulab.sales@suzukidealers.net"
"KUBERA SUZUKI","Domestic Bike Dealers","Mumbai- Agra Road, Near Shagun Lawns, Pimpalgaon Baswant , Nashik- 422209, Maharashtra","Nashik","Maharashtra","422209","9422253344 (MD), 7709175040 (SM), 8484844811 (WM), 7057821561 (SP)","nashik.kubera.sales@suzukidealers.net"
"LAKHIMPUR SUZUKI","Domestic Bike Dealers","Near B K Automobiles, L.R.P Road, Lakhimpur Kheri (U.P.) - 262701","Kheri","Uttar Pradesh","262701","9918901805 (Partner), 05872-263126","lakhimpur.lakhimpur.sales@suzukidealers.net"
"LAKSHMI SUZUKI","Domestic Bike Dealers","door no. 3410/F1, near hotel sai international P.B. road, Davangere-6,pin-577006","Davangere","Karnataka","577006","9844255540/ 08192-235994","davangere.kalleshwara.sales@suzukidealers.net"
"LAXMI AUTOMOTIVE","Domestic Bike Dealers","Rajkot Ahmedabad Highway, Nr. Aheshwari, Bajaj Showroom, Wadhwancity, Surendranagar -363035","Surendra Nagar","Gujarat","363035","9825223637/9924111118/9879111118/(0275)2242111,652001","surendranagar.laxmi.sales@suzukidealers.net"
"LAXMI SUZUKI","Domestic Bike Dealers","In front of St. Teresa's Girl School, Dudhani, Dumka - 814101, Jharkhand","Dumka","Jharkhand","814101","9431156058(Partner),9905148585(SM),9122964145(WM),9504471172(SP)","dumka.veenavehicle.sales@suzukidealers.net"
"LEELA SUZUKI","Domestic Bike Dealers","Charkha Complex, Akola Naka Washim - 444505 Maharashtra.","Washim","Maharashtra","444505","7588758758 /9921680558 /9765011697  /7083390500","leelamotors.sales@suzukidealers.net"
"Maanu Suzuki","Domestic Bike Dealers","Nirav Heritage, G1-5, Near ONGC Township, Gadkhol Patia, Ankleshwar, Bharuch-393010, Gujarat.","Bharuch","Gujarat","393010","7572844555 ; 7574847555","ankleshwar.maanu.sales@suzukidealers.net"
"MAANYA SUZUKI","Domestic Bike Dealers","H.No.3-6-244/2, Pitambar Lok, Himayathnagar, Hyderabad-500029, Telangana","Hyderabad","Telangana","500029","040-48516660, 6302865724","hyderabad.maanya.sales@suzukidealers.net"
"Madhav Suzuki","Domestic Bike Dealers","Panchshil Plaza, Opp. Prakash Motors, Nr Chikodra Anand Bridge, Anand- 388001, Gujarat.","Anand","Gujarat","388001","6353702364;6353702365;6353702366","anand.madhav.sales@suzukidealers.net"
"Mahalaxmi Suzuki","Domestic Bike Dealers","Showroom: Plot No-712: 168/169/170, B K College Road, Ambedkar Nagar, Chikodi-591201, Belgaum District, Karnataka Workshop: 3166/1463/4, Near IOB, B.K. College Road, Chikodi- 591201","Belgaum","Karnataka","591201","+91-6364846265, +91-6364846266","chikodi.kokane.sales@suzukidealers.net"
"Manbhum Suzuki","Domestic Bike Dealers","Goushala More, Alongi Danga, Purulia-723101, West Bengal","Puruliya","West Bengal","723101","03252- 222021/ 9332026936","purulia.manbhum.sales@suzukidealers.net"
"Manickbag Suzuki","Domestic Bike Dealers","CTS No: 4916 Dharward Road Belgaum-590001,Karnataka","Belgaum","Karnataka","590001","9900026463, 9964494118, 9742434553, 9986327620, 0831-4212000","belgaum.manickbag.sales@suzukidealers.net"
"MAYA SUZUKI","Domestic Bike Dealers","Maya Motorcycles Pvt. Ltd., 79, L.B. Road, Adyar, Chennai-600020, Tamilnadu","Chennai","Tamil Nadu","600020","9087884005 / 9087884006 / 9087884009 / 9087884019/ 9087884018","chennai.mayamotorcycle.sales@suzukidealers.net"
"MAYA SUZUKI","Domestic Bike Dealers","Showroom: Main Road, Near Bank More, Ward no. 21, Madhubani, Bihar - 847211Workshop: Buddh Nager Colony, Ward no. 30, Near Jaldhari chowk, Madhubani - 847211","Madhubani","Bihar","847211","9570640071 (SM) 9570801071 (WM), 06276-228171","madhubani.jagdishmaya.sales@suzukidealers.net"
"MEHTA SUZUKI","Domestic Bike Dealers","41-42 Mehta industries, Dahod road, Banswara,Rajasthan-327001","Banswara","Rajasthan","327001","9414101768 (Dir), 9649906816 (SM), 9649906819 (WM), 9649906815,17 (Sales), 02962-257332, 257333","banswara.banswara.sales@suzukidealers.net"
"MERCURY SUZUKI","Domestic Bike Dealers","No.19/1, Imperial Road, Salakarai, Cuddalore- OT, Cuddalore-607003, Tamil Nadu","Cuddalore","Tamil Nadu","607003","","cuddalore.app.sales@suzukidealers.net"
"MERCURY SUZUKI","Domestic Bike Dealers","Permanent: Olanthai Keerapalyam, 100 ft Road, Opposite RTO, Pudducherry-605004.","Pondicherry","Pondicherry","605004","0413-2281414/6457222/2206025/9899111477,","pondicherry.app.sales@suzukidealers.net"
"MIDNAPORE SUZUKI?","Domestic Bike Dealers","Plot No. P-312, Holding No. 681/A/59, Vidyasagar University Road, Tantigeria, Midnapore - 721102,","West Midnapore","West Bengal","721102","9434021693, 03222-263493, 263492","midnapore.chatturbhuj.sales@suzukidealers.net"
"MIRZAPUR SUZUKI","Domestic Bike Dealers","Bharuhana Chauraha, Mirzapur, UP-231001","Mirzapur","Uttar Pradesh","231001","9415003705, 9335723952, 05442-222722","mirzapur.yashwi.sales@suzukidealers.net"
"MITHRA SUZUKI","Domestic Bike Dealers","H.No.1-7-874, Sahakara Nagar, Hunter Road, Hanamkonda, Warangal-506001, Telangana","Warangal","Telangana","506001","7799131111 /9553027505 /9848138480  /9849654891","hanamkonda.mithra.sales@suzukidealers.net"
"Mohan Motor","Domestic Bike Dealers","Showroom: 630, Uttar Panchanna Gram Kolkata-700100, West Bengal / Workshop: Arupota off EM byepass, Near Science City, Kolkata-700100","South 24 Parganas","West Bengal","700100","8585048490, 8585048498","SALES-UPG@MOHANMOTORSUZUKI.COM"
"MONA SUZUKI","Domestic Bike Dealers","House No. 410, Gat  No. 250\251\252, Goregaon- Nagpur Road, Phulchur, Gondia- 441601, Maharashtra","Gondia","Maharashtra","441601","07507503435, 07507502245","gondia.monamotors.sales@suzukidealers.net"
"Munda Suzuki","Domestic Bike Dealers","Opp. Hotel luxura, Dahod Road, Godhra -389001, Gujarat","Panch Mahals","Gujarat","389001","9624852288, 9426003173","godhra.munda.sales@suzukidealers.net"
"Muneer Suzuki","Domestic Bike Dealers","NO-448, A No.470, 16th Ward, Basveshwara Badavani, 100 Bed Hospital Road, Amaravathi, Hosapete-583202","","","583202","9900702149","hosapete.muneer.sales@suzukidealers.net"
"MUZAFFARNAGAR SUZUKI","Domestic Bike Dealers","4th K.M. Stone, Meerut Road, Near Tata Dharam Kanta, Muzaffarnagar - 251003, U. P.","Muzaffarnagar","Uttar Pradesh","251003","9219420521/9219420621,9837030117","muzaffarnagar.gourangi.sales@suzukidealers.net"
"NANDA MOTORS","Domestic Bike Dealers","Nanda Vertex, Nawathe Square, Badnera Road, Amrawati-444605","Amravati","Maharashtra","444605","9890230003, 9422956775 / 9422956776/9823270001 / 0721-2512111 / 2512211","amravati.nanda.sales@suzukidealers.net"
"NANGIA SUZUKI","Domestic Bike Dealers","Shop no. 4 & 5, Yeshwant Stadium, Dhantoli Garden, Nagpur - 440012, Maharashtra","Nagpur","Maharashtra","440012","9823122229 / 9158893061 / 0712-6468048/49/50","nagpur.nangia.sales@suzukidealers.net"
"NAVASARI SUZUKI","Domestic Bike Dealers","Shop No.1 & 101, Akash Ganga Apartment, Navsari Grid Road, Kabilpore, Navsari, Gujarat-396424","Navsari","Gujarat","396424","09227901045, 09227901100 / 02637-236005/007","navsari.shreedhar.sales@suzukidealers.net"
"NAYANTARA SUZUKI","Domestic Bike Dealers","65/3, Vishvavidhyalay Marg, Dewas Road, Ujjain - 456001, Madhya Pradesh","Ujjain","Madhya Pradesh","456001","9329297700, 8989697415, 8989697416, 0734-2516666, 0734-2511666","ujjain.matangi.sales@suzukidealers.net"
"Neel & Shiv Automobiles Barabanki LLP","Domestic Bike Dealers","Obri bahar seema, near Gayatri mandir, RTO office, Lucknow road, Barabanki-225001, Uttar Pradesh","Barabanki","Uttar Pradesh","225001","05248-222050, 8423180030","barabanki.neel.sales@suzukidealers.net"
"NISHANT SUZUKI","Domestic Bike Dealers","Jail Road Near Kumbharpada Police Station, Puri - 752001","Puri","Odisha","752001","7873665374, 8847884245 (MD)","puri.nisanta.sales@suzukidealers.net"
"NOBLE SUZUKI","Domestic Bike Dealers","Survey No. 72/75, Majevadi Gate, Rajkot-Junagadh Highway, Junagadh-362001, Gujarat","Junagadh","Gujarat","362001","8155811111 (MD), 8460008787 (SM), 8460009797 (WM), 7043114544 (SP)","junagadh.supernoble.sales@suzukidealers.net"
"OM SAI SUZUKI","Domestic Bike Dealers","H. No-2-1-21, Saraswathi Colony, Beside Bharat Petrol Pump, Before RTA Office, Uppal Main Road, Medchal District, Uppal, Hyderabad- 500039, Telangana","Hyderabad","Telangana","500039","9652037888 (Partner), 8790866853 (SM), 9502076446 (WM), 9346596732 (SP)","hyderabad.almond.sales@suzukidealers.net"
"OM SHRIRAM SUZUKI","Domestic Bike Dealers","Shop No. 12-329, Bellampally Road,Mancherial-504208 Dist Adilabad, Andhra Pradesh","Adilabad","Telangana","504208","9849654891,9059891027,08736-255511","mancherial.omshriram.sales@suzukidealers.net"
"P.M. SUZUKI","Domestic Bike Dealers","D, 20/21, Radheshyam Soc., Singanpore, Surat- 395004, Gujarat","Surat","Gujarat","395004","Showroom : 9925127972, Workshop : 9909327972, 9925818888","surat.pmmotors.sales@suzukidealers.net"
"PADMAJA SUZUKI","Domestic Bike Dealers","Plot No.22, 23, Veterinary Colony, Ring Road, Vijayawada-520008, Andhra Pradesh","Krishna","Andhra Pradesh","520008","9666678830 (MD), 7799652444 (SM), 9951134999 (WM), 9666441561 (SP)","vijaywada.padmaja.sales@suzukidealers.net"
"Pai Sales","Domestic Bike Dealers","Kalsank Road, Ambagilu, Udupi-576105, Karnataka","Udupi","Karnataka","576105","9845083804/ 9341840076 /9035037512/95387169269845083804/ 9341840076 /9035037512/95387169269845083804/ 9341840076 /9035037512/9538716926","udupi.paisales.sales@suzukidealers.net"
"PARAMESHWARI SUZUKI","Domestic Bike Dealers","Showroom & Workshop :- 45A/2A, Ward No.10, Opp Head Post Office, Station Road, Bagalkot-587101, Karnataka","Bagalkot","Karnataka","587101","7022002453, 7022002455, 7022005451,08354-220515","bagalkot.parameshwari.sales@suzukidealers.net"
"Pashupati Suzuki","Domestic Bike Dealers","KPM Charali, Opposite of old District Library, PO,PS & Distt. Sivasagar - 785640, Assam","Sibsagar","Assam","785640","7086065329, 8811073061","sivasagar.srikantha.sales@suzukidealers.net"
"PEAK SUZUKI","Domestic Bike Dealers","100/1, Veerappampalayam Pirivu, Perundurai Road, Thindal Post, Erode - 638009, Tamil Nadu","Erode","Tamil Nadu","638009","7338845664,9894507668","erode.peak.sales@suzukidealers.net"
"PETAL SUZUKI","Domestic Bike Dealers","Kamdhenu House, NR. Kamla Kamdhenu Hall, Drive In Road, Ahmedabad-380052, Gujrat","Ahmedabad","Gujarat","380052","(079) 27498989,40057766","ahmedabad.planet.sales@suzukidealers.net"
"Platinum Suzuki","Domestic Bike Dealers","Opp. Sadar Tehsil, Near ICICI Bank, Bairaj Road, Bijnor-246701, Uttar Pradesh.","Bijnor","Uttar Pradesh","246701","9528225424, 7017679641","bijnor.autowheels.sales@suzukidealers.net"
"PRABHU MOTORS","Domestic Bike Dealers","NT Road, Shimoga-577202","Shimoga","Karnataka","577202","9880139993,09448027818,08182-229333 Fax, 229222","shimoga.prabhu.sales@suzukidealers.net"
"PRAMOD SUZUKI","Domestic Bike Dealers","Plot No 1132 Sirar Road Tumkur - 572106 Karnataka","Tumkur","Karnataka","572106","9448951104 /9845575332 / 8951134370  /9743361702","tumkur.samhitha.sales@suzukidealers.net"
"PREM SUZUKI","Domestic Bike Dealers","NH-32, Kolakusma, Sector 1, Sahyogi nagar, Saraidhela, Dhanbad - 828127, Jharkhand","Dhanbad","Jharkhand","828127","7541811001, 7541811002, 7541811007, 7541811008, 7541811007, 7541811004, 7541811002","dhanbad.panchdeo.sales@suzukidealers.net"
"Prime Suzuki","Domestic Bike Dealers","Showroom - B No. 7, Kailashpuri, Garh Road, Meerut-250001, Uttar PradeshWorkshop - Basement no. 22, Tyagi Market, Tejgarhi, Garh Road, Meerut-250004","Meerut","Uttar Pradesh","250001","7467022022, 7467033033, 7467066066, 7467099099, 0121-2703344","meerut.maheshwari.sales@suzukidealers.net"
"PRIME SUZUKI","Domestic Bike Dealers","2-3-77, Twaipura, Tadbund, Secunderabad-500009, Telangana","Hyderabad","Telangana","500009","6309678991","hyderabad.radha.sales@suzukidealers.net"
"PRIME SUZUKI","Domestic Bike Dealers","Prachiti Chambers, Pune Banglore Highway (NH4), Warunji Phata, Karad-415110","Satara","Maharashtra","415110","02164-229311/ 221311 / 7798885444 / 7798885454","karad.digvijay.sales@suzukidealers.net"
"R Yash Vardhan  Suzuki","Domestic Bike Dealers","Near Naveen Galla Mandi, Jhansi Road Lalitpur, Uttar Pradesh - 284403","Lalitpur","Uttar Pradesh","284403","9452471337 / 7309579180 /9670806333  /9721946594 (SPD)","lalitpur.ryashvardhan.sales@suzukidealers.net"
"R.V.R. SUZUKI","Domestic Bike Dealers","S.F. No. 73, 73/1, Salem Main Road, Bharathipuram, Dharmapuri - 636705, Tamil Nadu","Dharmapuri","Tamil Nadu","636705","9952379813/ 9442633222/ 9443077463Ph:  04342-231155/  04342-232155/ 8428411123/7667227661","dharmapuri.rvraja.sales@suzukidealers.net"
"RAAM SUZUKI","Domestic Bike Dealers","Ward No.1, Nehruji Road, Bommayagoundanpatti, Theni-625531, Tamilnadu","Theni","Tamil Nadu","625531","9443307394, 9489257502, 9489257503, 9489257504","theni.sreemaalathi.sales@suzukidealers.net"
"Raj Suzuki","Domestic Bike Dealers","Showroom & Workshop:  Plot No.5, Dwarika City, Jansath Road, Muzaffarnagar-251002, Uttar Pradesh","Muzaffarnagar","Uttar Pradesh","251002","Sales - 7455000630
<br/>Service - 7455000631","muzaffarnagar.raj.sales@suzukidealers.net"
"RAJA SUZUKI","Domestic Bike Dealers","1145, College Road, Shibnagar, Agartala-799004, Tripura","West Tripura","Tripura","799004","9436168215, 0381-2387542, 0525 2383977","tripurasuzuki2009@gmail.com"
"Raju Suzuki","Domestic Bike Dealers","Showroom: Stadium Road, Near RTO Office Bahedi, Budaun-243601, Uttar Pradesh","Budaun","Uttar Pradesh","243601","8958195786, 9456024707","badaun.raju.sales@suzukidealers.net"
"Raju Suzuki","Domestic Bike Dealers","Showroom / Workshop: Jamda Main Road, P.O. & P.S.- Jhargram, District- Jhargram, Pin- 721507, West Bengal","West Midnapore","West Bengal","721507","9635853830","jhargram.raju.sales@suzukidealers.net"
"RAJVI SUZUKI","Domestic Bike Dealers","Opp. BOB, Vitthalwadi, Bhavnagar-364001, Gujarat","Bhavnagar","Gujarat","364001","9824490900 (Partner), 9870017573 (SM), 9904111882 (WM), 9724606360 (SP)","bhavnagar.rajvi.sales@suzukidealers.net"
"RAMGARH SUZUKI?","Domestic Bike Dealers","NH-33 Muramkalan, P.O Ramgarh Cantt. Distt Ramgarh Jharkhand - 829122","Ramgarh","Jharkhand","829122","9835531647 /9199983852/8809292455/9835037710  /8409095192 /06553-223178","ramgarh.satkar.sales@suzukidealers.net"
"Rathi Suzuki","Domestic Bike Dealers","Shobha Tower, Plot No. 1, Mouje- Shegaon, S.V. No. 45/3, Beside Rohini Park Hotel, Kathora, Main Road, Amravati - 444604, Maharashtra.","Amravati","Maharashtra","444604","8550950068; 7420989038; 7620751573","amravati.navalji.sales@suzukidealers.net"
"RAYAPUDI SUZUKI","Domestic Bike Dealers","House No 11-5-12/1, Ground floor,Wyra Road,Khammam-507001","Khammam","Telangana","507001","9848156105 ,9885456105,08742-252577(tele fax)-66","khammam.rayapudi.sales@suzukidealers.net"
"RIDDHI SUZUKI","Domestic Bike Dealers","Survey No.: 111, House No. 564, Temghar, Bhiwandi Kalyanroad, Bhiwandi, Dist. Thane. 421302, Maharashtra","Thane","Maharashtra","421302","9223933333  /9860535345 /9222233016  /7387574945","bhiwandi.riddhiauto.sales@suzukidealers.net"
"Riders Suzuki","Domestic Bike Dealers","Plot No-175, Transport Nagar, Korba- 495678, Chhattisgarh","","","495678","9711130284","korba.avishek.sales@suzukidealers.net"
"RISHIKESH MOTORS","Domestic Bike Dealers","Kanoria House,Palm Road, Opp. Vidhan Bhavan , Civil Lines, Nagpur-440001","Nagpur","Maharashtra","440001","09373103752 / 0712-2531451/2558090/2527956(fax)","nagpur.rishikesh.sales@suzukidealers.net"
"Roamjjym Suzuki","Domestic Bike Dealers","Model Village, Near Tajam Motors,P.O/P.S-Naharlagun, Itanagar, Distt. Papumpare-791110 Arunachal Pradesh","Papum Pare","Arunachal Pradesh","791110","9436271632 / 9436068923","Itanagar.roamjjym.sales@suzukidealers.net"
"ROONWAL SUZUKI","Domestic Bike Dealers","Old Door No. 587/Part, New Door No. 658/Part, Thiruvottiyur High Road, Old Washermenpet, Chennai - 600021, Tamilnadu","Chennai","Tamil Nadu","600021","044-43570017 / 18, 9884621755, 9884677515, 9444385710","chennai.sriroonwal.sales@suzukidealers.net"
"ROYAL SUZUKI","Domestic Bike Dealers","Showroom / Workshop: Panruti-Vadalur Road, Near Axis Bank, Indra Nagar, Neyveli - 607308, TamilNadu","Cuddalore","Tamil Nadu","607308","9384067801 / 02/ 03/ 04 / 05/ 06 / 07/ 08/ 09/ 10","neyveli.aztam.sales@suzukidealers.net"
"ROYAL SUZUKI","Domestic Bike Dealers","8, AR No. 8, Ward No 23,Behind Sharda TalkiesMadras Bangalore (MB) Road, Kolar Pin Code 563101,Karnataka","Kolar","Karnataka","563101","9886714257 /8711030692 /8904391526  /8745663744","kolar.saleema.sales@suzukidealers.net"
"RUPS SUZUKI","Domestic Bike Dealers","Biswa Singha Road (North), Near Badur Bagan Chowpathi, Cooch behar West Bengal - 736101","Cooch Behar","West Bengal","736101","9434228532 /9476360885 /9933890761  /8927952463","coochbehar.rupsauto.sales@suzukidealers.net"
"S & S SUZUKI","Domestic Bike Dealers","Door no. 27-269/1, Palamaner Road, Revenue Ward No 27, Chittoor, PIN : 517001, Andhra Pradesh","Chittoor","Andhra Pradesh","517001","9000940008 / 08572-246233","chittoor.garuda.sales@suzukidealers.net"
"S R SUZUKI","Domestic Bike Dealers","B--110 Sector -2 Noida - 201301 Uttar Pradesh","Gautam Buddha Nagar","Uttar Pradesh","201301","09818578786/ 07065563003","noida.srauto.sales@suzukidealers.net"
"S.M SUZUKI","Domestic Bike Dealers","Kundan Colony, Ratanpur Road, Dungarpur-314001, Rajasthan","Dungarpur","Rajasthan","314001","9414104928 /8233305070 /7727078284  /7615059526 /","dungerpur.shremahaveer.sales@suzukidealers.net"
"SABOO SUZUKI","Domestic Bike Dealers","5-2-120 to 122(19), Opp Bible House, Rashtrapathi Road, Secundrabad-500003","Hyderabad","Telangana","500003","9533034567,040-66387777,66388888 ,9248077777,9885077777,9848688888","hyderabad.saboo.sales@suzukidealers.net"
"SAICHANDRA SUZUKI","Domestic Bike Dealers","Near Dhuni Wala Math Nagpur Road,Wardha-442001,Maharashtra","Wardha","Maharashtra","442001","9823366444/9823550552 /9860806878 /9823489658  /8308908758 /07152 ? 255055","wardha.saichandra.sales@suzukidealers.net"
"SAINATH SUZUKI","Domestic Bike Dealers","Geeta Towers" New Mondha Near SBI Bank Kamaan VIP Road Nanded-431602, Maharashtra","Nanded","Maharashtra","431602","9822588805 /9422188805 /02462-255005 /02462-255006","nanded.sainath.sales@suzukidealers.net"
"SAINI KANGRA SUZUKI","Domestic Bike Dealers","VPO Ghurkari , Near Matour Chowk, Kangra, Himachal Pradesh-176001","Kangra","Himachal Pradesh","176001","Sales Help line:- 9882168216, 01892260413. Service Help line:-01892264313.","kangra.sainikangra.sales@suzukidealers.net"
"SAMDANI AUTOMOBILES","Domestic Bike Dealers","Near Gyatri Ashram Temple, Oppt. Sales Tax Office Ajmer Road Bhilwara-311001","Bhilwara","Rajasthan","311001","9460901854, 9468717770, 9829400197, 01482297297","bhilwara.samdani.sales@suzukidealers.net"
"SAMPADA SUZUKI","Domestic Bike Dealers","Majholi Choraha, Delhi road, Moradabad-244001 U.P.","Moradabad","Uttar Pradesh","244001","0591-2487700","moradabad.bansal.sales@suzukidealers.net"
"SAMRIDDHI SUZUKI","Domestic Bike Dealers","Usha Bhavan,Plot No-989/3, Sikraul, Shivpur,Oppt. Central Water Commission,Pannalal Park,Varanasi-221002, Uttar Pradesh","Varanasi","Uttar Pradesh","221002","9993092132/ 8808158000/ 9971691999","varanasi.prusales.sales@suzukidealers.net"
"SANGEETA SUZUKI","Domestic Bike Dealers","3rd Km Stone, Nizampur Road, Narnaul, Dist Mahendargarh - 123001 Haryana","Mahendragarh","Haryana","123001","9812000060 /9416261631 /9728209951  /9812001519","narnaul.mohanlal.sales@suzukidealers.net"
"SAPTAGIRI SUZUKI","Domestic Bike Dealers","No.78, Vijayashree Complex, Opp. Karnataka Bank Ltd., HMT Main Road, Mathikere, Bangalore-560054,  Karnataka","Bangalore","Karnataka","560054","9620152020; 9845029331","bangalore.saptagiri2.sales@suzukidealers.net"
"SARANG SUZUKI","Domestic Bike Dealers","C/o Shyam Agencies, Hyderabad Road, Nizamabad-503003, Andhra Pradesh","Nizamabad","Telangana","503003","9848071036,08462-236671,235569,9949244448","nizamabad.sarang.sales@suzukidealers.net"
"SARDA SUZUKI","Domestic Bike Dealers","27, 14/3 Vikas Nagar,Ambedkar Road, Neemuch - 458441 Madhya Pradesh","Neemuch","Madhya Pradesh","458441","9407101185 9229848666/  9009685291/ 8989238503","neemuch.sarda.sales@suzukidealers.net"
"Seba Suzuki","Domestic Bike Dealers","AT- CHHANCHA, POST- BARIPADA, NEAR INCOME TAX OFFICE, DISTT.- MAYURBHANJ, PIN- 757001, STATE-ODISHA","Mayurbhanj","Odisha","757001","06792-257000,9040352829,9437086878","baripada.seba.sales@suzukidealers.net"
"SEEMA SUZUKI","Domestic Bike Dealers","Plot No: 80 , Near Vimal Agro, Ten- G.I.D.C, Bardoli - Surat Road , Bardoli -394601, Gujarat.","Surat","Gujarat","394601","9712587000, 7573917771, 7573917790, 7573917772","bardoli.seema.sales@suzukidealers.net"
"SHAHI SUZUKI","Domestic Bike Dealers","Nabha Road, Malerkotla Distt. Sangrur, Punjab-148023","Sangrur","Punjab","148023","9417100554","malerkotla.shahi.sales@suzukidealers.net"
"Shaiba Suzuki","Domestic Bike Dealers","Subhash Pally, Near Hanuman Mandir, Suri, Birbhum - 731101, West Bengal","Birbhum","West Bengal","731101","7001999517, 7001999477","suri.shaiba.sales@suzukidealers.net"
"SHANU SUZUKI","Domestic Bike Dealers","Opposite SAF Gate, Parasia Road,Chhindwara-480001, Madhya Pradesh","Chhindwara","Madhya Pradesh","480001","9425146691 / 9424665524 / 9479372913  / 07162-244491","chhindwara.shefali.sales@suzukidealers.net"
"SHIVGANGA SUZUKI","Domestic Bike Dealers","1243 / 80 B, E, Ward, Shivaji Udyamnagar, Kolhapur- 416008, Maharashtra","Kolhapur","Maharashtra","416008","7888004001/ 7888004006/ 7888004010 /9890559285 /8888336336  /9604533995","kolhapur.shivganga.sales@suzukidealers.net"
"SHIVSHARDA SUZUKI","Domestic Bike Dealers","Shiv Sharda Building, plot no.2-10-258,National Highway-211, Jalna Road Beed-431122","Beed","Maharashtra","431122","9325252525, / 9822240111 / 927011111/ 9325050211 / 02442-225190;226190/02442-224002 (fax)","beed.shivsharda.sales@suzukidealers.net"
"Shree Ram Suzuki","Domestic Bike Dealers","Nagaur Bikaner Road, NH-89, Khasra No-89, Near RTO office, Nagaur, Rajasthan-341001","Nagaur","Rajasthan","341001","9871118594","nagaur.praneel.sales@suzukidealers.net"
"Shree Suzuki","Domestic Bike Dealers","Civil Lines, Opp. IOCL Petrol Pump, Raebareli, UP - 229001","Raebareli","Uttar Pradesh","229001","7380709373, 6386332357","raebareli.sgr.sales@suzukidealers.net"
"SHREEJI SUZUKI","Domestic Bike Dealers","8271,Old Indore Road,Dahod-389151,Gujrat","Dahod","Gujarat","389151","9727355888 /9925040818 /8141171211  /9974175548 /02673-291818/workshop:- 02673-291819","dahod.shreeji.sales@suzukidealers.net"
"SHRI GANGA SUZUKI","Domestic Bike Dealers","Shri Ganga Vehicles Pvt. Ltd., Near Circuit House, N.H. 11, Jaipur Road, Sikar-332001, (Raj.)","Sikar","Rajasthan","332001","9414039839, 9928172100, 01572-245108,245971 Fax,9413365250","sikar.shriganga.sales@suzukidealers.net"
"Shri Hari Suzuki","Domestic Bike Dealers","Plot No 27, Near Kushmoda Chowki, Gandhi Nagar, A. B Road Guna-473001 Madhya Pradesh","Guna","Madhya Pradesh","473001","9425131297 /9826230865 /7566756670  /9179555241","guna.harivallabh.sales@suzukidealers.net"
"SHRI VINAYAK SUZUKI","Domestic Bike Dealers","H.No Udhayamnagar, Kudal, Dist: Sindhudurg -416520, Maharashtra","Sindhudurg","Maharashtra","416520","9422096507 /7066045794 /8806225599  /7066045798","kuddal.shrivinayak.sales@suzukidealers.net"
"SIDDHESH MOTORS","Domestic Bike Dealers","Plot No-1, Sattha Colony,Station Road, Near Newaskar Petrol Pump, Ahmednagar-414001","Ahmed Nagar","Maharashtra","414001","9822039245 / 0241-2451435,2452427(Fax)","ahmednagar.siddhesh.sales@suzukidealers.net"
"SIDDHI SUZUKI","Domestic Bike Dealers","Bhai Chhanusing Chandele Smruti Kendra163 A, Railway Lines,,Opp Bhandri Hospital,Solapur-413001Maharashtra","Solapur","Maharashtra","413001","9373303029, 0217-2621152,2317878,2317979 Fax","solapur.siddhi.sales@suzukidealers.net"
"SIDHAM SUZUKI","Domestic Bike Dealers","MC - 2755/B-1, Arya Nagar, Nai Basti, Bhatinda - Goniana G.T. Road, Bhatinda - 151005, Punjab","Bathinda","Punjab","151005","9417607555, 9855238216, '0164-2238215","bhatinda.sidham.sales@suzukidealers.net"
"SIDVI SUZUKI","Domestic Bike Dealers","Showroom / Workshop: Durgadasiri Complex, Near RTO Office, Turuvanur Road, Chitradurga-577501, Karnataka","Chitradurga","Karnataka","577501","8722804569, 9606033551, 08914-231311","chitradurga.bvtmotors.sales@suzukidealers.net"
"SINGH SUZUKI","Domestic Bike Dealers","Khata no 11 Plot no. 60 and, Khata no. 177 Plot no. 54, Prashar Tower, Piska More, Ratu RoadRanchi - 834005, Jharkhand","Ranchi","Jharkhand","834005","7677988441, 9386457216, 9431371863, 9431115274, 0651-2510003, 7677090003","ranchi.parasar.sales@suzukidealers.net"
"SIRSA SUZUKI","Domestic Bike Dealers","MES Colony,Dabwali Road,Sirsa-125055","Sirsa","Haryana","125055","9215617246,","sirsa.sirsa.sales@suzukidealers.net"
"SITARAM SUZUKI","Domestic Bike Dealers","Opp Zakir Hussain Park, Circular Road,Ranchi-834001","Ranchi","Jharkhand","834001","8797003307 / 9934346262 / 0651-6003308","ranchi.sitaram.sales@suzukidealers.net"
"SKY SUZUKI","Domestic Bike Dealers","Sarve no.199, Part no.1+2/2,Sanmeshwar,old Agra Road,Malegaon-423203, Maharashtra","Nashik","Maharashtra","423203","9767545454 /7719945454 /9922333355  /9850354554","malegaon.skylink.sales@suzukidealers.net"
"SMAYANASHREE SUZUKI","Domestic Bike Dealers","Showroom: No 57-I, PID No:26450 & 26440, Ward 21, Batavadi, BH Road, Vidyanagar, Tumkur-572102, Karnataka | Work Shop: Site No 55, KNS Layout, Opp N.E.P.S, Tumkur, Karnataka","Tumkur","Karnataka","572102","8971726503; 8164011283","tumkur.smayanashree.sales@suzukidealers.net"
"SNEHA SUZUKI","Domestic Bike Dealers","Land No.1012, Mauza Lehargrid, Shivpuri Road, Jhansi-284003, Uttar Pradesh","Jhansi","Uttar Pradesh","284003","9415113623 (MD), 7880550115 (SM), 7880550117 (WM), 7880550118 (SP)","srivastava.hitesh@suzukimotorcycle.in"
"Sohsa Suzuki","Domestic Bike Dealers","Showroom / Workshop: Old Income Tax Road Redma, Daltonganj, Palamu, Jharkhand-822101","Palamau","Jharkhand","822101","7557788069, 7557788068","daltonganj.sohsa.sales@suzukidealers.net"
"SOHUM SUZUKI","Domestic Bike Dealers","Showroom: Subhash Colony, Tehsil Camp Morh, GT Road, Panipat-132103, Haryana | Work Shop: Subhash Colony, Tehsil Camp Morh, GT Road, Panipat-132103, Haryana","Panipat","Haryana","132103","9132632000, 9132635000","panipat.sohum.sales@suzukidealers.net"
"Solitaire Suzuki","Domestic Bike Dealers","Showroom & Workshop: Ground Floor, Plot No. 1-A,  "City Enclave", TPS3, Vardhaman Nagar,  Beside Royal Palace, Mahabal Road,  Jalgaon-425001, Maharashtra","Jalgaon","Maharashtra","425001","Sales - 0257-2222831<Br/>
Service - 0257-2222832","jalgaon.solitaire.sales@suzukidealers.net"
"SONA AUTOSALES","Domestic Bike Dealers","Sona AutoSales Pvt. Ltd, Opp Railway Station, Rlwy Stn Chittor-Nimbahera Road, Chittorgarh 312001","Chittorgarh","Rajasthan","312001","09414498006,01472-245525,240505,241188 Fax,9829994299,9414254469","chittorgarh.sona.sales@suzukidealers.net"
"SONEPAT SUZUKI","Domestic Bike Dealers","Delhi Road, Near Civil Hospital ,Sonepat-131001","Sonipat","Haryana","131001","9812029515/0130-2231415/515","sonepat.sodhi.sales@suzukidealers.net"
"SONI SUZUKI","Domestic Bike Dealers","Ward no.1, Una , Amb road, Teh. & Distt. Una - 174303, Himachal Pradesh.","Una","Himachal Pradesh","174303","9736532662 / 9780120462 / 9736768662","una.soniautowheelers.sales@suzukidealers.net"
"SONI SUZUKI","Domestic Bike Dealers","Railway Road, Nangal Dam, Distt.- Ropar, Punjab - 140124","Rupnagar","Punjab","140124","9814302493 /7837835884 /9780281762  /7837629624 /","Nangal.soniauto.sales@suzukidealers.net"
"SPEED SUZUKI","Domestic Bike Dealers","Pranjali Heights, S.No.-570/1/20, Plot No.-4, Mumbai-Agra Road, Mumbai Naka, Nashik-422002, Maharashtra","Nashik","Maharashtra","422002","9822031518   0253-3025454/3011199","nashik.speedmachines.sales@suzukidealers.net"
"SRAJAN SUZUKI","Domestic Bike Dealers","13, Darshanpura Opposite M.B College Udaipur 313001","Udaipur","Rajasthan","313001","9828243000 /7073344481 /7728880502  /9314419192","udaipur.srajan.sales@suzukidealers.net"
"SRI JAYALAKSHMI SUZUKI","Domestic Bike Dealers","S.No 289/9, Opposite Padmavathi Marriage Function Hall, Peddaapadu Road, Srikakulam-532001, Andhra Pradesh","Srikakulam","Andhra Pradesh","532001","6302665467 (Partner), 9866661200 (SM), 6300281981 (WM), 7095126968 (SP)","srikakulam.sri.sales@suzukidealers.net"
"SRI KRISHNA MOTORS","Domestic Bike Dealers","Undi Road, Near By Pass Rod, Bhimavaram. West Godavari District-534202, Andhra Pradesh","West Godavari","Andhra Pradesh","534202","9348393552 (MD), 6300161582 (SM), 7036114433 (WM), 9948642777 (SP)","bhimavaram.sri.sales@suzukidealers.net"
"SRI LAKSHAN SUZUKI","Domestic Bike Dealers","Showroom / Workshop: Survey No.387/1A, Dhardhakuppam Village, Chennai Byepass Road, Krishnagiri-635001, TamilNadu","Krishnagiri","Tamil Nadu","635001","7094499761, 7094499766","krishnagiri.srilakshan.sales@suzukidealers.net"
"SRI SARIPUDI SUZUKI","Domestic Bike Dealers","D.no:- 8-541 (1), By pass road, Opp: Police parade ground, Ongole-523001, Dist- Prakasam, Andhra Pradesh","Prakasam","Andhra Pradesh","523001","9399988666 /7702841650 /8008840636  /9885436382","ongole.saripudi.sales@suzukidealers.net"
"STAR SUZUKI","Domestic Bike Dealers","Survey No.1302/1/1, Phoenix Bay, Goal Ghar, Port Blair, South Andaman- 744102, Andaman & Nicobar Islands","South Andaman","Andaman & Nicobar","744102","9474220016, 9933241004","portblair.lmstar.sales@suzukidealers.net"
"SUNIL SUZUKI","Domestic Bike Dealers","M.G Road,Ambikapur,(C.G)-497001","Surguja","Chattisgarh","497001","9425255141 /8435554555/7772045573 /9907785991  / 7697071991","ambikapur.Sunil.sales@suzukidealers.net"
"SURABHI SUZUKI","Domestic Bike Dealers","Rajkeshri Gurudwara Road, Gunj Betul-462023","Bhopal","Madhya Pradesh","462023","9425381845   /8871718525  /9617117325  9713318293","Betul.sudhirsurbhi.sales@suzukidealers.net"
"SURABHI SUZUKI","Domestic Bike Dealers","Plot No, 170 ,LIG Colony, K.K Nagar, Madurai-625020, Tamil Nadu","Madurai","Tamil Nadu","625020","9442616944 /9344122511/8148138090 /8148041515  /9865416606 /0452-2581233","madurai.saikrishnas.sales@suzukidealers.net"
"Suraj Suzuki","Domestic Bike Dealers","Near Old Toll gate, NH-06 (old) Bargarh-768028, Odisha","Bargarh","Odisha","768028","9439039794, 7008714337","bargarh.mamraj.sales@suzukidealers.net"
"SURPATI SUZUKI","Domestic Bike Dealers","Ward No-03,NH-69,Betul Road,Old Itarsi,Itarsi-461111,Hosangabad,MP","Hoshangabad","Madhya Pradesh","461111","9479382423 /9981809265  /9575350613","itarsi.surpati.sales@suzukidealers.net"
"SURYA SUZUKI","Domestic Bike Dealers","Tambeshwer Nagar, G. T. Road, Fatehpur, Uttar Pradesh-212601","Fatehpur","Uttar Pradesh","212601","9415066127, 9936018811","surya.sales@suzukidealers.net"
"SUSMITA SUZUKI","Domestic Bike Dealers","Andul Road, Nityananda Nagar,Howrah- 711109 (West Bengal)","Howrah","West Bengal","711109","9230633754/9831401059/8697564705/7890722877/9143127594;Landline- 033-65334950/Fax No.- 033-26580352","howrah.susmita.sales@suzukidealers.net"
"SUTHAR SUZUKI","Domestic Bike Dealers","Plot No 5&6, NH 14, Jakhamata Road, Dist. Pali-306902, Sumerpur, Rajasthan","Pali","Rajasthan","306902","9929112557, 02933-255555","sumerpur.suthar.sales@suzukidealers.net"
"SUVARNA SUZUKI","Domestic Bike Dealers","894-1B ,Anantpur Road,Near Govt.Tharantha Hospital,NH 63,Madras Bombay Trunk Road,Bellary-583101","Bellary","Karnataka","583101","9945315773 / 9480400233 / 08392-260092","bellary.lakshmidurga.sales@suzukidealers.net"
"SVS SUZUKI","Domestic Bike Dealers","Vidya Nagar,Meham Road, Vidya Nagar,Bhiwani - 127021 Haryana","Bhiwani","Haryana","127021","09992012222 /8059837575 /9034870704  /9050579709 /01664-240030/240031","bhiwani.svsauto.sales@suzukidealers.net"
"T R SUZUKI","Domestic Bike Dealers","Vachnalaya Complex, Girls College Road, Morena-476001(Madya Pradesh)","Morena","Madhya Pradesh","476001","8871347300/8305003636","morena.morena.sales@suzukidealers.net"
"TAMLUK SUZUKI","Domestic Bike Dealers","Padumbasan, Maniktala,,Tamluk ,Purba Medinipur-721636 ,West Bengal","East Midnapore","West Bengal","721636","03228-267084 , 03228-267085 , 9734411028 ( Sales ) , 9932716493 ( Service )","tamluk.onroadabs.sales@suzukidealers.net"
"Tirthankar Suzuki","Domestic Bike Dealers","Survey No. 170 Todi, Sitamau Fatak, Mandsaur -458001, Madhya Pradesh","Mandsaur","Madhya Pradesh","458001","9713906002; 07422- 407046; 9907522251","mandsaur.tirthankar.sales@suzukidealers.net"
"TIRUNELVELI SUZUKI","Domestic Bike Dealers","109C/1, North Bye Pass Road, Vannar Pettai, Tirunelvelli-627003","Tirunelveli","Tamil Nadu","627003","9842951923/0462-4000929,9244441001","tirunelvelli.kiran.sales@suzukidealers.net"
"Trinity Suzuki","Domestic Bike Dealers","Showroom: Opp. State Bank Of India, Panchgachia, NH-6, Baraipali Sambalpur Odisha-768006 / Workshop: Near Kedia's Restaurent Panchgachia, NH-6, Baraipali Sambalpur, Odisha-768006","Sambalpur","Odisha","768006","7205950221, 9886650221","sambalpur.trinity.sales@suzukidealers.net"
"TRIO SUZUKI?","Domestic Bike Dealers","GAT.No.479,Yadrav Ichalkaranji,dist:-Kolhapur-416145,Maharashtra","","","416145","8149002123/9326390908 /9326390904  /9028091525/ (02322- 252200/ 252299/ 252199)/ (02322- 252400)","ichalkarangi.trio.sales@suzukidealers.net"
"TRIVEDI  SUZUKI","Domestic Bike Dealers","Plot No.3, Sundarvan Society, Dharampur Road, Abrama, Valsad-396002, Gujarat.","Valsad","Gujarat","396002","9825111647 (MD), 9099086948 (SM), 9099086947 (WM), 6351545146 (SP)","valsad.trivedi.sales@suzukidealers.net"
"Trust Suzuki","Domestic Bike Dealers","Rana Marbles Property, Near Arya Nagar Chowk Opp. Arvind Yog Mandir, Near Arya Van Prasth Ashram Jwalapur Haridwar - 249407","Haridwar","Uttarakhand","249407","7088111776","haridwar.trust.sales@suzukidealers.net"
"UCS SUZUKI","Domestic Bike Dealers","40/177,N.S.Road,Mohanbati,Near Asha Cinema Hall, Raiganj,Dist-Uttar Dinajpur-733134, WEST BENGAL.","North Dinajpur","West Bengal","733134","9733015162 (MD), 79434379942 (SM), 9775922241 (WM), 7001537337 (SP)","raiganj.ucs.sales@suzukidealers.net"
"UDAIWAL SUZUKI","Domestic Bike Dealers","Plot No. 1A, Capton Colony, Opp. Bhumi Bikas Bank, Jaipur Road Chawani Tonk-304001","Tonk","Rajasthan","304001","9928723006, 9214860709,01432-246651Fax","tonk.udaiwal.sales@suzukidealers.net"
"UDAN SUZUKI","Domestic Bike Dealers","Showroom :Shop No 1 & 2, Ram Rahim Shelter, Ambadi Road, Vasai (W), Dist: Palghar- 401202, Maharashtra.Workshop: Shop 4 & 5, Sai Mahal Co- Operative Society, Vishal Nagar, Near Panchvati Hotel, Vasai- (W), Palghar - 401202, Maharashtra.","Thane","Maharashtra","401202","9860852897 / 7028782897","mumbai.udanautomotive.sales@suzukidealers.net"
"ULTIMATE SUZUKI","Domestic Bike Dealers","4/60, Palladam Road, Veerapandi Post, Tirupur- 641605, Tamilnadu","Erode","Tamil Nadu","641605","9842208667 (CEO), 9688587000 (SM), 9843332732 (WM), 7373602378 (SP)","tirupur.ultimate.sales@suzukidealers.net"
"UNITED SUZUKI","Domestic Bike Dealers","Khasra No.551,556&560,Rithani,Delhi road. Meerut Uttar Pradesh.250103","Meerut","Uttar Pradesh","250103","0121- 2440123/124/125, 8057295938,9012309323,9412060786,9412707201","meerut.wonder.sales@suzukidealers.net"
"URBAN SUZUKI","Domestic Bike Dealers","Plot no 3 sdag no 70 Mauza Kachamri, P.s sadar Nagaon 782002 Assam","Nagaon","Assam","782002","8486035907 /8486035905 /9613942259  /9954134141 03672-223461","Nagaon.devauto.sales@suzukidealers.net"
"VANSHIKA SUZUKI","Domestic Bike Dealers","Shubham Heights, Near Allahabad Bank, Telibandha, G. E. Road, Raipur-492001, Chhattisgarh","Raipur","Chattisgarh","492001","8516803000, 8516804000","raipur.vanshika.sales@suzukidealers.net"
"VARSHINI SUZUKI","Domestic Bike Dealers","171, Chennai Main Road, Ponnerikarai, Kancheepuram- 631502 (Tamil Nadu)","Kanchipuram","Tamil Nadu","631502","9940031232/9952341544/9500318657/9965776507/Landline-044 -27264447","kanchipuram.varshini.sales@suzukidealers.net"
"VARUN SUZUKI","Domestic Bike Dealers","House no.21, Ward no-7, Near Rajiv Gandhi Chowk, Raipur Road, Jarhabhata, Bilaspur - 495001, Chattisgarh","Bilaspur(CGH)","Chattisgarh","495001","Sales - 07752-405959, 9174734567, Service - 8602227999","bilaspur.vedant.sales@suzukidealers.net"
"VEL RS SUZUKI","Domestic Bike Dealers","S.No.221/1A, Ward-C, Block-15, T.S.No.71/2, No.74, Periyakuppam Village, Tiruvallur - 602001, Tamilnadu","Tiruvallur","Tamil Nadu","602001","7708333306 / 9042932399 / 7305018368 / 9894668694","tiruvallur.rskarthiha.sales@suzukidealers.net"
"VELJEE SUZUKI","Domestic Bike Dealers","Felicity Apartments, Near Hotel Shell Top,Taleigao-403002, Goa.","North Goa","Goa","403002","8322233907 / 7420865055","goa.veljeemotors.sales@suzukidealers.net"
"VENKATESWARAN SUZUKI","Domestic Bike Dealers","Showroom - No.3/122, Trichy Trunk Road, Villupuram-605602, TamilNaduWorkshop-Bharathiyar Street, Salamedu, Trichy Trunk Road, Villupuram-605602, TamilNadu","Villupuram","Tamil Nadu","605602","9047313140","vpm.venkateswaran.sales@suzukidealers.net"
"VENUGOPALA SUZUKI","Domestic Bike Dealers","DO-No.:8-18-18,Employment office road, R.K.Avenue, Opp.Maa Gardens & Restaurant,Vizianagaram-535002","Vizianagaram","Andhra Pradesh","535002","9440193720 /9493045498 /9908718476  /9000074779 /08922 - 278444/ 278445 08922 - 278443","vizianagaram.venu.sales@suzukidealers.net"
"Verma Suzuki","Domestic Bike Dealers","Near Vishal Mega Mart Garhshankar Road, Nawanshahr-144514, Punjab","Nawanshahr","Punjab","144514","6283280043, 6283280052, 6283280044","nawanshahr.verma.sales@suzukidealers.net"
"VIGHNESHWAR SUZUKI?","Domestic Bike Dealers","House No.2236/E, NearGanesh Furniture, TRP,Ratnagiri - 415639,Maharashtra","Ratnagiri","Maharashtra","415639","9922824044(MD),7350384944(SM),9922232719(WM),9209924094(SP),02352- 228944","ratnagiri.vighneshwara.sales@suzukidealers.net"
"Vighneshwara Suzuki","Domestic Bike Dealers","Mumbai Goa Highway, Near Gosavi Stop, Ap Kapsal       (Chiplun), Tal Chiplun, Dist. Ratnagiri -415605, Maharashtra","Ratnagiri","Maharashtra","415605","023555-252555, 9890294862","chiplun.vighneshwara.sales@suzukidealers.net"
"Vikas Suzuki","Domestic Bike Dealers","Khasra no.- 412/2,421/1 Rangpuri, Mahipalpur New Delhi - 110037","South West Delhi","Delhi","110037","9811011161","delhi.vrmotors.sales@suzukidealers.net"
"VINAYAKA SUZUKI","Domestic Bike Dealers","No.155/17, Alangudi Road, Pudukottai-622001, TamilNadu","Pudukkottai","Tamil Nadu","622001","9952155529 (MD)","pudukkottai.vinayaka.sales@suzukidealers.net"
"Viraansh Suzuki","Domestic Bike Dealers","Show room - Giriraj Apartment, Ground Floor, Opposite Income Tax Office, Chakli Circle, Vadodara-390007, GujaratWork shop - Block No. E-1, E-2, Nr. Payal Flat, Opp. GST Bhavan, Ellora Park, Vadodara-390023, Gujarat","Vadodara","Gujarat","390007","7043999851 / 52 / 53, 7043999854 / 55","vadodara.viraansh.sales@suzukidealers.net"
"VNL Suzuki","Domestic Bike Dealers","Showroom / Workshop: Indira Gandhi College Road, Sagara-577401, Karnataka","Shimoga","Karnataka","577401","9945624232"","sagara.vnl.sales@suzukidealers.net"
"VYAS SUZUKI","Domestic Bike Dealers","Plot No-8-9-104,NH-6,Shivani Murtizapur Road,Akola,Maharastra-444004","Washim","Maharashtra","444004","7066029791 / 9372826999 /9822220484 /9175041342  /9960198979 0724-2258510","akola.hbvyas.sales@suzukidealers.net"
"Walia Suzuki","Domestic Bike Dealers","Vill. & P.O Gutkar Teh. Balh Distt. Mandi -175021, Himachal Pradesh","Mandi","Himachal Pradesh","175021","01905246040, 9816034040","mandi.abhiwalia.sales@suzukidealers.net"
"WELCOME SUZUKI","Domestic Bike Dealers","Plot No. 99, Teachers Colony, Near District Collectorate, Tirunelveli-Thoothukudi Main Road, Thoothukudi-628101","Tuticorin","Tamil Nadu","628101","9443189491, 9443418818","tuticorin.welcome.sales@suzukidealers.net"
"WIN SUZUKI","Domestic Bike Dealers","Win suzuki,opp.Dr. Mathias Hospital,K.P. Road, Nagercoil-629001","Kanyakumari","Tamil Nadu","629001","9443131061 , 04652-223088/647858/656535,04652-425434 telefax","nagercoil.win.sales@suzukidealers.net"
"Zaveri Suzuki","Domestic Bike Dealers","Showroom & Workshop: Palanpur- Aburoad Highway, NH-14, Near Bihari Baugh, Palanpur-385001, Gujarat","Banaskantha","Gujarat","385001","Sales: 9429600073, 02742-261111 / Service: 9429600074","palanpur.zaveri.sales@suzukidealers.net"
"A. V. SUZUKI","Suzuki Premium Dealers","Show room - Splendour Building, P.No. 3&4, Sy. No. 52 to 56, Block No.5, Sahebnagar, Khurd Village, Hayathnagar Mandal, Ranga Reddy District, Telangana- 500070 | Work shop - 4-10-706, APIIC-ILA, Auto Nagar, Hyderabad-500070, Telanagana","K.V.Rangareddy","Telangana","500070","9542111126","hyderabad.avmotors.sales@suzukidealers.net"
"A.I.R. SUZUKI","Suzuki Premium Dealers","No-501, M.G. Road, Muthialpet, Pondicherry- 605001","Pondicherry","Pondicherry","605001","0413-2334004/2334003,
7867081808, 9944276563 (SM), 9489587676 (WM), 8870461605 (SP)","pondicherry.airmotors.sales@suzukidealers.net"
"AAROOR SUZUKI","Suzuki Premium Dealers","Showroom & Workshop: Block No.10, Ward No.3, Thilagar 1st Street, Vijayapuram, Thiruvarur-610001, TamilNadu","Tiruvarur","Tamil Nadu","610001","9626660330; 04366-250123","thiruvarur.aaroor.sales@suzukidealers.net"
"AARUSH SUZUKI","Suzuki Premium Dealers","NRP Plaza, Pillar No.76, Balaji Nagar, Ringh Road, Mehdipatnam, Hyderabad-500048, Telanagana","K.V.Rangareddy","Telangana","500048","9133206633","hyderabad.aarush.sales@suzukidealers.net"
"ABHI SUZUKI","Suzuki Premium Dealers","Showroom: Plot No.7, Rithvik Enclave, GNT Road, Nellore-524004,Andhra Pradesh / Workshop: E-12, Industrial Park, Nellore-524004, Andhra Pradesh","Nellore","Andhra Pradesh","524004","9100089855","nellore.abhinav.sales@suzukidealers.net"
"ACE KUDALE SUZUKI","Suzuki Premium Dealers","Survey No.280, New Gat No. 1347/4, Wagholi, Tal: Haveli, District: Pune- 412207, Maharashtra","Pune","Maharashtra","412207","9822288260 (MD), 8308832222(SM), 7722021381(WM), 7722021382(SP)","pune.acekudale.sales@suzukidealers.net"
"ADHUNIK SUZUKI","Suzuki Premium Dealers","Plot No.14 New Motor Repairing Scheme, In front of Airport, Kota - 324007 Rajasthan","Kota","Rajasthan","324007","9887063883/9829000000 /9782453136 /7727078284  /8104347599 /0744-2360360/8696370360","kota.adhunik.sales@suzukidealer.net"
"ADRIAN SUZUKI","Suzuki Premium Dealers","No. 19, Ambattur Industrial Estate,Near Wavin Junction, Chennai - 600058, Tamilnadu.","Tiruvallur","Tamil Nadu","600058","Sales: 044-26881011,  9952991101 Service: 7358537899","chennai.adrian.sales@suzukidealers.net"
"ADVAITH AUTOMATION","Suzuki Premium Dealers","No. 40/1, Sri Venkateshwara Mansion, South End Road,Basavanagudi, Banglore-560004","Bangalore","Karnataka","560004","9880741841 / 9845059590 / 080 - 26763795 / 26763912","bangalore.advaith.sales@suzukidealers.net"
"Aerolex","Suzuki Premium Dealers","109, K. H. Road,Bangalore- 560027","Bangalore","Karnataka","560027","+91 9980009015","bangalore.aerolex.sales@suzukidealers.net"
"Akshat Suzuki","Suzuki Premium Dealers","Jaipur Road, In Front Of T.T. College & residence of police commissioner, Ajmer-305001","Ajmer","Rajasthan","305001","6378645537, 8059191129","ajmer.akshat.sales@suzukidealers.net"
"AKSHAYA SUZUKI","Suzuki Premium Dealers","No.1464 A, Madurai Main Road, Opp. to TNSTC depot, Karaikudi, TamilNadu-630001","Sivaganga","Tamil Nadu","630001","9994555577 (MD) Showroom Nos.-04565-225600,225044","karaikudi.skma.sales@suzukidealers.net"
"ALLIANZE SUZUKI","Suzuki Premium Dealers","643/035 purania Tiraha, Opp. Eidico Park View, Sitapur Road,Lucknow,Pin-226020,Uttar Pradesh","Lucknow","Uttar Pradesh","226020","8127768888 / 8960540466 / 8960469508","lucknow.allianze.sales@suzukidealers.net"
"ALUVA SUZUKI","Suzuki Premium Dealers","Suzuki tower,thottakkattukkara,PO. Aluva-683108,kerala","Ernakulam","Kerala","683108","9249455995, 0484-2605520, 2603855, 2609355","aluva.aluva.sales@suzukidealers.net"
"Amit Suzuki","Suzuki Premium Dealers","Dhanki More, Agamkuan, Kankarbagh main road, Patna - 800007","Patna","Bihar","800007","8709074774, 9852181012, 9097707056, 8210028701","patna.siddh.sales@suzukidealers.net"
"AMMAN SUZUKI","Suzuki Premium Dealers","R.J.Plaza, Kadpadi Main Road, Near Palar Bridge,Viruthampet,Vellore-632006","Vellore","Tamil Nadu","632006","9443365456, 9443241189,0416-2242189 Fax, 0416-2245189","vellore.amman.sales@suzukidealers.net"
"AMP Suzuki","Suzuki Premium Dealers","Showroom- Khata No 309/390, Kanika Chhak, Near Sun Hospital, Bidanasi, Cuttack-753008 / Workshop- Plot No. 8-4C/758, Sector-8, CDA, Cuttack-753014","Cuttack","Odisha","753008","6370950610, 6370952860","cuttack.startevista.sales@suzukidealers.net"
"ANIMESH SUZUKI","Suzuki Premium Dealers","410, Elias Road Ward No. 6 Post office Kamarhati 24 Parganas (N). Kolkata 700058","North 24 Parganas","West Bengal","700058","8584074200 / 8584074199 / 8336968101 / 8584074205","mondal.sales@suzukidealers.net"
"ANKUR SUZUKI","Suzuki Premium Dealers","41,Harbans Nagar, Delhi Meerut Road, Ghaziabad -201001(U.P)","Ghaziabad","Uttar Pradesh","201001","0120-2853010 / 8588890191-98","ghaziabad.ankur.sales@suzukidealers.net"
"Anzen Suzuki","Suzuki Premium Dealers","Shop No. 8&9, Gahlot Majesty Building, Plot No.3A, Sector 46A, Palmbeach Road, Near Shreeji Heights (Akshar) Tower, Nerul Navi Mumbai- 400706, Maharashtra.","Thane","Maharashtra","400706","8058483333","nerul.anzen.sales@suzukidealers.net"
"APCO SUZUKI","Suzuki Premium Dealers","Chakorathkulam Junction, P O Nadakav, Kannur Road, Calicut-673011, Kerala","Kozhikode","Kerala","673011","09895120737,0495-2369453,454,455(Tele fax)/9847011445","calicut.hapbco.sales@suzukidealers.net"
"APEX SUZUKI","Suzuki Premium Dealers","M/s Apex Autosales Pvt. ltd.439/17 (38), Hardoi Road,Sarai Mali Khan Crossing,Chowk, Lucknow-226003","Lucknow","Uttar Pradesh","226003","6391280001-5/9415001210/0522-4113456/0522-4961400","lucknow.apex.sales@suzukidealers.net"
"Apna Suzuki","Suzuki Premium Dealers","Showroom: Plot. No.132 MP Nagar zone 2, Bhopal, Madhya Pradesh 462011Workshop: Plot no. 238 MP Nagar Zone 2, Bhopal, Madhya Pradesh 462011","Bhopal","Madhya Pradesh","462011","0755-4222964; 6261786398; 62621766911","bhopal.apna.sales@suzukidealers.net"
"APNA SUZUKI","Suzuki Premium Dealers","Showroom: Beltola Chariali, Guwahati-781038, AssamWorkshop: Jainagar Road, Beltola, Near Reliance Market, Guwahati-781038, Assam","Kamrup","Assam","781038","8638999782, 9706187469","guwahati.apunar.sales@suzukidealers.net"
"APPLE AUTO","Suzuki Premium Dealers","615, 100 Feet Ring Road, (Near Deve Gowda Petrol Pump), Kathriguppe, B.S.K. 3rd Stage, Bangalore-560085.","Bangalore","Karnataka","560085","9900061222 / 8884446503 / 080 - 26697070 / 080 - 26698080","bangalore.appleauto.sales@suzukidealers.net"
"ARKE SUZUKI","Suzuki Premium Dealers","Showroom: Showroom No.2, Himalaya Elanza, RTO Circle, Ahmedabad- 380027, Gujarat.Workshop: GF-1, GF-2 Along with Basement, Dev Elegance, Keshavnagar Road, RTO Circle, Ahmedabad- 380027, Gujarat.","Ahmedabad","Gujarat","380027","9712973655 (Partner), 8905599555 (SM) 9638343437 (WM)","ahmedabad.turquoise.sales@suzukidealers.net"
"ARSH SUZUKI","Suzuki Premium Dealers","Ground Floor, Pushpa Hub, Navayard, Chhani, Vadodara -390024, Gujarat","Vadodara","Gujarat","390024","99099 77110; 02652777501; 02652777505","vadodara.arsh.sales@suzukidealers.net"
"ARTI SUZUKI","Suzuki Premium Dealers","Showroom :Gewal Bigha More, Opposite Dayal petrol Pump, P.S.- Rampur, Gaya 823001Workshop: Ghughari Tand, By pass, Dandi bag Road, Gaya Bihar 823001","Gaya","Bihar","823001","9430070100 /9939306592 /9955234233  /7352075686","gaya.autoengineering.sales@suzukidealers.net"
"ARUN MOTORS","Suzuki Premium Dealers","Plot No-13 &14, Kuranji Nagar, Oppt. ABT Maruti Showroom, Madurai-Dindigul By Pass Road, Madurai-625018","Madurai","Tamil Nadu","625018","9364291414, 0452-2667836/9344491414,9362151414","madurai.arunachal.sales@suzukidealers.net"
"ARYAN SUZUKI","Suzuki Premium Dealers","# 3, GROUND FLOOR, THIMMIAH ARCADE, DOMLUR, H.A.L. AIRPORT ROAD, BANGALORE - 560071.","Bangalore","Karnataka","560071","9845061888 / 9845045525 / 9845014851/ 080-41151873 (telefax)/41265300","bangalore.aryan.sales@suzukidealers.net"
"ATHVITH SUZUKI","Suzuki Premium Dealers","Survey No.451/2, Rajiv Gandhi Salai, Solinganallur, OMR, Chennai-600119, Tamil Nadu","Kanchipuram","Tamil Nadu","600119","Sales: 9884281914, Service: 9176306577","chennai.athvith.sales@suzukidealers.net"
"ATHYUK SUZUKI","Suzuki Premium Dealers","F-32, Second Avenue, Annanagar, Chennai-600102 Tamil Nadu","Chennai","Tamil Nadu","600102","Sales: 044-42018999, 9940237775, Service: 044-43018999, 9566157775","chennai.athyuk.sales@suzukidealers.net"
"Atul Suzuki","Suzuki Premium Dealers","Near Akashwani Signal, Jalna Road, Aurangabad -431001, Maharashtra.","Aurangabad","Maharashtra","431001","0240-2332886 / 0240-2326486 / 7083648364","aurangabad.pande.sales@suzukidealers.net"
"AUTO K SUZUKI","Suzuki Premium Dealers","Showroom- S6, S7, S8, Aadharsh Residency, Arlem Margao, South-Goa-403601, Goa/ Workshop- 30/4, GF –S1, Opp Masjid, Davorlim, Navelim-403707, Goa","South Goa","Goa","403601","7270999090, 7261999000, 8830163835, 9881810606","goa.autok.sales@suzukidealers.net"
"AUTOMATIC SUZUKI","Suzuki Premium Dealers","Shop No. 42 & 43 Kakade Plaza, Kakade City Kothrud, Karve Nagar Pune:411052","Pune","Maharashtra","411052","Sales- 8087087514/15/16, Service- 8087087517/18/19, 020-25471122, 020-25476412, Tele Fax,020-25476412,9923390001,9850426206","pune.automatic.sales@suzukidealers.net"
"AUTONITY SUZUKI","Suzuki Premium Dealers","Survey No 260/2/B, Shedage Wasti, Aundh Hinjewadi Road, Near Datt Mandir, Wakad, Pune, Maharashtra - 411057","Pune","Maharashtra","411057","9167575758 (Partner), 7420056105 (SM), 7420056106 (WM), 7420056107 (SP)","pune.autonity.sales@suzukidealers.net"
"AVANISH SUZUKI","Suzuki Premium Dealers","No.1706, 17th Cross, MRCR ,Behind Maruthi Mandir,Vijayanagr,Bangalore-560040,Karnataka","Bangalore","Karnataka","560040","9538250911, 8197900111, 8971900111, 8197800222","bangalore.avanish.sales@suzukidealers.net"
"Ayush Suzuki","Suzuki Premium Dealers","Showroom / Workshop: NH-28, Daudpur, In front of Jhonson tiles showroom, Gorakhpur- 273001, Uttar Pradesh","Gorakhpur","Uttar Pradesh","273001","7706900072, 7706900075","gorakhpur.ayush.sales@suzukidealers.net"
"B. N. Thakur Suzuki","Suzuki Premium Dealers","Showroom: Shop No: S-01, 02 & 03, Saldhana Kieran Apartments, Duler Mapusa Main Road, Mapusa -403507, Bardez, GoaWorkshop: Satpurush Steel Works, H.No. 195-C/12, Kasarwado,Khorlim, Mapusa- 403507, Bardez, Goa.","North Goa","Goa","403507","9096609000; 7410030597","mapusa.bnthakur.sales@suzukidealers.net"
"BAIDYANATH SUZUKI","Suzuki Premium Dealers","V.I.P chowk, Deoghar - 814112, Jharkhand","Deoghar","Jharkhand","814112","9431190433  /9430430364/8083987070  /8434033017","deoghar.trikutvehicles.sales@suzukidealers.net"
"BANGYA SUZUKI","Suzuki Premium Dealers","Bangya Automobiles Pvt. Ltd. Showroom - N. H. 34, Gabgachi, Jadupur, Malda, Pin-732103, West Bengal   Workshop - State Bank More, Near Railway Crossing, Gabgachi, Jadupur, Po: Kamlabari, Ps: E. Bazar, Malda-732103","Malda","West Bengal","732103","8640817624 / 8640817627 / 8640817626 / 8640817625 / 9153609900","malda.bangyaautomobile.sales@suzukidealers.net"
"BEDI SUZUKI","Suzuki Premium Dealers","Plot No. B-26, Phase-3, Ind. Area SAS Nagar, Mohali, Punjab-160059","Rupnagar","Punjab","160059","8568000002 /9592618777 /9872412272  /9855746222 /","mohali.bediautowings.sales@suzukidealers.net"
"Bera Suzuki","Suzuki Premium Dealers","O.T. Road, Bagnan, Howrah-711303, West Bengal","Howrah","West Bengal","711303","7501549522,  7003083303, 6295709537 (Sales), 9732784346 (Sales Manager), 9382345148 (Service)","howrah.trendytech.sales@suzukidealers.net"
"BERHAMPUR SUZUKI","Suzuki Premium Dealers","Plot No. 80, Ward No. 16, Alkapuri Market Complex, Dharma Nagar Main Road, Berhampur - 760002, Orissa","Ganjam","Odisha","760002","9776382499/ 9437558282/ 0680-2226633/ 0680-2226363","berhampur.lakshmi.sales@suzukidealers.net"
"Bharat Suzuki","Suzuki Premium Dealers","S. No. 14 & Hissa Number 3A/1/1/1, Near Solapur Highway, Near Tekawade Petrol Pump, Opp. Indraprasth Society, Hadapsar Pune- 411028, Maharashtra.","Pune","Maharashtra","411028","Showroom 9373689799, 8975704989, Workshop 7385369469","pune.bharat2.sales@suzukidealers.net"
"BHOJANNA SUZUKI","Suzuki Premium Dealers","Showroom: 317, HRBR Layout 1st Block, Service Road, Banaswadi Outer Ring Road, Near Horamavu Juction, Bangalore-560043, KarnatakaWorkshop: 101/1, 11th Cross, Munireddy Layout, Horamavu Main Road, Banaswadi, Bangalore-560043, Karnataka","Bangalore","Karnataka","560043","Sales: 08025429991; 08025429992; 9148656565, Service: 08025429993; 08025429994; 9900665796","bangalore.bhojanna.sales@suzukidealers.net"
"BINA SUZUKI","Suzuki Premium Dealers","Holding No. 361 of Ward No. 10, Hospital Road (NH-54), Silchar - 788005, Cachar, Assam","Cachar","Assam","788005","03842-221077 / 9957673745 / 7896084219","bina.sales@suzukidealers.net,binaauto@gmail.com"
"BOMBAY MOTORS","Suzuki Premium Dealers","A-40 Pratap Nagar, Jodhpur-342003","Jodhpur","Rajasthan","342003","0291-2762134/2657010 / 09829021323,2657011 Fax","jodhpur.bombayscooter.sales@suzukidealers.net"
"C G SUZUKI?","Suzuki Premium Dealers","Satyam Tower Shop No. 21 & 22, Plot 18 & 19, Sec 20 ,Kpoerkhairane, Navi Mumbai-400709, Maharashtra","Thane","Maharashtra","400709","9920205756 /9930948111/045456262 /9167771817  /9167771824","mumbai.cgmotors.sales@suzukidealers.net"
"CAPITAL SUZUKI","Suzuki Premium Dealers","Kumar Commercial complex, south Gandhi Maidan, Exhibition Road, Patna- 800001","Patna","Bihar","800001","9473240550, 8544327775,0612-6543111, 9199900900","patna.narayan.sales@suzukidealers.net"
"CASA SUZUKI","Suzuki Premium Dealers","D.no. 6-9-318/1/1, Raghavendra Colony, Hyderabad Road, Nalgonda-508001, Telangana","Nalgonda","Telangana","508001","8682248333","nalgonda.casa.sales@suzukidealers.net"
"CEE PEE SUZUKI","Suzuki Premium Dealers","Showroom: Devaki Towers, NH 47, Mamangalam, Palarivattom PO, Kochi -682025, Kerala Workshop- Vl/184 F, Thrikakkara PO, Pipeline, Near KMM College, Kochi -682021, Kerala","Ernakulam","Kerala","682025","9495500001 (Partner), 7592991177 (SM), 7594973114 (WM), 7594973110 (SP)","kochi.classic.sales@suzukidealers.net"
"CEE PEE SUZUKI","Suzuki Premium Dealers","Kallai Road,Near Kallai Railway Station, Kozhikode - 673003 Kerala","Kozhikode","Kerala","673003","9495500001 /8157900025 /8157900020  /8157900017 /0495-2324033/23255033","calicut.ceepee.sales@suzukidealers.net"
"Chandrani Suzuki","Suzuki Premium Dealers","Birati, Jessore Road, Madhyamgram, Kolkata-700051 West Bengal","North 24 Parganas","West Bengal","700051","9830191714, 03325148988, 25148989","kolkata.ccm.sales@suzukidealers.net"
"Chopra Suzuki","Suzuki Premium Dealers","Gurudev Nagar, Near Maharaja Regency, Ferozpur Road, Ludhiana Punjab-141001","Ludhiana","Punjab","141001","7717203222, 9814851147, 9855777147","ludhiana.cmv.sales@suzukidealers.net"
"CLASSIC SUZUKI","Suzuki Premium Dealers","Door No. 1105 & 1106, Opp. Lakshmi Mills, Lakshmi Mills Bus Stop, Avinashi Road, Coimbatore - 641037, Tamil Nadu","Coimbatore","Tamil Nadu","641037","0424-4220405, 9994600006, 9952240000, 9952250000","coimbatore.classic.sales@suzukidealers.net"
"CROWN SUZUKI","Suzuki Premium Dealers","Shop No12-19,first Floor,14-19,Sanket Heigths,Old Padra To Sun Pharma Road,O.P.Road,Vadodra-390015","","","390015","8511332299/ 9998018618/ 8511628888 /9909907234 /0256-2987777/ 2985555","baroda.crownbikes.sales@suzukidealers.net"
"CYPRESS SUZUKI","Suzuki Premium Dealers","Woodland House, Subhash Nagar Chowk, graphic Era Crossing, NH-72, Mohabewala, Dehradun-248002, Uttrakhand","Dehradun","Uttarakhand","248002","9411112252; 9412055666","dehradun.cypress.sales@suzukidealers.net"
"Daruga Suzuki","Suzuki Premium Dealers","SH-5, Kishorenagar, Contai, Purba Medinipur, 721401, WB","East Midnapore","West Bengal","721401","9681193290, 9903757008","contai.daruga.sales@suzukidealers.net"
"Deepkamal Suzuki","Suzuki Premium Dealers","Showroom - DEEPKAMAL SUZUKI Opposite Bachat Bhavan, Relief Road , Ahmedabad . Pin Code - 380001Workshop - DEEPKAMAL SUZUKI Opposite City C.U.Shah Commerce College, Lal Darwaja, Ahmedabad. Pin Code - 380001","Ahmedabad","Gujarat","380001","Showroom: 079-25350786, 7574086060  Workshop: 079-25501786, 7574096060","ahmedabad.deepkamal.sales@suzukidealers.net"
"DHANESH SUZUKI","Suzuki Premium Dealers","Near M.S.E.B. Power House, Bhigwan Road, Jalochi, Plot No. 129, Baramati-413102","Pune","Maharashtra","413102","9823034422/ , 02112-224114/ 221622","baramati.dhanesh.sales@suzukidealers.net"
"DHARMARAJ SUZUKI","Suzuki Premium Dealers","55, Ravindra Park Society, Nr, Mehsana Urban Co-op. Bank Ltd., Adajan Patia, Surat - 395009, Gujarat","Surat","Gujarat","395009","9925740000, 0261-4000 500/600, 9712510000","dharmarajauto@yahoo.co.in"
"DHARMASUT SUZUKI","Suzuki Premium Dealers","62/ Prasadi Plot, Sanskar Nagar, B/H Mandvi Octroi, Bhuj- 370001, Kutch, Gujarat.","Kachchh","Gujarat","370001","9879203458 / 9909939279 / 9825553691 / 02832 227818","bhuj.dharmasut.sales@suzukidealers.net"
"DHONE SUZUKI","Suzuki Premium Dealers","S. No. 47/30-C, Pl No.3, Parvati, Arneshwar Road, Pune- 411009, Maharashtra.","Pune","Maharashtra","411009","8928808657 / 020-24222002 / 7028923288 / 020-24222003","pune.dhone.sales@suzukidealers.net"
"DIMAPUR SUZUKI","Suzuki Premium Dealers","NH 29, Purana Bazar, Opp. SBI ,Dimapur 797112 Nagaland","Dimapur","Nagaland","797112","9436013301 /9436640621/9774020481 /8013170465  /8575872375","dimapur.mhenterprises.sales@suzukidealers.net"
"DREAM SUZUKI MUMBAI","Suzuki Premium Dealers","332, S.V. Road, Near Amboli Subway, Andheri West, Mumbai-400058, Maharashtra.","Mumbai","Maharashtra","400058","sales numbers 7715034000, 8451093000, 7777007355, 7777007255, 02226240706, 02226240705","mumbai.dreambikes.sales@suzukidealers.net"
"DWARKA SUZUKI","Suzuki Premium Dealers","D-3, Mahavir Enclave Main Palam Dabri Road, Dwarka, New Delhi - 110045","South West Delhi","Delhi","110045","9212082501, 9250000140, 9250000141, 011-25057033, 65170064","delhi.gdmotors.sales@suzukidealers.net"
"ETGO Suzuki","Suzuki Premium Dealers","Showroom / Workshop: H-152, Sec.-63, Noida-201309","Gautam Buddha Nagar","Uttar Pradesh","201309","7303394794","noida.etgo.sales@suzukidealers.net"
"G SQUARE SUZUKI","Suzuki Premium Dealers","Othalathumoottil Building,Vadavathoor P O, Kottayam -686010 Kerala","Kottayam","Kerala","686010","8086917555, 8086400082, 8801780000, 8086924555, 0481-2571092","kottayam.gsquare.sales@suzukidealers.net"
"G.L. SUZUKI","Suzuki Premium Dealers","Showroom: A-261, DERAWAL NAGAR, MAIN G.T. KARNAL ROAD, OPP. REGAL PALACE BANQUET HALL, NEW DELHI - 110 009 Workshop: B-35, INDUSTRIAL AREA G.T. KARNAL ROAD, OPP. GUJRANWALA TOWN, NEW DELHI - 110033","North West Delhi","Delhi","110033","8800919404 / 9311112755 / 9311113755 / 011-45669855 / 011-47060478 / 011-45669755 / 9311112055 / 9311114055","delhi.glsales.sales@suzukidealers.net"
"GAJANAN SUZUKI","Suzuki Premium Dealers","Plot No. A-21,M.I.D.C. Satara-415003","Satara","Maharashtra","415003","9422606029, 9422030568/ 02162-244688, sachin","satara.gajanan.sales@suzukidealers.net"
"GANDHINAGAR SUZUKI","Suzuki Premium Dealers","Plot No-28/A, G.T.S Road, Sector No-30, Gandhinagar-382030, Gujarat","Gandhi Nagar","Gujarat","382030","079-23260403/303(telefax)-23260404, 09825195222,9924135295","gandhinagar.umiya.sales@suzukidealers.net"
"GANPATI SUZUKI","Suzuki Premium Dealers","C-2/8 Kabir Nagar, 100ft Road Delhi - 110094","North East Delhi","Delhi","110094","9350995899 /9891641111/9810632869 /9818467169  /8860258588","delhi.ganpati.sales@suzukidealers.net"
"GARUDA SUZUKI","Suzuki Premium Dealers","Showroom / Workshop: Door No.19-6-27, AIR Bypass Road, D.R. Mahal Road, S.T.V. Nagar, Tirupati-517501, Andhra Pradesh","Chittoor","Andhra Pradesh","517501","7093129333, 9949477515","tirupati.garudabikes.sales@suzukidealers.net"
"GDCL Suzuki","Suzuki Premium Dealers","A.T.Road, Kotoky Pukhri, Jorhat-785006, Assam","Jorhat","Assam","785006","9854005544, 7002249090","jorhat.gdcl.sales@suzukidealers.net"
"GDPR SUZUKI","Suzuki Premium Dealers","2/1416A, Thirthangal Road, Sivakasi-626123, Virudhunagar District, Tamilnadu","Virudhunagar","Tamil Nadu","626123","9443144436 /9894956268 /9940340515  /9500355443","sivakasi.gdpr.sales@suzukidealers.net"
"GEM SUZUKI","Suzuki Premium Dealers","H.No. 6-3-1005/1/A, Rajbhavan Road, Somajiguda, Hyderabad-500082, Telangana","Hyderabad","Telangana","500082","9133392319","hyderabad.gem.sales@suzukidealers.net"
"GEM SUZUKI","Suzuki Premium Dealers","Survey No.64,Kondapur Main Road, Kondapur, Hitec City, Hyderabad - 500081","Hyderabad","Telangana","500081","9347121212 /9948161812 /9133392313  /8523083573 /","hyderabad.gemmotors.sales@suzukidealers.net"
"GLOBAL SUZUKI","Suzuki Premium Dealers","4/590,591, Eranad Tower, Mepparamba-Palkkad Byepass, Mepparamba, Palakkad, Kerala-678001","Palakkad","Kerala","678001","8547641851 /8547641852  /8547641852","palakkad.able.sales@suzukidealers.net"
"GOLDEN SUZUKI","Suzuki Premium Dealers","Toms Motors Pvt. Ltd.,22-13/1, kizhakkedathu, college road,Pathanamthitta-689645,Kerela","Pathanamthitta","Kerala","689645","9349543310, 9387443300","goldensuzuki.ptasale@gmail.com"
"GUD'S SUZUKI","Suzuki Premium Dealers","Main Road Nishatganj Lucknow-226016 U.P","Lucknow","Uttar Pradesh","226016","9415024495 / 7706828001 /8601555548  /7706828005","lucknow.gudscar.sales@suzukidealers.net"
"HALDWANI SUZUKI","Suzuki Premium Dealers","Plot No.199-201, Uttar Gaujajali Bareilly Road, Haldwani, Uttaranchal-263139","Nainital","Uttarakhand","263139","9719322667/6395366320/9927332491/9837443516/9719960641","haldwani.kesar.sales@suzukidealers.net"
"HARIOM SUZUKI","Suzuki Premium Dealers","Oberai Chambers Beside Hotel Amarpreet Jalna Road, Aurangabad-431001","Aurangabad","Maharashtra","431001","9422071229, 9423776085, 0240 2358854, 2358855","aurangabad.hariauto.sales@suzukidealers.net"
"HIRA SUZUKI","Suzuki Premium Dealers","H.No.8-6-448A, Hyderabad Road, Kothirampur, Karimnagar-505001, Telangana","Karim Nagar","Telangana","505001","8978958066 (MD), 9121388686 (SM), 9912913909 (WM), 9676703148 (SP)","karimnagar.laxmiganpati.sales@suzukidealers.net"
"HOOGHLY SUZUKI","Suzuki Premium Dealers","khadinamore,P.O.&P.S-Chinsurah Hooghly-712101 west Bengal","Hooghly","West Bengal","712101","033-26807744/26807745,9831573305","hooghly.chinsurahauto.sales@suzukidealers.net"
"I SUZUKI","Suzuki Premium Dealers","Paritosh-2, Near Mahavir Hall Char Rasta, Ajwa Road, Vadodara- 390019, Gujarat","Vadodara","Gujarat","390019","9484606464, 9824799179","vadodara.indu.sales@suzukidealers.net"
"INDEL SUZUKI","Suzuki Premium Dealers","Maliyekkal House, 12/196, Main Road Opp Mths, Kuriachira (Po) Thrissur - 680006 Kerala","Thrissur","Kerala","680006","9072620020 / 8111999115 / 8111999120 / 8111999101","trichur.indel.sales@suzukidealers.net"
"IRONIK Suzuki","Suzuki Premium Dealers","Showroom - Plot No.6, Gawande Layout, Ring Road,Nagpur-440015, MaharashtraWorkshop - 11, Vivekanand Nagar, Deo Nagar Square,Nagpur-440015, Maharashtra","Nagpur","Maharashtra","440015","762,060,006,076,206,000,000,000,000,000","nagpur.ironik.sales@suzukidealers.net"
"J N Suzuki","Suzuki Premium Dealers","Showroom / Workshop: Block A, Mawblei, Adjacent to Indian Oil Petrol Pump Shillong-793021 Meghalaya","East Khasi Hills","Meghalaya","793021","8258970246, 8787357001","shillong.jnmotors.sales@suzukidealers.net"
"Jaimal Suzuki","Suzuki Premium Dealers","33, Grain Market, Telephone Exchange Square, Central Avenue Road, Nagpur-440008, Maharashtra","Nagpur","Maharashtra","440008","0712-2722444 / 0712-6463666 / 0712-6463555 / 8087266131 / 7030988439","nagpur.jaimal.sales@suzukidealers.net"
"Jain Suzuki","Suzuki Premium Dealers","Ward No. 5, Veer Nagar Railway Road, Jagadhari, Yamunanagar-135001 Haryana","Yamuna Nagar","Haryana","135001","9896100396, 9416026118","yamunanagar.jagadhri.sales@suzukidealers.net"
"JAIN'S SUZUKI","Suzuki Premium Dealers","79/95, GST ROAD, PALLAVARAM, CHENNAI - 600043 (OPP. TO OLYMPIA GRANDE FLATS , NEXT TO LAXMI THEATRE)","Kanchipuram","Tamil Nadu","600043","8190087770 / 8190087771 / 8190087772 / 8190087774 / 8190087775 / 8190087778 / 9710076677 ,044 - 22644001 / 22644002 / 22644100","chennai.jain.sales@suzukidealers.net"
"JAMNAGAR SUZUKI","Suzuki Premium Dealers","K.P house,Opp. Dhanvantri Mandir, P.N.Marg (Near Thaker Stores), Jamnagar-361008","Jamnagar","Gujarat","361008","9909003359 / 9909003358 / 0288 - 2672255,56,57,2672277 Fax","jamnagar.dreamz.sales@suzukidealers.net"
"JAYAN SUZUKI","Suzuki Premium Dealers","Door No.11-6-83 to 87 & 11-6-88 to 92, Moosa Pet, Y Junction, Kukatpally, Hyderabad-500072, Telangana","Hyderabad","Telangana","500072","6281732403","hyderabad.jayan.sales@suzukidealers.net"
"JWALA SUZUKI","Suzuki Premium Dealers","1/B, Chandra Centre,Near Hotel Sagar Kashidih, Sakchi, Jamshedpur-1,pin-831001","East Singhbhum","Jharkhand","831001","0657-2441659/2441660/9939173730,2428972 Fax,9431131134","jamshedpur.jwala.sales@suzukidealers.net"
"JYOTE SUZUKI","Suzuki Premium Dealers","Plot No 516, Mouza Patia, Bhubaneswar, Distt. Khurda- 751024, Odisha","Khorda","Odisha","751024","7064435309-SM / 7064435310-WM / 7064435311-SPD / 7064435301-Reception","bhubaneswar.jyote.sales@suzukidealers.net"
"KANNUR SIGNATURE","Suzuki Premium Dealers","Autozone, Thazha Chovva, Kannur- 670006, Kerala.","Kannur","Kerala","670006","0497-2728484, 9539117755, 9995822522, (0497) 2728484, 2728490 (fax) / 9847001234, 9995822500","kannur.signature.sales@suzukidealers.net"
"KANTIPUDI","Suzuki Premium Dealers","Door No. 14-105/1, Morumpudi Jn., V.L. Puram, Rajamundry (AP)-533105","East Godavari","Andhra Pradesh","533105","8688335577","rajamundry.kantipudi.sales@suzukidealers.net"
"KANTIPUDI SUZUKI","Suzuki Premium Dealers","Showroom / Workshop: 2-31-5, T.S. No.2029/6, Ward No.2, Padmapriya Theatre Road, Sri Nagar, Kakinada, East Godavari, Andhra Pradesh-533003","East Godavari","Andhra Pradesh","533003","7997722455, 7997722456, 7997722457","kakinada.kantipudi.sales@suzukidealers.net"
"KARAN AUTOMOBILES","Suzuki Premium Dealers","Plot No. 469,Ground Floor, Khanuja Complex,Vivekanand Asharam Chowk, GE Road, Raipur C.G-492001","Raipur","Chattisgarh","492001","0771-4025757/4025858/9329578900Devendra,9993918000,4270809Fax, 9993456789","raipur.karan.sales@suzukidealers.net"
"KARUNA SUZUKI","Suzuki Premium Dealers","Door No.150, New Door No.399, Sathy Main Road, Ganapathy, Coimbatore-641006","Coimbatore","Tamil Nadu","641006","0422- 4278000 / 9789466362 / 9787466700 / 9787466922  /9787466002","coimbatore.karunakaran.sales@suzukidealers.net"
"KARUNA SUZUKI","Suzuki Premium Dealers","27-G-1, Gandhi Road, Anuparpalayam, Tirupur- 641652, Tamilnadu","Coimbatore","Tamil Nadu","641652","0421-4350023 / 9789466362 / 9787455117 / 9940002822","tirupur.karunakaran.sales@suzukidealers.net"
"KASARGOD SIGNATURE","Suzuki Premium Dealers","Building No. K M C VII 38(1) & K M C VII 38(2)National Highway, Vidya Nagar,Kasargode- 671317, Kerala","Kasargod","Kerala","671317","9847001234,Ph: 0499-4253325, 0499-4257555S/R Manager ? 9995888500 (Mr. Rizan)W/S Manager ? 9496166077 (Mr. Sathish","kasargode.signature.sales@suzukidealers.net"
"KHANDELWAL MOTORS","Suzuki Premium Dealers","9/1/2 M.G.Road, Suraj Bhawan,Indore-452001","Indore","Madhya Pradesh","452001","9893564810 / 0731-2518222/4290729 (Tele Fax)","indore.khandelwal.sales@suzukidealers.net"
"KHATWANI SUZUKI","Suzuki Premium Dealers","1655, Wright Town,Opp. Petrol Pump, , Jabalpur-482002","Jabalpur","Madhya Pradesh","482002","9893590390 / 9893590391","jabalpur.jabalpur.sales@suzukidealers.net"
"Khwaja Suzuki","Suzuki Premium Dealers","Door No-7/12 Madras Road,Chinna Chowk Cuddapah, Andhra Pradesh-516002","Cuddapah","Andhra Pradesh","516002","9966308777 / 08562 - 241189(telefax),645642/9440923177","cuddapah.khwaja.sales@suzukidealers.net"
"KIRAN MOTORS SUZUKI","Suzuki Premium Dealers","Ushadeep Complex, Nr. Navrangpura Police Station, Mithakhadi Road, Ahmedabad -380009, Gujarat","Ahmedabad","Gujarat","380009","9824061111 (M.D.), 7211117452 (SM), 7211117459 (WM), 7567762398 (SP)","ahmedabad.kiran2.sales@suzukidealers.net"
"KIRAN SUZUKI","Suzuki Premium Dealers","Showroom: Shop NO 2127 & 2128, 268, Motilal Nagar No 1,  Near VIBGYOR School, Link Road, Goregaon W, Mumbai - 400065 / Workshop: 286/2271-72, Motilal Nagar No. 1, Near Shivsena Shakha, Near Siddharth Hospital Circle, Goregaon (West) Mumbai-400062, Maharashtra","Mumbai","Maharashtra","400065","9820053511/ 8691018035 /9833767825 /9769282858  /9423485466  /022-28788680 /28788682","mumbai.kiranauto.sales@suzukidealers.net"
"KIRAN SUZUKI","Suzuki Premium Dealers","Unit No. 18, Kalpataru Industrial Eastate,Behind R. Mall, G.B. Road Manpada,Thane West -400604, Maharashtra.","Thane","Maharashtra","400604","8691018036 / 022-25432410 / 25394134 / 25394130","thane.kiranautowheels.sales@suzukidealers.net"
"KPR SUZUKI","Suzuki Premium Dealers","No/ C1,New Kantharaja URS Road,(Opp) Apollo Hospital Kuvempungar, Mysore-570023","Mysore","Karnataka","570023","9448460899 / 9880179677 / 0821-4000009/08 / 9945248099","mysore.kpr.sales@suzukidealers.net"
"Krishna Suzuki","Suzuki Premium Dealers","Show Room: Shop No. 4, Merlin Pentagon, Mahalaxmi Five Road, Paldi, Ahmedabad - 380007, Gujarat.Work Shop: G-1, Mahalaxmi Complex, Mahalaxmi Cross Road, Vikas Gruh Road, Paldi, Ahmedabad -380007, Gujarat.","Ahmedabad","Gujarat","380007","7719015555 / 7043774442  / 7043774443 / 7043774443","ahmedabad.krishna.sales@suzukidealers.net"
"Krishna Suzuki","Suzuki Premium Dealers","Nakodar Road, Opp. Nari Niketan School, Jalandhar city-144001, Punjab","Jalandhar","Punjab","144001","8699999989; 9872917517","jalandhar.krishna.sales@suzukidealers.net"
"KRITHI SUZUKI","Suzuki Premium Dealers","Showroom/Workshop: No.123, G.N.T. Byypass Road, Redhills, Chennai-600052, TamilNadu","Tiruvallur","Tamil Nadu","600052","8056238056, 9962512110, 044-2632 0510/ 0610/ 0710","chennai.krithi.sales@suzukidealers.net"
"KUDANTHAI SUZUKI","Suzuki Premium Dealers","1/174, Main Road, Chettimandabam, Kumbakonam- 612001, Tamil nadu.","Thanjavur","Tamil Nadu","612001","9790426472 /9500997335 /9715099216  /9789395204","kumbakonam.kudanthai.sales@suzukidealers.net"
"KUMAR SUZUKI","Suzuki Premium Dealers","Khasra No 319, Sohna Road, Village. Islampur, Near JMD Garden– Gurgaon-122001                                                                   Haryana","Gurgaon","Haryana","122001","0124- 2208696 / 9873422796 / 9643310135 / 9911910096","gurgaon.kumarbikes.sales@suzukidealers.net"
"KUNDE SUZUKI","Suzuki Premium Dealers","Survey No. 223/18, Gounlloy, NH-17, NUVEM SALCETE, GOA-403604","","","403604","9822126964 /7774013400/7774013380 / 7774013390  /7774013389","margao.kunde.sales@suzukidealers.net"
"LBS SUZUKI","Suzuki Premium Dealers","C-4,Bawngkawn,Near Durtlang Road Traffic point,Aizawl,Mizoram-796014","Aizawl","Mizoram","796014","8974402763 /9612338588 /9615456260  /9615949839","aizawl.lbsauto.sales@suzukidealers.net"
"MAA SUZUKI","Suzuki Premium Dealers","17, Padmanabh Nagar, Municipal Corporation,Ward No. 44, Raisen Road, Bhopal -462023, Madhya Pradesh","Bhopal","Madhya Pradesh","462023","9977407636 /8435320960 /7566851938  /9713840146","bhopal.maaautocorp.sales@suzukidealers.net"
"MADHAV SUZUKI","Suzuki Premium Dealers","Anmol Building, Kuwadva Road, Rajkot -360003, Gujarat","Rajkot","Gujarat","360003","02812-456448; 6351899155; 6351899160","rajkot.madhav.sales@suzukidealers.net"
"Mahalaxmi Suzuki","Suzuki Premium Dealers","55, Shiv Kunj, Mahalaxmi Tower, Near Crown Public School, Harmu bye pass Road, Harmu, Ranchi-834001, Jharkhand","Ranchi","Jharkhand","834001","9504341122, 9955036000","ranchi.reeta.sales@suzukidealers.net"
"MAHALAXMI SUZUKI","Suzuki Premium Dealers","M/s Priyanka Motors Pvt. Ltd.12-5-149/19/2, Opp to N.I.N., Beside Metro Station,Main Road, Tarnaka, Secunderabad, Andhra Pradesh- 500017","Hyderabad","Telangana","500017","9246852534/9246152534 /9985441899 /9394884497  /7416465244 /040-66188881","hyderabad.priyanka.sales@suzukidealers.net"
"MALIK SUZUKI","Suzuki Premium Dealers","8-1-366/B/9, 9/A, Main Road, Tolichowki, Hyderabad - 500008, Andhra Pradesh","K.V.Rangareddy","Telangana","500008","9849033330 /8008910000/040-23565522/23565588/23565599/8885000251/ 8885000260 / 8885000258  Fax :040-23567890","hyderabad.elegant.sales@suzukidealers.net"
"MANGATTIL SUZUKI","Suzuki Premium Dealers","Tanur Road,Moochikkal,Tirur,Malappuram Dist-676307,Kerala","Malappuram","Kerala","676307","7592800800, 9072555005, 0494-2425199","tirur.mangattil.sales@suzukidealers.net"
"MANGATTIL SUZUKI","Suzuki Premium Dealers","Kozhikode Road, Konompara, Melmuri, Malappuram- 676517,  Kerala","Malappuram","Kerala","676517","9349800600 (Sales), 7356333744 (Service)","malappuram.mangattil.sales@suzukidealers.net"
"MARK SUZUKI","Suzuki Premium Dealers","Shaukat House (Old Court Building), Opp Kurla Garden, Near Kurla Court, IBS Marg, Kurla (W) - 400070, Mumbai, Maharashtra","Mumbai","Maharashtra","400070","9223300786; 7021380399; 8693836958","mumbai.mark.sales@suzukidealers.net"
"MBD SUZUKI","Suzuki Premium Dealers","Sankosai Dimna road, Mango, Jamshedpur-831012","East Singhbhum","Jharkhand","831012","8521617501; 7903683020","jamshedpur.mbd.sales@suzukidealers.net"
"MEGHAVATH SUZUKI","Suzuki Premium Dealers","Munivenkatappa Complex 36/1, , 7th Bellary Main Road,Ganganagar, Bangalore 560032 KarnatakaBangalore -","Bangalore","Karnataka","560032","9880033448 /8971300677 /9036141991  /9663600219 /060-41485418","bangalore.meghavath.sales@suzukidealers.net"
"MEGHDOOTH SUZUKI","Suzuki Premium Dealers","Trinity Church Complex,Trinity Circle,M G Road, Bangalore 560008","Bangalore","Karnataka","560008","9880081000 / 9738156160 / 9901165455 / 080-25596606/ 4461/ 25583399 /080 25573131/3232","bangalore.meghdooth.sales@suzukidealers.net"
"MIDAS SUZUKI","Suzuki Premium Dealers","Deshmukh Plaza,plot No:-2,S.N.-231+234,/1B+234/A2,Near Savedi Bus Stand,Nagar-Manmad Highway,Savedi,Ahmednagar-414003","Ahmed Nagar","Maharashtra","414003","9822751234 /9422221386 /9689159765  /9271977171 /(0241)-2341144/ 2341145/9623011122/ 9623011144","ahmednagar.bhapkar.sales@suzukidealers.net"
"MIDAS SUZUKI","Suzuki Premium Dealers","Plot No. 38; Survey No. 127/1, SriKrupa Market, Premises of Mahboob Mansion, Hyderabad Agriculture Market Committee, Malakpet, Hyderabad-500036, Andhra Pradesh","Hyderabad","Telangana","500036","9885011616 , 9246535646, 9246277272, 040 6602 1133","hyderabad.atm.sales@suzukidealers.net"
"MOHITE SUZUKI","Suzuki Premium Dealers","517 A/1, Rote Chambers, Old P.B. Road, Kolhapur - 416005.","Kolhapur","Maharashtra","416005","9860497777 / 9850446865 / 0231 2530061",""
"MOTORCYCLE HOUSE","Suzuki Premium Dealers","14/147(1) &14/148(1), Chunniganj, Kanpur-208001","Kanpur Dehat","Uttar Pradesh","208001","9839231078/9838859090/0512-2533093","kanpur.motorcyclehouse.sales@suzukidealers.net"
"MOZI SUZUKI","Suzuki Premium Dealers","No.9/2, Annamalai Nagar, Karur Bypass Road, Trichy-620018, Tamil Nadu","Tiruchirappalli","Tamil Nadu","620018","8344555055","trichy.mozi.sales@suzukidealers.net"
"MPC SUZUKI","Suzuki Premium Dealers","1, KVIC Nagar, Velacherry Main Road, Gowrivakkam, Selaiyur, Chennai-600073, Tamil Nadu","Kanchipuram","Tamil Nadu","600073","7397775578 (Sales), 7397775581 (Service), 7397775583 (Spares)","chennai.mpc.sales@suzukidealers.net"
"MRP SUZUKI","Suzuki Premium Dealers","Vikranta Appartment, Shop No. 1, Ground Floor, Shantinagar, Kalyan Ambernath Road, Ulhasnagar-421003","","","421003","9923054054,08087000000,8087988882,09923054054,08793000027 / 28","ulhasnagar.mrp.sales@suzukidealers.net"
"NACHIYAR SUZUKI","Suzuki Premium Dealers","No.119, Abraham Pandithar Garden,  M.C. Road, Thanjavur-613007, Tamil Nadu","Thanjavur","Tamil Nadu","613007","7339510033, 04362245999","thanjavur.nachiyar.sales@suzukidealers.net"
"NAKODA SUZUKI","Suzuki Premium Dealers","Showroom  – 3A- Ridhi Sidhi Ind.Co.Op. Society, Nr. Daxeshwar Mahadev Temple, Opp. Daxeshwar BRTS, Udhna, Surat-394221, Gujarat / Workshop  – Plot No.19-20, Ground Floor, Laxminarayan Industrial Park, Nr. BRC, Udhna, Surat-394210, Gujarat","Surat","Gujarat","394221","9924536633, 9106308925, 9913316961, 9924536633","surat.nakoda.sales@suzukidealers.net"
"NARAYAN SUZUKI","Suzuki Premium Dealers","City Centre, Main Road, Gwalior- 474011, Madhya Pradesh","Gwalior","Madhya Pradesh","474011","9826055914, 7694014755, 7694014754, 7694014753","gwalior.nrmautomobiles.sales@suzukidealers.net"
"NIKAMUL SUZUKI","Suzuki Premium Dealers","Dag No. 462 of Patta No. 228, Village Mazgaon, Distt. Sonitpur, Tezpur - 784001, Assam","Sonitpur","Assam","784001","9435704151, 7399127446, 9706647927, 8876216030, 9085753591, 03712-255816","tezpur.pkb.sales@suzukidealers.net"
"NINESTAR SUZUKI","Suzuki Premium Dealers","S.No-43,Beretana Agrahara, Chikkathogur,Electronic Post,Hosur Main Road,Bangalore-560100","Bangalore","Karnataka","560100","9980377900/9480103333 /7259512222(GM)/9900040355 /9900040344  /9900038337 /080-49063333/","bangalore.ninestar.sales@suzukidealers.net"
"NIRMALA SUZUKI","Suzuki Premium Dealers","Showroom: TC-54/146, 54/147, 54/148, 54/149, Saraswathy Building, Karmana, Manacaud, Thiruvananthapuram- 695002, Kerala <br/>Workshop: TC No.23/1138-1, CIT Road, Thycaud, Thiruvananthapuram- 695002, Kerala","Thiruvananthapuram","Kerala","695002","62820 13881 / 82; 95442 14400 / 95441 84400","trivandrum.nirmala.sales@suzukidealers.net"
"NISHANT SUZUKI","Suzuki Premium Dealers","B. D. Complex, Barkagaon Road, Hazaribagh-825301, Jharkhand","Hazaribag","Jharkhand","825301","9631735881; 8603239523; 7070690939","hazaribagh.deepjyoti.sales@suzukidealers.net"
"NITARA SUZUKI","Suzuki Premium Dealers","Nitara Suzuki, Near Varsha Industries, Bhagwanganj, Bhopal Road, Sagar - 470002, (MP)","Sagar","Madhya Pradesh","470002","7693092390   /8305090310  /9993370805  9826560929","nitara.sales@suzukidealers.net"
"NJ SUZUKI","Suzuki Premium Dealers","Old No.1972, New No.-430, Opp. Coimbatore Stock Exchange, Trichy Road, Singanallur (Post), Coimbatore-641005, Tamil Nadu","Coimbatore","Tamil Nadu","641005","9942902200 (Sales), 8489812200 (Service), 9047712200 (Spares)","coimbatore.njbikes.sales@suzukidealers.net"
"NJ SUZUKI","Suzuki Premium Dealers","48/244, Sathy Road Veerappan Chathiram, Erode - 638004 Tamil Nadu","Erode","Tamil Nadu","638004","9842702200  8012502200 8675102200   7402702200","erode.njbikes.sales@suzukidealers.net"
"OM SAI SUZUKI","Suzuki Premium Dealers","At- Santara, PO-Dala, Ps- Jajpur Road, Distt- Japur-755019, Odisha","Jajapur","Odisha","755019","9438683293 / 8598899001","jajpur.sahoo.sales@suzukidealers.net"
"ORIENT SUZUKI","Suzuki Premium Dealers","Showroom : Plot No. 2087/2088 Golden Arcade, Burdwan road, Siliguri- 734002.Workshop- H/No. 480/325/327, Ward No. 7, Vidyasagar Pally, Siliguri- 734002.","Darjiling","West Bengal","734002","7,872,322,002,787,230,000,000,000,000,000,000,000,000","nordustra.sales@suzukidealers.net,uri.nordustra.sales@suzukidealers.net"
"ORION SUZUKI","Suzuki Premium Dealers","518, Bhuvanappa L/O, Hosur Road, Bangalore-560029, Karnataka","Bangalore","Karnataka","560029","Sales: 9535081055 / Service: 9035083900 / Spare: 9535997986","bangalore.motomart.sales@suzukidealers.net"
"P D Suzuki","Suzuki Premium Dealers","Showroom & Workshop: Plot No.: J-203, MIDC Tarapur, Boisar, Tal/Dist- Palghar-401506, Maharashtra","Thane","Maharashtra","401506","Sales - 7558446330; 7558445686
<br/>Service - 7558446130","boisar.pd.sales@suzukidealers.net"
"Pacholi Suzuki","Suzuki Premium Dealers","Plot No. 6/38, Rajiv Colony, NH-8, Gurugram-122001, HARYANA.","Gurgaon","Haryana","122001","9999916375, 0124-2200002, 9205081725","gurugram.pacholi.sales@suzukidealers.net"
"PADMAJA SUZUKI","Suzuki Premium Dealers","Padmaja Commercial Corporation, P.B. No. 709, Prabhu Nilayam MG Road,labbipet, Vijaywada-520010","Krishna","Andhra Pradesh","520010","9666678830/(0866)2474060,2474760,2477840(fax)","vijaywada.vallurupalli.sales@suzukidealers.net"
"PADMAJA SUZUKI","Suzuki Premium Dealers","Door No.88/P, Block-D, Srinagar, NH-5, Old Gajuwaka, Visakhapatnam-530026, Andhra Pradesh","Visakhapatnam","Andhra Pradesh","530026","0891- 2757833, 0891- 2757834 , 9885794646","gajuwaka.padmaja.sales@suzukidealers.net"
"PADMAJA SUZUKI","Suzuki Premium Dealers","1-18-6/1, MVP Colony, Sector-12, Lawsons Bay Colony, Visakhapatnam-530017, Andhra Pradesh","Visakhapatnam","Andhra Pradesh","530017","8886617022","visakhapatnam.padmaja.sales@suzukidealers.net"
"PAI SALES","Suzuki Premium Dealers","Pai Chambers, Mangladevi Temple Road, Pandeshwar, Manglore-575001","Dakshina Kannada","Karnataka","575001","9845081446 / 9845083804 / 9845353328 / 0824-4260001 telefax/ 2420650","mangalore.paisales.sales@suzukidealers.net"
"PALAKKAD SUZUKI","Suzuki Premium Dealers","N.H. - 47, By Pass, Chandranagar Junction, Chandranagar, Palakkad - 678007, Kerala","Palakkad","Kerala","678007","09847038095, (0491) - 2572549/1549,2571549(fax),9847799043,9946100007","palakkad.pannivelil.sales@suzukidealers.net"
"Parameswar Suzuki","Suzuki Premium Dealers","Showroom: 38B, G.T. Road, Uttarpara Hooghly-712232 West Bengal / Workshop: 188/2, 188/3, & 188/4, K. G. T. Road Uttarpara Hooghly, WB-712233","Hooghly","West Bengal","712232","9477775570, 033-29880248","hoogly.parameswar.sales@suzukidealers.net"
"PARASHAR AUTO","Suzuki Premium Dealers","Speaker Chowk, Kalambagh Road, Muzzafarpur-842001","Muzaffarpur","Bihar","842001","9430974511/(0621)2240243/3209681/2247265(Fax)","muzzafarpur.parashar.ceo@suzukidealers.net"
"Pashupati Suzuki","Suzuki Premium Dealers","P. N. Road, Chiring Chapori, Dibrugarh - 786001, Assam","Dibrugarh","Assam","786001","9678074078","dibrugarh.srikantha.sales@suzukidealers.net"
"PATEL SUZUKI","Suzuki Premium Dealers","IB House, 150ft. Ring Road, Navjyot Park Corner, At - Amin Marg Junction, Besides Prasang Hall, Rajkot - 360005, Gujrat","Rajkot","Gujarat","360005","0281 -2577734/ 2577764 /9724200707/ 9724322280/ 9724322289/9909022273","rajkot.ibmotors.sales@suzukidealers.net"
"PATHIKKAL MOTORS","Suzuki Premium Dealers","Pathikkal Building, Calicut Road, Perintalmanna, Mallapuram-679322","Malappuram","Kerala","679322","09446251841,04933-225393,94,225295","mallapuram.pathikkal.sales@suzukidealers.net"
"Pearl Suzuki","Suzuki Premium Dealers","Jammu Pathankot Highway, Kunjwani Chowk Jammu-180010","Jammu","Jammu & Kashmir","180010","8899001523, 8899001520","jammu.bikemart.sales@suzukidealers.net"
"Pearl Suzuki","Suzuki Premium Dealers","Show room - Ground Floor, 145, Machla Magra Scheme, Sector 11 Road, Opp. Hotel Paras Mahal, Udaipur Rajasthan-313001Work Shop - Lower Ground Floor, 126, Sector 11, Below Tata Paso Motors, Udaipur-313001","Udaipur","Rajasthan","313001","9116635341, 7340060904, 9116635342, 9116635343","udaipur.sdy.sales@suzukidealers.net"
"PHOENIX SUZUKI","Suzuki Premium Dealers","1848/1, 2, 3,Hunsur Main Road, Hinkal, Yelawala Hobli,Mysore-570017Karnataka","Mysore","Karnataka","570017","9845254545 /9986111446 /934223375  /9886629211 / 821-4000406/407/    821-4000626/636","mysore.janani.sales@suzukidealers.net"
"PLANET SUZUKI","Suzuki Premium Dealers","1st Floor, Shakti Enclave,Opp. BSNL Office,Kankaria Road,Maninagar,Ahmedabad-380008","Ahmedabad","Gujarat","380008","9825009493/ 9825005360/8238067143/ 079-30428280","ahmedabad.ishwar.sales@suzukidealers.net"
"PONNI SUZUKI","Suzuki Premium Dealers","Showroom: 5B, Ponni Complex, Vellore Main Road, Tiruvannamalai- 606601, TamilNadu | Workshop: 5B, Ponni Complex, Vellore Main Road, Tiruvannamalai- 606601, TamilNadu","Tiruvannamalai","Tamil Nadu","606601","9787850000,7094333355,7094333399,7094333366","tiruvannamalai.ponni.sales@suzukidealers.net"
"Popular Suzuki","Suzuki Premium Dealers","Plot No. 154, Phase2, Industrial Area Panchkula-134109","Panchkula","Haryana","134109","7988631209, 8822220555, 9888590062, 0172-5011107","panchkula.popular.sales@suzukidealers.net"
"PRABHAT SUZUKI","Suzuki Premium Dealers","1739~44/XIV-4 MCA, G.T. Road, Opp. Railway Workshop, Putlighar, Amritsar - 143001, Punjab","Amritsar","Punjab","143001","9316526156, 9988170709","amritsar.prabhatauto.sales@suzukidealers.net"
"PRAMAAN SUZUKI","Suzuki Premium Dealers","160A/2 Medavakam Main road,Adambakkam,Chennai-600088","Kanchipuram","Tamil Nadu","600088","8754412627, 9176622204 , 9176042816, 044-2260-3053 /54 /55 /56 , 2260-0599 /1599 / 2627","chennai.pramaan.sales@suzukidealers.net"
"PRIDE SUZUKI","Suzuki Premium Dealers","Plot no 33, Ground and 1st floor, Ghodela house, Near Patel Colony, Opp Jayesh Medical Store, Udhana Tin Rasta, Udhana Main Road, Udhana Gam - 394210, Surat, Gujrat","Surat","Gujarat","394210","0261-2580500 / 6569900/ 9979728888 /9099082199/196/ 9825700009","pridesuzuki@gmail.com"
"PURNEA SUZUKI","Suzuki Premium Dealers","Ford Company Chowk, Navaratan Hata, N. H. - 31, Purnea, Bihar-854301","Purnia","Bihar","854301","9431096379, 9931775089/(06454) 240944","purnea.biharauto.sales@suzukidealers.net"
"R & M Suzuki","Suzuki Premium Dealers","40/301-3, Beside MRB Trade Centre, Bangarupeta, Kurnool - 518004, Andhra Pradesh.","Kurnool","Andhra Pradesh","518004","Showroom - 9440554395 Workshop - 9440554395","kurnool.radha.sales@suzukidealers.net"
"RACE SUZUKI","Suzuki Premium Dealers","Mehsana Suzuki, Opp. Pramukh Enclave, State Highway-8, Mehsana, Gujarat-384002","Mahesana","Gujarat","384002","02762-258888, 645392, 9624660007","mehsana.racemotors.sales@suzukidealers.net"
"Radical Suzuki","Suzuki Premium Dealers","Showroom: 2030/C, Near Ajit Petrol Pump, Baldev Nagar, Ambala-134007, Haryana Workshop: 2030/C, Near Ajit Petrol Pump, Baldev Nagar, Ambala-134007, Haryana","Ambala","Haryana","134007","7087012991, 7087012992","ambala.radicalspeed.sales@suzukidealers.net"
"RAJ SUZUKI","Suzuki Premium Dealers","Showroom: Kottukulangara, Kayamkulam PO, Kayamkulam-690502, KeralaWorkshop: No.19, Ambattur Industrial Estate, Chennai-600058, TamilNadu","Alappuzha","Kerala","690502","7593863109","kayamkulam.valsam.sales@suzukidealers.net"
"RAJ SUZUKI","Suzuki Premium Dealers","G1, G2, Gravity Mall, Manmandir Miniplex, Bhamori, Vijaynagar, Indore, 452001","Indore","Madhya Pradesh","452001","100.9000878","indore.mandhwani.sales@suzukidealers.net"
"RAJAVALSAM SUZUKI","Suzuki Premium Dealers","30/696 A,B,C, Alappuzha, 30, NearS.D College, Kalarcod, VADACKAL-688003,Kerala","Alappuzha","Kerala","688003","8593093131,7593863109,9961410308(gm)","alleppey.rajavalsam.sales@suzukidealers.net"
"RDB SUZUKI","Suzuki Premium Dealers","Khasra No. 564, A-6, Devli Road, Khanpur Extension - 110062, New Delhi.","South Delhi","Delhi","110062","9650406261 /  9999663532 /  7065556261 /  7065546261","delhi.rdb.sales@suzukidealers.net,rdbsuzuki@gmail.com"
"Rishabh Suzuki","Suzuki Premium Dealers","Shop No. 16 to 19, Kalyan Vihar Colony, Near Vishnu Garden, Near Sanganer Flyover, Tonk Road, Jaipur-302029","Jaipur","Rajasthan","302029","9116664646, 7620586756","jaipur.rishabh.sales@suzukidealers.net"
"Rita Suzuki","Suzuki Premium Dealers","Showroom / Workshop: NH-55, Panchmahala, Angul, Odisha-759122","Angul","Odisha","759122","7077724701, 8328966065","angul.rita.sales@suzukidealers.net"
"RIYA SUZUKI","Suzuki Premium Dealers","85/6 Agra Road, Opp. Chheda Petrol Pump, Mulund West, Mumbai - 400082 West Maharashtra","Mumbai","Maharashtra","400082","9967556643, 9869178646, 022-25621095/96/97,7506925025 / 7738649999 / 7738622255","mumbai.riya.sales@suzukidealers.net"
"Riya Suzuki","Suzuki Premium Dealers","Show room - Sr No. 9, Kalyan Shill Road, Davdi Naka, Dombivli East- 421203, Thane, Maharashtra.Work shop - A/163 MIDC Phase I, Dombivli East- 421203, Thane, Maharashtra.","Thane","Maharashtra","421203","9326929287/8/9, 9326929280/98","dombivli.riya.sales@suzukidealers.net"
"RJ SUZUKI","Suzuki Premium Dealers","Showroom: No: 18/72, Kollam-Kottarakkara Road, Town Limit, Kadappakkada, Kollam-691004, Kerala | Workshop: SyNo: 89/2, 89/3, 90, 1 Kollam- Shenkottai Road,  (N.H.208), Kadappakkada (PO), Kollam-691008, Kerala","Kollam","Kerala","691004","9388221249, 8138999802, 8138999810","kollam.ramjan.sales@suzukidealers.net"
"Rock Suzuki","Suzuki Premium Dealers","Show Room: 76, 78, Mirza Galib Road,  Byculla Clare Road, Mumbai- 400008, Maharashtra.Work Shop:  124, Sardar Balwant Singh Dhoni Marg, NESBIT Road, Mazgoan, Mumbai-10 , Maharashtra.","Mumbai","Maharashtra","400008","9699618998 / 9833244662 / 9699496053","mumbai.snj.sales@suzukidealers.net"
"ROHINI SUZUKI","Suzuki Premium Dealers","Padmapukur,(salepur)P.O+P.S-Baruipur,Kolkata-700144","South 24 Parganas","West Bengal","700144","9088013993/9088104724/9088104714 /9163247941  /9088104725","kolkata.sheikh.sales@suzukidealers.net"
"ROHINI SUZUKI","Suzuki Premium Dealers","Showroom: 137/H, 34/Sector-3, Rohini - 110085 (New Delhi) / Workshop: L-129, Vijay Vihar, Phase-2 Rohini - 110085 (New Delhi)","North Delhi","Delhi","110085","011-49094100 / 7042118300","delhi.parvgsales.sales@suzukidealers.net"
"ROHTAK SUZUKI","Suzuki Premium Dealers","Shakuntala Building, Delhi Road, Sonepat Stand, Rohtak - 124001","Rohtak","Haryana","124001","8059880001/8059880000   01262-269673/ 230034/ 9215025255/ 271130/ 271131/ 255888 Fax/ 9215025250","rohtak.badhwar.sales@suzukidealers.net"
"Royal Suzuki","Suzuki Premium Dealers","Show room - 50, Ratan Nagar, Dher Ke Balaji, Sikar Road, Jaipur, Rajasthan-302039 Work shop - Plot No. 12/13, Kukkad Kheda, Opp. Road No. 2, Sikar Road Jaipur-302032","Jaipur","Rajasthan","302039","8094011503, 8094011504","jaipur.quark.sales@suzukidealers.net"
"S & S SUZUKI","Suzuki Premium Dealers","19-3-14,Renigunta Road,Tirupati-517501,A.P-517501","Chittoor","Andhra Pradesh","517501","0877-2237700, 9959429444, 0877-2238567 FAX","tirupati.garuda.sales@suzukidealers.net"
"S R SUZUKI","Suzuki Premium Dealers","116A, Bharathiar Salai, Cantonment, Trichy-620001, TamilNadu","Tiruchirappalli","Tamil Nadu","620001","9865288652","trichy.srirenga.sales@suzukidealers.net"
"Saboori Suzuki","Suzuki Premium Dealers","Showroom: K-18 Lajpat Nagar - 2, New Delhi-110024 / Workshop: Y-27, Okhla Phase 2 New Delhi-110020","South Delhi","Delhi","110024","8800995332, 9319604993","delhi.saboori.sales@suzukidealers.net"
"Sagar Suzuki","Suzuki Premium Dealers","Showroom- 59, Rani Jhansi Road, New Delhi-110055 / Workshop- Plot No. 11A, Shahzada Bagh Industrial Area, New Delhi-110035","Central Delhi","Delhi","110055","9999051091, 9810513127","delhi.sagar.sales@suzukidealers.net"
"SAIKRITIKA SUZUKI","Suzuki Premium Dealers","Hatiatnagar, Bhairabpur, N.H.-49, Madhapur Square, Keonjhar-758001, Odisha","Kendujhar","Odisha","758001","9437056114","keonjhar.saikritika.sales@suzukidealers.net"
"SAINATH SUZUKI","Suzuki Premium Dealers","Showroom & Workshop: Plot No. 152 & 153, Main Road, Near Chowrangee, O.T. Road, Kharagpur-721305, West Bengal","West Midnapore","West Bengal","721305","9434007871","kharagpur.sainath.sales@suzukidealers.net"
"SALEM SUZUKI","Suzuki Premium Dealers","D.No.:55, G.R.Nagar Office Plot, Next To Chandramahal, Kalyan Mandapam, Seelanalckenpatty, Salem (T.N.)-636201","Salem","Tamil Nadu","636201","09443241189 / 0427 - 2460564","salem.amman.sales@suzukidealers.net"
"SAMARIYA SUZUKI","Suzuki Premium Dealers","B-2A, Sethi Colony, Govind Marg, Jaipur-302004 Rajasthan","Jaipur","Rajasthan","302004","9829062762 /9261232049 /9950336933  /9571914563 0141-2603900/9829310768/8441010000/8502000223","jaipur.adauto.sales@suzukidealers.net"
"SAPTAGIRI SUZUKI","Suzuki Premium Dealers","No.1041/A, Dr. Rajkumar Road, 4th Block,Rajaji Nagar,Banglore-560010","Bangalore","Karnataka","560010","9980000500/9845029331/ 080-23143929/30/31,32,33(telefax)","bangalore.saptagiri.sales@suzukidealers.net"
"SARIPUDI SUZUKI","Suzuki Premium Dealers","Near A.C. College, Main Road, Guntur, Andhra Pradesh-522002","Guntur","Andhra Pradesh","522002","9399944333/0863-2264355/9246429554/2264366/9246429557","guntur.saripudi.sales@suzukidealers.net"
"SARIPUDI SUZUKI","Suzuki Premium Dealers","Showroom / Workshop: Amravathi Road, Near ALA Hospital, Guntur-522007, Andhra Pradesh","Guntur","Andhra Pradesh","522007","9581330994","guntur.saripudi2.sales@suzukidealers.net"
"SATTYA SUZUKI","Suzuki Premium Dealers","621/35, W-2, Juhi Kala, Saket Nagar, Govind Nagar Main Road, Kanpur-208027","Kanpur Nagar","Uttar Pradesh","208027","9839032796/9839070601/9839610524/0512-3215824","kanpur.sattya.sales@suzukidealers.net"
"SEEMA SUZUKI","Suzuki Premium Dealers","Shop No.1-2-3, Manidhar Corner, G.P Park, Near Navjivan Circle, Udhana Magadalla Road, Surat -395002, Gujarat.","Surat","Gujarat","395002","7573917771, 9712287000, 9712387000 (SM), 7573917785, 9712687000, 9712787000 (WM), 7573917790 (SP)","surat.seema.sales@suzukidealers.net"
"SETIA SUZUKI","Suzuki Premium Dealers","118, Santosh nagar, Opp Goyal house, Ajmer Road, Jaipur-302001, RAJASTHAN","Jaipur","Rajasthan","302001","9828168068/0141-4008836/ 0141-4008837/ 9828511801/9828055900/9828511805","jaipur.setia.sales@suzukidealers.net"
"SHAIBA SUZUKI","Suzuki Premium Dealers","BHIRINGI ,GT ROAD (EAST) DURGAPUR -713213,west Bengal","Bardhaman","West Bengal","713213","9434470518 /9647500517 /9800729999  /9647500520","durgapur.shaiba.sales@suzukidealers.net"
"SHIV SUZUKI","Suzuki Premium Dealers","P-66/73, D-II Block, Telco Road, Chinchwad, Pune-411019","Pune","Maharashtra","411019","9822077776, 020-27479100, 27479500","pune.shiv.sales@suzukidealers.net"
"Shiva Suzuki","Suzuki Premium Dealers","B-3, GT Road, Dilshad Garden Ind. Area Delhi - 110095","East Delhi","Delhi","110095","9891164758,011-22114063, 011-22114074","delhi.mrmotors.sales@suzukidealers.net"
"SHREE MAHAVEER SUZUKI","Suzuki Premium Dealers","Show Room : Mahaveer Auto, Plot no.-554/994, link road, Madhupatna, Cuttack-753010Work Shop : Netaji Nagar, near panchmukhi mandir, Khan Nagar Cuttack-753010","Cuttack","Odisha","753010","0671-2367441,7440036300","cuttack.shreemahaveer.sales@suzukidealers.net"
"Shree Mangal Suzuki","Suzuki Premium Dealers","Showroom: Plot no. 97, New Pali Road Jodhpur -342005Workshop: 62A, Bhagat ki kothi extension, new pali road, Jodhpur","Jodhpur","Rajasthan","342005","9784520007","jodhpur.spiroflex.sales@suzukidealers.net"
"SHREE THAKUR SUZUKI","Suzuki Premium Dealers","Near Kamla Rai College, Arar Road, Gopalganj - 841428, Bihar","Gopalganj","Bihar","841428","7764985779 / 8809653788 / 7091718177 / 8709152299","shreethakursuzuki@gmail.com"
"SHRI SAI SUZUKI","Suzuki Premium Dealers","H.no:-1-1, Old Ramachandrapuram,Medak District, Telangana-502032","Medak","Telangana","502032","9703083004 /7799963004 /9666651234  /9666309527 /","hyderabad.yuvikha.sales@suzukidealers.net"
"SHRISHAKTI SUZUKI","Suzuki Premium Dealers","B-14, Main East Krishna Nagar, Delhi- 110051","East Delhi","Delhi","110051","9810594540 22005400 22005500/  Fax- 22004800","delhi.mdmotors.sales@suzukidealers.net"
"SIDDHARTH SUZUKI","Suzuki Premium Dealers","Main Road, Ward No.23, In Front of LIC Office, P.O & Distt. Bongaigaon - 783380, Assam","Bongaigaon","Assam","783380","9435020736","bongaigaon.kritin.sales@suzukidealers.net"
"SIMRAN SUZUKI","Suzuki Premium Dealers","Shop No: 1 & 2, Regency Avenue, Kalyan Murbad Road, Syndicate , Kalyan-421301, Dist.- Thane, Maharashtra","Thane","Maharashtra","421301","8108555796; 9833493965; 8976735552","kalyan.simran.sales@suzukidealers.net"
"SINHA SUZUKI","Suzuki Premium Dealers","Showroom: Panposh Road, Rourkela, Distt. - Sudergarh, Odisha 769004 Workshop:- MM- 15, Civil Township, Rourkela odisha -769004","Sundergarh","Odisha","769004","7077704214, 9938412705, 9114050734","Rourkela.sandhyamotor.sales@suzukidealers.net"
"SMK SUZUKI","Suzuki Premium Dealers","Shiv Mishri Mansion, NO.-99, Mount Ponamallee Trunk Road, (opp. Karnataka Bank), Porur, Chennai-600116, Tamil Nadu","Kanchipuram","Tamil Nadu","600116","9962519445, 9884531899,044-23861444,23861445telefax","chennai.smk.sales@suzukidealers.net"
"SRI AARAVIKA SUZUKI","Suzuki Premium Dealers","Showroom / Workshop: No:2/220, Kattupakkam Main Road, Kattupakkam, Chennai-600056, TamilNadu","Kanchipuram","Tamil Nadu","600056","9384099001/ 002/ 003/ 011/ 012/ 013","chennai.sriaaravika.sales@suzukidealers.net"
"SRI ANAGHA SUZUKI","Suzuki Premium Dealers","Sri Anagha Motors (Unit of SARPL), Rajsons Complex, Sharbhat Katte, Near KPT, Airport Road, Mangalore-575008, Karnataka","Dakshina Kannada","Karnataka","575008","7618798485; 0824-2215999","mangalore.sri.sales@suzukidealers.net"
"SRI ARUN SUZUKI","Suzuki Premium Dealers","1247, 1248, Mettupalayam Road, Coimbatore-641043, Tamil Nadu","Coimbatore","Tamil Nadu","641043","Sales- 7397770707, Service-7397774747, Spares- 7397775757","coimbatore.tamildhanam.sales@suzukidealers.net"
"SRI KRISHNA MOTORS","Suzuki Premium Dealers","D.NO.22A-1-4,G.N.T.ROAD, NEAR BSNL OFFICE, POWERPET, ELURU-534002","West Godavari","Andhra Pradesh","534002","9397699998/ 08812-222344,226344,253595,226344 fax/9348393551","eluru.shrilakshmi.sales@suzukidealers.net"
"SRI SUZUKI","Suzuki Premium Dealers","Jalangi road, VPO - Muktinagar, Baharampur -742102, Distt. Murshidabad, West Bengal","Murshidabad","West Bengal","742102","Sales – 8327474792
<br/>
Service – 8327474791
<br/>
Spares – 8327474790","baharampur.mtsarkar.sales@suzukidealers.net"
"SRM Suzuki","Suzuki Premium Dealers","1st floor 11/CP-2, Vikas Nagar, Ring Road, Lucknow-226022 U.P.","Lucknow","Uttar Pradesh","226022","6389000123, 0522-4159351","lucknow.pralaksh.sales@suzukidealers.net"
"SSK SUZUKI","Suzuki Premium Dealers","No.162, GST Road, Pulipakkam Village, Chengalpattu-603001, TamilNadu","Kanchipuram","Tamil Nadu","603001","9344012345 (MD), 6382588857 (SM), 9360410170 (WM), 9360419170 (SP)","chengalpattu.ssk.sales@suzukidealers.net"
"STAR SUZUKI","Suzuki Premium Dealers","Khasra no. 545 vide Mutation no. 242, Rehari Chowk, Opp. Gurudwara, B. C. Road, Jammu - 180005, Jammu & Kashmir","Jammu","Jammu & Kashmir","180005","9419220075, 9419220072, 9419220076, 9419199288, 01912520033, 01912520388","jammu.gsp.sales@suzukidealers.net"
"SUPER SALES","Suzuki Premium Dealers","Plot no. 2, Janpath, Bapuji Nagar, Bhubneswar - 09, Orissa-751001","Khorda","Odisha","751001","09937004095 / 06742-542505,545255","bhubaneswar.supersales.sales@suzukidealers.net"
"SUPER SUZUKI","Suzuki Premium Dealers","Khasra No. 10068/1717, Opp Ajit Cinema, Adjoining Hotel Amba Residency,  Old Delhi Road, Gurgaon NCR - 122001, Haryana","Gurgaon","Haryana","122001","8130283283, 0124-4690723, 9873731657","gurugram.nuclear.sales@suzukidealers.net"
"SURYA SUZUKI","Suzuki Premium Dealers","Beside IDBI bank, Near sandhya Function Hall, NH43, Gandhi Chowk, Jeypore - 764001, Distt. Koraput, Odisha","Koraput","Odisha","764001","7064424457 / 7064424458 / 7064424461 / 7873656466","jeypore.surya.sales@suzukidealers.net"
"Swami Suzuki","Suzuki Premium Dealers","Plot 5, Industrial Area, Phase-1, (Near HDFC Bank), Chandigarh-160002","Chandigarh","Chandigarh","160002","7837760022, 6283364401","swamisuzuki@gmail.com"
"TANISHQ SUZUKI","Suzuki Premium Dealers","351,Ho-Chi-Minh Sarani,ShivrampurKolkata-700061(Near Greenfield City)old-Biren Roy road(west)","Kolkata","West Bengal","700061","9477311001 / 8017924456 / 8100924450 / 8100924451 / 8100924453 / 8100924452 / 033-24805011/ 033-24805012","kolkata.ramlal.sales@suzukidealers.net"
"Thammineni Suzuki","Suzuki Premium Dealers","Showroom & Workshop – #10-5-80/2/1, SVJ Complex, Yenugonda, Mahabubnagar, Telangana-509001","Mahabub Nagar","Telangana","509001","9642899998 (MD)","mahabubnagar.thammineni.sales@suzukidealers.net"
"TOSHALI SUZUKI","Suzuki Premium Dealers","Bonth Chhaka, Bhadrak, Odisha-756100","Bhadrak","Odisha","756100","06784-242227 / 8917572747","bhadrak.samal.sales@suzukidealers.net"
"TRIVEDI SUZUKI","Suzuki Premium Dealers","Plot No. 312, Opp. Jalaram Temple,NH-8 Vapi Dist. - Valsad-396191","Valsad","Gujarat","396191","9825143453 / 9825139074 / 0260 - 2401204/0260-3201204","vapi.trivedi.sales@suzukidealers.net"
"UDAIPUR SUZUKI","Suzuki Premium Dealers","25/451, Sector 6 Police Station road,Hiran Magri Sector 5 Main Road, Udaipur (Raj) - 313002","Udaipur","Rajasthan","313002","0294 - 2461484/ 5132343/ 9414024197/ 2461485/ 3260321","udaipur.guru.sales@suzukidealers.net"
"UMANG AUTO","Suzuki Premium Dealers","Showroom:- B-300, outer ring road, Saraswati Vihar, North West Delhi, Delhi-110034 / Workshop:- Khasra No. 813, 814 & 830 village Rithala Near Mata Chowk, Delhi-110085","North West Delhi","Delhi","110034","011-27029991, 92, 93,94, 27029998 9810416600,9810052900,Fax,9210052900","delhi.umang.sales@suzukidealers.net"
"UNIVERSAL SUZUKI","Suzuki Premium Dealers","B-23, 14606/1A, Gandhi Nagar, Dholewal, Ludhiana- 141003, Punjab","Ludhiana","Punjab","141003","8968720002","ludhiana.vardaauto.sales@suzukidealers.net"
"Vahini Suzuki","Suzuki Premium Dealers","Showroom / Workshop: 6/1, Galibpura, Nai ki Mandi, M. G. Road, Agra-282001","Agra","Uttar Pradesh","282001","9528292689, 6399225522","agra.vahini.sales@suzukidealers.net"
"Vaibhav Suzuki","Suzuki Premium Dealers","650-Rakesh Marg, Nehru Nagar, Ghaziabad - 201001, Uttar Pradesh","Ghaziabad","Uttar Pradesh","201001","8510050670, 9990680161","ghaziabad.kvm.sales@suzukidealers.net"
"VALLEY SUZUKI","Suzuki Premium Dealers","Near New Court Complex, Kulgam , Jammu & Kashmir- 192231","Ananthnag","Jammu & Kashmir","192231","7006057225 (MD), 7006963408 (SM), 9906515801 (WM), 9797280402 (SP)","kulgam.dar.sales@suzukidealers.net"
"VALUE SUZUKI","Suzuki Premium Dealers","No.-16/A Millers Road, Vasanthnagar, Bangalore-560052","Bangalore","Karnataka","560052","9845906084 / 080-49396777","bangalore.valuemotors.sales@suzukidealers.net"
"Vardhman Suzuki","Suzuki Premium Dealers","Show room - V Plaza, Ring Road No-1, Priyadarshani Nagar, Raipur- 492001, Chhattisgarh.Workshop - Priyadarshani Nagar, Raipur- 492001,Chhattisgarh.","Raipur","Chattisgarh","492001","6262037999, 6262027999","raipur.vardhamaan.sales@suzukidealers.net"
"VR SUZUKI","Suzuki Premium Dealers","362, Kumarasamypatty, Cherry Road, Hasthampatty, Salem-636007, Tamil Nadu","Salem","Tamil Nadu","636007","9994099111, 9994099116","salem.thrive.sales@suzukidealers.net"
"VTJ SUZUKI","Suzuki Premium Dealers","NH -47 Bye pass Road, Kundannoor, Maradu P.O., Kochi - 682304","Ernakulam","Kerala","682304","9745430001 /8606971901(GM)/9447056007 /9846267375  /9446472671(SPD)","kochi.veeteejay.sales@suzukidealers.net"
"Yashvi Suzuki","Suzuki Premium Dealers","129, The Mall Kanpur - 208004, Uttar Pradesh","Kanpur Nagar","Uttar Pradesh","208004","9235503644","kanpur.yashvi.sales@suzukidealers.net"
"Aerolex","Big Bike Dealers","109, K. H. Road,Bangalore- 560027","Bangalore","Karnataka","560027","+91 9980009015","bangalore.aerolex.sales@suzukidealers.net"
"ANIMESH SUZUKI","Big Bike Dealers","410, Elias Road Ward No. 6 Post office Kamarhati 24 Parganas (N). Kolkata 700058","North 24 Parganas","West Bengal","700058","8584074200 / 8584074199 / 8336968101 / 8584074205","mondal.sales@suzukidealers.net"
"Anzen Suzuki","Big Bike Dealers","Shop No. 8&9, Gahlot Majesty Building, Plot No.3A, Sector 46A, Palmbeach Road, Near Shreeji Heights (Akshar) Tower, Nerul Navi Mumbai- 400706, Maharashtra.","Thane","Maharashtra","400706","8058483333","nerul.anzen.sales@suzukidealers.net"
"APCO SUZUKI","Big Bike Dealers","Chakorathkulam Junction, P O Nadakav, Kannur Road, Calicut-673011, Kerala","Kozhikode","Kerala","673011","09895120737,0495-2369453,454,455(Tele fax)/9847011445","calicut.hapbco.sales@suzukidealers.net"
"ARYAN SUZUKI","Big Bike Dealers","# 3, GROUND FLOOR, THIMMIAH ARCADE, DOMLUR, H.A.L. AIRPORT ROAD, BANGALORE - 560071.","Bangalore","Karnataka","560071","9845061888 / 9845045525 / 9845014851/ 080-41151873 (telefax)/41265300","bangalore.aryan.sales@suzukidealers.net"
"Deepkamal Suzuki","Big Bike Dealers","Showroom - DEEPKAMAL SUZUKI Opposite Bachat Bhavan, Relief Road , Ahmedabad . Pin Code - 380001Workshop - DEEPKAMAL SUZUKI Opposite City C.U.Shah Commerce College, Lal Darwaja, Ahmedabad. Pin Code - 380001","Ahmedabad","Gujarat","380001","Showroom: 079-25350786, 7574086060  Workshop: 079-25501786, 7574096060","ahmedabad.deepkamal.sales@suzukidealers.net"
"DHARMARAJ SUZUKI","Big Bike Dealers","55, Ravindra Park Society, Nr, Mehsana Urban Co-op. Bank Ltd., Adajan Patia, Surat - 395009, Gujarat","Surat","Gujarat","395009","9925740000, 0261-4000 500/600, 9712510000","dharmarajauto@yahoo.co.in"
"DOON SUZUKI","Big Bike Dealers","174, Haridwar Road, Next to Tula Palace, Dehradun, Uttrakhand-248001","Dehradun","Uttarakhand","248001","9897006128, 9027536128, 0135-2623366","dehradun.vbauto.sales@suzukidealers.net"
"DREAM SUZUKI MUMBAI","Big Bike Dealers","332, S.V. Road, Near Amboli Subway, Andheri West, Mumbai-400058, Maharashtra.","Mumbai","Maharashtra","400058","sales numbers 7715034000, 8451093000, 7777007355, 7777007255, 02226240706, 02226240705","mumbai.dreambikes.sales@suzukidealers.net"
"DREAM SUZUKI PUNE","Big Bike Dealers","6, Mahatma Gandhi Road, Pune - 411001, Maharashtra, Pune","Pune","Maharashtra","411001","9921525555, 9657777569, 9767156666, 020-26054705","pune.dreambikes.sales@suzukidealers.net"
"GEM SUZUKI","Big Bike Dealers","Survey No.64,Kondapur Main Road, Kondapur, Hitec City, Hyderabad - 500081","Hyderabad","Telangana","500081","9347121212 /9948161812 /9133392313  /8523083573 /","hyderabad.gemmotors.sales@suzukidealers.net"
"JYOTE SUZUKI","Big Bike Dealers","Plot No 516, Mouza Patia, Bhubaneswar, Distt. Khurda- 751024, Odisha","Khorda","Odisha","751024","7064435309-SM / 7064435310-WM / 7064435311-SPD / 7064435301-Reception","bhubaneswar.jyote.sales@suzukidealers.net"
"LBS SUZUKI","Big Bike Dealers","C-4,Bawngkawn,Near Durtlang Road Traffic point,Aizawl,Mizoram-796014","Aizawl","Mizoram","796014","8974402763 /9612338588 /9615456260  /9615949839","aizawl.lbsauto.sales@suzukidealers.net"
"Mohan Motor","Big Bike Dealers","Showroom: 630, Uttar Panchanna Gram Kolkata-700100, West Bengal / Workshop: Arupota off EM byepass, Near Science City, Kolkata-700100","South 24 Parganas","West Bengal","700100","8585048490, 8585048498","SALES-UPG@MOHANMOTORSUZUKI.COM"
"NJ SUZUKI","Big Bike Dealers","Old No.1972, New No.-430, Opp. Coimbatore Stock Exchange, Trichy Road, Singanallur (Post), Coimbatore-641005, Tamil Nadu","Coimbatore","Tamil Nadu","641005","9942902200 (Sales), 8489812200 (Service), 9047712200 (Spares)","coimbatore.njbikes.sales@suzukidealers.net"
"PADMAJA SUZUKI","Big Bike Dealers","Padmaja Commercial Corporation, P.B. No. 709, Prabhu Nilayam MG Road,labbipet, Vijaywada-520010","Krishna","Andhra Pradesh","520010","9666678830/(0866)2474060,2474760,2477840(fax)","vijaywada.vallurupalli.sales@suzukidealers.net"
"PETAL SUZUKI","Big Bike Dealers","Kamdhenu House, NR. Kamla Kamdhenu Hall, Drive In Road, Ahmedabad-380052, Gujrat","Ahmedabad","Gujarat","380052","(079) 27498989,40057766","ahmedabad.planet.sales@suzukidealers.net"
"RAJ SUZUKI","Big Bike Dealers","G1, G2, Gravity Mall, Manmandir Miniplex, Bhamori, Vijaynagar, Indore, 452001","Indore","Madhya Pradesh","452001","100.9000878","indore.mandhwani.sales@suzukidealers.net"
"Rishabh Suzuki","Big Bike Dealers","Shop No. 16 to 19, Kalyan Vihar Colony, Near Vishnu Garden, Near Sanganer Flyover, Tonk Road, Jaipur-302029","Jaipur","Rajasthan","302029","9116664646, 7620586756","jaipur.rishabh.sales@suzukidealers.net"
"SRM Suzuki","Big Bike Dealers","1st floor 11/CP-2, Vikas Nagar, Ring Road, Lucknow-226022 U.P.","Lucknow","Uttar Pradesh","226022","6389000123, 0522-4159351","lucknow.pralaksh.sales@suzukidealers.net"
"SUPER SUZUKI","Big Bike Dealers","Khasra No. 10068/1717, Opp Ajit Cinema, Adjoining Hotel Amba Residency,  Old Delhi Road, Gurgaon NCR - 122001, Haryana","Gurgaon","Haryana","122001","8130283283, 0124-4690723, 9873731657","gurugram.nuclear.sales@suzukidealers.net"
"AARAVIKA SUZUKI","Branch","No 96, Kasi Circle, Jawaharlal Nehru Street, Jafferkhanpet Road,  Ashok Nagar, Ekkattuthangal, Chennai-600083,Tamil Nadu","Chennai","Tamil Nadu","600083","9384099014, 8646855555, 9003589842",""
"AARUSH SUZUKI","Branch","Showroom : 19-5-10/4, First Floor,  opposite police station, Bhadurpura, Hyderabad- 500064. Telangana / Workshop : 19-5-6/2/A , Bhadurpura Near Mohammedia Hospital Hyderabad-500064, Telangana","Hyderabad","Telangana","500064","91332786040, 9133536633",""
"ACE KUDALE SUZUKI","Branch","Opp Udit Packaging Pvt Ltd, Opp Prathmesh Hotel,Gate No 1419/B, Taluka Shirur, Dist. Pune, Shikrapur-412208, Maharashtra","Pune","Maharashtra","412208","8308832222 / 9822288260 / 7722021844 /07722021841/ 9552598813 (sales) / 9552599702? (service)","neeraj.kudale@acekudalecar.com"
"ACE KUDALE SUZUKI","Branch","satyam shivam complax near munswa bridge sainat nagar kharadi Pune 411014 , Maharashtra","Pune","Maharashtra","411014","9822288260","neeraj.kudale@acekudalecar.com"
"ALFA SUZUKI","Branch","National Highway, Batengoo Anantnag-192101, Jammu & Kashmir","Ananthnag","Jammu & Kashmir","192101","9419051101","alfaautomobilespvtltd@gmail.com"
"ALUVA SUZUKI","Branch","Door No 17 C1 & C2, Choornikara Panchayat, NH-47 , Opposite Metro Pillar No 143, Dist. Ernakulam, Ambattukavu, Aluva-683106, Kerala","Ernakulam","Kerala","683106","9249455995",""
"ALUVA SUZUKI","Branch","No 26/29C, KVK Building, Near Vengalloor Signal, PO Thodupuzha, Pin-685605, Kerala","Idukki","Kerala","685605","9249455995 / 0484-2603855 / 09946799933.","aluva.suzuki@gmail.com"
"ANIMESH SUZUKI","Branch","52/6, P G E Plaza, Parbati Bihar, Baguihati, VIP Near Big Bazaar, VIP Road, Kolkata -700059, West Bengal","North 24 Parganas","West Bengal","700059","8336968743 (sales), 8584074204(service), 9883402333","mondalmotorsllp@rediffmail.com"
"APCO SUZUKI","Branch","19/186 B,C,D,E,F,G, Karimbanapalam , NR. CO-OPERATIVE HOSPITAL JN.,NH BYEPASS, Vadakara - 673101,Kozhikode , Kerala","Kozhikode","Kerala","673101","0496-3220404","vatakara.apco9@gmail.com"
"APCO SUZUKI","Branch","12/133, PUZHAKKAL BUILDING, NEAR CRESCENT HOSPITAL, FEROKE CHUNGAM,CALICUT -673631,Kerala","Kozhikode","Kerala","673631","9895120737/9539010020, 0495 3922629, 0495 3277099`","gmapcosuzuki@gmail.com,apcosuzukirmk@gmail.com"
"APCO SUZUKI","Branch","MP XVIII/685,686, Edappetty, Kainatty, Kalpetta North(PO), Dist. Wayanad-673122, Kerala","Wayanad","Kerala","673122","9895120737 / 0493-6207733 / 0495-2369453","hapbco@yahoo.co.in"
"APCO SUZUKI","Branch","14/299 D, P T Tower, Athani, NH Bye Pass Road, Pantheerankave-673109, Kerala","","","673109","0495-2436711 / 9539010016/ 9895112244","mmraziapco@gmail.com,gmapcosuzuki@gmail.com,hapbco@yahoo.co.in"
"APPLE AUTO","Branch","# 3, 100 Ft Ring Road, BTM Layout 1St Stage, 1st Phase, Near Advaitha Petrol Bunk, Bangalore-560068","Bangalore","Karnataka","560068","9141155331 / 8884446502 / 080 26789999 / 080 64555507","appleautosales@gmail.com"
"APPLE AUTO","Branch","No. 44/42-1, Doddakallasandra, Near Konanagunte Cross, Opp Metal Closure, Kanakapura Maini Road, Dist. Bangalore-560062, Karnataka","Bangalore","Karnataka","560062","8884446505 / 8884446507 / 080-26661919","appleautosales@gmail.com,appleautoservice@gmail.com"
"APPLE AUTO","Branch","No 10/4, Opp Rajarajeshwari Nagar Arch Gate, Mysore Road, Nayandhahalli, Rajarajeshwari Nagar, Bangalore-560098, Karnataka","Bangalore","Karnataka","560098","9448889999, 8884446509","appleautosales@gmail.com"
"ARUN MOTORS","Branch","Plot No H-21, 80 Feet Road, Anna Nagar, Madurai-625020, Tamil Nadu","Madurai","Tamil Nadu","625020","9364291414",""
"Arunachal Motors","Branch","153, NORTH VELI STREET, OPP. SIMMAKAL BUS STOP ,MADURAI -625001","Madurai","Tamil Nadu","625001","9344481414/ 0452-2333414 , 2332414, 9364291414","arun_motors@gmail.com,arun_motors@rediffmail.com"
"ARYAN SUZUKI","Branch","WHITE FIELD ROAD: #35/1, RAMAGONDANAHALLI, VARTHUR MAIN ROAD, BANGALORE - 560066. LAND MARK: OPP. SIGMA TECH PARK","Bangalore","Karnataka","560066","09986967556, 98450 61888, 9341406637, 080-4908 1000, 99 00 11 7858","branch.aryansuzuki@gmail.com"
"ARYAN SUZUKI","Branch","454, OLD MADRAS ROAD,OPP. T.C. PALYA BUS STOP,BHATTARAHALLI, K.R. PURAM,BANGALORE - 560049.","Bangalore","Karnataka","560049","09741406067, 9341406637,99 00 11 7858-PH.: 080-256 11 000.","aryansuzuki@yahoo.co.in"
"ARYAN SUZUKI","Branch","C-02, Ground Floor, K K Veni Plaza, ITPL, 1st Main Road, B Narayanapura, Dooravani Nagar Post, Mahadevapura, Bangalore-560016, Karnataka","Bangalore","Karnataka","560016","7338080322, 8095620537","aryan.mahadevpura@gmail.com,aryansuzuki@yahoo.co.in"
"AUTOMATIC SUZUKI","Branch","Shree-Prasad Building, Sheila Vihar Colony, Opposite Planet Ford, Paud Road, Kothrud, Pune-411007, Maharashtra","Pune","Maharashtra","411007","020-65606661/62/63, Sales- 8087087511/12, Service- 8087087513","kothrudsuzuki@vsnl.net"
"AUTOMATIC SUZUKI","Branch","Shop No 1, 2 & 3, Baba Apartment, Opp. Pune Water Purification Center, Pune - 411030","Pune","Maharashtra","411030","020 - 24320208","kothrudsuzuki@vsnl.net"
"AUTOMATIC SUZUKI","Branch","Automatic Suzuki, Near Pirangut Bus Stand,Pirangut, Taluka Mulshi. Dist. :- Pune 412115","Pune","Maharashtra","412115","020 65104632 / 34","kothrudsuzuki@vsnl.net"
"AVANISH SUZUKI","Branch","#57, 2nd Main, Manasanagara, Upadhyayara Sangha, Badavane, Nagarabhavi- Bangaluru-560072, Karnataka","Bangalore","Karnataka","560072","9538250911","directors@avanishmotors.com"
"BEDI SUZUKI","Branch","Plot No. 17, Hira Bagh, Rajpura Road, Patiala city, Patiala -147001, Punjab","Patiala","Punjab","147001","9878051000","valinsuzuki@gmail.com"
"BELLAD SUZUKI","Branch","Kamareddi Building, Near J.S.S College, P.B Road, Vidyagiri, Dharwad-580004, Karnataka","Dharwad","Karnataka","580004","9880285032 /9880285015 9880285011, 9880297023,","bellad_suzuki@rediffmail.com,automobile@belladlimited.com"
"BELLAD SUZUKI","Branch","Shirahatti Complex, Near Gaddi Petrol Pump, Hatalageri Road, Gadag- 582101","Gadag","Karnataka","582101","9916056789/9986035015/0836-2372247/0836-2374896","bellad_suzuki@rediffmail.com"
"BHAGIRATH SUZUKI","Branch","Shantiniketan, Miraj Sangli Road, Wantmure Corner, Miraj-416410, MH","Sangli","Maharashtra","416410","09922112159 , 0233-2211899","bhagirathsuzuki@rediffmail.com"
"BRANCH HEND SUZUKI","Branch","Opp Panchayat Samiti, Tower Chowk, Nandura Road, Dist. Buldhana, Khamgaon-444303, Maharashtra","Buldhana","Maharashtra","444303","07263-255255 / 8806191970","hendsuzuki@gmail.com"
"CEE PEE SUZUKI","Branch","MV-III / 132B, Opp P P Mall, KVR Complex, Mukkom-Calicut Road, Dist. Kozhikode, Mukkom-673602, Kerala","Kozhikode","Kerala","673602","8157900093, 8157900094 / 08157900025 / 0495-2325033 / 9495500001","ceepeesuzuki@gmail.com,md@ceepeesuzuki.com"
"CEE PEE SUZUKI","Branch","Dottapan Kulam, Beenachi, Wayanad District, Sulthan Bathery, Pin 673592, Kerala","Wayanad","Kerala","673592","8157900034, 8157900038 / 9947500003 / 0495-2325033 / 9495500001","ceepeesuzuki@gmail.com,md@ceepeesuzuki.com"
"CEE PEE SUZUKI","Branch","Edachira, Kozhikode District, Kodalundy-673302, Kerala","Kozhikode","Kerala","673302","9447740406, 9747116406 / 8157900025 /0495-2324033/ 2328033 / 949500001","md@ceepeesuzuki.com,ceepeesuzuki@gmail.com"
"CEE PEE SUZUKI","Branch","Building no: MP 8/273 – 1, Chettapalam, Vemom (PO), Mysore Road, Mananthavady - 670645, Wayanad District, Kerala","Wayanad","Kerala","670645","8156800065 / 9207900043/ 8157900025 /0495-2324033/ 2328033 / 949500001","md@ceepeesuzuki.com,ceepeesuzuki@gmail.com"
"CROWN SUZUKI","Branch","G-11, Bajrang Square, Opp ONGC gate, Near Baroda Dairy, Makarpura Road, Vadodara-390009, GJ","Vadodara","Gujarat","390009","9909907234","crownsuzuki@yahoo.com"
"DAMAN SUZUKI","Branch","Plot No 7, Improvement Trust, Opp Brahmin Sabha, Batala Road, Gurdaspur-143521, PB","Gurdaspur","Punjab","143521","8872020325 , 9915959990 , 9814659990, 01874-500426-27-28","damansuzuki@gmail.com"
"DHARAM SUZUKI","Branch","RR-11, Mianwali Nagar, Opp Metro Pillar No 300, Near Petrol Pump, Rohtak Road- Peera Garhi, Delhi-110087, Delhi","West Delhi","Delhi","110087","9313672402 / 9911402402","dharam.suzuki@gmail.com"
"DHARMARAJ","Branch","RS No 13/A,Block No 21, TP-45, FP-50, Shop No C-1/2 Ground Floor, Mahendra Park-C, Besides Roshini Fast Food, Opp Essar Petrol Pump, Jahangirpura-395009, Surat, Gujarat","Surat","Gujarat","395009","9712530000 / 9925740000 / 9925760000 / 0261-4000590","dharmarajauto@yahoo.co.in"
"Dharmaraj Automobiles Private Limited","Branch","5 to 8, Krutika Row House, Nr, Ashok Pan Center, Opp. Raghuveer Bunglow, City Light, Surat - 395007","Surat","Gujarat","395007","0261-4044304/305, 9712530000","dharmarajauto@yahoo.co.in"
"DHARMARAJ AUTOMOBILES PVT LTD","Branch","Shop No 33-34, Fortune Mall, THE SHOPING ISLAND, Near Galaxy Circle, PAL GAM, Surat-395009. Gujarat","Surat","Gujarat","395009","76250 88805, 080-4455 4447","dharmarajauto@yahoo.co.in"
"DOON SUZUKI","Branch","65C, Rajpur Road, Behl Chowk, Dehradun - 248001, Uttarakhand","Dehradun","Uttarakhand","248001","9897006128, 0135-2714509","dehradun.suzuki@gmail.com"
"DWARKA SUZUKI","Branch","A-48 Gulab Bagh, Nawada opposite Metro Pillar no. 748, Uttam Nagar, New Delhi-110059","West Delhi","Delhi","110059","011-25331888/ 9250010042 / 9250010043","dwarkasuzuki@yahoo.com"
"DWARKA SUZUKI","Branch","S - 4 & 5, NEW ROSHAN PURA, MAIN GURGAON ROAD, NAJAFGARH, NEW DELHI-110043","South West Delhi","Delhi","110043","9811053742, 011-25022800, 8588876464/65/66","dwarkasuzuki@yahoo.com"
"DWARKA SUZUKI","Branch","I / 21, TILAK NAGAR, Near PNB, NEW DELHI - 110018","West Delhi","Delhi","110018","7290046813-14, 011-40159998, 9811053742, 9212082501","tilaknagar@dwarkasuzuki.com,dwarkasuzuki@gmail.com"
"G L SUZUKI","Branch","SHOP NO -: 3699 &3700 , NETAJI SUBHASH MARG, NEAR SABZI MANDI , DARYA GANJ , NEW DELHI 110002","Central Delhi","Delhi","110002","8800919404, 9311118755, 9311119755","glsuzuki@yahoo.com"
"G SQUARE SUZUKI","Branch","Marian Complex, Opposite AKJM School, NH-183, Near HDFC Bank, Dist. Kottayam, Kanjirapally-686507, Kerala","Kottayam","Kerala","686507","8086400094 / 8086600092 / 8606060092","ginskurian@gmail.com,gsquaresuzuki@gmail.com"
"GANESH SUZUKI","Branch","Anil Motors Pvt Ltd. Shahu Chowk , Bidar Road , Udygir , Maharashtra . Pin - 413517","Latur","Maharashtra","413517","09423776612 / 09423776614","ganesh.latursuzuki@gmail.com"
"GANPATI SUZUKI","Branch","F-671, Khajuri Khas, Main Wazirabad Road, Near Bank of Baroda, Delhi - 110094","North East Delhi","Delhi","110094","9350995899, 9810632869, (Nirbhay), 011-22801122","ganpatisuzuki@gmail.com"
"GANPATI SUZUKI","Branch","F-10, Khasra No 89/1, Village Ghonda Gujran Khadar, Prasadi Mohalla, 3rd Pusta, New Usmanpur, Shahdara-110053, Delhi","North East Delhi","Delhi","110053","9350995899","ganpatisuzuki@gmail.com"
"GEM SUZUKI","Branch","House No 1-44/2, Plot No 93, Survey No 228 & 229/1, Madinaguda, Serilingampally Mandal, Ranga Reddy District, Hyderabad-500049, Telangana","K.V.Rangareddy","Telangana","500049","9133392319","hyderabad.gemmotors.sales@suzukidealers.net"
"GLOBAL SUZUKI","Branch","II/1007,1008,1009,1010,1012 &1013 Palakkad Kozhikode NH Near Kunthipuzha, Dist. Palakkad, Mannarkkad-678582, Kerala","Palakkad","Kerala","678582","8281112616, 0491 - 2542017 / 94447715758","agmglobalsuzuki@gmail.com"
"GOLDEN SUZUKI","Branch","Thundiyil Building. Aarattukadavu, Kuttoor P O, Thiruvalla, PIN:689106, KR","Pathanamthitta","Kerala","689106","0469-2615585, 9446505585 , 9446505586","thiruvallasuzukisales@gmail.com"
"GOLDEN SUZUKI","Branch","Near RTO, Pullimukku, Ranni-689674, KR","Pathanamthitta","Kerala","689674","9349543380, 04735-229900","goldensuzuki.ranni@gmail.com"
"GOLDEN SUZUKI","Branch","Kattappana Bye Pass PO, Iddukki District, Kattappana-685508, KR","Idukki","Kerala","685508","9349543390, 04868-251144","goldensuzuki.ktp@gmail.com"
"GOLDEN SUZUKI","Branch","PATHANAMTHITTA SUZUKI, NALUTHUNDIL BUILDING, THATTA ROAD, PANNIVIZA, ADOOR P O, PINCODE-691523, KR","Pathanamthitta","Kerala","691523","9946106981 , 9645140004, 04734-223323","goldensuzuki.ranni@gmail.com"
"HEERA SUZUKI","Branch","Sr No. 91/1, Hiraman Landge Niwas, Pune Nashik Road, Opp Jaya Marble, Bhosari,Panjarpol, Dist. Pune, - 411039, Maharashtra","Pune","Maharashtra","411039","9923771175, 020-65115353, 020-69735353","heerasuzuki@gmail.com"
"INDEL SUZUKI","Branch","VII/310 A. Near Indian Coffee House, Akkikkavau PO, Dist. Thrissur, Kunnamkulam - 680523, Kerala","Thrissur","Kerala","680523","8111999100","indelsuzuki.kkm@gmail.com"
"INDEL SUZUKI","Branch","VII/310 A. Near Indian Coffee House, Akkikkavau PO, Dist. Thrissur, Kunnamkulam - 680523, Kerala","Thrissur","Kerala","680523","9495603030 / 8111999100","indelsuzuki.kkm@gmail.com"
"JABALPUR SUZUKI","Branch","Opp Bhanwar Tal Garden, Jabalpur Hospital Road, Napier Town-482002, Jabalpur, MP","Jabalpur","Madhya Pradesh","482002","0983590390 / 0761-4038882-3","bharat_group@yahoo.com,jabalpursuzuki@yahoo.com"
"JABALPUR SUZUKI","Branch","11/12, Bedi Nagar, Opp Reliance Petrol Pump, Nagpur Road, Sharda Chowk, Madan Mahal-482001, Jabalpur, Madhya Pradesh","Jabalpur","Madhya Pradesh","482001","9893590392, 9630031118","jabalpursuzuki@yahoo.com"
"JAIN'S SUZUKI","Branch","No 41-A, Abirami Nagar, Irumbuliyar, GST Road, Tambaram West, Chennai - 600045, Tamil Nadu","Kanchipuram","Tamil Nadu","600045","044-22644001-002 / 9840273316 / 8190083334","jainssuzuki@gmail.com"
"JAMNAGAR SUZUKI","Branch","Opp Grass Godown, Udyognagar Main road, Porbander-360576 , GJ","Porbandar","Gujarat","360576","9638233433, 0286-2222631","dreamz_motors@yahoo.co.in"
"KANTIPUDI","Branch","#69-4-12 Opp: Boals club Sarpavaram Junction, PITHAPURAM ROAD, KAKINADA-533005, East Godavari, AP","East Godavari","Andhra Pradesh","533005","9248087726/0884-2357273","kantipudisuzuki@gmail.com,kantipudisuzuki@yahoo.co.in"
"KARAN AUTOMOBILES","Branch","PANDRI ROAD, BHAGAT PLAZA, NEAR LODHI PARA CHOWK, RAIPUR-492001, CG","Raipur","Chattisgarh","492001","9993456789","karanautomobiles@gmail.com"
"KARAN SUZUKI","Branch","Gurduwara Road, Beside SBI Bank, Durg- 490001, CG","Durg","Chattisgarh","490001","922920040 / 9179009000/ 8602006333","bhilaisuzuki@gmail.com"
"KHANDELWAL MOTORS","Branch","7-A Vaishali Nagar, Opp Dutt Mandir, Annapurna Main Road, Indore-452009","Indore","Madhya Pradesh","452009","9755666699, 0731-4086600","sales@khandelwalmotors.in,bharat@khandelwalmotors.in"
"KHANDELWAL MOTORS","Branch","112,113, Manpasand Colony, Kalani Nagar- Airport Road, Indore-452001, Madhya Pradesh","Indore","Madhya Pradesh","452001","0731-4980700, 626223636, 0731-4995900","khandelwalmotors.sales@gmail.com"
"Khwaja Suzuki","Branch","Khwaja Suzuki, Door no: 11/589 Mydukur road, Proddatur-516360,(Cuddapah) AP:","Cuddapah","Andhra Pradesh","516360","7674885111, 08564257177","khwajaautomotives.proddatur@gmail.com"
"KPR SUZUKI","Branch","L31/1, FIVE LIGHTS CIRCLE, LASHKAR MOHALLA, MYSORE - 570001","Mysore","Karnataka","570001","0821 ? 2446677/9686204353","mysoresuzuki@gmail.com"
"KUBERA SUZUKI","Branch","Showroom : Ground Floor Survey No 188/2A/5- 188/2A/13,  Mamta Pride , Near Haldi Lawns , Opp swami Narayan Mandir,                                                                  New Adgaon Naka, Panchvati, Nashi Shivar, Nashik, 422003, Maharashtra <br/> Workshop : Plot No 14, Bappa Sitaram Road , Behind  Adgaon Naka, Near Aurangabad Naka, Nashik 422003, Maharashtra","Nashik","Maharashtra","422003","9022659035 (Landline), 7391966744 (Mobile)","kuberasuzuki@gmail.com"
"LAKSHMI SUZUKI","Branch","#1342/5 &5A, Beside PSS Plaza, Ranganatha Badavane, Hadadi Road, Davangere-577005, Karnataka","Davangere","Karnataka","577005","9844255540, 8431846360","kalleshwaramotors@gmail.com"
"MANGATTIL SUZUKI","Branch","9/270,271, NH-17, Vee Pee Complex, Calicut Road, Meempara, Dist. Mallapuram, Valancherry-676552 , Kerala","Malappuram","Kerala","676552","0494-2641888, 07356449966 / '0494-2425199,2426199, 9995470000, 8139062501","mangattilsuzuki@gmail.com"
"MANGATTIL SUZUKI","Branch","42/554-B,C, Calicut Road, Thurakkal Bapputty Bypass Road, Manchery Municipality, Near A M Motors, Manjeri-676121, Kerala","Malappuram","Kerala","676121","8086525555","gm.mangattilsuzuki@gmail.com"
"MOHAN MOTOR","Branch","Ecosuite Business Tower, First Floor,plot-II-D/22, Action Area-ll, New-Town, Street No 676 & 775, Rajarhat, Kolkata-700156, WB","North 24 Parganas","West Bengal","700156","8585048494, 9831639393, 9007013785","sales@mohanmotorsuzuki.com"
"NAVASARI SUZUKI","Branch","Shop No 5,6,7,8 First & Ground Floor, Besides Swadisht Hotel, NH No 8, Village Thala, Dist. Navsari, Chikhli-396521, Gujarat","Navsari","Gujarat","396521","9227901100, 957400994","navsari9_Suzuki@rediffmail.com, bansalkishore@yahoo.com"
"NINESTAR SUZUKI","Branch","Survey No 183, (BBMP No 567,, 645f/2), Doresanipalya, Anthappa Layout, Bilekekahalli junction, Near IIM, Phase-IV, J P Nagar, Bannerghatta Main Road, Bangalore-560075, KN","Bangalore","Karnataka","560075","7625088805, 080-44554447","info@ninestarsuzuki.com"
"ORION SUZUKI","Branch","Door No 6, 1st & 2nd floor, Veracious Presidio, 100ft Ring Road, 15th Cross, 6th Phase, J P Nagar, Opp Renault Showroom, Bangalaru-560078, Karnataka","Bangalore","Karnataka","560078","9945083900","orionmotomart@gmail.com"
"PADMAJA SUZUKI","Branch","Door No 16, 386A, Pammaru Road, Dist. Krishna, Gudiwada--521301, Andhra Pradesh","Krishna","Andhra Pradesh","521301","9505867888 /9951134999 / 08674-244449 / 08674-244446","pcc.padmajasuzukigdv@gmail.com"
"PADMAJA SUZUKI","Branch","Old door No.1/119 & new Door No 9-68, Ashok Nagar, M G Road, Patamata, District Krishna, Pin-520010, AP","Krishna","Andhra Pradesh","520010","9035609333","padmajacc@gmail.com,ceopadmajasuzuki@gmail.com"
"PADMAJA SUZUKI","Branch","Showroom: Varun Point, 35-05-88/1, NH-5, Beside Petrol Bunk, Muralinagar, Vishakapatnam - 530007, Andhra PradeshWorkshop : Plot No D12,Industrial Estate ,Murali nagar-530007","Visakhapatnam","Andhra Pradesh","530007","8886617022 ,8886617024-25, 9885794646","pcc.suzuki@gmail.com,pccvizag@gmail.com"
"PADMAJA SUZUKI","Branch","Dr No 7-8-1/1, TS No 1012 & 1013. Block 40, Varun Towers, Kasturba Marg, Siripuram, Vishakapatnam-530007, AP","Visakhapatnam","Andhra Pradesh","530007","7032097762 / 9885794646 / 9885922622","pcc.srpm@gmail.com,padmajasuzukivizag@gmail.com"
"PAI SALES","Branch","V Square Building, Near Bank of Baroda, Kulur Ferry Road, Urwa, Chilimbi, Mangalore-575006, KN","Dakshina Kannada","Karnataka","575006","0824-2453733 / 7411573777/ 9845083804","paisales@gmail.com"
"PALAKKAD SUZUKI","Branch","9/517, Naz Plaza, M.M. Nazar Complex, PWD Road, Aamakkulam, Vadakkancherry, Dist-Palakkad, Vadakkancherry-678683, Kerala","Palakkad","Kerala","678683","09539590590, 9946100007; 0491-2572233","palakkadsuzuki@yahoo.co.in"
"PATEL SUZUKI","Branch","Shop No 1,2, Aakanksha Complex, 11-Vijay Plot Corner, Near Suryakant Hotel, Opp. Jay Kay House, Gondal Road, Rajkot-360002, Gujarat.","Rajkot","Gujarat","360002","9974100707, 9724800404, 9724322282","gmsales.patelsuzuki@gmail.com"
"PATEL SUZUKI","Branch","Beside Aditya Motors, Opp Rajkamal Petrol Pump, Near Gondal Chowkdi, Gondal Road, Rajkot-360004, Gujarat","Rajkot","Gujarat","360004","9724322282","gmsales.patelsuzuki@gmail.com"
"PEAK SUZUKI","Branch","1/3-8, CHB Colony Street No.-4,Near Konguvelalar Mandapam, Velur Road, Tiruchengode-637211","Namakkal","Tamil Nadu","637211","8754010668, Sales-9944760000,9500990668/ Service-9952555000","peaksuzuki.erode@gmail.com"
"PEAK SUZUKI","Branch","NO.59, NEHRU STREET, (OPP. TO SEETHA KALYANA MANDAPAM), ERODE MAIN ROAD, GOBICHETTIPALAYAM - 638476.","Erode","Tamil Nadu","638476","894507668 Showroom 9944860000 Workshop 9952444000","peaksuzuki.gobi@gmail.com"
"PEAK SUZUKI","Branch","134/A, Near Annamaar Petrol Bunk, Karur Byepass Main Road, Moolapalayam, Dist. Erode-638002, TN","Erode","Tamil Nadu","638002","7338845664","peaksuzki.mplm@gmail.com,erode.peak.sales@suzukidealers.net"
"PETAL SUZUKI","Branch","Ground Floor, Swagat Plaza, Ambali- Bopal Road, Bopal-380058, Ahmedabad, GJ","Ahmedabad","Gujarat","380058","079-4005766/27498989/40057581","petalsuzukisales3@groupplanetpetal.com,petalsuzukiservice3@groupplanetpetal.com"
"PETAL SUZUKI","Branch","GROUND FLOOR, 107 & 108 SIGNATURE-2, Nr, SARKHEJ CROSS ROAD, OPP RELIEF HOTEL, SARKHEJ, AHMEDABAD 380055.","Ahmedabad","Gujarat","380055","9825009341","petalsuzuki.dgm@gmail.com"
"PETAL SUZUKI","Branch","6,7, Camps Corner, Opp. Sales India, Prahalad Nagar, Satelite, Dist. Ahmedabad-380015, Gujarat","Ahmedabad","Gujarat","380015","079-4005766 / 40057581","petalsuzuki@gmail.com"
"PLANET SUZUKI","Branch","18-19-20, Madhuram Park Near Geeta Gauri Cinema, Sonini chal, Odhav-382415, Ahmedabad, GJ","Ahmedabad","Gujarat","382415","9825303181","planetsuzukiodhav@gmail.com,planetodhavsales@groupplanetpetal.com"
"PRIDE SUZUKI","Branch","Chamunda Nagar, Near Adarsh Soc., Laxmikant Ashram Main Road, Katargam, SURAT-395006","Surat","Gujarat","395006","0261-6560919, 9099965596","pridesuzuki.katargam@gmail.com"
"PRIDE SUZUKI","Branch","Pride Suzuki, Khan Empire, Opp. Golden Hotel, Bardoli-Surat Road, Bardoli-394601, GJ","Surat","Gujarat","394601","091-8866063967- Showroom, 091-9099965598- Mr. Sanjaybhai","pridesuzuki@gmail.com."
"RACE SUZUKI","Branch","Near Patel Tower, Unjha-Palanpur Highway-road, ,Near Unjha Chowk, Unjha -384170, GJ","Mahesana","Gujarat","384170","9638539671, 08905212696","mehsanasuzuki06@rediffmail.com"
"RAJ SUZUKI","Branch","G-1 & G-2,Gravity Mall,Mamandir, Miniplex, Bhamori, Vijay Nagar , Dist. Indore-452010, Madhya Pradesh","Indore","Madhya Pradesh","452010","0731-4976373, 09109101110","rajsuzukivijaynagar@gmail.com"
"RAJAVALSAM SUZUKI","Branch","NEAR PUMP JUNCTION, AROOR PO, CHERTHALA TALUK, PINCODE-688534, KR","Alappuzha","Kerala","688534","9961410308","dileep.suzuki@gmail.com,rajavalsam.suzuki@gmail.com"
"RAJAVALSAM SUZUKI","Branch","Near Saraswathi Temple, Thattarambalam, Dist. Allappuzha, P.O Mavelikara-690103, KR","Alappuzha","Kerala","690103","8589043477,8138907074, 8589043431,8589004343, 8589043438 / 0477-2267818 / 09961410308/ 99452055771","rajavalsam.mvl@gmail.com,apillai47@gmail.com,rajavalsam.suzuki@gmail.com"
"RAJAVALSAM SUZUKI","Branch","Shabhodra Complex, Nr Karthiyayini Hotel, Ottapunna Junction, Cherthala PO, Dist- Alappuzha, Cherthala-688524, Kerala","Alappuzha","Kerala","688524","8589043438, 0477-2267818, 99452055771, 9745851121","rajavalsam.suzuki@gmail.com"
"RAJAVALSAM SUZUKI","Branch","Near Palamood Junction, Charummoodu PO, Nooranad Panchayat, Dist-Alappuzha, Charummoodu-690505, Kerala","Alappuzha","Kerala","690505",": 8138007073/ 8589043432/ ,8589004343 / 8589043438; 0477-2267818; 99452055771","rajavalsam.chmd@gmail.com,rajavalsam.suzuki@gmail.com"
"RAJAVALSAM SUZUKI","Branch","Near Kacheri Junction, P.O. Haripad, Dist.Alleppey (ALLAPUZHA), Haripad-690514, Kerala","Alappuzha","Kerala","690514","8138007075 / 04792413440,/ 8589043438 / 99452055771/ 04734-256544","rajavalsam.hpd@gmail.com,pillai47@gmail.com"
"RAYAPUDI SUZUKI","Branch","4-5/1A, Opposite Pala Kendram, Laxmidevi Pally, Kothagudem-507101, Dist: Khammam, Andhra Pradesh","Khammam","Telangana","507101","9247052577 /9885456105","raypudisuzuki@gmail.com"
"RDB SUZUKI","Branch","Branch : E-49/7, Okhla Phase-2, New Delhi-110020","South Delhi","Delhi","110020","9999663532, 9811014630","anilbansal.rdb@gmail.com,rdbsuzuki@gmail.com"
"RDB Suzuki","Branch","C-198-199, Pul Prehladpur, MB road, Badarpur, New Delhi-110044","South Delhi","Delhi","110044","9711262314 /  9999663532 /  9711262056","anilbansal.rdb@gmail.com,rdbsuzuki@gmail.com"
"RDB SUZUKI","Branch","R-1A, Ansal Chamber-1, Bikaji Cama Place, New Delhi-110066","South West Delhi","Delhi","110066","011-41706608 /  8860451818 / 9999663532","rdbsuzuki@gmail.com,delhi.rdb.ceo@suzukidealers.net, ankitbansal.rdb@gmail.com"
"RIYA SUZUKI","Branch","Shop 2,3,4,5,6 Shiv Parvati Appartemnet , Sector-9 near D-Mart, Airoli, Navi Munbai-400708","Thane","Maharashtra","400708","9769868222 , 9769137222, 022-27644422 , 022-27644411 / 9619831025","riyamotors@hotmail.com,riya.suzuki@gmail.com"
"ROHINI SUZUKI","Branch","A-30, Krishan Vihar,Kanjhawla Road, Delhi-110086","North West Delhi","Delhi","110086","98911112755","glimpex55@gmail.com"
"ROONWAL SUZUKI","Branch","Sri Roonwal Motors Pvt Ltd,68,Waltax Road,Sowcarpat, Chennai - 600079","","","600079","044-2529 0317/ 2529 2118 /25350317","roonwalsuzuki@yahoo.com"
"S & S SUZUKI","Branch","Shop No.4,5 and 6,Door No.22 229/33, Tirupati Road, Kattamanchi, CHITTOOR - 517001, Andhra Pradesh","Chittoor","Andhra Pradesh","517001","08572-246233 / 9000940008 / 9959429444/","garudasuzuki@gmail.com"
"S R SUZUKI","Branch","B--147 Sector -10, Dist. Gautam Budh Nagar, Noida - 201301 Uttar Pradesh","Gautam Buddha Nagar","Uttar Pradesh","201301","7065563003","sr.suzukinoida@gmail.com"
"SABOO SUZUKI","Branch","Shop No. 7 to 9, M.D.R. Arcade , Plot no. 56 to 59, Survey no. 201, Malani Co- operative Housing Building Society Ltd., Chinna Thokatta Village, New Bowenpally -500011, Secunderabad, Telangana","Hyderabad","Telangana","500011","040-65457777/ 9248011111/9393477777","bowenpally@saboo.me"
"SABOO SUZUKI","Branch","26-139, St. No.1, Row.2, Safilguda X Road, Malkajgiri-500047, Secunderabad, Telangana","Hyderabad","Telangana","500047","9248077777/9248077777, 040-65457777","malkajgiri@saboo.in."
"SAINI KANGRA SUZUKI","Branch","Branch : V P O Arla, Near Railway Crossing, Palampur, Kangra-176102, Himachal Pradesh","Kangra","Himachal Pradesh","176102","9882168216, 01892-260413","sainisuzuki@gmail.com"
"SALEM SUZUKI","Branch","115,Vedigounder colony,Bye-Pass Road, Opp:Nedunsalai Nagar,Salem-636005","Salem","Tamil Nadu","636005","94432 41189","ammantwowheelers@yahoo.co.in,senthil_safea@yahoo.co.in"
"SAPTAGIRI SUZUKI","Branch","56/1, Cheluva Complex, Magadi Main Road, Kottigepalya (Opp Bus Stop) Viswaneedam Post, Banglore-560091","Bangalore","Karnataka","560091","9845029331, 080-23183700/701/702.","dr_rajkumar_road_suzuki@yahoo.co.in"
"SAPTAGIRI SUZUKI","Branch","No. 2 T Dasarahalli Main Road, Near Old Check Post, Tumkur Road, NH-4, Bangalore-560057 , KN","Bangalore","Karnataka","560057","9845029331 / 080-28395711-12-13","jshree.kumar@gmail.com,saptagiri_suzuki@yahoo.com"
"SAPTAGIRI SUZUKI","Branch","Ground Floor, Katha No. 650/A & 650/B, Survey No. 126/2, Opp. Vishwa Vijaya Vittala Kalyan Mantapa, Near Ashrama Bus Stop, Arsinakunte Village, Kasaba Hobli, Bangalore Rural District, Nelamangala-562123, Karnataka","Bangalore Rural","Karnataka","562123","9686988557 / 9686576355 / 9845029331","saptagiri_suzuki@yahoo.com"
"SAPTAGIRI SUZUKI","Branch","No 1/1, Ground Floor, Jeevan Building, Kuamara Park East,Near Shivananda Circle, Sheshadripuram, Bangalore-560020, KN","Bangalore","Karnataka","560020","9844417737/9740820224/ 9845029331 / 080-22381444/22381555/22381666","saptagirisuzuki@yahoo.com"
"SARIPUDI SUZUKI","Branch","Old R.T.O office building ,Main road , Pattabhipuram-522007, AP","Guntur","Andhra Pradesh","522007","9399944333 / 08632264355","anil@saripudisuzuki.com"
"SATARA SUZUKI","Branch","Sagunamatanagar , Lonand Phaltan Road, Jinti Naka, PHALTAN- 415523","Satara","Maharashtra","415523","02166-223249, 08806344502","gajananautosatara@yahoo.co.in"
"SEEMA SUZUKI","Branch","Plot No 8,9, Near Bhakti Dham Mandir, Opp Mahavir Textile Market, Surat, Kadodara Main Road, Magob , Puna Kumbharia-Parvatpatiya, Surat-395010, Gujarat","Surat","Gujarat","395010","7573917771","seemasuzuki@gmail.com"
"SHAIBA SUZUKI","Branch","Beside Signature Hotel , Ushagram, B.B.College More, Dist-Burdwan, Asansol, Pin-713303, West Bengal","Bardhaman","West Bengal","713303","9800425680/ 9800465580/ 9800892525/ 9332145638/ 8509598669/ 7872526526","shaiba.suzuki@gmail.com"
"SHIV SUZUKI","Branch","Gulmohor building, Kalewadi Phata, Thergaon, Chinchwad, Pune-411033","Pune","Maharashtra","411033","020-65101515, 09049042200","sales@shivsuzuki.com"
"SHRISHAKTI SUZUKI","Branch","C-92, South Ganesh Nagar, Delhi-110092","East Delhi","Delhi","110092","8800398634 , 8800398635, 011-22004800, 22005400","md@shrishaktisuzuki.in/delhi.mdmotors.sales@suzukidealers.net"
"SIDDHESH MOTORS","Branch","Opp. Oza Petrol Pump, Sangamner Road, At Post & Taluka- Shrirampur, Distt- Ahmednagar, Maharashtra-371509","","","371509","09970342160/ 9326415005","siddheshmotors@rediffmail.com"
"SONI SUZUKI","Branch","Near JR Theater, Ropar Chandigarh Road, Dist. Rupnagar, Ropar-140001, Punjab","Rupnagar","Punjab","140001","09814302493, 8968558408, 9023694555","soniautodealersnangal@gmail.com"
"SRI KRISHNA MOTORS","Branch","DR NO. 3-6-5 , Town Railway St. Road, Sivaraopet, Bhimavaram-534202, Andhra Pradesh","West Godavari","Andhra Pradesh","534202","9393794848 , 9348393552","slkelr@hotmail.com"
"SRI KRISHNA MOTORS","Branch","Dr No: PAIDIPARRU, TANUKU, West Godavari Dist. AP-534211","West Godavari","Andhra Pradesh","534211","9393494846","seshunara@yahoo.co.in"
"TRUST SUZUKI","Branch","Near A to Z Workshop, Hotel Khanna, Sonali Bridge, Haridwar Road, Roorkee-247884, Uttarkhand","","","247884","9760039145 / 7088110174","haridwar.trust.sales@suzukidealers.net,tarun.trust@gmail.com"
"UDAIPUR SUZUKI","Branch","Main 100 Feet Road, R K Circle, Pula Shbhagpura Road, Fatehpura, Udaipur-313001, Rajasthan","Udaipur","Rajasthan","313001","7726008818 / 9414024197/ 02494-2461484","udaipur.suzuki@gmail.com"
"UMANG AUTO","Branch","KH-NO.- 1143/2, Main Road, Ground floor, Village-Rithala,(Near Rithala Metro Station), Delhi-110086,","North West Delhi","Delhi","110086","011-27029991, 27029998, 9266078000, 9810416600,9868701172","umangmotors@yahoo.co.in,delhi.umang.sales@suzukidealers.net,delhi.umang.ceo@suzukidealers.net"
"UMANG AUTO","Branch","C-280, Rajdhani Enclave, Mahendra Park Chowk, RANI BAGH - 110034, DELHI","North West Delhi","Delhi","110034","9999288055, 8459464512, 9810416600, 27029991","umangmotors.ranibagh@gmail.com,umangmotors@yahoo.co.in"
"VALUE SUZUKI","Branch","Value Suzuki,No 2, 1 st Main Road, MIG,Yelahanka New Town,Bangalore -560064","Bangalore","Karnataka","560064","9945873848 / 080-42796777","valuesuzuki@gmail.com"
"VARUN SUZUKI","Branch","FRONT OF MADANLAL PETROL PUMP,CHAMPA ROAD,JANJGIR-CHAMPA-495668 (C.G)","Janjgir-champa","Chattisgarh","495668","7.39e19","varunsuzuki.janjgir@gmail.com"
"VTJ SUZUKI","Branch","VTJ Suzuki,Near BOT Bridge,Opp ICIC Bank,Thoppumpady,Cochin - 682006","Ernakulam","Kerala","682006","8606971902, 0484 3193362","salesmanager@vtjsuzuki.com"
"VTJ SUZUKI","Branch","Pallithazham, Opposite MORE Supermarket, District Ernakulam, Mulanthuruthy-682314, Kerala","Ernakulam","Kerala","682314","8606244411 , 8606971902, 9745430001; 0484-4230523","mlty.sales@vtjsuzuki.com,md@vtjsuzuki.com"
