"Dealer Name","Address","City","State","Contact","Email"
"COMPETENT AUTOMOBILES-CONNAUGHT PLACE-MARUTI SUZUKI","F-14,COMPETENT HOSUE, MIDDLE CIRCLE, CONNAUGHT PLACE","DELHI","DELHI","+(91)-1145700000",""
"MAGIC AUTO-KAROL BAGH-MARUTI SUZUKI","20637,DESH BANDHU GUPTA ROAD,KAROL BAGH","DELHI","DELHI","+(91)-1145177777",""
"T R SAWHNEY MOTORS-INDRAPRASTHA STN-MARUTI SUZUKI","MAHATMA GANDHI MARG,INDRAPRASTHA METRO STATION,","DELHI","DELHI","+(91)-8588848877",""
"RANA MOTORS-TEES HAZARI STN-MARUTI SUZUKI","BOULEVARD ROAD,TEES HAZARI METRO STATION","DELHI","DELHI","+(91)-1123972222",""
"BAGGA LINK MOTORS-KOTLA MUBARAKPUR-MARUTI SUZUKI","136,BHISHAM PITAMAHA MARG,KOTLA MUBARAKPUR","DELHI","DELHI","+(91)-1140488888",""
"COMPETENT AUTOMOBILES-SHIVAJI MARG-MARUTI SUZUKI","21,SHIVAJI MARG","DELHI","DELHI","+(91)-1145790000",""
"MAGIC AUTO (A UNIT OF MAGIC LEASING & FINANCE PVT. LTD.)","A-8, SWASTHYA VIHAR","DELHI","DELHI","43377777",""
"COMPETENT AUTOMOBILES-LAJPAT NAGAR-III-MARUTI SUZUKI","3CS, 15 Feroz Gandhi Marg, LAJPAT NAGAR-III","DELHI","DELHI","+(91)-1145755500",""
"RANA MOTORS PVT. LTD.","5, MOHTA BUILDING, BHIKAJI CAMA PLACE DELHI","DELHI","DELHI","011- 26712222",""
"SAYA AUTOMOBILES-GT KARNAL RD-MARUTI SUZUKI","A-21-22,G T KARNAL ROAD,INDUSTRIAL AREA","DELHI","DELHI","+(91)-1147088888",""
"T R SAWHNEY MOTORS PVT. LTD.","A-16, NARAINA VIHAR","DELHI","DELHI","9999137164",""
"T R SAWHNEY MOTORS-LAJPAT NAGAR IV-MARUTI SUZUKI","E-260,AMAR COLONY, LAJPAT NAGAR-IV, NEW DELHI","DELHI","DELHI","+(91)-1171116333",""
"BAGGA LINK MOTORS-PATPARGANJ INDL.AREA-MARUTI SUZUKI","395,PATPARGANJ INDL.AREA","DELHI","DELHI","+(91)-1122169111",""
"FAIR DEAL CARS (P) LIMITED","PROPERTY NO E-1 & E-1/A, KHASRA NO. 81/2, MAIN, WAZIRABAD ROADÂ  BHAJANPURA","DELHI","DELHI","9810158923",""
"DD MOTORS-WAZIRAPUR INDL.AREA-MARUTI SUZUKI","42130,WAZIRPUR INDL. AREA,NEAR WAZIRPUR BUS DEPOT","DELHI","DELHI","+(91)-1127153999",""
"COMPETENT AUTOMOBILES-GAZIPUR-MARUTI SUZUKI","3,GAZIPUR","DELHI","DELHI","+(91)-1145300000",""
"T R Sawhney","A-43, Vishal Enclave, New Delhi - 110018.","DELHI","DELHI","",""
"DD MOTORS-MAYAPURI INDL.AREA-MARUTI SUZUKI","A-100,MAYAPURI INDL.AREA PHASE II","DELHI","DELHI","+(91)-1141845000",""
"ROHAN MOTORS-NOIDA-MARUTI SUZUKI","C-8/9,SECTOR-1, NOIDA","NOIDA","UTTAR PRADESH","+(91)-1204071900",""
"AAA VEHICLEADES-MALVIYA NAGAR-MARUTI SUZUKI","F-1/189,PANCHSHEEL-MALVIYA NAGAR ROAD,SAVITRI NAGAR, MALVIYA NAGAR","DELHI","DELHI","+(91)-1146664000",""
"T R SAWHNEY MOTORS-EAST GOKULPUR-MARUTI SUZUKI","MAIN WAZIRABAD ROAD,EAST GOKULPUR,","DELHI","DELHI","+(91)-1171115333",""
"FAIR DEAL CARS-SHAHDARA-MARUTI SUZUKI","485-A,MAIN G.T. ROAD,JHILMIL, SHAHDARA","DELHI","DELHI","+(91)-1122119636",""
"MOTORCRAFT-SAHIBABAD INDL.AREA-MARUTI SUZUKI","S-7,SITE IV, SAHIBABAD INDUSTRIAL AREA","GHAZIABAD","UTTAR PRADESH","+(91)-1204172222",""
"KRISH AUTOMOTORS-RAJASTHANI UDYOG VIHAR-MARUTI SUZUKI","69,G.T. KARNAL ROAD, RAJASTHANI UDYOG NAGAR","DELHI","DELHI","+(91)-1143288888",""
"FAIR DEAL CARS-NOIDA-MARUTI SUZUKI","D-393,SECTOR-10, NOIDA","NOIDA","UTTAR PRADESH","+(91)-9810158923",""
"Rana Motors","E-53, Prashant Vihar, New Delhi","DELHI","DELHI","",""
"VIPUL MOTORS PVT.LTD","COMMERCIAL BUILDING P-6 OCEAN COMPLEX, SECTOR 18,","FARIDABAD","HARYANA","0120-4693100",""
"KRISH AUTOMOTORS-PITAM PURA-MARUTI SUZUKI","2,ROAD NO. 43,GURU HARKISHAN MARG,SGI MALL, PITAM PURA","DELHI","DELHI","+(91)-1140777444",""
"T R SAWHNEY MOTORS PVT. LTD.","A-27, PUSHPANJALI ENCLAVE PITAM PURA","DELHI","DELHI","9999525784",""
"ROHAN MOTORS-MOHAN COOPERATION AREA-MARUTI SUZUKI","A-15,MATHURA ROAD,MOHAN COOP. INDUSTRIAL AREA","DELHI","DELHI","+(91)-1140681000",""
"RANA MOTORS  PVT. LTD.","B1/630,JANAKPURI","DELHI","DELHI","9999577776",""
"PREM MOTORS PVT. LTD.","K-804/2,MAHIPALPUR,MAHIPALPUR,OPP CORPORATION BANK, DELHI","DELHI","DELHI","011-42390018","vk.agmservice@premmotors.com"
"DD MOTORS-PEERA GARHI-MARUTI SUZUKI","A-1,NEW ROHTAK ROAD,UDYOG NAGAR, PEERA GARHI","DELHI","DELHI","+(91)-1125963535",""
"MAGIC AUTO-PALAM DABRI RD-MARUTI SUZUKI","RZ-123,PALAM DABRI ROAD,VAISHALI,DWARKA","DELHI","DELHI","+(91)-1147777777",""
"DD MOTORS-OKHLA INDL.AREA-MARUTI SUZUKI","D-194,OKHLA INDL.AREA, PHASE-I","DELHI","DELHI","+(91)-1140523000",""
"PREM MOTORS PVT. LTD.","F-85,OKHLA INDUSTRIAL AREA,PHASE-1,DELHI","DELHI","DELHI","011-40510000","oka.agmservice@premmotors.com"
"ROHAN MOTORS-CHHATARPUR STN-MARUTI SUZUKI","CHHATARPUR METRO STATION CHHATARPUR","DELHI","DELHI","+(91)-1166764444",""
"T R Sawhney","B-6, Badli Industrial Area, Phase I, Rohini-New Delhi - 110085.","DELHI","DELHI","",""
"VIPUL MOTORS PVT.LTD","H-1A/37, Sector-63,","GURGAON","HARYANA","9873770373",""
"VIPUL MOTORS PVT.LTD","H 163, Sector 63,near Ginger Hotel,H Block, Sector 63","NOIDA","UTTAR PRADESH","4824000",""
"VIPUL MOTORS PVT.LTD","H 163, Sector 63,near Ginger Hotel,H Block, Sector 63","NOIDA","UTTAR PRADESH","4824000",""
"T R SAWHNEY MOTORS PVT. LTD.","96 RAJINDER NAGAR, INDUSTRIAL ESTATE, MOHAN NAGAR","GHAZIABAD","UTTAR PRADESH","9999052816",""
"COMPETENT AUTOMOBILES-DWARKA-MARUTI SUZUKI","A-24-25,MADHU VIHAR, RAJA PURI, DWARKA","DELHI","DELHI","+(91)-1146500000",""
"FAIR DEAL CARS (P) LIMITED","GF & FF, PROPERTY NO. 25 KHATA KHATONI,NO. 97/ 98, KHASRA NO. 48/17, POOTH KALAN,MAIN KANJHAWALA BUDH VIHAR","DELHI","DELHI","9810158923",""
"MAGIC AUTO (A UNIT OF MAGIC LEASING & FINANCE PVT. LTD.)","PLOT NO - 94, MARBAL MARKET, DWARKA SECTOR - 20","DELHI","DELHI","+(91)-1143377777",""
"MAGIC AUTO-DWARKA SEC-13,MARUTI SUZUKI","DMRC, METRO STATION SECTOR-13, DWARKA","DELHI","DELHI","+(91)-1146777777",""
"ROHAN MOTORS-MUKUND NAGAR-MARUTI SUZUKI","432,G T ROAD,MUKUND NAGAR","GHAZIABAD","UTTAR PRADESH","+(91)-1204170800",""
"PREM MOTORS PVT. LTD.","GROUN FLOOR JMD REGENT PLAZA VILLAGE SIKANDARPUR GHOSI","GURGAON","HARYANA","124-40900000",""
"AAA VEHICLEADES PVT. LTD.","KHASRA NO .87/3, 87/8, 87/13/1, VILLAGE GHEVRA ROHTAK ROAD,","DELHI","DELHI","9716311111",""
"REGENT AUTOLINKS-MEERUT RD-MARUTI SUZUKI","A10/9,MEERUT ROAD, SITE III,INDUSTRIAL AREA","GHAZIABAD","UTTAR PRADESH","+(91)-1204641900",""
"PASCO AUTOMOBILES-PALAM GRG RD-MARUTI SUZUKI","PASCO HOUSE 6 PALAM-GURGAON ROAD, INDUSTRIAL ESTATE, SECTOER-18 -122015","GURGAON","HARYANA","+91 85859 33984/+91 124 4012000",""
"COMPETENT AUTOMOBILES-NAJAFGARH-MARUTI SUZUKI","E-5/1,PHIRNI ROAD,FURNITURE MARKET. NAJAFGARH","DELHI","DELHI","+(91)-1143505000",""
"AUTO NATION (A UNIT OF TAYAL INDIA MOTORS PVT LTD)","15/3,MILESTONE-FARIDABAD,HARYANA-121003","FARIDABAD","HARYANA","+91-9899596002",""
"RANA MOTORS-IFFCO CHOWK-MARUTI SUZUKI","SCO-322, Sec 29, Gurugram, Haryana – 122002","GURGAON","HARYANA","+(91)-1244260000",""
"ROHAN MOTORS-GOLF COURSE RD-MARUTI SUZUKI","GOLF COURSE ROAD,SUNCITY BUSINESS CENTRE,SECTOR-54","GURGAON","HARYANA","+(91)-1244845400",""
"PREM MOTORS PVT. LTD.","GROUND FLOOR JMD PACIFIC SQUARE SECTOR-15 PART-11","GURGAON","HARYANA","124-4090000",""
"COMPETENT AUTOMOBILES CO. LTD.","VASANT APARMENTS OLD DELHI ROAD, NEAR KATARIA CHOWK","GURGAON","HARYANA","124-4500000",""
"COMPETENT AUTOMOBILES CO. LTD.","PLOT NO. 1202, MIE, PHASE 2, MAIN DELHI ROHTAK ROAD, BAHADURGARH, DISTT. JHAJJAR","BAHADURGARH","HARYANA","9811021421",""
"VIPUL MOTORS PVT.LTD","27/5, KM, MATHURA ROAD,","NOIDA","UTTAR PRADESH","0129-4285000",""
"DD MOTORS (A DIVISION OF DD INDUSTRIES LTD)","KHASRA NO 36/19,,PANA UDHYAN, NARELA","DELHI","DELHI","9643303632",""
"TCS AUTOWORLD-NEELAM CHOWK-MARUTI SUZUKI","SALUJA COMPLEX ADJOINING NEELAM FLYOVER, NEELAM CHOWK, N.I.T.","FARIDABAD","HARYANA","+(91)-1294252525",""
"COMPETENT AUTOMOBILES-ISLAMPUR-MARUTI SUZUKI","KHASRA NO.407, ISLAMPUR, OPP. JMD GARDEN","GURGAON","HARYANA","+(91)-1242201000",""
"PASCO AUTOMOBILES","SILVERTON TOWER,GOLF COURSE EXTN. ROAD. SEC-50-122018","GURGAON","HARYANA","+91 78350 03300/+91 124 2678700",""
"FAIRDEAL CARS","PLOT NO. 17 -A, NIT INDUSTRIAL AREA, NIT, FARIDABAD","FARIDABAD","HARYANA","+91-9582118293",""
"ROHAN MOTORS-GREATER NOIDA-MARUTI SUZUKI","63-A,UDYOG VIHAR, GREATER NOIDA","GREATER NOIDA","UTTAR PRADESH","+(91)-1204513700",""
"JAGMOHAN AUTOMOTIVES PVT LTD","PARKER MALL, NH-1, KUNDLI, DIST. SONIPAT 131028","KUNDLI","HARYANA","8059900525",""
"VIPUL MOTORS PVT.LTD","21/3, ISHWAR BHAWAN,MAIN MATHURA ROAD","Ballabgarh","HARYANA","9599886939",""
"VIPUL MOTORS LTD","21/3, ISHWAR BHAWAN,MAIN MATHURA ROAD","BALLABGARH","HARYANA","9599886939",""
"PASCO AUTOMOBILES","KHASRA NO. 56/19 MIN, 20, 22 MIN, ALIPUR,SOHNA,HARYANA-122102","SOHNA","HARYANA","+91-8683000929","pascosohna@pasco.in"
"PLATINUM MOTOCORP PVT.LTD","KHATONI NO. 759,RECTANGLE NO. 43 11-20/3-1-2,20-11/5-07,1/2/1/1-0-4,2/3/2-2-16,33-0-19,NH-8, MANESAR","MANESAR","HARYANA","0124-2656500",""
"JAGMOHAN MOTORS LTD","DELHI BAHALGARH ROAD, SONEPAT-131001","SONIPAT","HARYANA","2230114",""
"RADHAGOVIND AUTOMOBILES PVT. LTD.","NEAR YOGI FARM, KUNDA GATE,DELHI ROAD, PARTAPUR","MEERUT","UTTAR PRADESH","9412210301",""
"ROHAN MOTORS-SANWAN VIHAR-MARUTI SUZUKI","3695/31/14,MATHURA ROAD,SANWAN VIHAR","PALWAL","HARYANA","+(91)-1275304100",""
"TR Sawhney Motors Pvt Ltd","1926/1 & 1927, Punjabi Pura, Delhi Road, Meerut ","Meerut","UTTAR PRADESH","9582263533",""
"FORTUNE CARS-NEELAM CHOWK-MARUTI SUZUKI","A-97,MAIN ROAD,NEAR B.B. MALL, NEELAM CHOWK ,","BHIWADI","RAJASTHAN","+(91)-1493298298",""
"TANYA AUTOMOBILES-MEERUT-MARUTI SUZUKI","BEGUM BRIDGE ROAD,CHANDRA KIRAN 35, CHHIPI TANK","MEERUT","UTTAR PRADESH","+(91)-1212658000",""
"JAGMOHAN MOTORS-ROHTAK-MARUTI SUZUKI","SONEPAT ROAD,0","ROHTAK","HARYANA","+(91)-9812000359",""
"AUTOGALLERY (A UNIT OF RKH AUTOMOBILES PVT LTD)","GT ROAD,VILLAGE JATTIPUR-132103","PANIPAT","HARYANA","+91-9812001239",""
"DINCO 4 WHEELS LLP","BAWAL ROAD, NEAR BYE PASS,REWARI","REWARI","HARYANA","0127-260347",""
"HARISON AUTOMOBILES-PANIPAT-MARUTI SUZUKI","Near Gohana Road,Opp. Hotel Gold","PANIPAT","HARYANA","+(91)-1804091700",""
"JAGMOHAN MOTORS-BHIWANI-MARUTI SUZUKI","DELHI ROHTAK ROAD,NEAR RADHA SWAMI SATSANG MANDIR,","BHIWANI","HARYANA","+(91)-1664255177",""
"RADHAGOVIND AUTOMOBILES-MARUTI CHOWK-MARUTI SUZUKI","Delhi Dehrudun BYPASS ROAD,MARUTI CHOWK, NEAR TRANSPORT NAGAR","MUZAFFARNAGAR","UTTAR PRADESH","+(91)-9760092002",""
"EAKANSH MOTORS","NH 71, ROHTAK ROAD, JIND","JIND","HARYANA","+91-09896120000",""
"KARNAL MOTORS-KARNAL-MARUTI SUZUKI","71/3,G T ROAD,MILE STONE","KARNAL","HARYANA","+(91)-1842220555",""
"DEV MOTORS-ALIGARH-MARUTI SUZUKI","G.T. ROAD,BANNA DEVI,","ALIGARH","UTTAR PRADESH","+(91)-5712521771",""
"MODERN AUTOMOBILES-KARNAL-MARUTI SUZUKI","7,MEERUT ROAD,0","KARNAL","HARYANA","+(91)-1842261010",""
"KARNAL MOTORS-KARNAL-MARUTI SUZUKI","OPP BUS STAND","KARNAL","HARYANA","+(91)-1842220555",""
"SHAKUMBARI AUTOMOBILES PVT. LTD.","4TH MILESTONE, DELHI- BIJNOR ROAD,NEAR PULKIT HOSPITAL, BIJNOR,","BIJNOR","UTTAR PRADESH","9837088629",""
"PLATINUM MOTOCORP LLP","REWARI ROAD,KAILASH NAGAR-123001","NARNAUL","HARYANA","+91-9818899209",""
"M G MOTORS-TIJARA RD-MARUTI SUZUKI","TIJARA ROAD,NEAR TELCO,","ALWAR","RAJASTHAN","+(91)-1442732236",""
"UMA MOTORS-MATHURA-MARUTI SUZUKI","68,Delhi Agra By pass NH-2,MAHOLI, NEAR JAI GURUDEV TEMPLE","MATHURA","UTTAR PRADESH","+(91)-5653981500",""
"UNIQUE MOTORS-HISSAR-MARUTI SUZUKI","VILL SATROAD DELHI ROAD,OPP-BHANU INDUSTRY","HISSAR","HARYANA","+(91)-1662220020",""
"AKANKSHA AUTOMOBILES-MORADABAD-MARUTI SUZUKI","DELHI ROAD,0","MORADABAD","UTTAR PRADESH","+(91)-1725200264",""
"SHAKUMBARI AUTOMOBILES-ROORKEE-MARUTI SUZUKI","DELHI ROORKEE HIGHWAY,3RD KM STONE,NEAR IOC PETROL PUMP","ROORKEE","UTTARAKHAND","+(91)-1332242116",""
"ATELIER AUTOMOBILES-SAHARANPUR-MARUTI SUZUKI","AMBALA ROAD,NEAR BADI NEHAR","SAHARANPUR","UTTAR PRADESH","+(91)-1322614511",""
"KARNAL MOTORS-URBAN ESTATE-MARUTI SUZUKI","156-157/2,INDUSTRIAL AREA, URBAN ESTATE","KURUKSHETRA","HARYANA","+(91)-1744230522",""
"MODERN AUTOMOBILES-DELHI RD-MARUTI SUZUKI","DELHI ROAD,OPP VIDYUT NAGAR","HISSAR","HARYANA","+(91)-9355468000",""
"EAKANSH MOTORS-KAITHAL-MARUTI SUZUKI","76-77,Ambala Road,KAITHAL","KAITHAL","HARYANA","+(91)-9991755000",""
"TM MOTORS-BHARATPUR-MARUTI SUZUKI","CIRCULAR ROAD,BE- NARAIAN GATE","BHARATPUR","RAJASTHAN","+(91)-5644225974",""
"HISSAR AUTOMOBILES-DELHI SIRSA RD-MARUTI SUZUKI","DELHI SIRSA ROAD,5TH KM MILESTONE","HISSAR","HARYANA","+(91)-1662275751",""
"PANDIT AUTOMOBILES-JAGADHRI-MARUTI SUZUKI","JAGADHRI- GOBINDPURI ROAD,JAGADHRI","YAMUNANAGAR","HARYANA","+(91)-1732247777",""
"SHAKUMBARI AUTOMOBILES-HARIDWAR-MARUTI SUZUKI","INDUSTRIAL AREA,NEAR HANUMAN MANDIR","HARIDWAR","UTTARAKHAND","+(91)-1334221633",""
"MADHUSUDAN MOTORS-LAWYERS COLONY-MARUTI SUZUKI","B-5,BYE-PASS ROAD,LAWYERS COLONY","AGRA","UTTAR PRADESH","+(91)-5624050120",""
"KTL LIMITED-KAMLA NAGAR-MARUTI SUZUKI","BYE PASS ROAD,KAMLA NAGAR","AGRA","UTTAR PRADESH","+(91)-5624055999",""
"PREM MOTORS-GOKULPURA-MARUTI SUZUKI","45,MG ROAD,GOKULPURA OPP. AGRA COLLEGE","AGRA","UTTAR PRADESH","+(91)-5622523022",""
"AKANKSHA AUTOMOBILES (RUDRAPUR) PVT. LTD.","NEAR JAITPUR MOUR, BAZPUR ROAD, KASHIPUR,DISTRICT – UDHAM SINGH NAGAR","KASHIPUR","Uttarakhand","8859503111",""
"EAKANSH WHEELS-AMBALA CANTT-MARUTI SUZUKI","STATE HIGHWAY NO.5, JAGADHARI ROAD, KM-126, AMBALA CANTT","AMBALA","HARYANA","+(91)-1712822500",""
"AUDI MOTORS-RICCO PHASE II-MARUTI SUZUKI","E-1-2,RICCO PHASE II, AUTOMOBILES SERVICE SECTOR","JHUNJHUNUN","RAJASTHAN","+(91)-1592250047",""
"MADHUSUDAN VEHICLES-ALI NAGAR KHEJRA-MARUTI SUZUKI","746,NH-2,ALI NAGAR KHEJRA, NEAR RAJA KA TAL","FEROZABAD","UTTAR PRADESH","+(91)-9690003018",""
"MODERN AUTOMOBILES-G T RD-MARUTI SUZUKI","G.T. ROAD,NEAR MODEL TOWN CROSSING","AMBALA","HARYANA","+(91)-1712520444",""
"SHAKTI MOTORS-FATEHABAD-MARUTI SUZUKI","NATIONAL HIGHWAY-10, SIRSA ROAD,0","FATEHABAD","HARYANA","+(91)-1667221599",""
"FUTURE AUTO WHEELS-GANDHI RD-MARUTI SUZUKI","59/9,GANDHI ROAD,0","DEHRADUN","UTTARAKHAND","+(91)-1352722811",""
"ROHAN MOTORS-YAMUNA COLONY-MARUTI SUZUKI","130/1,CHAKRATA ROAD,YAMUNA COLONY","DEHRADUN","UTTARAKHAND","+(91)-1352530050",""
"DD MOTORS-DELA RAM BAZAR-MARUTI SUZUKI","81-A,RAJPUR ROAD,DELA RAM BAZAR","DEHRADUN","UTTARAKHAND","+(91)-1352745330",""
"HIRA AUTOMOBILES LTD","RAJSBAHA ROAD, PATIALA","PATIALA","PUNJAB","0175- 2209100/01/02/03","hiraauto@sancharnet.in"
"ATELIER AUTOMOBILES PVT. LTD","MARUTI SUZUKI BHADURGARH, NEAR CASBA RESORT, RAJPURA-PATIALA ROAD, PUNJAB, 147001","PATIALA","PUNJAB","7527000174",""
"HIRA AUTOMOBILES-RAJPURA-MARUTI SUZUKI","RAJPURA-PATIALA HIGHWAY,VILLAGE BADHAK,RAJPURA","RAJPURA","PUNJAB","+(91)-9217048300",""
"HIRA AUTOWORLD LLP","VILLAGE BADHAK, RAJPURA-PATIALA HIGHWAY,RAJPURA","RAJPURA","PUNJAB","9217048300",""
"KAVISHA MOTORS-C B GANJ-MARUTI SUZUKI","RAMPUR ROAD,4TH KM,CB GANJ","BAREILLY","UTTAR PRADESH","+(91)-7895980201",""
"CORAL MOTORS-BAREILLY-MARUTI SUZUKI","STATION ROAD,NEAR RAILWAY","BAREILLY","UTTAR PRADESH","+(91)-5812577680",""
"AKANKSHA AUTOMOBILES (RUDRAPUR) PVT. LTD.","KICHHA BYE PASS ROAD, (U.S. NAGAR)","RUDRAPUR","UTTARAKHAND","05944-241555",""
"ETERNITY MOTORS LLP","Pilibhit By-Pass, Opp. Fun City,Bareilly","BAREILLY","UTTAR PRADESH","+91-9105555710 /+91-9105555701",""
"MAX AUTOS-SANGRUR-MARUTI SUZUKI","DHURI ROAD,0","SANGRUR","PUNJAB","+(91)-1672240022",""
"TRICITY AUTOS-SAS NAGAR-MARUTI SUZUKI","NEAR NABHA SAHIB GURUDWARA","ZIRAKPUR","PUNJAB","+(91)-9988882305",""
"NAINITAL MOTORS-RAMPUR RD-MARUTI SUZUKI","RAMPUR ROAD,5TH KM, JEETPUR NEGI","HALDWANI","UTTARAKHAND","+(91)-5946235665",""
"AUTO VOGUE PVT.LTD","PLOT NO 198,INDUSTRIAL AREA","PANCHKULA","HARYANA","5066644",""
"PREM MOTORS PVT. LTD.","E-101 A, ROAD NO. 8, VKI AREA, JAIPUR","JAIPUR","RAJASTHAN","3055555",""
"JAMU AUTOMOBILES-JAIPUR RD-MARUTI SUZUKI","F-54,JAIPUR ROAD, INDUSTRIAL AREA","SIKAR","RAJASTHAN","+(91)-1572245515",""
"MODERN AUTOMOBILES-PANCHKULA SECTOR 8-MARUTI SUZUKI","SCO-411,SECTOR 8","PANCHKULA","HARYANA","+(91)-1725211999",""
"MODERN AUTOMOBILES-CHANDIGARH-MARUTI SUZUKI","4 M. W.,INDUSTRIAL AREA,PHASE I","CHANDIGARH","CHANDIGARH","+(91)-1725045555",""
"AUTOPACE NETWORK-CHANDIGARH-MARUTI SUZUKI","122-113,INDUSTRIAL AREA, ,PHASE â€“1","CHANDIGARH","CHANDIGARH","+(91)-1724699999",""
"CM AUTOSALES-INDUSTRAIL AREA PHASE 1-MARUTI SUZUKI","17,INDUSTRIAL AREA PHASE-1","CHANDIGARH","CHANDIGARH","+(91)-1725200200",""
"SHAKTI MOTORS-SIRSA-MARUTI SUZUKI","DABWALI ROAD,0","SIRSA","HARYANA","+(91)-1666221953",""
"KP AUTOMOTIVE-BANI PARK-MARUTI SUZUKI","C-17,SAWAI JAISINGH HIGHWAY,BANI PARK","JAIPUR","RAJASTHAN","+(91)-1414072222",""
"KP AUTOMOTIVE-ADARSH NAGAR-MARUTI SUZUKI","B-19,GOVIND MARG,ADARSH NAGAR","JAIPUR","RAJASTHAN","+(91)-1412607822",""
"PREM MOTORS-GOPALBARI-MARUTI SUZUKI","AJMER ROAD,CORPORATE PARK, NEAR AJMER PULIA, GOPALBARI","JAIPUR","RAJASTHAN","+(91)-1413055500",""
"Navdesh Autos LLP","C-39, PHASE-3, INDUSTRIAL AREA","MOHALI","PUNJAB","5020705",""
"STAN AUTOS-PHASE 3 INDL.AREA-MARUTI SUZUKI","C-39, PHASE-3, INDUSTRIAL AREA","MOHALI","PUNJAB","+(91)-1725020705",""
"CM AUTOSALES PVT. LTD.","SCO 383-384,SEC 37D, CHANDIGARH","CHANDIGARH","CHANDIGARH","+(91)-1725200264",""
"KTL AUTOMOBILE PRIVATE LIMITED","D2-D3, VAISHALI MARG, VAISHALI NAGAR, JAIPUR 302021","JAIPUR","RAJASTHAN","+91-7412077000",""
"VIPUL MOTORS PVT.LTD","S 10 SHYAM NAGAR AJMER ROAD","JAIPUR","RAJASTHAN","0141-2294395",""
"SATNAM MOTOCORP PVT LTD","19-20, PRADHAN MARG, GEM ENCLAVE,C BLOCK, MALVIYA NAGAR","JAIPUR","RAJASTHAN","2523400",""
"VIPUL MOTORS PVT.LTD","S-3, S-4,MAHAVEER NAGAR,TONK ROAD","JAIPUR","RAJASTHAN","0141-2724839",""
"HOSHIARPUR AUTOMOBILES","HOSHIARPUR AUTOMOBILES  ARENA,VILL AMBE MAJRA, G.T. ROAD MANDI GOBINDGARH","MANDI GOBINDGARH","PUNJAB","9815495786",""
"SANGA AUTOMOBILES-PRATAP NAGAR-MARUTI SUZUKI","A-1,PUSPH ENCLAVE, SECTOR-5, PRATAP NAGAR","JAIPUR","RAJASTHAN","+(91)-1412793924",""
"MAX AUTOS-BARNALA-MARUTI SUZUKI","MANSA ROAD,HANDAYA CHOWK","BARNALA","PUNJAB","+(91)-9216529218",""
"GOYAL MOTORS-DEONGHAT-MARUTI SUZUKI","DEONGHAT, SOLAN","SOLAN","HIMACHAL PRADESH","+(91)-1792228473",""
"CM AUTOSALES-RUPNAGAR-MARUTI SUZUKI","NH-21 CHANDIGARH ROAD,0","ROOPNAGAR","PUNJAB","+(91)-9915003004",""
"GOYAL MOTORS-TARADEVI-MARUTI SUZUKI","TARADEVI","SHIMLA","HIMACHAL PRADESH","+(91)-1772831872",""
"KULDEEP MOTORS-ETAWAH-MARUTI SUZUKI","KANPUR ROAD,PAKKA BAGH","ETAWAH","UTTAR PRADESH","+(91)-9627092000",""
"TARA AUTOMOBILES-MANSA RD-MARUTI SUZUKI","MANSA ROAD,0","BHATINDA","PUNJAB","+(91)-1642214322",""
"SUMITRA DS MOTORS-SHAHJAHANPUR-MARUTI SUZUKI","NH-24 ROZA BY PASS,0","SHAHJAHANPUR","UTTAR PRADESH","+(91)-9044603223",""
"STAN AUTOS-SHERPUR CHOWK-MARUTI SUZUKI","G T ROAD,NEAR SHERPUR CHOWK","LUDHIANA","PUNJAB","+(91)-1615043043",""
"GULZAR MOTORS-DHOLEWAL-MARUTI SUZUKI","G T ROAD,0","LUDHIANA","PUNJAB","+(91)-1612541777",""
"LIBRA AUTOCAR-TRANSPORT NAGAR-MARUTI SUZUKI","JALLANDHAR BYE PASS,OPP.MOTI NAGAR, TRANSPORT NAGAR","LUDHIANA","PUNJAB","+(91)-1615088333",""
"SANDHU AUTOMOBILES-DHOLEWAL CHOWK,MARUTI SUZUKI","LINK ROAD,DHOLEWAL CHOWK","LUDHIANA","PUNJAB","+(91)-1612545656",""
"SWANI MOTORS-FEROZEPUR RD-MARUTI SUZUKI","12,FEROZEPUR ROAD,FEROZE GANDHI MARKET,BEHIND GREWALS HOTEL","LUDHIANA","PUNJAB","+(91)-1615012274",""
"PREM MOTORS-GWALIOR-MARUTI SUZUKI","A.G. OFFICE ROAD,KANWAL COMPLEX","GWALIOR","MADHYA PRADESH","+(91)-7514010757",""
"PREM MOTORS-SHIVPUR LINK RD-MARUTI SUZUKI","SHIVPURI LINK ROAD,0","GWALIOR","MADHYA PRADESH","+(91)-7514055103",""
"LOVELY AUTOS","VPO LANGROYA,NAWANSHAHR - CHANDIGARH ROAD,DIST. NAWANSHAH NAWANSHAHR","NAWANSHAHR","PUNJAB","01823- 251501/251500","lovelyautosnws@yahoo.co.in"
"AUDI MOTORS PVT LTD","MAHAVEER MARG","HANUMANGARH","RAJASTHAN","223485/86",""
"REMIRA MOTORS PVT.LTD","INDUSTRIAL AREA, OPP ITI GT ROAD","MOGA","PUNJAB","9814088582",""
"CONCEPT CARS-HARDOI-MARUTI SUZUKI","LUCKNOW ROAD,NANAK GUNJ GRUNT","HARDOI","UTTAR PRADESH","+(91)-5852220016",""
"MAPSKO AUTO INDIA PVT LTD.","KKP ROAD,NEAR LAW COLLEGE","FARIDKOT","PUNJAB","9990800008",""
"HIRA AUTOMOBILES-MUKTSAR-MARUTI SUZUKI","BHAI COMPLEX MALOUT ROAD,MUKTSAR","MUKTSAR","PUNJAB","+(91)-9217048287",""
"STAN AUTOS-GT RD-MARUTI SUZUKI","G.T.ROAD,OPP.D.P.S","JALANDHAR","PUNJAB","+(91)-1815043015",""
"TARA AUTOMOBILES-ABOHAR-MARUTI SUZUKI","GANGANAGAR BYE PASS,SHREE GURU JAMBESHWAR CHOWK,","ABOHAR","PUNJAB","+(91)-1634228313",""
"COMPETENT AUTOMOBILES-MANDI-MARUTI SUZUKI","VPO GUTKAR,INDUSTRIAL AREA","MANDI","HIMACHAL PRADESH","+(91)-1907222465",""
"LOVELY AUTOS-JALANDHAR-MARUTI SUZUKI","DR. AMBEDKAR CHOWK","JALANDHAR","PUNJAB","+(91)-1812237001",""
"COMPETENT AUTOMOBILES-HAMIRPUR-MARUTI SUZUKI","VILLAGE TIKKAR,PO DIDWIN","HAMIRPUR","HIMACHAL PRADESH","+(91)-1972256283",""
"Lovely Autos","B.D. Enclave , Reru","JALANDHAR","PUNJAB","+91-9876044001",""
"HOSHIARPUR AUTOMOBILES-JALANDHAR RD-MARUTI SUZUKI","JALANDHAR ROAD,SINGRIWALA","HOSHIARPUR","PUNJAB","+(91)-1882501601",""
"AJMER AUTO AGENCIES-JAIPUR RD-MARUTI SUZUKI","JAIPUR ROAD,OPP CITY POWER HOUSE","AJMER","RAJASTHAN","+(91)-1453204879",""
"RELAN MOTORS PVT. LTD.","KHASRA NO: 9305 TO 9307, OPP DAV CENTAURY SCHOOL ADARSH NAGAR, AJMER","AJMER","RAJASTHAN","2610106",""
"AUDI MOTORS-NEW AUTOMOBILE MARKET-MARUTI SUZUKI","SURATGARH-HANUMANGARH LINK ROAD,NEW AUTOMOBILE MARKET,","SRI GANGANAGAR","RAJASTHAN","+(91)-1542466564",""
"BABA AUTOS-FEROZPUR CANTT-MARUTI SUZUKI","MOGA ROAD,FEROZPUR CANTT","Firozpur","PUNJAB","+(91)-1632236201",""
"SURI AUTOMOBILES-JHANSI-MARUTI SUZUKI","NEHRU MARG,CIVIL LINES","JHANSI","UTTAR PRADESH","+(91)-5102447234",""
"Velocity Cars (A Unit of Basera Velocity Autohub Pvt Ltd)","477, Medical Tiraha, Adjacent to Paramedical, Kochabhanwar, Delhi Kanpur Highway, NH27, Jhansi ","Jhansi","UTTAR PRADESH","8299202863",""
"MANGALAM AUTO","KHASRA NO. 1478/83, 1479/982 BIKANER ROAD , NAGAUR","NAGAUR","RAJASTHAN","4669 9666",""
"DUDI AUTOMOBILES (A UNIT OF DMAS AUTOMOBILES PVT LTD)","N.H. 11, TILAK NAGAR,JAIPUR ROAD,OPPOSITE RADIO STATION,BIKANER","BIKANER","RAJASTHAN","8619215475",""
"AUDI MOTORS-GANGANAGAR RD-MARUTI SUZUKI","DAIRYGANGANAGAR ROAD,OPP URMUL R.C.P","BIKANER","RAJASTHAN","+(91)-1512251819",""
"SB CARS-FAZAL GANJ-MARUTI SUZUKI","FAZAL GANJ","KANPUR","UTTAR PRADESH","+(91)-5122224230",""
"KTL LIMITED-CHUNNI GANJ-MARUTI SUZUKI","14/145,CHUNNI GANJ","KANPUR","UTTAR PRADESH","+(91)-5122532870",""
"MY CAR-G T RD-MARUTI SUZUKI","84/54-C,G T ROAD,ARIB CHOWK","KANPUR","UTTAR PRADESH","+(91)-5123988833",""
"KULDEEP MOTORS KANPUR LLP","PLOT NO. 756, BLOCK-W, JUHI KALAN, KANPUR, 208017","KANPUR","UTTAR PRADESH","+91-8006603111",""
"KANGRA VEHICLEADES-MALAN-MARUTI SUZUKI","MALAN, NAGROTA BAGWAN","NAGROTA","HIMACHAL PRADESH","+(91)-1892251379",""
"KTL LIMITED-KRISHNA NAGAR-MARUTI SUZUKI","G T ROAD,SHIVA KATRA, KRISHNA NAGAR","KANPUR","UTTAR PRADESH","+(91)-5122530618",""
"JAYCEE MOTORS-EAST MOHAN NAGAR-MARUTI SUZUKI","274,G.T.ROAD, EAST MOHAN NAGAR","AMRITSAR","PUNJAB","+(91)-1832581335",""
"RISHABH FOURWHEELS-BATALA RD-MARUTI SUZUKI","BATALA ROAD,ADARSH SOAP COMPLEX","AMRITSAR","PUNJAB","+(91)-1832263758",""
"SWANI MOTORS-COURT HOUSE-MARUTI SUZUKI","81,COURT ROAD,0","AMRITSAR","PUNJAB","+(91)-1835030401",""
"SUWALKA MOTORS PRIVATE LIMITED","RIDDHI SIDDHI NAGAR NEAR RAJ PETROL PUMP,BUNDI ROAD,KUNHARI","KOTA","RAJASTHAN","9116312345",""
"BHATIA & CO-KOTA INDL ESTATE-MARUTI SUZUKI","23-24,B-INDUSTRIAL ESTATE, KOTA","KOTA","RAJASTHAN","+(91)-7442365091",""
"ONE UP MOTORS INDIA PVT. LTD.","PLOT NO 1,KUMAR COLD STORAGE COMPOUND,THAKURGANJ,HARDOI ROAD","LUCKNOW","UTTAR PRADESH","+91-9918100860",""
"BHATIA & CO-IPIA-MARUTI SUZUKI","G-11-12,IPIA, AUTOMOBILE ZONE","KOTA","RAJASTHAN","+(91)-7442365095",""
"ONEUP MOTORS INDIA-ALAMBAGH-MARUTI SUZUKI","C-52,SRINGAR NAGAR, ALAMBAGH","LUCKNOW","UTTAR PRADESH","+(91)-5224090300",""
"BRIGHT 4 WHEEL-VIKAS NAGAR-MARUTI SUZUKI","11/CP-6,RING ROAD, VIKAS NAGAR","LUCKNOW","UTTAR PRADESH","+(91)-5226713912",""
"ANAND MOTOR-VIDHAN SABHA MARG-MARUTI SUZUKI","21,VIDHAN SABHA MARG,0","LUCKNOW","UTTAR PRADESH","7235844888",""
"BRIGHT 4 WHEEL SALES PVT. LTD.","3 PREM NAGAR, 19 ASHOK MARG LUCKNOW","LUCKNOW","UTTAR PRADESH","9235400777",""
"KTL AUTOMOBILE PRIVATE LIMITED","FAIZABAD ROAD,(OPP. HAL) INDIRA NAGAR","LUCKNOW","UTTAR PRADESH","+91-7668585858",""
"KTL PVT LTD","R SQUARE, OPP. SRS MALL VIPUL KHAND, GOMTI NAGAR, LUCKNOW, 226010","LUCKNOW","UTTAR PRADESH","+91-7668585858",""
"Mega Motors","TC-12, Vibhuti Khand, Gomti Nagar","LUCKNOW","UTTAR PRADESH","+91-8874900900",""
"ANAND MOTOR-CHINHAT-MARUTI SUZUKI","FAIZABAD ROAD,11 KM, , CHINHAT","LUCKNOW","UTTAR PRADESH","7235844888",""
"PATHANKOT VEHICLEADES-PATHANKOT-MARUTI SUZUKI","DALHOUSIE ROAD,MAMOON CHOWK,PATHANKOT","PATHANKOT","PUNJAB","+(91)-1992276266",""
"LOHIA AUTOMOBILES-AJMER RD-MARUTI SUZUKI","AJMER ROAD,NEAR OCTROI POST","BHILWARA","RAJASTHAN","+(91)-1482265084",""
"PREM MOTORS-GUNA-MARUTI SUZUKI","A.B. Road,Near RTO","GUNA","MADHYA PRADESH","+(91)-7542268015",""
"CHAMPION CARS (A UNIT OF PREM CARS PVT. LTD.)","NEAR GRAM BHARTI, CHITTOR ROAD, BHILWARA","BHILWARA","RAJASTHAN","01482-267135",""
"KTL AUTOMOBILE PRIVATE LIMITED","Village Gulupur, Harchandpur","RAIBAREILLY","UTTAR PRADESH","+91-7668585858",""
"LMJ SERVICES-UDYOG BHAWAN-MARUTI SUZUKI","A-11,NEW POWER HOUSE ROAD, INDUSTRIAL ESTATE, OPP. UDYOG BHAWAN","JODHPUR","RAJASTHAN","+(91)-2912002806",""
"SHRI KRISHNA AUTOSALES-PRATAP NAGAR-MARUTI SUZUKI","2, PRATAP NAGAR, JODHPUR","JODHPUR","RAJASTHAN","+(91)-2912762064",""
"AUDI MOTORS PVT LTD","PLOT NO 5, SARASWATI NAGAR,DISTRICT SHOPPING CENTER,SCHEME - JODHPUR- 342005","JODHPUR","RAJASTHAN","0291-2972626",""
"BHATIA & CO-KIRTI NAGAR-MARUTI SUZUKI","1000-1-2,NIMBAHERA ROAD,KIRTI NAGAR, NEAR ST. PAULS SCHOOL","CHITTORGARH","RAJASTHAN","+(91)-1472240999",""
"LMJ SERVICES-JODHPUR RD-MARUTI SUZUKI","JODHPUR ROAD,0","PALI","RAJASTHAN","+(91)-2932002806",""
"PEAKS AUTO JAMMU PVT. LTD.","NH-1A, KALUCHAK, JAMMU","JAMMU","JAMMU AND KASHMIR","0191-2484831",""
"JAMKASH VEHICLEADES-CHANNI HIMMAT-MARUTI SUZUKI","NATIONAL HIGHWAY BYE PASS,OPP. CHANNI HIMMAT","JAMMU","JAMMU AND KASHMIR","+(91)-1912464304",""
"PEAKS AUTO JAMMU PVT. LTD.","ZORAWAR SINGH CHOWK,OPPOSITE LG SHOWROOM,NANAK NAGAR","JAMMU","JAMMU AND KASHMIR","01914-2466067",""
"JAMMU MOTORS","6, AKHNOOR ROAD STATE J&K","JAMMU","JAMMU AND KASHMIR","0191-2504746",""
"LOHIA AUTOMOBILES-KANKROLI-MARUTI SUZUKI","BHILWARA ROAD,NEAR BHAVA PETROL PUMP RAJSAMAND(KANKROLI)","RAJSAMAND","RAJASTHAN","+(91)-2952320460",""
"J & K  VEHICLEADES PVT. LTD.","NATIONAL HIGHWAY 1-A,UDHAMPUR,","UDHAMPUR","JAMMU AND KASHMIR","01922-276266",""
"RKBK AUTOMOBILES-SAHADATGANJ-MARUTI SUZUKI","LUCKNOW- FAIZABAD HIGHWAY,SAHADATGANJ","FAIZABAD","UTTAR PRADESH","+(91)-9005093544",""
"ADINATH MOTORS-TILAKGANJ-MARUTI SUZUKI","STATION ROAD,TILAKGANJ","SAGAR","MADHYA PRADESH","+(91)-7582403932",""
"NAVNEET MOTORS-MADRI-MARUTI SUZUKI","S-140,MADRI INDUSTRIAL AREA,MADRI","UDAIPUR","RAJASTHAN","+(91)-2942494451",""
"NAVNEET MOTORS-CITY STATION RD-MARUTI SUZUKI","7,CITY STATION ROAD,0","UDAIPUR","RAJASTHAN","+(91)-2942415141",""
"CITY CARS (A UNIT OF AGARWAL WHEELS PVT. LTD.)","AMOUDHA ,PANNA ROAD,SATNA","SATNA","MADHYA PRADESH","07672-222593",""
"TECHNOY MOTORS INDIA-GOVARDHAV VILLAS-MARUTI SUZUKI","42007,NH-8,OPP. SWARNA JYANTI PARK, GOVARDHAN VILLAS","UDAIPUR","RAJASTHAN","+(91)-2942485738",""
"AMITDEEP MOTORS-SULEM SARAI-MARUTI SUZUKI","26,SULEM SARAI","ALLAHABAD","UTTAR PRADESH","+(91)-5322636811",""
"GREENLAND MOTORS-DAYANAND MARG-MARUTI SUZUKI","17-A,DAYANAND MARG (THORNHILL ROAD),FACING SAI MANDIR","ALLAHABAD","UTTAR PRADESH","+(91)-5322421598",""
"AMITDEEP MOTORS-CIVIL LINES-MARUTI SUZUKI","27/17,ELGIN ROAD,CIVIL LINES","ALLAHABAD","UTTAR PRADESH","+(91)-1725020705",""
"RAJRUP MOTORS JUNCTION (A UNIT OF RMJ MOTORS PVT LTD)","C-9, J. K. ROAD, GOVINDPURA, BHOPAL","BHOPAL","MADHYA PRADESH","755-4063501",""
"JEEWAN MOTORS-HOSHANGABAD RD-MARUTI SUZUKI","HOSHANGABAD ROAD, OPP. MAIDA MILL COMPOUND","BHOPAL","MADHYA PRADESH","+(91)-7554057422",""
"MY CAR(BHOPAL)-MALVIYA NAGAR-MARUTI SUZUKI","2,MALVIYA NAGAR, OPP. OLD VIDHAN SABHA","BHOPAL","MADHYA PRADESH","+(91)-7554222999",""
"Daga Motors (A Unit of Daga Heights)","4/1, Chunabhatti Main Road, Near Buddha Temple,Bhopal ","Bhopal","MADHYA PRADESH","7554941001",""
"PEAKS AUTO-ANANTNAG-MARUTI SUZUKI","NH-1A, Uranhall, Anantnag","ANANTNAG","JAMMU AND KASHMIR","+(91)-9697001093",""
"SATYAM MOTORS-MISROD-MARUTI SUZUKI","NH-12, HOSHANGABAD ROAD,MISROD","BHOPAL","MADHYA PRADESH","+(91)-7556420000",""
"DRUK AUTO-LEH-MARUTI SUZUKI","AIRPORT ROAD,0","LEH","JAMMU AND KASHMIR","+(91)-9419178065",""
"PATEL MOTORS(INDORE)-DOSI GAON-MARUTI SUZUKI","181/17,JAORA ROAD,DOSI GAON, OPPOSITE INDUSTRIAL AREA","RATLAM","MADHYA PRADESH","+(91)-7412261555",""
"RUKMANI MOTORS-LALPUR-MARUTI SUZUKI","59/3,DEWAS ROAD,LALPUR","UJJAIN","MADHYA PRADESH","+(91)-7344052000",""
"KIRTI KUNJ AUTOMOBILES-KUTTUPUR TIRAHA-MARUTI SUZUKI","KHANPUR AKBAR, KUTTUPUR TIRAHA","JAUNPUR","UTTAR PRADESH","+(91)-5452268900",""
"SMARTWHEELS PRIVATE LIMITED","PLOT NO. AL-4, SECTOR-9, NEAR ITM COLLEGE, GIDA GORAKHPUR","GORAKHPUR","UTTAR PRADESH","7705803020",""
"NAVNEET MOTORS-DHAOD RD-MARUTI SUZUKI","DHAOD ROAD,OPP AKASHVANI COLONY ,","BANSWARA","RAJASTHAN","+(91)-2962254546",""
"ARBIT AUTOMOBILES PVT.LTD.","PLOT NO: 66/1/1 and 66/2/1, 
NEAR FALMANDI CHOWK, 
TRANSPORT NAGAR","GORAKHPUR","UTTAR PRADESH","8400333333",""
"PEAKS AUTO-LASJAN BYPASS-MARUTI SUZUKI","NH-1A, LASJAN BYPASS,0","SRINAGAR","JAMMU AND KASHMIR","+(91)-1942466067",""
"SMARTWHEELS PRIVATE LIMITED","NEAR RAMGARHTAL, KUNRAGHATMOHADDIPURGORAKHPUR GORAKHPUR","GORAKHPUR","UTTAR PRADESH","0551-2201751","sales.gorakhpur@rkbk.co.in"
"JAMKASH VEHICLEADES-HYDERPORA BYEPASS-MARUTI SUZUKI","HYDERPORA BYEPASS,0","SRINAGAR","JAMMU AND KASHMIR","+(91)-1942435575",""
"HIGHLAND AUTOMOBILES-SONWAR-MARUTI SUZUKI","SONWAR","SRINAGAR","JAMMU AND KASHMIR","+(91)-1912500007",""
"PRIME CAR-A B RD-MARUTI SUZUKI","A.B.ROAD,RASULPUR BYPASS TIRAHA,NEAR SANGHVI FOODS","DEWAS","MADHYA PRADESH","+(91)-7272259301",""
"DEEP MOTORS-AZAMGARH-MARUTI SUZUKI","MOHALLA SARFUDDINPUR","AZAMGARH","UTTAR PRADESH","80058214444",""
"INFINITY CARS (A UNIT OF FOUZDAR CAR PVT.LTD.)","NH-69, MAIN ROAD, RASULIYA, HOSHANGABAD","HOSHANGABAD","MADHYA PRADESH","07574-256633",""
"STAR CARS (A UNIT OF SARASWATI VEHICLES LLP)","PILIKOTHI, MIRZAPUR","MIRZAPUR","UTTAR PRADESH","7380750551",""
"PATEL MOTORS(INDORE)-NIRANJANPUR-MARUTI SUZUKI","428/3/3,AB ROAD,NIRANJANPUR","INDORE","MADHYA PRADESH","+(91)-7314033333",""
"STANDARD AUTO AGENCIES-JABALPUR-MARUTI SUZUKI","42217,JABALPUR HOSPITAL ROAD,NAPIER TOWN, JABALPUR","JABALPUR","MADHYA PRADESH","+(91)-7614040401",""
"SHUBH MOTORS-MADAN MAHAL-MARUTI SUZUKI","OPP.MAHANADDA MADAN MAHAL","JABALPUR","MADHYA PRADESH","+(91)-9300163444",""
"RUKMANI MOTORS-GITA BHAWAN SQUARE-MARUTI SUZUKI","42038,AB ROAD,GITA BHAWAN SQUARE","INDORE","MADHYA PRADESH","+(91)-7314057401",""
"KATHED MOTOCORP (A UNIT OF KATHED MOTORS PVT LTD)","619, Kalani Nagar, Airport Road ","INDORE","MADHYA PRADESH","9009900052",""
"Rana Motors Pvt Ltd","Plot No. 3, Aditya Nagar,A.B. Road,Indore ","Indore","MADHYA PRADESH","9109975533",""
"OCEAN MOTORS COMMERCIAL MANDI-MARUTI SUZUKI","49,RINGI ROAD,PART-4, COMMERCIAL MANDI, NEAR CAT SQUARE","INDORE","MADHYA PRADESH","+(91)-7316627505",""
"VARANASI MOTORS-VARANASI-MARUTI SUZUKI","GT ROAD,ANDHARA PULL","VARANASI","UTTAR PRADESH","+(91)-8114046666",""
"AGR AUTOMOBILES-MAHMOORGANJ-MARUTI SUZUKI","D-38/2A,MAHMOORGANJ,","VARANASI","UTTAR PRADESH","+(91)-1725200200",""
"OCEAN MOTORS PVT. LTD.","Ocean Motors Pvt Ltd ,Malviya Nagar,Mhow,453441","Mhow","Madhya Pradesh","9285009966","mdsm@oceanmotors.in"
"TANU MOTORS-ABU AHMEDABAD HIGHWAY-MARUTI SUZUKI","ABU-AHMEDABAD HIGHWAY,0","PALANPUR","GUJARAT","+(91)-2742253699",""
"Kiran Motors Ltd","Sahyog Chowkdi By Pass,","MODASA","GUJARAT","+91-9924324243",""
"KIRAN MOTORS-MOTIPURA-MARUTI SUZUKI","42225,PIPLODI, NR. GIDC, MOTIPURA","HIMATNAGAR","GUJARAT","+(91)-9824061111",""
"SHUBH MOTORS-BURHAR RD-MARUTI SUZUKI","BURHAR ROAD,NEAR SAMBHAG GATE","SHAHDOL","MADHYA PRADESH","+(91)-9303037444",""
"STARLINE CARS PVT. LTD.","SURVEY NO: 206/PAIKI/1,PATAN UNJHA ROAD,NEAR HANSAPUR VILLAGE PATIYA, PATAN","PATAN","GUJARAT","9824601727",""
"STARLINE CARS-NAGALPUR HIGHWAY-MARUTI SUZUKI","NAGALPUR HIGHWAY,0","MEHSANA","GUJARAT","+(91)-2762243479",""
"RB CARS-AT VAVDI-MARUTI SUZUKI","112/11-12,GODHRA-DAHOD HIGHWAY,AT-VAVDI","GODHRA","GUJARAT","+(91)-2672265306",""
"VIMCO MOTORS PVT.LTD","BESIDE ASHARAMBAPU ASHRAM, MEHSANA-AHMEDABAD HIGHWAY, AT and POST PALAVASANA","MEHSANA","GUJARAT","8909943333",""
"KUNAL MOTORS-NARSINGHPUR RD-MARUTI SUZUKI","42038,NARSINGHPUR ROAD,0","CHHINDWARA","MADHYA PRADESH","+(91)-7162236002",""
"SHREE GOPAL AUTO- DANAPURAM-MARUTI SUZUKI","NH-28,AT-DANAPURM","GOPALGANJ","BIHAR","+(91)-9334106571",""
"NANDA AUTOMOBILES- GIDC SECTOR 28-MARUTI SUZUKI","1003,GIDC,SECTOR-28","GANDHI NAGAR","GUJARAT","+(91)-7923212692",""
"KAMTHI MOTORS LLP","KHASRA NO: 1/53, VILL. SARRA,NAGPUR ROAD, CHHINDWARA ","CHHINDWARA","MADHYA PRADESH","07162-298444",""
"STARLINE CARS(AHMEDABAD)-NARODA-MARUTI SUZUKI","N.H.8,ADITYA OPPULANCE, OPP. RADHAKISHAN BUNGLOWS, NARODA, NEAR NANA CHILODA RAILWAY CROSSING","AHMEDABAD","GUJARAT","+(91)-9099006260",""
"KIRAN MOTORS-MOTERA RD-MARUTI SUZUKI","82/1/1,MOTERA Rd,NEAR H.P. PETROL PUMP","AHMEDABAD","GUJARAT","+(91)-9824503466",""
"UDAY AUTOLINK-KATWADA-MARUTI SUZUKI","S. P. RING ROAD,GALAXY CORPORATE HOUSE,OPP. GALAXY INTERCITY,NR. DASTAN FARM,KATWADA,","AHMEDABAD","GUJARAT","+(91)-7567229999",""
"NIMAR MOTORS-GETAPUR-MARUTI SUZUKI","SANAWAD ROAD,GETAPUR","KHARGONE","MADHYA PRADESH","+(91)-7282243330",""
"PEGASUS (A UNIT OF VISUAL AUTOLINK PVT.LTD)","PLOT NO: 116 & 118/2, NEAR RELIANCE PETROL PUMP, S P RING ROAD, VASTRAL","AHMEDABAD","GUJARAT","79-7623069000",""
"DB Motors Pvt Ltd","Cargo House, Opposite Gandhi Ashram,Old Vadaj, Hridaya Kunj, Ahmedabad","Ahmedabad","GUJARAT","9712644888",""
"KATARIA AUTOMOBILES-DARIYAPUR-MARUTI SUZUKI","OUTSIDE DARIYAPUR,DARWAJA,","AHMEDABAD","GUJARAT","+(91)-7930212345",""
"KATARIA AUTOMOBILES-MANINAGAR-MARUTI SUZUKI","OPP. APPAREL PARKNEAR KOKHARA BRIDGE, MANINAGAR,","AHMEDABAD","GUJARAT","+(91)-7964508888",""
"KIRAN MOTORS-NAVRANGPURA-MARUTI SUZUKI","G/14,NARNARAYAN COMPLEX,SWASTIK CHAR RASTA,NAVRANGPURA,","AHMEDABAD","GUJARAT","+(91)-7926440977",""
"POPULAR WHEELERS-S G HIGHWAY-MARUTI SUZUKI","S.G. HIGHWAY,BESIDES SOLA BRIDGE","AHMEDABAD","GUJARAT","+(91)-9879000881",""
"POPULAR WHEELERS-ASHRAM RD-MARUTI SUZUKI","ASHRAM ROAD,DEVNANDAN MALL, NEAR M.J. LIBRARY","AHMEDABAD","GUJARAT","+(91)-7961602222",""
"KIRAN MOTORS-OPP RAJPATH CLUB-MARUTI SUZUKI","SARKHEJ-GANDHINAGAR HIGHWAY,OPP. RAJPATH CLUB,","AHMEDABAD","GUJARAT","+(91)-7926871130",""
"POPULAR WHEELERS-PATEL TRUST BLDG-MARUTI SUZUKI","NAROL NARODA HIGHWAY ISANPUR CROSS ROADS,PATEL TRUST BUILDING,NR. AVTAR HOTEL","AHMEDABAD","GUJARAT","+(91)-7925736881",""
"NANDA AUTOMOBILES-VEJALPUR-MARUTI SUZUKI","132FT RING ROAD,AVADH ARCADE, NEAR SHEL PETROL PUMP VEJALPUR","AHMEDABAD","GUJARAT","+(91)-7926640274",""
"ATUL MOTORS PVT LTD","OPP. BOPAL APPROACH BRTS, BOPAL AMBLI ROAD, NEAR S P RING ROAD BOPAL","AHMEDABAD","GUJARAT","9909023000",""
"PEARL CARS-SASARAM-MARUTI SUZUKI","NH-2,MORESARAI, NEAR TOLL PLAZA,Â  SASARAM","SASARAM","BIHAR","+(91)-9304576999",""
"KATARIA AUTOMOBILES-MAKARBA-MARUTI SUZUKI","S.G. HIGHWAY,BEHIND ADANI PUMP, NR. MAKARBA RAILWAY CROSSING, MAKARBA","AHMEDABAD","GUJARAT","+(91)-7926928114",""
"TANU MOTORS PVT. LTD.","FINAL PLOT NO:39, NEAR CANAL,AHMEDABAD SANAND HIGHWAY,NEAR GIBPURA VILLAGE","AHMEDABAD","GUJARAT","9512009101",""
"AMAR CARS PVT. LTD.","NEAR RAJHANS CINEMA, UTTARSANDA ROAD,","NADIAD","GUJARAT","9909960715",""
"KATARIA AUTOMOBILES PRIVATE LIMITED","KATARIA AUTOMOBILES PVT LTD, ANAND CHIKHODRA ROAD, 
NEAR RAILWAY OVERBRIDGE, OPP. MRF SHOWROOM, 
ANAND","ANAND","GUJARAT","7406500000",""
"AMAR CARS-JANTA CROSSING-MARUTI SUZUKI","JANTA CROSSING","ANAND","GUJARAT","+(91)-2692229980",""
"KIRAN MOTORS LIMITED","PLOT NO. 160, SUB - 1,OPP.ASOPALAV SOCIETY ,OLD CHHANI ROAD VADODARA","VADODARA","GUJARAT","0265- 2771742","kiran.brd.sal1@marutidealers.com"
"AMAR CARS-KARELI BAUG-MARUTI SUZUKI","HARNI ROAD,OPPOSITE SHELL PETROL PUMP, NEAR SANGAM CHAR RASTA, KARELI BAUG","VADODARA","GUJARAT","+(91)-2652486677",""
"AMAR CARS-GORWA RD-MARUTI SUZUKI","GORWA ROAD,0","VADODARA","GUJARAT","+(91)-2652291500",""
"RAVIRATNA MOTORS PVT LTD","MILES HOUSE, 
NEAR KALALI BRIDGE, ATLADARA","VADODARA","GUJARAT","9687650939",""
"KATARIA AUTOMOBILES-MAKARPURA-MARUTI SUZUKI","984/1,MANEJA ROAD,GIDC, NR. HANUMANJI TEMPLE, MAKARPURA","VADODARA","GUJARAT","+(91)-2653091234",""
"ALANKAR AUTO-BAILEY RD-MARUTI SUZUKI","BAILEYÂ ROAD,IAS COLONY","PATNA","BIHAR","+(91)-6123249193",""
"AUTOMOTIVE MANUFACTURERS-KAMPTEE RD-MARUTI SUZUKI","575,KAMPTEE ROAD,NAGPUR","NAGPUR","MAHARASHTRA","+(91)-7122648338",""
"KARLO AUTOMOBILES-BORING RD-MARUTI SUZUKI","BORING ROAD,0","PATNA","BIHAR","+(91)-6122540074",""
"ALANKAR AUTO-RAJAPUR PUL-MARUTI SUZUKI","EAST BORING CANAL ROAD,RAJAPUR PUL","PATNA","BIHAR","+(91)-6123299410",""
"SEVA AUTOMOTIVE-WADI-MARUTI SUZUKI","AMRAVATI ROAD,KACHIMET AREA, NR. VAYUSENA NGR,BUS STOP,WADI","NAGPUR","MAHARASHTRA","+(91)-7122500021",""
"RAMKRISHNA MOTORS PVT LTD","ZEROMILE BAIRIYA ROAD,","MUZAFFARPUR","BIHAR","91-9534261500",""
"VAUâ€™S AUTOMOBILES-DAKBUNGLOW RD-MARUTI SUZUKI","DAKBUNGLOW ROAD,0","PATNA","BIHAR","+(91)-6122200444",""
"MAHAMAYA AUTOCARS-AMBIKAPUR-MARUTI SUZUKI","MG ROAD,AMBIKAPUR","AMBIKAPUR","CHHATTISGARH","+(91)-7774231854",""
"BARBATE AUTOMOTIVE-KAPASI KURD-MARUTI SUZUKI","NH-6, BHANDARA ROAD,KAPASI KURD","NAGPUR","MAHARASHTRA","+(91)-7126454545",""
"RAJIV AUTOMOBILES PVT LTD","RAMDAYALU NAGAR, OPP. MALAN ASTHAN MANDIR,HAZIPUR ROAD","MUZAFFARPUR","BIHAR","621-2269706","sales@rajivautomobiles.com"
"BARBATE AUTOMOTIVE-GREAT NAG RD-MARUTI SUZUKI","13,GREAT NAG ROAD,0","NAGPUR","MAHARASHTRA","+(91)-9011060104",""
"REESHAV AUTOMOBILES PVT. LTD.","JAGANPURA,NEW BYPASS ROAD,NEAR PATNA CENTRAL SCHOOL,","PATNA","BIHAR","9973499200",""
"REESHAV AUTOMOBILES-JADUA-MARUTI SUZUKI","MG SETU ROAD,NEAR RELIANCE PETROL PUMP","HAJIPUR","BIHAR","+(91)-9263634639",""
"ASPA BANDSONS-BADNERA RD-MARUTI SUZUKI","BADNERA ROAD,0","AMRAVATI","MAHARASHTRA","+(91)-7212510475",""
"DREAM VEHICLE-WADHWAN RD-MARUTI SUZUKI","261/P,WADHWAN ROAD,GIDC, OPPOSITE MARKETING YARD","SURENDERNAGAR","GUJARAT","+(91)-2752241911",""
"MANRAJ MOTORS-AJANTA RD-MARUTI SUZUKI","AJANTA ROAD,MIDC AREA","JALGAON","MAHARASHTRA","+(91)-2574212121",""
"RAVIRATNA MOTORS-ZADESHWAR-MARUTI SUZUKI","NH-8,0","BHARUCH","GUJARAT","+(91)-2642233504",""
"KHANDELWAL AUTOWHEELS-CONVENT RD-MARUTI SUZUKI","CONVENT ROAD,TIRUPATI CHAMBERS","AKOLA","MAHARASHTRA","+(91)-7242426373",""
"SATYA AUTOMOBILES-BILASPUR-MARUTI SUZUKI","Near Old Bus Stand, Bilaspur (C.G.)","BILASPUR","CHHATTISGARH","09203901802,09203901825,09203911845","satyaautobilaspur@gmail.com"
"KARLO AUTOMOBILES-BODH GAYA-MARUTI SUZUKI","GAYA DOBHI ROAD,BODH GAYA","GAYA","BIHAR","+(91)-6312200267",""
"RAVIRATNA MOTORS-VALIA RD-MARUTI SUZUKI","624/2B/A,VALIA ROAD,GIDC, OPP. GUJARAT GAS CNG STATION","ANKLESHWAR","GUJARAT","+(91)-2646225132",""
"SATYA AUTOMOBILES-TRASPORT NAGAR-MARUTI SUZUKI","150,INDIRA COMMERCIAL COMPLEX,TRANSPORT NAGAR,KORBA (C.G.)","KORBA","CHHATTISGARH","09203912694,09203912711","satyaautokorba@gmail.com"
"SEVA AUTOMOTIVE-MALEGAON RD-MARUTI SUZUKI","MALEGAON ROAD,GAT NO. 90-B, AVDHAN, OPP. SUSHIL PETROL PUMP,BOMBAY AGRA HIGHWAY,DHULE","DHULE","MAHARASHTRA","+(91)-2562281128",""
"KRISHNA MOTORS-ALLAPATTI-MARUTI SUZUKI","VIP ROAD,ALLALPATTI, LAHERIASARAI","DARBHANGA","BIHAR","+(91)-6272253525",""
"PERFECT AUTO SERVICES( A DIVISION OF PERFECT RETREADS PVT LTD)","SANALA ROAD,0","MORVI","GUJARAT","+(91)-2822225262",""
"HIMALAYA CARS-YAVATMAL-MARUTI SUZUKI","DARWHA ROAD,YAVATMAL","YAVATMAL","MAHARASHTRA","+(91)-7232249990",""
"ETERNAL MOTOR-BHAVNAGAR RAJKOT HIGHWAY-MARUTI SUZUKI","39972,BHAVNAGAR RAJKOT HIGHWAY,G.I.D.C,NEAR TELEPHONE EXCHANGE,","BHAVNAGAR","GUJARAT","+(91)-2782448718",""
"CHOUHAN AUTOMOBILES LLP","NEAR CHOUHAN TOWN, DURG RAJNANDGAON BYPASS, KATULBOD, BHILAI","BHILAI","CHHATTISGARH","07884900111",""
"SPARSH AUTOMOBILES PVT. LTD.","Mini Mata Chowk , G.E , Road,Pulgaon, Durg","DURG","CHHATTISGARH","7884030011",""
"SPARSH AUTOMOBILES PVT. LTD.","VEER SAWARKAR MARKET ,G.E ROAD , BHILAI, 490023","BHILAI","CHHATTISGARH","+91-7884090400",""
"AMAR CARS PVT. LTD.","BLOCK NO-116, SURVEY NO-128, VAALAK PATIYA, NEAR.VAALAK CANALTA-KAMREJ","SURAT","GUJARAT","2483377",""
"HDN MOTORS PVT LTD","NH-6, G.E ROAD, TATIBANDH","RAIPUR","CHHATTISGARH","9826686000",""
"SKY AUTOMOBILES-MOHABA BAZAR-MARUTI SUZUKI","G.E. ROAD,MOHABA BAZAR","RAIPUR","CHHATTISGARH","+(91)-7714214000",""
"VISHWABHARTI AUTOMOBILES PVT LTD","MOWA, VIDHAN SABHA ROAD","RAIPUR","CHHATTISGARH","9575100000",""
"KATARIA AUTOMOBILES-BARASADI-MARUTI SUZUKI","BARDOLI-KADODARA ROAD,AT & P.O.BARASADI, VILLAGE BARDOLI, TALUKA-PALSANA","BARDOLI","GUJARAT","+(91)-7698009700",""
"SKY AUTOMOBILES-LABHANDI-MARUTI SUZUKI","AVANTI VIHAR, RAIPUR","RAIPUR","CHHATTISGARH","9584433160",""
"KATARIA AUTOMOBILES-SHARA DARWAJA-MARUTI SUZUKI","PUNA KHUMBARIA ROAD,UNION SQUARE, OPPOSITE NEW BOMBAY MARKET, SHARA DARWAJA,","SURAT","GUJARAT","+(91)-9824753009",""
"SPARSH AUTOMOBILES-PACHPEDI NAKA-MARUTI SUZUKI","DHAMTARI ROAD,PACHPEDI NAKA","RAIPUR","CHHATTISGARH","+(91)-7714222222",""
"DHRU MOTORS-JEEVANJYOTI THEATRE-MARUTI SUZUKI","NEAR JEEVANJYOT THEATRE","SURAT","GUJARAT","+(91)-2614060000",""
"KIRAN MOTORS-RING RD-MARUTI SUZUKI","RING ROAD,NEW OPERA HOUSE, NR. CENTRE POINT,NEAR JAIN GURUDEV PETROL PUMP","SURAT","GUJARAT","+(91)-2612633901",""
"B.M. AUTOLINK-NATIONAL HIGHWAY-MARUTI SUZUKI","30-35,NATIONAL HIGHWAY,0","GANDHIDHAM","GUJARAT","+(91)-2836223331",""
"KIRAN MOTORS-PAL HAZIRA ROAAAD-MARUTI SUZUKI","PAL HAZIRA ROAD,GROUND FLOOR, RAJHANS MULTIPLEX, NEAR RAJHANS CAMPUS","SURAT","GUJARAT","+(91)-9824169149",""
"COMET MOTORS-PANDESARA-MARUTI SUZUKI","G H B ROAD NR.120FT BAMROLI ROAD,CHIKUWADI COMPLEX, PANDESARA","SURAT","GUJARAT","+(91)-2612890413",""
"KATARIA AUTOMOBILES-CHORYASHI-MARUTI SUZUKI","TALUKA- CHORYASHI,PIPLOD","SURAT","GUJARAT","+(91)-2613081234",""
"GS MOTORS-HAR HAR MAHADEO CHOWK-MARUTI SUZUKI","NH-31,HAR HAR MAHADEO CHOWK","BEGUSARAI","BIHAR","+(91)-6243244505",""
"PERFECT AUTO SERVICES","PERFECT HOUSE,,GONDAL ROAD,,NR.RAJKAMAL PETROL PUMP, RAJKOT","RAJKOT","GUJARAT","0281- 2360588","perfect.rjk.sal2@marutidealers.com"
"ATUL MOTORS-BHAKTI NAGAR STATION-MARUTI SUZUKI","TAGORE ROAD,NEAR BHAKTI NAGAR STATION","RAJKOT","GUJARAT","+(91)-2812462779",""
"KATARIA AUTOMOBILES-GANESH SISODRA-MARUTI SUZUKI","891,NH-8,OPP. HARI OM PAVA MILL, NEAR GANESH SISODRA CHOKDI, GANESH SISODRA","NAVSARI","GUJARAT","+(91)-2637239323",""
"KATARIA AUTOMOBILES PRIVATE LIMITED","SURVEY NO: 10/P/1, TPS NO: 10, FP NO: 20 MOTAMAVA, OPP COSMOPLEX THEATER,150 RING ROAD SQUARE,KALAWAD ROAD","RAJKOT","GUJARAT","9879566917",""
"HINDUSTAN AUTO-JULU PARK-MARUTI SUZUKI","MAIN ROAD,NEAR SBI ,JULU PARK","HAZARIBAGH","JHARKHAND","+(91)-9263631350",""
"K.D. MOTORS-UMA NAGAR-MARUTI SUZUKI","41765,MIRZAPUR HIGHWAY,UMA NAGAR","BHUJ","GUJARAT","+(91)-2832232531",""
"SATYA AUTOMOBILES-RAIGARH-MARUTI SUZUKI","Jindal Road, Raigarh (C.G.)","RAIGARH","CHHATTISGARH","09203912702","satyaautoraigarh@gmail.com"
"TRISTAR CARS-NAGPUR RD-MARUTI SUZUKI","NAGPUR ROAD,NEAR TRISTAR HOTELS","CHANDRAPUR","MAHARASHTRA","+(91)-7172273051",""
"ATUL MOTORS-LATHI BYPASS-MARUTI SUZUKI","152/1,NEAR LATHI BYEPASS,NEAR HANUMANPARA ROAD,","AMRELI","GUJARAT","+(91)-2792240215",""
"ATUL MOTORS-JAMNAGAR-MARUTI SUZUKI","16-17-19,0","JAMNAGAR","GUJARAT","+(91)-2882571102",""
"AUTOMOTIVE MANUFACTURERS-JALNA RD-MARUTI SUZUKI","1,JALNA ROAD,API CORNER","AURANGABAD","MAHARASHTRA","+(91)-2402484922",""
"PAGARIYA AUTO-ADALAT RD-MARUTI SUZUKI","ADALAT ROAD,PAGARIYA TOWERS","AURANGABAD","MAHARASHTRA","+(91)-2406616666",""
"PAGARIYA AUTO PVT. LTD.","PLOT NO:16, GHOSPURI, BEED-431001","BEED","MAHARASHTRA","+91-9168623578",""
"SUDHA MOTORS-HEHAL-MARUTI SUZUKI","RATU ROAD, HEHAL","RANCHI","JHARKHAND","+(91)-8227996611",""
"HINDUSTAN AUTO-MARAR RAMGARH-MARUTI SUZUKI","RANCHI ROAD,0","RAMGARH","JHARKHAND","+(91)-9263631334",""
"PREMSONS MOTOR-KANKE RD-MARUTI SUZUKI","502,KANKE ROAD,0","RANCHI","JHARKHAND","+(91)-6513015555",""
"Hiltop Motors (A Unit of Hiralal Motors Pvt. Ltd.)","H-22, Near Road 1, Ashok Nagar","RANCHI","JHARKHAND","+91-993120001/+91-9431104771",""
"PREMSONS MOTOR-BARIATU RD-MARUTI SUZUKI","BARIATU ROAD,NEAR D.A.V BARIATU,NEXT TO RAJÂ  APARTMENT","RANCHI","JHARKHAND","+(91)-6513029900",""
"KATARIA AUTOMOBILES PVT LTD","SURVEY NO. 185/3, VILLAGE TIGHRA, NH-8, AL. PARDI VALSAD","VALSAD","MAHARASHTRA","0260-3081208",""
"AMAR CARS PVT. LTD.","SURVEY NO, 1034 & 1035 NATIONAL HIGHWAY  NO 48, (OLD NH NO 8) NEAR WOOD LAND HOTEL  BALITHA VAPI","VAPI","Gujarat","7041333777",""
"KATARIA AUTOMOBILES LTD","Plot No, C-29, N-H -8, GIDC Taluka, Pardi, Vapi, Gujrat.","VAPI","GUJARAT","7930991201","katariatv@rediffmail.com"
"SHAAN CARS-SATPUR-MARUTI SUZUKI","E-3,MIDC AREA, SATPUR","NASHIK","MAHARASHTRA","+(91)-2532351277",""
"KATARIA AUTOMOBILES PRIVATE LIMITED","BLOCK SURVEY NO:295,OPPOSITE RAJPUTANA HOTEL,NEAR SILVASSA RTO OFFICE,ATHEL TEEN RASTA","SILVASSA","DADRA AND NAGAR HAVELI","9624098595",""
"AUTOMOTIVE MANUFACTURERS-AMBAD-MARUTI SUZUKI","P-I-12,MIDC AREA, AMBAD, OPP. AMBAD POST OFFICE","NASHIK","MAHARASHTRA","+(91)-2532380881",""
"SEVA AUTOMOTIVE-AMBAD-MARUTI SUZUKI","X-46,MIDC AREA, NEAR GARWARE SQUARE","NASHIK","MAHARASHTRA","+(91)-2532383890",""
"SEEMANCHAL MOTORS-ALIGANJ-MARUTI SUZUKI","BHAGALPUR- BOUNSI ROAD,ALIGANJ","BHAGALPUR","BIHAR","+(91)-8797096012",""
"PERFECT AUTO SERVICES( A DIVISION OF PERFECT RETREADS PVT LTD)","RAJKOT ROAD,GIDC,DOLATPARA","JUNAGADH","GUJARAT","+(91)-2852661470",""
"ODYSSEY MOTORS-AINTHAPALLI-MARUTI SUZUKI","AINTHAPALLI","SAMBALPUR","ODISHA","+(91)-7782231500",""
"HINDUSTAN AUTO-BOKARO-MARUTI SUZUKI","R-1,CITY CENTRE,SECTOR-IV, BOKARO STEEL CITY","BOKARO STEEL CITY","JHARKHAND","+(91)-9204796100",""
"RELIABLE INDUSTRIES-SARWAN RD-MARUTI SUZUKI","NEW SARWAN ROAD,NEAR RAM JANKI MANDIR","DEOGHAR","JHARKHAND","+(91)-9835806668",""
"SHAAN CARS PVT. LTD.","SURVEY NO 173/4,173/5,173/6 NASHIK PUNE ROAD,A/P VELHALE TEH. SANGAMNER DIST.","AHMEDNAGAR","MAHARASHTRA","9822501816",""
"SEVA AUTOMOTIVE-NANDED HYDERABAD RD-MARUTI SUZUKI","NANDED HYDERABAD ROAD,0","NANDED","MAHARASHTRA","+(91)-2462230722",""
"RELIABLE INDUSTRIES-MATKURIYA-MARUTI SUZUKI","KATRAS ROAD,MATKURIYA","DHANBAD","JHARKHAND","+91-9135000632/7654836688",""
"Car One (A Unit of Rajhans Automobiles Pvt Ltd.)","GT Road , NH2 – Saharjori, Barwadda","DHANBAD","JHARKHAND","+91-7979999291",""
"RELIABLE INDUSTRIES-SARAIDHELLA-MARUTI SUZUKI","KOLA KUSMA, SARAIDHELLA","DHANBAD","JHARKHAND","+91-9135009788/9835829955",""
"SEEMANCHAL MOTORS-GULAB BAGH-MARUTI SUZUKI","NH-31,NEAR MARKETING YARD, GULAB BAGH","PURNEA","BIHAR","+(91)-6454232529",""
"ATUL MOTORS PVT LTD","PLOT NO. 280, NEAR VANANA TOLL PLAZA, RAJKOT-PORBANDAR HIGHWAY, VANANA GIDC","PORBANDAR","GUJARAT","02801 290007",""
"MOTOR WORLD-PARIDIH-MARUTI SUZUKI","N.H-33,PARIDIH, MANGO","JAMSHEDPUR","JHARKHAND","+(91)-6572360341",""
"PEBCO MOTORS-BISTUPUR-MARUTI SUZUKI","MAIN ROAD,HINDUSTAN BUILDING,BISTUPUR","JAMSHEDPUR","JHARKHAND","+(91)-6572249054",""
"PEBCO MOTORS-SAKCHI-MARUTI SUZUKI","372/A,STRAIGHT MILE ROAD,LINE NO. 12, SAKCHI","JAMSHEDPUR","JHARKHAND","+(91)-6576504444",""
"THE KOTHARI WHEELS","GATE NO 747, WARULWADI, PUNE-NASHIK HIGHWAY, NARAYANGAON","NARAYANGAON","MAHARASHTRA","+(91)-2132244002",""
"VARUN MOTORS-PANGRA-BARGAON-MARUTI SUZUKI","HYDERABAD HIGH WAY,PANGRA-BARGAON","NIZAMABAD","TELANGANA","+(91)-8462236236",""
"BEEKAY AUTO PVT. LTD.","NH-31, JESHU ASHRAM, SILIGURI,","SILIGURI","WEST BENGAL","0353-2571264",""
"AHER AUTOPRIME LLP","SADANAND SANKOOL, NEAR PORNIMA CHOWK, MURBAD ROAD, BELOW HOTEL HERITAGE, KALYAN (WEST)","KALYAN","MAHARASHTRA","0251-2327344",""
"SEVOKE MOTORS-SEVOKE RD-MARUTI SUZUKI","233,SEVOKE ROAD,0","SILIGURI","WEST BENGAL","+(91)-3532545311",""
"SAI SERVICE-STATION RD-MARUTI SUZUKI","277A,STATION ROAD,ANDRADES BHAVAN, NEAR UMELAPHATAK, VASAI(WEST),","VASAI","MAHARASHTRA","+(91)-2503262604",""
"PRAKASH AUTO-VITTHALWADI STATION RD-MARUTI SUZUKI","VITTHALWADI STATION ROAD,0","ULHASNAGAR","MAHARASHTRA","+(91)-2512566314",""
"BEEKAY AUTO-CHANDA MORE-MARUTI SUZUKI","NATIONAL HIGHWAY NO.2,CHANDA MORE","ASANSOL","WEST BENGAL","+(91)-3432344030",""
"ENTEL MOTORS-TADONG-MARUTI SUZUKI","6TH MILE,P.O. TADONG","GANGTOK","SIKKIM","+(91)-3592231828",""
"PARAMOUNT WHEELS-HATKESH UDYONG NAGAR-MARUTI SUZUKI","A1/A-B,KASHMIRA ROAD,VELVIN CENTER, HATKESH UDYOG NAGAR","THANE","MAHARASHTRA","+(91)-2242933933",""
"FORTPOINT AUTOMOTIVE-BUNDER RD-MARUTI SUZUKI","326-C,COMPOUNDGHODBUNDER ROAD,MOHAN MILLS","THANE","MAHARASHTRA","+(91)-2225894650",""
"NAVNIT MOTORS-GOKULNAGAR-MARUTI SUZUKI","MUMBAI AGRA ROAD,GOKULNAGAR","THANE","MAHARASHTRA","+(91)-2266776699",""
"SIMRAN MOTORS PVT. LTD.","BUSINESS PARK, UNIT NO: 3 & 4,DIGHA AIROLI, NAVI MUMBAI","MUMBAI","MAHARASHTRA","8108107074",""
"SAI SERVICE PRIVATE LIMITED","SUYOG CO OPERATIVE HOUSING SOCIETY SHOP NO 1 TO 5 & 9 NEW LINK ROAD BORIVALI","BORIVALI WEST","MAHARASHTRA","022-28999500",""
"VELOX MOTORS (A UNIT OF CARKRAFT AUTOMOBILES PVT LTD.)","SHOP N0: 7&8, RUNWAL R SQUARE,LAL BAHADUR SHASTRI ROAD,VARDHMAN NAGAR, MULUND (WEST),","MUMBAI","MAHARASHTRA","9325721619",""
"SHIVAM AUTOZONE-KANDIVALI-MARUTI SUZUKI","28,S.V ROAD,LAKSHACHANDI TOWERS, NEXT TO SHOPPERS STOP,KANDIVLI","MUMBAI","MAHARASHTRA","+(91)-2233244444",""
"AUTOMOTIVE MANUFACTURERS-SAGAR CHAUK-MARUTI SUZUKI","NANDED ROAD,SAGAR CHAUK, OPPOSITE TO TIRUPATI LODGE,LATUR","LATUR","MAHARASHTRA","+(91)-2382251458",""
"EXCELL AUTOVISTA (PVT) LIMITED","GROUND FLOOR, SIDDHANCHAL ARCADE NEAR INORBIT MALL, LINK ROAD MALAD(WEST),MUMBAI-400064","MUMBAI","MAHARASHTRA","022-67021111",""
"SAI SERVICE PRIVATE LIMITED","DIVYAJYOT CHS,OPP SAHAR BUS STOP, NEAR HDFC BANK, S.V ROAD, GOREGAON (WEST), 400062 ","MUMBAI","MAHARASHTRA","+91-22-28714455",""
"MY CAR (PUNE) PVT. LTD.","SHOP NO: 5, 6, & 7 PALM BEACH GALLERIA,SECTOR 19, PAL BEACH ROAD","MUMBAI","MAHARASHTRA","7719800000",""
"FORTPOINT AUTOMOTIVE CARS PVT. LTD.","Viva Hubtown, Ground Floor, unit no 1,2,3 Shankar Wadi, off Western Express Highway Jogeshwari East, Mumbai","MUMBAI","MAHARASHTRA","9594973643",""
"SHIVAM AUTOZONE INDIA PVT. LTD.","UNIT NO: 5 & 6, HIRANANDANI LIGHT HALL, SAKI VIHAR ROAD, POWAI","MUMBAI","MAHARASHTRA","+91-9664393939",""
"VARUN MOTORS PVT. LTD.","1-81/3/10/2 Rekurthi Village Jagtial Road, Karimnagar -505451","KARIMNAGAR","TELANGANA","9985736555",""
"EXCELL AUTOVISTA-KHARGHAR-MARUTI SUZUKI","42012,MUMBAI PUNE HIGHWAY,ADITYA PLANET, SECTOR 10, KOPRA, KHARGHAR","KHARGHAR","MAHARASHTRA","+(91)-1592250047",""
"SAI SERVICE-WESTERN EXPRESS HIGHWAY-MARUTI SUZUKI","WESTERN EXPRESS HIGHWAY,DIAG.OPP. GOLD SPOT FACT,ANDHERI(EAST)","MUMBAI","MAHARASHTRA","+(91)-2226820066",""
"AUTOMOTIVE MANUFACTURERS-SHIRVANE VILLAGE-MARUTI SUZUKI","D-234,BOMBAY PUNE ROAD,MIDC,TTC INDL.AREA,SHIRVANE VILLAGE","MUMBAI","MAHARASHTRA","+(91)-2265161003",""
"AUTOMOTIVE MANUFACTURERS LTD","PHOENIX PARAGON PLAZA, SHOP NO 22 & 23 LBS MARG KURLA","MUMBAI","MAHARASHTRA","251458",""
"SIMRAN MOTORS-NEW PANVEL WEST-MARUTI SUZUKI","42043,PUNE HIGHWAY, SECTOR-15, OPP.GARDEN HOTEL MUMBAI,NEW PANVEL(W)","PANVEL","MAHARASHTRA","+(91)-2227462605",""
"KIRAN MOTORS MAHARASHTRA (DIVISION OF KIRAN MOTORS)","SHOP NO. 3,4,5,6, & BASEMENT B-011 /B020, VIKAS CENTRE 106,S.V. ROAD, SANTA CRUZ WEST MUMBAI","MUMBAI","MAHARASHTRA","022-40070000",""
"SAINATH AUTOLINKS-G T RD-MARUTI SUZUKI","G.T. ROAD,FARIDPUR, DURGAPUR","DURGAPUR","WEST BENGAL","+(91)-3432549999",""
"ADARSHA AUTOMOTIVES-KARIMNAGAR-MARUTI SUZUKI","HYDERABAD ROAD BY-PASS JUNCTION,0","KARIMNAGAR","TELANGANA","+(91)-8782277100",""
"MY CAR (PUNE) PVT. LTD.","GNO: 625/1/3/1, STAR WAGEN, A/P- KURULI, CHAKAN 410501","PUNE","MAHARASHTRA","+91-9326530074",""
"EXCELL AUTOVISTA-BANDRA WEST-MARUTI SUZUKI","257,S.V. ROAD,BANDRA(W)","MUMBAI","MAHARASHTRA","+(91)-2267021111",""
"PODDAR CAR WORLD","SIRISHTALA, COLLEGE PARA , JALPAIGURI","JALPAIGURI","WEST BENGAL","8945533001",""
"J K WHEELS-GABGACHHI-MARUTI SUZUKI","NH-34,GABGACHHI","MALDA","WEST BENGAL","+(91)-3512258884",""
"SAI SERVICE-LOWER PAREL-MARUTI SUZUKI","462,SENAPATI BAPAT MARG,PHOENIX MILL COMPOUND,LOWER PAREL,","MUMBAI","MAHARASHTRA","+(91)-2224939977",""
"FORTPOINT AUTOMOTIVE-CHINCHPOKLI-MARUTI SUZUKI","770,DR. B. AMBEDKAR ROAD,MERU PLOT, MAZGAON DIVISION, , CHINCHPOKLI(E),","MUMBAI","MAHARASHTRA","+(91)-2243435353",""
"VITESSE PRIVATE-WORLI-MARUTI SUZUKI","SETH MOTILAL G SANGHI MARG,1 TURF VIEW, WORLI","MUMBAI","MAHARASHTRA","+(91)-2224945464",""
"WONDER CARS-MIDC CHICHWAD-MARUTI SUZUKI","64/8,BLOCK- 2, MIDC CHINCHWAD","PUNE","MAHARASHTRA","+(91)-2027486000",""
"SAH & SANGHI AUTO-GIRI KUNJ-MARUTI SUZUKI","11-C N S PATKAR MARG,GIRI KUNJ,KEMPS CORNER","MUMBAI","MAHARASHTRA","+(91)-2223803423",""
"SAI SERVICE PRIVATE LIMITED","GATE NO. 1361, PLOT NO. 83 PUNE-NAGAR ROAD, WAGHOLI","PUNE","Maharashtra","9923208208",""
"K. T. S. AUTOMOTORS-P.D. MELLO RD-MARUTI SUZUKI","207-209,P.D. MELLO ROAD,ARYA BUILDING,FORT","MUMBAI","MAHARASHTRA","+(91)-2222653151",""
"SKY AUTOMOBILES-JAGDALPUR-MARUTI SUZUKI","GEEDAM ROAD,JAGDALPUR","JAGDALPUR","CHHATTISGARH","+(91)-9584465279",""
"SAI SERVICE-FUGEWADI-MARUTI SUZUKI","BOMBAY-PUNE ROAD,FUGEWADI","PUNE","MAHARASHTRA","+(91)-2046404430",""
"Wonder Cars","Survey No. 165, Kokane ChowkPimple Saudagar, Pune ","Pune","MAHARASHTRA","9850094123",""
"THE KOTHARI WHEELS-VIMAN NAGAR CHOWK-MARUTI SUZUKI","33/2B/1,AHMADNAGAR ROAD,2 TRADE NET, VIMAN NAGAR CHOWK","PUNE","MAHARASHTRA","+(91)-2026631177",""
"MY CAR(PUNE)-WAKAD-MARUTI SUZUKI","MUMBAI- BANGALORE PUNE BYE PASS,NEAR WAKAD POLICE CHOWKY, WAKAD","PUNE","MAHARASHTRA","+(91)-2039888333",""
"EXCELL AUTOVISTA (PVT) LIMITED","OFFICE NO: 1 & 2, GROUND FLOOR, KONARK ICON BUILDING, NEAR SEASONS MALL,MAGARPATTA KHARADI ROAD, HADAPSAR","PUNE","MAHARASHTRA","9011450000",""
"SUMANKIRTI CARS-EXPRESS HIGHWAY BANER-MARUTI SUZUKI","35,EXPRESS HIGHWAY BANER,KSHITIJ HEIGHTS,NEAR SHIVSAGAR MANGAL KARYALAY","PUNE","MAHARASHTRA","+(91)-2066823812",""
"ACE KUDALE CAR-MANJRI BUDRUK-MARUTI SUZUKI","36/2C/1,PUNE SOLAPUR HIGHWAY,MANJRI BUDRUK","PUNE","MAHARASHTRA","+(91)-2030456456",""
"MAHALAXMI AUTOMOTIVES PVT. LTD.","SHOP 101, 102 , 967/2 SUNIT CAPITAL SENAPATI BAPAT ROAD , SHIVAJI NAGAR","PUNE","MAHARASHTRA","67260000",""
"SAI SERVICE-DECCAN GYMKHANA-MARUTI SUZUKI","DECCAN GYMKHANA","PUNE","MAHARASHTRA","+(91)-2041401111",""
"SEHGAL AUTORIDERS-ERANDWANE-MARUTI SUZUKI","82/2,LAW COLLEGE ROAD,ERANDWANE","PUNE","MAHARASHTRA","+(91)-8308306666",""
"CHOWGULE INDUSTRIES-MAHATMA PHULE PETH-MARUTI SUZUKI","VARDHAN BULDING(OSWAL BANDHU CHAMBERS,) S.NOÂ  321/A/3, JAWAHARLAL NEHRU MARG, MAHATMA PHULE PETH, SEVEN LOVES CHOWK.","PUNE","MAHARASHTRA","+(91)-2066810400",""
"CHOWGULE INDUSTRIES-PUNE SATARA RD-MARUTI SUZUKI","47/2A/2,PUNE SATARA ROAD,TAWARE COLONY OFF","PUNE","MAHARASHTRA","+(91)-2066064600",""
"SEHGAL AUTORIDERS PVT. LTD.","S. NO. 51,PLOT NO 3,HISSA NO. 5,BAVDHAN KHURD","PUNE","MAHARASHTRA","8888881373",""
"ODYSSEY MOTORS-KULAD-MARUTI SUZUKI","NH-55,AT/PO-KULAD(NEAR NALCO CPP),","ANGUL","ODISHA","+(91)-9437050356",""
"CHOWGULE INDUSTRIES-AMBEGAON-MARUTI SUZUKI","1,KATRAJ BYPASS ROAD,, NEXT TO PODDAR INTERNATIONAL SCHOOL, AMBEGAON, HAVELI","PUNE","MAHARASHTRA","+(91)-2066803500",""
"MAHALAXMI AUTOMOTIVES-KASABA-MARUTI SUZUKI","1,PHALTAN ROAD,KASABA","BARAMATI","MAHARASHTRA","+(91)-2112305200",""
"WIN MOTORS BHADRAKALI AUTOCARE PVT.LTD","SURVEY NO. 16A and 16B LASHKARSINGARAM REVENUE VILLAGE
HANAMKONDA, ","WARANGAL","TELANGANA","8688828002",""
"ADARSHA AUTOMOTIVES-WARRANGAL-MARUTI SUZUKI","7-7-376,MULUGU X ROAD,0","WARANGAL","TELANGANA","+(91)-8702523339",""
"LEGEND CARS-JEYPORE-MARUTI SUZUKI","HOTEL HELLO JEYPORE, 764006","JEYPORE","ODISHA","+91-7752029391 / 8114393444",""
"BEEKAY AUTO PVT. LTD.","NH-2, CHADNI MORE,SATTAR MILE, BARDDHAMAN","BARDDHAMAN","WEST BENGAL","0342- 2647002","beekay_bwn@sancharnet.in"
"CHAVAN MOTORS-HOTAGI RD-MARUTI SUZUKI","18,HOTAGI ROAD,39 INDUSTRIAL ESTATE","SHOLAPUR","MAHARASHTRA","+(91)-2172606666",""
"BHANDARI AUTOMOBILES-JHAPATAPUR-MARUTI SUZUKI","BHANDARI BUILDING,JHAPATAPUR","KHARAGPUR","WEST BENGAL","+(91)-3222256070",""
"PODDAR CAR WORLD","CHAKCHAKA P.O,DISTT COOCHBEHAR","COOCH BEHAR","WEST BENGAL","+91-9836301616",""
"VARUN MOTORS-HYDER NAGAR-MARUTI SUZUKI","44563, B.C.P. COMPLEX,OPP: CHERMAS, HYDER NAGAR,KUKATPALLY","HYDERABAD","TELANGANA","+(91)-4023894022",""
"SAI SERVICE PRIVATE LIMITED","PLOT NO : 155 TO 157 & 168 TO 170, MADEENAGUDA, SERILINGAM PALLY MIYAPUR","HYDERABAD","TELANGANA","+91-7799117171",""
"AUTOFIN-OLD BOWENPALLY-MARUTI SUZUKI","33,MEDCHAL HIGHWAY,NEAR MAHENDER REDDY GARDENS,OLD BOWENPALLY","SECUNDERABAD","TELANGANA","+(91)-4044662999",""
"GEM MOTORS-KONDAPUR-MARUTI SUZUKI","64,KONDAPUR","HYDERABAD","TELANGANA","+(91)-4040506070",""
"ACER MOTORS-TRIMULGHERRY-MARUTI SUZUKI","A-1,MOTI VALLEY,TRIMULGHERRY","SECUNDERABAD","TELANGANA","+(91)-4027740774",""
"R.K.S MOTORS (P) LTD.","1-10-1/285/1, BESIDE BHARAT PETROL PUMP,ECIL CROSS ROAD, KUSHAIGUDA","HYDERABAD","TELANGANA","+040-4049054923",""
"SAI SERVICE-ERRAGADDA-MARUTI SUZUKI","ERRAGADA MAIN ROAD,ESIDE GOKUL THEATRE, ERRAGADDA","HYDERABAD","TELANGANA","+(91)-4023808080",""
"VARUN MOTORS-BEGUMPET-MARUTI SUZUKI","1-10-177, VARUN TOWERS,BEGUMPET","HYDERABAD","TELANGANA","+(91)-4027767676",""
"JAYABHERI AUTOMOTIVES PVT. LTD.","CB SQUARE PLOT NO. 113, 114 & 115 LUMBINI ENCLAVE OPP BIO DIVERSITY PARK GACHIBOWLI","HYDERABAD","TELANGANA","0891-2505000",""
"R.K.S MOTORS-SECUNDERABAD-MARUTI SUZUKI","SABOO TOWERS","SECUNDERABAD","TELANGANA","+(91)-4027772777",""
"VARUN MOTORS-GACHIBOWLI-MARUTI SUZUKI","115,I T PARK, GACHIBOWLI, NANKRAMGUDA VILLAGE","HYDERABAD","TELANGANA","+(91)-4044887676",""
"VARUN MOTORS-BANJARA HILLS-MARUTI SUZUKI","ROAD NO 2,OPP KBR PARK, BANJARA HILLS","HYDERABAD","TELANGANA","+(91)-4023607676",""
"PAVAN MOTORS PVT. LTD.","5-4-183/184, GROUND FLOOR MODI SQUARE RANIGUNJ","SECUNDERABAD","TELANGANA","040-27544444",""
"R.K.S MOTORS-SOMJIGUDA-MARUTI SUZUKI","6-3-905,RAJBHAVAN ROAD,SABOO TOWERS,SOMJIGUDA","HYDERABAD","TELANGANA","+(91)-4023452345",""
"KALYANI MOTORS PVT. LTD.","P.NO. 2, RAGHAVENDRA NAGAR, NACHARAM,NEAR VYJAYANTHI THEATRE","HYDERABAD","TELANGANA","80-46699666",""
"LAHOTI MOTORS-GULBURGA-MARUTI SUZUKI","7/1215,LAHOTI GARDENS, NEAR K M F MILK DAIRY, HUMNABAD ROAD","GULBARGA","KARNATAKA","+(91)-9449977777",""
"THE MITHRA AGENCIES-HIMAYATNAGAR-MARUTI SUZUKI","3-6-478, ANAND ESTATES, HIMAYATNAGAR","HYDERABAD","TELANGANA","+(91)-4027634444",""
"THE MITHRA AGENCIES-MEHDIPATNAM-MARUTI SUZUKI","SALARJUNG COLONY,MEHDIPATNAM","HYDERABAD","TELANGANA","+(91)-4065533333",""
"JYOTE MOTORS-GANESWARPUR-MARUTI SUZUKI","276,N.H- 5,GANESWARPUR","BALASORE","ODISHA","+(91)-7692021111",""
"R.K.S MOTORS-SALEEMNAGAR-MARUTI SUZUKI","SALEEMNAGAR, MALAKPET","HYDERABAD","TELANGANA","+(91)-4023434567",""
"Tushi Motors Pvt Ltd","RIVER OAKS PLAZA,MAHANADI ROAD, PLOT NO-1507,BUXIBAZAR","CUTTACK","Odisha","9937020003",""
"CHOWGULE INDUSTRIES-AJANTHA CHOWK-MARUTI SUZUKI","A-19,PUNE-BANGALORE HIGHWAY, OLD MIDC, AJANTHA CHOWK","SATARA","MAHARASHTRA","+(91)-1725020705",""
"ADARSHA AUTOMOTIVES PVT. LTD.","#2-4-43/15, SURVEY NO 34,RAJENDRANAGAR,UPPERPALLY","HYDERABAD","TELANGANA","9160842222",""
"KALYANI MOTORS PVT. LTD.","LB NAGAR-UPPAL ROAD","HYDERABAD","TELANGANA","040-30829999",""
"VARUN MOTORS-AUTO NAGAR-MARUTI SUZUKI","WARD NO. 4, BLOCK NO:10, AUTO NAGAR, BAGH HAYATHNAGAR, VANASTHIPURAM","HYDERABAD","TELANGANA","+(91)-4027767676",""
"ADARSHA AUTOMOTIVES PVT. LTD.","18-2-45, NEAR FLYOVER , CHANDRAYANGUTTA,","HYDERABAD","TELANGANA","2277200",""
"SKY AUTOMOBILES-BHANPUR-MARUTI SUZUKI","NH-5,AT/PO-BHANPUR","CUTTACK","ODISHA","+(91)-9338017902",""
"JYOTE MOTORS (BBSR) PVT LTD","A/62, NAYAPALLI, BHUBANESWAR","BHUBANESWAR","ODISHA","7064470000",""
"SKY AUTOMOBILES-BHOI NAGAR-MARUTI SUZUKI","A/7,MAHARJA CINEMA HALL COMPLEX,- BHOI NAGAR","BHUBANESWAR","ODISHA","+(91)-6742541303",""
"NARAYANI MOTORS-RASULGARH-MARUTI SUZUKI","56-57,RASULGARH","BHUBANESWAR","ODISHA","+(91)-6744214000",""
"JYOTE MOTORS-GAUTAM NAGAR-MARUTI SUZUKI","462,CUTTACK PURI ROAD,GAUTAM NAGAR","BHUBANESWAR","ODISHA","+(91)-6744231852",""
"STARBURST MOTORS-KALYANI-MARUTI SUZUKI","5-CA,NEAR ITI MORE DHAKESWARI RESTAURANT, PO+PS: KALYANI","KALYANI","WEST BENGAL","+(91)-3325827015",""
"SKY AUTOMOBILES-DHARMANAGAR-MARUTI SUZUKI","MAIN ROAD,DHARMANAGAR","BERHAMPUR","ODISHA","+(91)-7381261000",""
"BHANDARI AUTOMOBILES-SREERAMPORE-MARUTI SUZUKI","OLD DELHI ROAD,MADHPUR BUS STOP, BANGIHATI MORE, P.O- SREERAMPORE","Serampore","WEST BENGAL","+(91)-3366137594",""
"BHANDARI AUTOMOBILES-NIBRASALAP-2-MARUTI SUZUKI","NH-6,VILLAGE & PO. NIBRASALAP-2,GRAM PANCHAYAT","HOWRAH","WEST BENGAL","+(91)-3332428659",""
"PREMIER CARWORLD-B T RD-MARUTI SUZUKI","92-F,B.T ROAD,0","KOLKATA","WEST BENGAL","+(91)-9836983691",""
"PAVAN MOTORS-CHARLAPALLY-MARUTI SUZUKI","499-500,CHARLAPALLY","NALGONDA","TELANGANA","+(91)-8682247399",""
"MITHRA AUTO AGENCIES PVT. LTD.","182, OPPOSITE FCI GODOWN,GANDHI CHOWK POST, PEDATHANDA","KHAMMAM","TELANGANA","8886063524",""
"DEWARS GARAGE-COUNCIL HOUSE STREET-MARUTI SUZUKI","4 COUNCIL HOUSE STREET","KOLKATA","WEST BENGAL","+(91)-3340214500",""
"MACHINO TECHNO-ALOPORE RD-MARUTI SUZUKI","8-A,ALIPORE ROAD,JINDAL HOUSE","KOLKATA","WEST BENGAL","+(91)-3330487740",""
"PREMIER CARWORLD-MOUZA KHILKAPUR-MARUTI SUZUKI","NH-34,MOUZA-KHILKAPUR OPPOSITE MIRHATI COLD STORAGE, POST","BARASAT","WEST BENGAL","+(91)-8335041313",""
"ONE AUTO PVT. LTD.","258/16, A.P.C ROAD , MANIKTALLA, KOLKATA","KOLKATA","WEST BENGAL","+91-24260262",""
"OSL MOTOCORP PVT LTD","MARBLE ARCH, 236B,AJC BOSE ROAD LEE ROAD","KOLKATA","WEST BENGAL","9831666686",""
"STARBURST MOTORS PVT. LTD.","3/2, JESSORE ROAD,MADHYAMGRAM, KOLKATA","KOLKATA","WEST BENGAL","+91-3365658862",""
"SANEI MOTORS-LAKE TOWN-MARUTI SUZUKI","356,CANAL STREET,LAKE TOWN, NEAR LAKE TOWN & VIP ROAD CROSSING","KOLKATA","WEST BENGAL","+(91)-3330103010",""
"BHANDARI AUTOMOBILES-LEELA ROY SARANI-MARUTI SUZUKI","53-A,LEELA ROY SARANI","KOLKATA","WEST BENGAL","+(91)-3366226000",""
"OSL MOTOCORP PVT. LTD.","G1,G2, THE MERIDIAN KAZI NAZRUL ISLAM SARANI, VIP ROAD, OPP- BAGUIHATI BIG BAZAR","KOLKATA","WEST BENGAL","033-64596459",""
"DEWARS GARAGE-TOPSIA RD-MARUTI SUZUKI","83/1,TOPSIA ROAD(SOUTH),0","KOLKATA","WEST BENGAL","+(91)-3340311700",""
"DEWARS GARAGE-SALT LAKE SEC-5-MARUTI SUZUKI","EP-Y9,SALT LAKE, SECTOR-V","KOLKATA","WEST BENGAL","+(91)-9830016983",""
"ONE AUTO-KALIKAPUR-MARUTI SUZUKI","406,E.M. Byepass,Kalikapur,Near Metro Cash and carry","KOLKATA","WEST BENGAL","+(91)-3332623388",""
"RNS MOTORS","BEHIND RAMKRISHNA HOSPITAL,DARGA ROAD, BIJAPUR","BIJAPUR","KARNATAKA","08352- 242821",""
"SRI JAYARAMA MOTORS-METTUGADDA-MARUTI SUZUKI","C1-C2,INDUSTRIAL AREA, METTUGADDA","MAHBUBNAGAR","TELANGANA","+(91)-8542256333",""
"JAYABHERI AUTOMOTIVES PVT. LTD.","PLOT NO. B3 & B4 INDUSTRIAL ESTATE V.T AGRAHARAM, VIZIANAGARAM","VIZIANAGARAM","ANDHRA PRADESH","7799451555",""
"BHARATI MOTORS-CHAPAGURI RD-MARUTI SUZUKI","CHAPAGURI ROAD,0","BONGAIGAON","ASSAM","+(91)-8486776184",""
"VARUN MOTORS PVT. LTD.","BESIDES EENADU ,NH5 MAIN ROAD ,PEDDAPADU VILLAGE,SRIKAKULAM MANDA","SRIKAKULAM","ANDHRA PRADESH","08942-220830","varun.sklm.tv1@gmail.com"
"Siddhi Wheels (A Unit of Taralekar Motors Pvt. Ltd.)","233/2/A. Opposite District Sports Complex.Miraj- Sangli Road, Miraj,District- Sangli","Sangli","MAHARASHTRA","9922966742",""
"CHOWGULE INDUSTRIES-ANKALI-MARUTI SUZUKI","SANGLI KOLHAPUR ROAD,GAT NO.243, , OPP TO GAJANAN MAHARAN MANDIR, ANKALI, TAL- MIRAJ, DIST-SANGLI","SANGLI","MAHARASHTRA","+(91)-2336631300",""
"JAGRUT MOTORS-MIRJOLE-MARUTI SUZUKI","D-25,MIDC,MIRJOLE","RATNAGIRI","MAHARASHTRA","+(91)-2352229972",""
"SAI SERVICE-MIDC SHIROLI-MARUTI SUZUKI","C-6,NH-4,MIDC SHIROLI, OPP. MENON PISTONS LTD","KOLHAPUR","MAHARASHTRA","+(91)-2302468373",""
"SAI SERVICE-HATKANANGALE-MARUTI SUZUKI","KOLHAPUR-ICHALKARANJI ROAD,GAT NO-107, MAUJE KABNOOR, KABNOOR TALUKA,HATKANANGALE","ICHALKARANSI","MAHARASHTRA","+(91)-2302468373",""
"VARUN MOTORS PVT. LTD.","D.NO: 37 . 5 - 88 /1, VARUN POINT, MANCHUKONDA GARDENS MURALI NAGAR","VIZAG","ANDHRA PRADESH","0891-2567969",""
"KR Motors Pvt Ltd","462B/24B  24C, E Ward,  Near Hotel Orient Crown,Old Pune Bangalore Road, Market Yard, Kolhapur","Kolhapur","MAHARASHTRA","9764202345",""
"VARUN MOTORS-GAJUWAKA-MARUTI SUZUKI","88,IDA, D BLOCK, INDUSTRIAL ESTATE, SRINAGAR, GAJUWAKA","Visakhapatnam ","ANDHRA PRADESH","+(91)-8912589331",""
"JAYABHERI AUTOMOTIVES-MADILLAPALEM-MARUTI SUZUKI","54-10-9,NH-5,MADILLAPALEM","Visakhapatnam ","ANDHRA PRADESH","+(91)-8912505000",""
"SAI SERVICE-SHIVAJI UDYAMNAGAR-MARUTI SUZUKI","1,NEAR PARVATI TALKIES,SHIVAJI UDYAMNAGAR","KOLHAPUR","MAHARASHTRA","+(91)-2312661676",""
"VARUN MOTORS PVT. LTD.","D.NO.7-8-1/1, VARUN TOWERS; KASTURABA MARG, SIRIPURAM ANDHRA PRADESH VISHAKAPATNAM 530003","Visakhapatnam ","ANDHRA PRADESH","",""
"S.B. MOTOR CORPORATION-NARAYANAPURAM-MARUTI SUZUKI","Lalacheruvu Road,Opp FCI Godowns, Narayanapuram","RAJAHMUNDRY","ANDHRA PRADESH","+(91)-8833290884",""
"REDDY & REDDY MOTORS-VATLUTU-MARUTI SUZUKI","OLD NH-5 ROAD,BESIDE C R REDDY WOMENS COLLEGE,VATLUTU","ELURU","ANDHRA PRADESH","+(91)-8812221826",""
"VARUN MOTORS-RING RD-MARUTI SUZUKI","RING ROAD,0","VIJAYAWADA","ANDHRA PRADESH","+(91)-8662544444",""
"THE MITHRA AGENCIES-LABBIPET-MARUTI SUZUKI","M G ROAD,OPP. ALL INDIA RADIO,LABBIPET","VIJAYAWADA","ANDHRA PRADESH","+(91)-8662472283",""
"Poddar Car World Pvt Ltd","NH -37, Pathsala, Near Sarma Petrol pump","PATHSHALA","ASSAM","+91-9085000100",""
"SANTOSH AUTOMOTORS PVT LTD","RS. NO: 223/5, M.G. ROAD,KANURU","VIJAYAWADA","ANDHRA PRADESH","+91-8662552252",""
"VIJAY MOTOWINGS-NAVANAGAR-MARUTI SUZUKI","180/4B-2, NEAR APMC MARKET YARD, NAVANAGAR, BAGALKOT","BAGALKOT","KARNATAKA","+(91)-7353804384",""
"SATTI BABU MOTORS-KARPA RD-MARUTI SUZUKI","KARPA ROAD,NEAR GHATI CENTER","KAKINADA","ANDHRA PRADESH","+(91)-8842349295",""
"JAYALAKSHMI AUTOMOTIVES-GUNTUR-MARUTI SUZUKI","11559,MANGALAGIRI ROAD,GUNTUR","GUNTUR","ANDHRA PRADESH","+(91)-8632241000",""
"NOVELTY REDDY & REDDY MOTORS-BHIMAVARAM-MARUTI SUZUKI","TADEPALLINGUDEM ROAD,BHIMAVARAM","BHIMAVARAM","ANDHRA PRADESH","+(91)-8816251555",""
"MSA MOTORS-PARK RD-MARUTI SUZUKI","19,94 PARK ROAD,ABDULLAH KHAN ESTATE,OPPOSITE ZILA PARISHAD","KURNOOL","ANDHRA PRADESH","+(91)-8518221427",""
"SHANTESHA MOTORS-VAIBHAV NAGAR-MARUTI SUZUKI","NATIONAL HIGHWAY NO.4,VAIBHAV NAGAR","BELGAUM","KARNATAKA","+(91)-8312476161",""
"BIMAL AUTO-ADABARI-MARUTI SUZUKI","A.T. ROAD,OPP ADABARI, BUS STAND ,TERMINUS ADABARI","GUWAHATI","ASSAM","+(91)-9864088957",""
"PODDAR CAR WORLD-GORCHUK-MARUTI SUZUKI","N.H-37,NEAR GORCHUK POLICE STATION,GORCHUK","GUWAHATI","ASSAM","+(91)-9707332770",""
"MITTAL AUTOZONE (A UNIT OF SBM MOTORS PVT LTD)","BHARALUMUKH AT ROAD GUWAHATI","GUWAHATI","ASSAM","08876525470",""
"BIMAL AUTO-CHANDMARI FLYOVER-MARUTI SUZUKI","CHANDMARI FLYOVER ,OPPOSITE ALL INDIA RADIO GATE","GUWAHATI","ASSAM","+(91)-9864505185",""
"PALLAVI MOTORS-BHANGAGARH-MARUTI SUZUKI","614,GS ROAD,PALLAVI HOUSE","GUWAHATI","ASSAM","+(91)-3612454327",""
"MITTAL AUTOZONE (A UNIT OF SBM MOTORS PVT LTD)","LALMATI, NH-37,","GUWAHATI","ASSAM","+91-8876525470",""
"PODDAR CAR WORLD-KHANAPARA-MARUTI SUZUKI","G.S.ROAD,OPPOSITE FARM GATE, KHANAPARA","GUWAHATI","ASSAM","+(91)-9435732770",""
"JAYALAKSHMI AUTOMOBILES-PRAKASAM-MARUTI SUZUKI","NH-5,0","ONGOLE","ANDHRA PRADESH","+(91)-8592233533",""
"BANALARI WORLD CARS-MAWLAI NONGKWAR-MARUTI SUZUKI","G.S. ROAD,MAWLAI NONGKWAR","SHILLONG","MEGHALAYA","+(91)-9856001036",""
"CHOWGULE INDUSTRIES-MAPUSA-MARUTI SUZUKI","19-20,TIVIM INDUSTRIAL ESTATEKARASWADA, MAPUSA","GOA","GOA","+(91)-8322258000",""
"RNS MOTORS","P B ROAD,UNKAL, HUBLI","HUBLI","KARNATAKA","0836- 2374825","rnsmtrsh@sancharnet.in"
"MUNEER CARS-SANKLAPUR-MARUTI SUZUKI","BELLARY ROAD,SANKLAPUR","HOSPET","KARNATAKA","+(91)-8394221462",""
"REVANKAR MOTORS-DESHPANDE NAGAR-MARUTI SUZUKI","TB ROAD,DESHPANDE NAGAR","HUBLI","KARNATAKA","+(91)-8366613300",""
"RANI MOTORS-NONGTHYMMAI-MARUTI SUZUKI","JELLYS SHOP,NONGTHYMMAI","SHILLONG","MEGHALAYA","+(91)-8435993992",""
"RANI MOTORS-MAWBLEI-MARUTI SUZUKI","MAWBLEI, MADANRTING","SHILLONG","MEGHALAYA","0364-2536226",""
"KPF-ALIPURA-MARUTI SUZUKI","BELLARY HOSPET ROAD,ALIPURA,MODI BHAVAN","BELLARY","KARNATAKA","+(91)-8392243900",""
"JAIN UDYOG-AGARTALA-MARUTI SUZUKI","A D NAGAR","AGARTALA","TRIPURA","0381-2373203",""
"SAI SERVICE-ALTO PORVORIM-MARUTI SUZUKI","36/1,PENHA DE,FRANCE, TAL:BARDEZ,ALTO PORVORIM","GOA","GOA","+(91)-8322417065",""
"CHOWGULE INDUSTRIES-CAMPAL-MARUTI SUZUKI","D.B. BANDODKAR MARG,CAMPAL","GOA","GOA","+(91)-8322433000",""
"SAI SERVICE-CHICALIM-VASCO,MARUTI SUZUKI","252,OLD GOA FLOUR MILLS, NEAR CLOISTERED,CHICALIM- VASCO","GOA","GOA","+(91)-8322542653",""
"ARYAMAN SAI GOA-SONFATOR-MARUTI SUZUKI","12,MARGOA PONDA HIGHWAY,WARD NO. 5,SONFATOR, CAMURLIM, SALCETE","GOA","GOA","+(91)-9323333667",""
"SAI SERVICE-SALCETE-MARUTI SUZUKI","212/4B,OPP. LEONARAS HOTEL,VILL. VERNA , SALCETE","GOA","GOA","+(91)-8322791191",""
"CHOWGULE INDUSTRIES-FATORDA-MARUTI SUZUKI","OPPOSITE DAMODAR TEMPLE, NEAR FATORDA GROUND, FATORDA","GOA","GOA","+(91)-8322433000",""
"RD MOTORS-HAIBARGAON-MARUTI SUZUKI","NH-37,KHUTIKATIA, HAIBARGAON","NAGOAN","ASSAM","+(91)-8724005126",""
"BAJRANG CAR WORLD( A  UNIT OF MAA VAISHNAVI AUTOMOTIVE PVT. LTD )","DEWDHAR, NH 37 BYPASS, DIST: NAGAON","NAGOAN","ASSAM","9435060474",""
"RD Motors","P.O . Nikalmul Satra","TEZPUR","ASSAM","",""
"SRI DURGA AUTOMOTIVES-GOOTY RD-MARUTI SUZUKI","17/377-A,GOOTY ROAD,0","ANANTAPUR","ANDHRA PRADESH","+(91)-8554277667",""
"BHARATH AUTO CARS PVT. LTD.","NH66, NAGAPHONDA,SADASHIVGHAD","KARWAR","KARNATAKA","2223030",""
"SHRUTI MOTORS-DAVANGERE-MARUTI SUZUKI","P B ROAD,DAVANGERE","DAVANGERE","KARNATAKA","+(91)-8192230894",""
"JAIN UDYOG-SONAI RD-MARUTI SUZUKI","SONAI ROAD,KUSHAL COMPLEX","SILCHAR","ASSAM","+(91)-9435076047",""
"BHARGAVI AUTOMOBILES PVT. LTD.","25/II/97, INDUSTRIAL ESTATE,P. B. NO. 18, A. K. NAGAR","NELLORE","ANDHRA PRADESH","0861-2333335",""
"D Y MOTORS","MODEL VILLAGE, NAHARLAGUN,
PAPUMPARE","ITANAGAR","ARUNACHAL PRADESH","8416002229",""
"BUISHI YADA MOTORS-NAHARLAGUN-MARUTI SUZUKI","A1,SECTOR,NAHARLAGUN","ITANAGAR","ARUNACHAL PRADESH","+(91)-3602245114",""
"GIG MOTORS","EDENTHAR, AIZAWAL - 796007","AIZAWAL","MIZORAM","0389-2306272",""
"RNS MOTORS","NH 17, MURUDESHWAR,NORTH  CANARA DISTRICT, MURUDESHWAR","MURUDESHWAR","KARNATAKA","08385- 560295",""
"SHRUTI MOTORS-SHANKAR MUTT RD-MARUTI SUZUKI","599,SHANKAR MUTT ROAD,0","SHIMOGA","KARNATAKA","+(91)-8182277975",""
"PROGRESSIVE MOTORS-DIMAPUR KOHIMA RD-MARUTI SUZUKI","N.H. 39,DIMAPUR KOHIMA ROAD,OPPOSITE AIRPORT","DIMAPUR","NAGALAND","+(91)-3862230987",""
"SAIKIA AUTO-LAKHIMPUR-MARUTI SUZUKI","NH-52,HATILUNG,LAKHIMPUR","NORTH LAKHIMPUR","ASSAM","+(91)-9706042421",""
"R D Motors","Dhapkota, Old Coca Cola Factory, Jorhat, Assam – 785006","JORHAT","ASSAM","9985736555",""
"BHARGAVI AUTOMOBILES PVT. LTD.","11-56/1, RENIGUNTA ROADTIRUPATI,","TIRUPATI","ANDHRA PRADESH","0877-6544444","bhargavi.tpt.sal1@marutidealers.com"
"ANAMIKA MOTORS-RAJABARI-MARUTI SUZUKI","GAR-ALI,RAJABARI,(NEAR LIC OFFICE)","JORHAT","ASSAM","+(91)-9435516252",""
"SAKETH AUTOMOBILES-SIRA RD-MARUTI SUZUKI","SIRA ROAD,0","TUMKUR","KARNATAKA","+(91)-8162256411",""
"SEIYE AUTOMOBILES","PEZIELIETSIE, TINPATTI, DBS ROAD,","KOHIMA","NAGALAND","+91-7085066669",""
"SHRUTI MOTORS","AIT CIRCLE, K M ROAD,CHIKMANGALUR","CHIKMAGALUR","KARNATAKA","8262-221183/84",""
"Samadon Enterprise","Ningthemkol, Kwakeithel, Near Little Flower School, Imphal West ","Imphal","MANIPUR","7005987142",""
"EASTERN MOTORS-CHINGMEIRONG WEST-MARUTI SUZUKI","CHINGMEIRONG WEST","IMPHAL","MANIPUR","+(91)-1725200264",""
"ABHARAN MOTORS-NITTUR-MARUTI SUZUKI","NH-17,NITTUR","UDUPI","KARNATAKA","+(91)-8202582666",""
"ANAMIKA MOTORS-PACHIPATHAR-MARUTI SUZUKI","NH-37, SIBSAGAR BYEPASS,PACHIPATHAR, TAXI MOTHADANG , P.O. CHOULKORA","SIBSAGAR","ASSAM","+(91)-3772215151",""
"BIMAL AUTO-YELAHANKA-MARUTI SUZUKI","60/3,NEW INTERNATIONAL AIRPORT ROAD,VENKATAHALI HOBLI,NEAR KENDRIYA VIHAR JUNCTION, YELAHANKA","BANGALORE","KARNATAKA","+(91)-9900245982",""
"MANDOVI MOTORS PVT. LTD.","1B PRESTIGE STAR MAJOR UNNIKARISHNAN ROAD NEXT TO MATHUR DAIIRY CHKKABOMMASANDRA","YELAHANKA","KARNATAKA","",""
"VARUN MOTORS PVT. LTD.","SURVEY NO 18/3, HEBBALA RING ROADCHOLANAYAKANA HALLI,R T NAGAR POST, 560032","BANGALORE","KARNATAKA","+91-7338286725",""
"RNS MOTORS-YESHWANTPUR-MARUTI SUZUKI","2275,TUMKUR ROAD,GURGUNTEPALYA,YESHWANTPUR","BANGALORE","KARNATAKA","+(91)-8023474354",""
"KALYANI MOTORS PVT. LTD.","NO 77,VIJAYA BANK COLONY OUTER RING ROAD DODDA BANASWADI","BANGALORE","KARNATAKA","080-4669 9666 ",""
"VARUN MOTORS PVT. LTD.","D.NO: 41/7, 15TH CROSS,MALLESWARAM","BANGALORE","KARNATAKA","+91-9985344244",""
"MANDOVI MOTORS-COX TOWN-MARUTI SUZUKI","132,WHEELER ROAD, COX TOWN,","BANGALORE","KARNATAKA","+(91)-8041253434",""
"BIMAL AUTO-MAHADEVPURA WHITEFIELD RD-MARUTI SUZUKI","60/2,WHITEFIELD ROAD, MAHADEVPURA","BANGALORE","KARNATAKA","+(91)-8030693069",""
"PRATHAM MOTORS-THIMMAIAH RD-MARUTI SUZUKI","332,THIMMAIAH ROAD, OFF QUEENS ROAD DARUS SALAM BUILDING,","BANGALORE","KARNATAKA","+(91)-8022370841",""
"MANDOVI MOTORS-BASAVESWARANAGAR-MARUTI SUZUKI","113/2-1,W.O.C ROAD, 4TH STAGE, INDUSTRIAL TOWN,BASAVESWARANAGAR,","BANGALORE","KARNATAKA","+(91)-9880018990",""
"MANDOVI MOTORS-LAVELLE RD-MARUTI SUZUKI","40/4,LAVELLE ROAD,0","BANGALORE","KARNATAKA","+(91)-8022293434",""
"VENKAT MOTORS-HASSAN-MARUTI SUZUKI","SRI RANGALAKSHMI BUILDING,PLOT NO. 320 / 321,MANDIGANA HALLI,KANDALI POST, B M ROAD,","HASSAN","KARNATAKA","+(91)-8172231077",""
"GARUDA AUTOCRAFT-LALBAGH RD-MARUTI SUZUKI","29,LALBAGH ROAD,0","BANGALORE","KARNATAKA","+(91)-8022976165",""
"BIMAL AUTO-OLD AIRPORT RD-MARUTI SUZUKI","H-28,OLD AIRPORT ROAD, THE ASCENT MURUGESHPALYA, GROUND FLOOR, OPP. TOTAL MALL,","BANGALORE","KARNATAKA","+(91)-9886724625",""
"BIMAL AUTO-VARTHUR-MARUTI SUZUKI","184/185,WHITEFIELD MAIN ROAD,OPPOSITE FORUM VALUE MALL, VARTHUR","BANGALORE","KARNATAKA","+(91)-8030693069",""
"KATARIA AUTOMOBILES PRIVATE LIMITED","541-543 AMAR JYOTI LAYOUT,OPPOSITE MARUTHI INFOTECH CENTRE,DOMLUR","BANGALORE","KARNATAKA","+91-9824402000",""
"KALYANI MOTORS-MYSORE RD JN-MARUTI SUZUKI","24/1,100FT RING ROAD,NEAR NAYANDAHALLI SIGNAL , MYSORE ROAD JUNCTION","BANGALORE","KARNATAKA","+(91)-8028606262",""
"BIMAL AUTO AGENCY","AT ROAD,CHAULKHUWA,NEAR INDIAN OIL PETROL PUMP,PO–LAHOWAL","DIBRUGARH","ASSAM","9678011353",""
"KALYANI MOTORS-NAGADEVANAHALLI VILLAGE-MARUTI SUZUKI","42282, NAGADEVANAHALLI VILLAGE KENGERI HOBLI,","BANGALORE","KARNATAKA","+(91)-8030036000",""
"BIMAL AUTO AGENCY","3980 / 3981, GIRINAGAR 4TH PHASE 80 FT ROAD, NEAR SEETA CIRCLE BANASHANKARI, 3RD STAGE","BANGALORE","KARNATAKA","3069 3069",""
"SURAKSHAA CAR CARE PVT LTD","#9, 4TH BLOCK, 100 FT RING ROAD NEXT TO BDA COMPLEX KORAMANGALA","BANGALORE","KARNATAKA","",""
"PRATHAM MOTORS-BELLANDUR-MARUTI SUZUKI","16,SARJAPUT-MARTHAHALLI OUTER RING ROAD,0","BANGALORE","KARNATAKA","+(91)-8041309100",""
"PRATHAM MOTORS-HSR LAYOUT-MARUTI SUZUKI","90/85/2,21st cross, 8th Main,Heralukunte, HSR Lay Out, 1st Sector","BANGALORE","KARNATAKA","+(91)-8041309100",""
"KALYANI MOTORS-BILEKAHALI-MARUTI SUZUKI","BANNERGHATTA ROAD, BILEKAHALI","BANGALORE","KARNATAKA","+(91)-8042439999",""
"KATARIA AUTOMOBILES PRIVATE LIMITED","ANNAPOORNA INDUSTRIAL ESTATE,33/8 JARAGANHALLI, UTTARAHALLI HOBLI,","BANGALORE","KARNATAKA","+91-9824402000",""
"RNS MOTORS-BOMANAHALLI-MARUTI SUZUKI","HOSUR ROAD,GARVEBAVI PALYA,BOMANAHALLI","BANGALORE","KARNATAKA","+(91)-8041115901",""
"RAJALAKSHMI CARS-MADHAVARAM-MARUTI SUZUKI","20,GNT Rd,Madhavaram","CHENNAI","TAMIL NADU","+(91)-4430838383",""
"ABT LIMITED-AMBATTUR-MARUTI SUZUKI","C-20,2ND MAIN ROAD,INDUSTRIAL ESTATE","CHENNAI","TAMIL NADU","+(91)-4426252500",""
"SURAKSHAA CAR CARE-ELECTRONIC CITY-MARUTI SUZUKI","30/3,HOSUR MAIN ROAD,OPP. INFOSYS PYRAMID BUILDINGKONAPPANA AGRAHARA ELECTRONIC CITY","BANGALORE","KARNATAKA","+(91)-8028522222",""
"POPULAR VEHICLES-ANNA NAGAR-MARUTI SUZUKI","J-16,THIRD AVENUE,ANNA NAGAR EAST","CHENNAI","TAMIL NADU","+(91)-4465877970",""
"GANESH CARS-VELLORE-MARUTI SUZUKI","32,NEW BYE PASS ROAD,0","VELLORE","TAMIL NADU","+(91)-4162227262",""
"Cresco (A unit of Nexgen Ventures Pvt Ltd)","OLD NO 197, NEW NO 309,Poonamalle High Road,KILPAUK","CHENNAI","TAMIL NADU","42859970",""
"VISHNU CARS PVT. LTD. ","NO. 203-206, MOUNT POONAMALLE ROAD, KATTUPAKKAM","THIRUVALLUR","TAMIL NADU","044-26792961-67",""
"RAJALAKSHMI CARS PVT. LTD.","DOOR NO: 47,
JAWAHARLAL NEHRU ROAD,
VADAPALANI,
CHENNAI","CHENNAI","TAMIL NADU","044-45060000",""
"KHIVRAJ MOTORS-ANNA SALAI-MARUTI SUZUKI","623,ANNA SALAI","CHENNAI","TAMIL NADU","+(91)-4442269555",""
"CARS INDIA (CRENCENT AUTO REPAIR & SERVICES INDIA PVT.LTD","MINIMAC CENTRE, 118 ARCOT ROAD,  VALSARAWAKKAM,","CHENNAI","TAMIL NADU","044-42761944",""
"A.I.E. CARS (UNIT OF A.I. ENTERPRISES PVT.LTD)","23/2, VENKATA NARAYANA ROAD T.NAGAR","CHENNAI","TAMIL NADU","0424-3056611-3",""
"VISHNU CARS PVT. LTD. ","GROUND FLOOR, NO.31 . A, JAWAHARLAL NEHRU SALAI,EKKATUTHANGAL","CHENNAI","TAMIL NADU","",""
"CARS INDIA (CRENCENT AUTO REPAIR & SERVICES INDIA PVT.LTD","NO. 9,CENOTAPH ROAD,NANDANAM","CHENNAI","TAMIL NADU","044-24338412",""
"ABT LIMITED-GUINDY-MARUTI SUZUKI","72,MOUNT ROAD,GUINDY","CHENNAI","TAMIL NADU","+(91)-4442254555",""
"KHIVRAJ HOLDINGS-ADYAR-MARUTI SUZUKI","7,IST AVENUE,SHASTRI NAGAR","CHENNAI","TAMIL NADU","+(91)-4443504208",""
"BHARATH AUTO CARS-KUNTIKAN JN-MARUTI SUZUKI","N.H-17,KUNTIKAN JUNCTION","MANGALORE","KARNATAKA","+(91)-8242223030",""
"VISHNU CARS-CHROMPET-MARUTI SUZUKI","161-133A,G.S.T ROAD,CHROMPET","CHENNAI","TAMIL NADU","+(91)-9566045599",""
"MANDOVI MOTORS-BALMATTA RD-MARUTI SUZUKI","BALMATTA ROAD,ARVIND BUILDING","MANGALORE","KARNATAKA","+(91)-8242410128",""
"POPULAR VEHICLES-PALLIKARANAI-MARUTI SUZUKI","42257,VELACHERY MAIN ROAD,BALAJI NAGAR, PALLIKARANAI","CHENNAI","TAMIL NADU","+(91)-4464556556",""
"KHIVRAJ MOTORS-PERUNGUDI-MARUTI SUZUKI","6,Developed E&E Industrial Estate","CHENNAI","TAMIL NADU","+(91)-9841438845",""
"SHRI AMMAN CARS INDIA-KRISHNAGIRI MAIN RD-MARUTI SUZUKI","NH-7,KRISHNAGIRI MAIN ROAD,PERANDAPALLI","HOSUR","TAMIL NADU","+(91)-4344260227",""
"A.I.E. CARS (UNIT OF A.I. ENTERPRISES PVT.LTD)","EAST COAST ROAD, NEELANKARAI","CHENNAI","TAMIL NADU","44-72990 46478",""
"Cresco (A unit of Nexgen Ventures Pvt Ltd)","NO. 16, VELACHERY MAIN ROAD,BHARATHIAR STREET, SIVAGAMI NAGAR,GOWRIVAKKAM","CHENNAI","TAMIL NADU","42859970",""
"VISHAL CAR WORLD-LAIPULI-MARUTI SUZUKI","A.T. ROAD,LAIPULI","TINSUKIA","ASSAM","+(91)-9435993992",""
"JAYBEE AUTO-CHIRING CHAPORI-MARUTI SUZUKI","TARUN RAM PHUKAN RD,PO DIBRUGARH,CHIRING CHAPORI","DIBRUGARH","ASSAM","+(91)-8811098569",""
"KVR CARS-ANANGUR-MARUTI SUZUKI","ANANGUR, VIDYA NAGAR, PO.KASARGOD(NH)","KASARAGOD","KERALA","+(91)-4994231445",""
"MANDOVI MOTORS-K R S RD-MARUTI SUZUKI","K.R.S. ROAD,0","MYSORE","KARNATAKA","+(91)-8212432644",""
"FRIENDLY MOTORS-LAKSHMIPURAM-MARUTI SUZUKI","NEW KANTHARAJA URS ROAD, LAKSHMIPURAM, CHAMARAJA MOHALLA","MYSORE","KARNATAKA","+(91)-8214005900",""
"POPULAR VEHICLES & SERVICES LTD","Near Sreepuram English Medium School, NH17 Pallikkunnu Village, Pallikunnu Kannur","KANNUR","KERALA","9846060019",""
"HAR AUTO PVT.LTD.","HAR AVENUE,KANNOTHUMCHAL,POST CHOVVA","KANNUR","KERALA","0497-2766477",""
"SHENBAKA CARS-KOTTUPALAYAM-MARUTI SUZUKI","2,ECR ROAD,GREEN GARDEN, KOTTUPALYAM","Puducherry","PONDICHERRY","+(91)-4132255794",""
"INDUS MOTORS CO-THALASSERY.-MARUTI SUZUKI","SAIDAR PALLY, OPPOSITE MUBARAK HIGHER SECONDRY SCHOOL","TELLICHERRY","KERALA","+(91)-9747548100",""
"THRIVENI CAR CO-SURAMANGLAM-MARUTI SUZUKI","JUNCTION MAIN ROAD,SUBRAMANIYA NAGAR IIND GATE, SURAMANGLAM POST","SALEM","TAMIL NADU","+(91)-4272336599",""
"VISHNU CARS PVT. LTD. ","35/20 & 21,PONDY – CUDDALORE MAIN ROAD,PERIYAKANGANAKUPPAM VILLAGE","CUDDALORE","TAMIL NADU","",""
"S M CAR PVT LTD","D. NO : 5/99, AMMANIKONDALAMPATTY BYE PASS ROAD, NATTAMANGALAM ( PO ),","SALEM","TAMIL NADU","9894027470",""
"ABT LIMITED-K V SUBRAMANIAM NAGAR-MARUTI SUZUKI","CHIDAMBARAM MAIN ROAD,K.V. SUBRAMANIAM NAGAR,","CUDDALORE","TAMIL NADU","+(91)-4142644371",""
"SREE SARADHAMBAL AUTOMOBILES EROD (P) LTD","23/1, PERUNDURAI ROAD,KUMALANKUTTAI,","ERODE","TAMIL NADU","0424-3056611-3",""
"CARINO MOTORS ( A UNIT OF CARINO AUTO INFRA PVT LTD)","NH-66, VENGALI, PUTHIYAGADI KANNUR ROAD","KOZHIKODE","KERALA","0495-7122888",""
"INDUS MOTORS CO. PVT. LTD.","INDUS HOUSE, PO BOX 923,CHAKORATHKULAM,CANNANORE ROAD WEST HILL,KOZHIKODE,KERALA","KOZHIKODE","KERALA","+91-0495-2765285",""
"POPULAR VEHICLES & SERVICES LTD","CIVIL STATION P.O.,WYNAD ROAD,KOZHIKODE,KERALA","KOZHIKODE","KERALA","+91-0495-2370007",""
"SREE SARADHAMBAL AUTOMOBILES EROD (P) LTD","NEXT TO MURUGAN KOIL,SALEM MAIN ROAD,","NAMAKKAL","TAMIL NADU","04286-325553",""
"A M MOTORS","NEAR ICICI BANK, MAVOOR ROAD CALICUT","Kozhikode","KERALA","+(91)-9946399555",""
"SHASHTI CAR-TIRUPUR-MARUTI SUZUKI","KANGAYAM ROAD,SHREE PADMANI GARDENS,OPP. JMHS SCHOOL","TIRUPUR","TAMIL NADU","+(91)-4212427999",""
"AADHI CARS-SARAVANAMPATTY-MARUTI SUZUKI","176/2,Sathy Road,Saravanampatty","COIMBATORE","TAMIL NADU","+(91)-1744230522",""
"JAYKRISHNA AUTOSALES-METTUPALAYAM RD-MARUTI SUZUKI","225-226,METTUPALAYAM ROAD,OPP. TNSTC BUS DEPOT","COIMBATORE","TAMIL NADU","+(91)-4224519180",""
"A M MOTORS-VARANGADE-MARUTI SUZUKI","VARANGADE,DOWN HILL","MALAPPURAM","KERALA","+(91)-4932734676",""
"ABT LIMITED-R S PURAM WEST-MARUTI SUZUKI","69,AROKIYASAMY ROAD (WEST),R S PURAM WEST","COIMBATORE","TAMIL NADU","+(91)-4222543607",""
"SREE SARADHAMBAL AUTOMOBILES-R N PURAM-MARUTI SUZUKI","TRICHY ROAD,OPP ALVERNIYA SCHOOL,R N PURAM","COIMBATORE","TAMIL NADU","+(91)-4222320505",""
"KVR AUTOCARS-THIRURKKAD-MARUTI SUZUKI","CALICUT ROAD,THIRURKKAD,NEAR PERINTHAL MANNA","PERINTHALMANNA","KERALA","+(91)-4933236000",""
"ABT LIMITED-MAMBALA SALAI-MARUTI SUZUKI","2327/3-B,TRICHY CHENNAI HIGHWAY,MAMBALA SALAI,","TRICHY","TAMIL NADU","+(91)-4312431399",""
"PILLAI & SONS MOTOR COMPANY","10 B , 1A /D , CHENNAI BYE PASS ROAD,THIRUVALLUVAR VILLAGE, TRICHY, TAMIL NADU, 620002","TRICHY","TAMIL NADU","9384826820",""
"INDUS MOTORS-PALAKKAD-MARUTI SUZUKI","VI/366-637,NH-47,KOOTTUPATHA PO","PALAKKAD","KERALA","+(91)-9745997299",""
"PL.A. MOTORS-TRICHY-MARUTI SUZUKI","15,MUNICIPAL OFFICE ROAD,CANTONMENT","TRICHY","TAMIL NADU","+(91)-4312460461",""
"PILLAI & SONS MOTOR CO-RAJAPPA NAGAR-MARUTI SUZUKI","31-A,M C ROAD, RAJAPPA NAGAR","THANJAVUR","TAMIL NADU","+(91)-4362270380",""
"ABT LIMITED-KARUR-MARUTI SUZUKI","529/1,Salem Bye Pass Road,Near Semmadai Roundtana, Vennamalai Post","KARUR","TAMIL NADU","+(91)-4324260997",""
"ABT LIMITED-POLLACHI-MARUTI SUZUKI","UDUMALPET ROAD,NPT CAMPUS,POLLACHI","POLLACHI","TAMIL NADU","+(91)-4259236921",""
"POPULAR VEHICLES-PERINGAVU-MARUTI SUZUKI","TUDA ROAD,PERINGAVU, THIRUVAMBADI PO","THRISSUR","KERALA","+(91)-4872327540",""
"BRD CAR WORLD-KONIKKARA-MARUTI SUZUKI","NH BYE PASS,BRD COMPLEX, KONIKKARA POST","THRISSUR","KERALA","+(91)-4872352242",""
"PL.A. MOTORS FIRM","Trichy Madurai Byepass Road, Near INA Doctors Association Building, Nandavanapatti","DINDIGUL","TAMIL NADU","0451-9894651961",""
"SAI SERVICE-EDAPALLY-MARUTI SUZUKI","50/115L,CHERANALLOOR ROAD,EDAPALLY","COCHIN","KERALA","+(91)-4842801136",""
"POPULAR VEHICLES-MAMANGALAM-MARUTI SUZUKI","KUTTUKARAN CENTRE,MAMANGALAM","COCHIN","KERALA","+(91)-4842330039",""
"INDUS MOTORS CO-MUVATTUPUZHA-MARUTI SUZUKI","ONE WAY JUNCTION, MARKET P O, MUVATTUPUZHA","MUVATTUPUZHA","KERALA","+(91)-4852832421",""
"INDUS MOTORS CO-COCHIN-MARUTI SUZUKI","M. G. ROAD,OPP. SOUTH GATE OF SHIPYARD","COCHIN","KERALA","+(91)-4842358587",""
"MAIJO MOTO ( A UNIT OF GEORGE MAIJO AUTOMOBILES PVT LTD )","PLOT NO. 2/316 ON NH-47, KANNADIKKAD,NEAR SAROVARAM, MARADU-682304","ERNAKULAM","KERALA","8606881000",""
"MAIJO MOTO-A UNIT OF GEORGE MAIJO AUTOMOBILES PVT LTD.","PLOT NO. 2/316 ON NH-47, KANNADIKKAD,NEAR SAROVARAM, MARADU","COCHIN","KERALA","+91-8606881000",""
"ASIR AUTOMOBILES PVT LTD","28/5B, MELUR MAIN ROAD,OPP MEENAKSHI MISSION HOSPITAL,UTHANGUDI, MADURAI","MADURAI","TAMIL NADU","4382220",""
"ABT LIMITED-SARAI PUDUR-MARUTI SUZUKI","54-A,BYE-PASS ROAD JUNCTION,K SALAI PUDUR,NEAR FATHIMA COLLEGE","MADURAI","TAMIL NADU","+(91)-4522668565",""
"SIVA AUTOMOTIVE-KAMARAJAR SALAI-MARUTI SUZUKI","139,MADURAI CITY CENTRE,KAMARAJAR SALAI","MADURAI","TAMIL NADU","+(91)-4526888888",""
"MEENAKSHI AUTO ZONE PVT LTD","25-D ,SIDCO Industrial Estate, Kappalur","MADURAI","TAMIL NADU","0452-2489074",""
"POPULAR VEHICLES-CHAVITTUVARY-MARUTI SUZUKI","NEAR ST. THOMAS ORTHODOX CHURCH,S H MOUNT,P O- CHAVITTUVARY","KOTTAYAM","KERALA","+(91)-4812310800",""
"AVG MOTORS-BAKER JUNCTION-MARUTI SUZUKI","ANCHERIL BANK BUILDING,POST BOX NO. 1,BAKER JUNCTION","KOTTAYAM","KERALA","+(91)-4812560492",""
"MEENAKSHI AUTO ZONE PVT LTD","813 – THIRUTHANGAL ROAD, 626123","SIVAKASI","TAMIL NADU","456-2231 281Â ",""
"HERCULES AUTOMOBILES-KALARCODE-MARUTI SUZUKI","Behind S.D.College,Kalarcode P.O.","ALLEPPEY","KERALA","+(91)-4772264565",""
"AVG MOTORS-PERUMUTHURUTHY-MARUTI SUZUKI","M.C. ROAD,PERUMUTHURUTHY","THIRUVULLA","KERALA","+(91)-4692645380",""
"AVG MOTORS-MUVATTUPUZHA-MARUTI SUZUKI","PIONEER TOWERS, OPP. GOVT.GENERAL HOSPITAL","PATHANAMTHITTA","KERALA","+(91)-4682270222",""
"SARATHY AUTO CARS-PALLIMUKKU-MARUTI SUZUKI","PALLIMUKKU","KOLLAM","KERALA","+(91)-4742729618",""
"ASIR AUTOMOBILES-MAPPILAIURANI-MARUTI SUZUKI","1/515,ETTAYAPURAM ROAD,MAPPILAIURANI","TUTICORIN","TAMIL NADU","+(91)-4612337220",""
"AADHI CARS","10-D, Trivandrum Road, Palayamkottai Tiruneveli Tamil Nadu-627002","TIRUNELVELI","TAMIL NADU","0462-2500257",""
"INDUS MOTORS CO-PATTOM-MARUTI SUZUKI","PATTOM-KESAVADASAPURAM ROAD,NEAR ST. MARYS SCHOOL,PATTOM","TRIVANDRUM","KERALA","+(91)-4712445774",""
"HERCULES AUTOMOBILES-KOWDIAR-MARUTI SUZUKI","SREEDHANYA CASTLE, NEAR KOWDIAR SQUARE,PO. KOWDIAR","TRIVANDRUM","KERALA","+(91)-4712720152",""
"SOUTH PARK MOTOR PVT. LTD","NH BY PASS ROAD, VENPALAVATTOM,CHAKKAI, TRIVANDRUM","TRIVANDRUM","KERALA","3050000",""
"POPULAR VEHICLES-NEERAMANKARA-MARUTI SUZUKI","Neeramankara","TRIVANDRUM","KERALA","+(91)-4712343493",""
"Srivatsa International Private Limited","253/D-1,K.P Road, Nagercoil, Kanyakumari District.","NAGERCOIL","TAMIL NADU","(+91) - 95788 95788,(+91) - 04652 237622",""
"AGENCY HOUSE (A & N ISLANDS) PVT. LTD","VIP ROAD,POST JUNGLIGHAT","PORT BLAIR","ANDAMAN AND NICOBAR","+(91)-3192243282",""
"ORBIT MOTORS-PANPOSH RD-MARUTI SUZUKI","ORBIT MOTORS-PANPOSH RD-MARUTI SUZUKI PANPOSH ROAD, DUA COMPLEX-769004","ROURKELA","ODISHA","+91 - 9437041155/ 9040404444",""
"PERFECT AUTO SERVICES( A DIVISION OF PERFECT RETREADS PVT LTD)","OPPOSITE GANDHIGRAM POLICE CHOWKINEAR RAJ DIST CO-OP BANK, 150 FEET RING ROAD","RAJKOT","GUJARAT","0285-2661470",""
"PERFECT AUTO SERVICES( A DIVISION OF PERFECT RETREADS PVT LTD)","GONDAL ROAD, NH 8B VAVDI, RAJKOT, 360004","RAJKOT","GUJARAT","+91-9909022620","perfect.rjk.sal2@marutidealers.com"
"KANKARIYA AUTOMOBILES-SAVEDI-MARUTI SUZUKI","E-2/2, MIDC, SAHYADRI CHOWK-414111","AHMEDNAGAR","MAHARASHTRA","0241-2970097",""
