"Dealer Name","Address","City","State","Contact","Email"
"DD Motors","67/5 New Rohtak Road, Karol Bagh, New Delhi 110005","DELHI","DELHI","9081900800","ceo@nexa.com"
"Fairdeal Cars","UNIT NO. 33 GROUND FLOOR, PARVSNATH METRO MALL, AKSHARDHAM METRO STATION","DELHI","DELHI","9999525161","nexa@fairdealvehicles.com"
"AAA Vehicleades Pvt Ltd","Plot No. 30, Shivaji Marg, Najafgarh Road, Moti Nagar – 110015","DELHI","DELHI","+91-8448993400","Saleshead.nexa@aaavehicleades.in"
"TR Sawhney Automobiles","F-26,Preet Vihar,Vikas Marg","DELHI","DELHI","7290091122","tdm.pv@trsawhneyautomobiles.com"
"RANA MOTORS PVT LTD","B4, GT Karnal Road Industrial Area, New Delhi-110033","DELHI","DELHI","7289999111","nexa.gtk@ranamotors.in"
"Bagga Link Motors","31, Lajpat Nagar, Part 4, Ring Road, Opposite Vinobhapuri Metro Station, New Delhi","DELHI","DELHI","9818199367","nexahead@baggalinkmaruti.com"
"TR Sawhney Automobiles","A4 green park, main aurobindo marg, new delhi 16","DELHI","DELHI","7290099520","nexa.gp@trsawhneyautomobiles.com"
"TR Sawhney Automobiles","Plot No. 6, Block No. A-1,Rajauri Garden, New Delhi 110027","DELHI","DELHI","9999525750","sm.rg@trsawhneyautomobiles.com"
"Rana Motors","A-3,KAILASH COLONY,New Delhi","DELHI","DELHI","9999788886","nexa@ranamotors.in"
"Competent Automobiles","Plot No. 9/3, in Block A, Wazirpur Industrial Area, Delhi -110052, India","DELHI","DELHI","9582668646","scross@competent-maruti.com"
"Magic Ghazipur","B5 Ghazipur village, near Bharat Petrol Pump opposite Pearl Grand, Delhi ÃƒÂ» 110096","DELHI","DELHI","8929400503","Sales.gp@magicmaruti.com"
"Krish Automobiles","A-23 Maya Puri Ind Area Phase 2. Opp New Era Public School. New Delhi","DELHI","DELHI"," 7838555076","nexa.anand@amarcars.net"
"Competent Automobiles","Competent Automobiles Co.Ltd. 18/19, Hind Pocket Books G.T.Road, Shahadra Delhi-110095","DELHI","DELHI","8377007962","nexadg@competent-maruti.com"
"JAGMOHAN AUTOMOTIVES PVT LTD","Plot no.41, Road No.35 West Punjabi Bagh, Delhi -110026","DELHI","DELHI","7290054930","nexa.delhi@mohanindia.co.in"
"Rohan Motors","C-11,SECTOR - 1,NOIDA","NOIDA","UTTAR PRADESH","9811374737","rmlnexa@rohanmotors.co.in"
"Vipul motors pvt. Ltd.","D-3, Ashok  Nagar, Main Wazirabad Road, Village Gokulpuri Delhi - 110093","DELHI","DELHI","0119870194313","gm_nexadelhi@vipulmotors.com"
"Fair deal Cars private limited","C7 sector 10 Noida 201301","NOIDA","UTTAR PRADESH","120-9953993450","gmnexanoida@fairdealvehicles.comÃ¡"
"Motorcraft Sales Private Limited","PLOT NO. 64/6/2, SITE IV SAHIBABAD INDUSTRIAL AREA, ADJACENT TO HOTEL CONTRY INN, SAHIBABAD.","GHAZIABAD","UTTAR PRADESH","+91-8130582222","sm.nexa@motorcraft.in"
"Krish Automotors","SSG, MAJESTY MALL, PLOT NO. 2 ROAD NO.43, GURU HARKISHAN MARG, PITAMPURA","DELHI","DELHI","7838555047","scross.krish@gmail.com"
"DD MOTORS","B-1/629, MAIN NAJAFGARH ROAD JANAKPURI, NEW DELHI-110058","DELHI","DELHI"," 9081900800","info@ddnexa.com"
"PREM MOTORS","F-3/1, OKHLA INDUSTRIAL AREA, PHASE-1","DELHI","DELHI","11-42900000","okhla.nexa@premmotors.com"
"SAYA AUTOMOBILES LTD","Saya Automobiles Ltd,Unit No G-17-20, Jaksons Crown Heights, Plot No 3B1, Twin District Centre, Sec 10, Rohini, New Delhi - 110085","DELHI","DELHI","11-9582777477","ceonexasaya@gmail.com"
"Vipul Motors","H-153, SECTOR-63,","NOIDA","UTTAR PRADESH","9599814775","scross.noida@vipulmotors.com"
"Magic Auto","METRO STATION SECTOR - 9 DWARKA,New Delhi","DELHI","DELHI","7290075604","nexa@magicmaruti.com"
"Competent Automobiles","Plot No 63-70, Mohit Nagar, Opp. NSIT, Dwarka Road, New Delhi-110078","DELHI","DELHI","8860011600","nexa.anand@amarcars.net"
"Pasco Automobiles","SHOP NO. 24,25,26,PLATINA,OPPOSITE BRISTOL HOTEL,SECTOR-28 M.G. ROAD,SIKANDARPUR,Gurgaon","GURGAON","HARYANA","9711290001","scross@pasco.in"
"Pasco Automobiles","14/6, Mathura road Faridabad","FARIDABAD","HARYANA","9711290001","gm.nexafbd@pasco.in"
"PREM MOTORS","PLOT NO. 95, IDC, OPPOSITE SECTOR-14","GURGAON","HARYANA","124-4440000","ggn.nexa@premmotors.com"
"ROHAN MOTORS LTD","Rohan Motors Ltd, Khasra No. 46, Delhi Meerut Road , Ghaziabad- 201003","GHAZIABAD","UTTAR PRADESH","9599040601","nexamorta@rohanmotors.co.in"
"TR Sawhney Motors","G-1, Ground Floor, Orchid Center, Golf Course Road, Sec -53, Gurgaon","GURGAON","HARYANA","9999525740","nexagurgaon@trsawhneymotors.com"
"SIDHI VINAYAK VEHICLES PVT LTD","PLOT NO 1, NEAR METRO PILLAR No. 765, MIE FREEHOLD (PHASE 2), MAIN ROHTAK ROAD, BAHADURGARH, HARYANA - 124507","BAHADURGARH","HARYANA","7027871150/7027871151","srm.nexa@svvpl.com; qm.nexa@svvpl.com"
"Competent Automobiles Co. Ltd.","Plot No. 1, MIE Phase-2, Near Tikri Border Metro Station, Main Delhi-Rohtak Road, Bahadurgarh","BAHADURGARH","HARYANA","8929532773/ 7290091150","smnexabhdr@competent-maruti.com"
"Vipul motors pvt. Ltd.","AG-001,002,003,010,011,012, Tower A, Pioneer Urban Square, Sector-62, Golf Course Ext Road, Gurgaon","GURGAON","HARYANA","9205899706","gm_nexagrg@vipulmotors.com"
"BVA AUTO PVT LTD","5D, 8E Railway Road NH5, NIT Faridabad - 121005","FARIDABAD","HARYANA","1294121212","smnexa@tcsmaruti.com, CONTACTnexa@TCSMARUTI.COM"
"RANA MOTORS PVT LTD","Rana Motors Pvt Ltd,Plot no. 107-108,Shanti Nagar,Rajiv Chowk,NH-8,Gurugram-122001","GURGAON","HARYANA","8585991111","nexa.ggn@ranamotors.in"
"Vipul Motors","FUNCITY MALL, SHOPPING MALL PROPERTY NO.2, SECTOR-20S,AJRONDA CHOWK,","FARIDABAD","HARYANA","9599814771","scross.fbd@vipulmotors.com"
"DD Motors (A Div of DD Industries Limited)","Khasra no-25/12/1 PIAO MANIYARI ROAD,RAJIV COLONY, NARELA ,NEW DELHI-110040","DELHI","DELHI","9081900800","info@ddnexa.com"
"Vipul motors pvt. Ltd.","Vipul Motors Pvt Ltd, Sub Division No.3, Industrial Plot No. 34, NIT Faridabad, 121002, Haryana","Faridabad","HARYANA","9599814771","scross.fbd@vipulmotors.com"
"Competent Automobiles","Nexa Sohna Road, Opp Hotel Fortune, Sohna Road, Gurgaon, Haryana","GURGAON","HARYANA","9899339336",""
"Pasco Sohna","Gurgaon - Sohna Road, Vill Alipur, Sohna, Gurgaon - 122102","SOHNA","HARYANA","7027990501",""
"Rohan Motors Limited","Site 4, Industrial Area, Near P3 Chowk, Kasna Road, India","GREATER NOIDA","UTTAR PRADESH","8744000600","rmlnexa.grn@rohanmotors.co.in"
"Platinum Moto corp","Savoy Suites, Special GF-1, Plot No. R-75, Sector-1,IMT, Manesar, Gurgaon (Haryana) - 122050","MANESAR","HARYANA","9953345344","gm.manesar@nexaplatinummotocorp.com"
"Jagmohan","NEAR RONAK GARDEN, BAHALGARH ROAD, SONEPAT","SONEPAT","HARYANA","8685005668","Nexa.sonipat@mohanindia.co.in"
"TR Sawhney Automobiles Pvt Ltd","Mohkanpur, Opp Venus Garden, Delhi Road, Meerut","MEERUT","UTTAR PRADESH","9999178086","tdm@trsawhneyautomobiles.com"
"Raj Sneh","Mokampur, Opp Venus Garden, Near Shoprix Mall, Delhi Road, Meerut","MEERUT","UTTAR PRADESH","8191097602","rajsnehnexa@gmail.com"
"Fortune cars","Plot No1, Augustin Colony, Modern Public School, Alwar Byepass, 301019","Bhiwadi","RAJASTHAN","9214794313","nexabhiwadi@gmail.com"
"Radha Govind Wheels India Pvt Ltd","Hall Ground Floor, Plot No. CP-5/67, Jagriti Vihar, Main Garh road, Meerut, Uttar Pradesh – 250001","MEERUT","UTTAR PRADESH","9760092000","sgoelmzn@gmail.com"
"Jagmohan Motors","DELHI BYE PASS, OPPOSITE SECTOR -1, ROHTAK","ROHTAK","HARYANA","9812000362/8685005805","smnexarohtak@gmail.com"
"Delhi Road","OPP-Rao Tula ram stadium,Delhi Road Rewari","REWARI","HARYANA","7082100321","sales.nexa@dinco4wheels.com"
"Harisons","Harisons Automobiles, Near BBMB, G.T.Road, Panipat-132103","PANIPAT","HARYANA","8930300701","mail@nexapanipat.com"
"CLML Vehicles Private Limited","NEAR RTO OFFICE, GT ROAD, ALIGARH","ALIGARH","UTTAR PRADESH","+91-9105010111",""
"DD Motors (A Div. of DD Industries Ltd)","1370, Sham Colony, Old GT Road, Between Meera Ghati & Namaste Chowk, Karnal 132001, Haryana","KARNAL","HARYANA","8448198505",""
"Karnal Motors","118-119 KM, NH 1, GT Road, Karnal 132001","KARNAL","HARYANA","9996000555/ 0184-2000600","nexa.kmpl@gmail.com"
"Fortune","Manhar villa, opposite Cross point mall, Jail circle Alwar","ALWAR","RAJASTHAN","301001-7230029444","nexalwar@gmail.com"
"Uma Motors Private Limited","246 & 247, Maholi, K.M. Stone . 146.2, NH-2, Mathura- 281004","MATHURA","UTTAR PRADESH","7248020111","sales@nexaumamotors.com"
"SHAKUMBARI AUTOWHEELS PVT. LTD","5 KM. MILESTONE NH-58,ROORKEE- DELHIROAD,NEAR GODAWARI HOTEL, ROORKEE-247667","ROORKEE","UTTARAKHAND","Â 9837088629","Â Sanjeev.saxena77@gmail.com"
"Akanksha Automobiles Pvt. Ltd.","5th Km, Delhi Road, Gaagan Square, Moradabad (U.P.) 244001","MORADABAD","UTTAR PRADESH","7900600001","nexa@akanksha.co.in"
"Modern Automobiles","Metropolis Mall, Opposite Vidyut Nagar, Delhi Road, Hissar","HISAR","HARYANA","9355476000","Modern.hsr.sal1@marutidealers.com"
"Eakansh","EAKANSH MOTOR PVT LTD, NH65, AMBALA ROAD - KAITHAL - 136027","KAITHAL","HARYANA","8930012345","Nexa.kaithal@gmail.com"
"Pandit","NEXA Jagadari Road,Pandit,Jagadari Road, Opposite Rampura, Kamla Nagar,Yamunanagar- 135001 Pincode-135001","YAMUNANAGAR","HARYANA","0173 2225517","nexayamunanagar@gmail.com"
"Prem Motors Private Limited","Plot No. 143(P), 144(P), 163(P), 164(P),Nagar Nigam No. 36/403,New Agra, Agra","AGRA","UTTAR PRADESH","7055679000","nexa.agra@premmotors.com"
"Madhusudan Motors","6/3, Galibpura, Subhash Park, M. G. Road, Agra (UP) 282002","AGRA","UTTAR PRADESH","+91-7060310801","nexa@marutiagra.com"
"Auric Motors","WARD NO. 23, ROAD NO. 3, MOHALLA NAGARPURA, JHUNJHUNU - 333001","JHUNJHUNUN","RAJASTHAN","9356501550","audi.jjn.sm@nexadealer.com"
"Eakansh Wheels","Baldev Nagar, Chandigarh DelhiÂ Highway, Ambala 134003","AMBALA","HARYANA","8395908400Â ","eakansh.nexa@gmail.com"
"DD Motors ","Â DD NEXA, Ajabpur khurd, Haridwar bypass road , Dehradun, 248121","DEHRADUN","UTTARAKHAND","8126777555Â ","dd.deh@ddnexa.comÂ "
"Rohan Dehradun ","257/2 GMS Road, Opp MDDA Colony, Nearby Kamla Palace Hotel, Dehradun","DEHRADUN","UTTARAKHAND","7300918081","nexa_sales.ddn@rohanmotors.co.in"
"FUTURE NEXA CARS PRIVATE LIMITED","Ashirwad tower, Chakrata road, Near Ballupur chowk, Dehradun, 248001","DEHRADUN","UTTARAKHAND","7251888019","future.nexa@futureauto.in"
"Atelier","NEXA Lower Mall, Patiala","PATIALA","PUNJAB","7527000133","sm@nexaptl.atelier-corp.com"
"Coral Motors Private Limited","Rampur Road, Opposite Mini Bypass Road, 243502","BAREILLY","UTTAR PRADESH","+91-7251963585","sm@nexacoralmotors.in"
"Akanksha Automobiles Pvt Ltd","Akanksha Automobiles Rudrapur Pvt Ltd, Industrial Area, Kiccha Bypass road, Rudrapur - 263153","RUDRAPUR","UTTARAKHAND","+91-7055512345","Sm.nexa@aarpl.in"
"Max Autos","Dhuri Byepass Road, Near Max Autos, Sangrur","SANGRUR","PUNJAB","1672-9056103131","nexa@maxautos.in"
"Tricity Autos","Chandigarh Ambala Highway, Adjoining Golden Square, Zirakpur-140603","ZIRAKPUR","PUNJAB","1762-8264000111/8264000222","tricitynexa.sqr.sal1@marutidealers.com"
"Nainital Motors","Ranpur Road Haldwani","HALDWANI","UTTARAKHAND","7310988801","sm.nexa@nainitalmotors.com"
"Modern Automobiles, Panchkula","Plot No 366, Industrial Area Phase 2, Panchkula","PANCHKULA","HARYANA","01725011111/9115791157","modernnexa.phk.hrm@marutidealers.com"
"Jamu Automobiles Pvt. Ltd.","Plot no. 01, Jaipur Road, Sikar","SIKAR","RAJASTHAN","1572-0246666/246665","jnnexa@gmail.com"
"SATNAM MOTOCORP PVT. LTD.","D-27 K/L/M , ROAD NO.3 MAIN SIKAR ROAD, VKIA JAIPUR","JAIPUR","RAJASTHAN","141-2332800","sales.nexa@satnammotocorp.com"
"AUTOVOGUE PVT. LTD","PLOT NO. 191, Near Orbit Hotel, INDUSTRIAL AREA PHASE 2, CHANDIGARH - 160002","CHANDIGARH","CHANDIGARH","7527016667","nexachd@aotovogue.in"
"Autopace Network","ELANTE MALL, GROUND FLOOR (OFFICE BLOCK) PLOT NO 178/178A, INDUSTRIAL, PHASE-1, Chandigarh","CHANDIGARH","CHANDIGARH","9646996469","nexa_sales1@autopace.co.in"
"Navdesh Autos LLP","Plot No 9, Industrial Area Phase-1, Chandigarh - 160002","Chandigarh","Chandigarh","8195055555","gmnavdesh @gmail.com"
"Shakti ","Dabwali road, near air force station, sirsa","SIRSA","HARYANA","8572801048","sm.shaktinexa@gmail.com"
"Vipul Motors","G-BUSINESS PARK (GROUND FLOOR) D-34, SUBHASH MARG C-SCHEME,","JAIPUR","RAJASTHAN","9116032607","scross.jpr@vipulmotors.com"
"CM Auto Sales","PLOT NO. B-64, INDUSTRIAL AREA, PHASE VI,","MOHALI","PUNJAB","9592266666","sales.nexa@cmautosales.net"
"KP Automotives","SHOWROOM NO. 2 GROUND FLOOR, "PARK WEST", PLOT NO. 5-10, VIHAR, QUEEN ROAD,","JAIPUR","RAJASTHAN","7230030500","nexa@kpa.co.in"
"Prem Motors","PLOT NO. 1-6, 18, 19, KALYAN COLONY, MALVIYA NAGAR 9dBLOCK)","JAIPUR","RAJASTHAN","8058499999","Nexa.jaipur@premmotors.com"
"Goyal Motors Pvt. Ltd","Deonghat, Solan (HP)-173211","SOLAN","HIMACHAL PRADESH","+91-9305200006","nexasolan@goyalmotor.com"
"CM Auto Sales","Opposite solakhiyan Gurudwara,Near toll plaza, Ropar","ROOPNAGAR","PUNJAB","+91-9592266666","sales.rpr@cmnexa.in"
"Modern Automobiles","Kachi Ghatti, Taradevi, Shimla-171010","SHIMLA","HIMACHAL PRADESH","0177-2830230/7807777331","nexashimla@modernauto.co.in"
"Kuldeep Motors Private Limited","Pilkhar, Kanpur Road Etawah, UP 206001","ETAWAH","UTTAR PRADESH","+91-9899545541","showroommanager@kuldeepmotors.com"
"Tara Automobiles, Bathinda","Khasra No 3534, Mansa Road, Bathinda – 151001, Punjab","BHATINDA","PUNJAB","0164-2220326","nexabti@gmail.com"
"Sumitra DS Motors Pvt Ltd","Commercial Plot Rasoolpur, Khasra No. 360-362, Jahaganj Tehsil Sadar, State Highway 25, Shahjahanpur - 242001","Shahjahanpur","UTTAR PRADESH","8528231120","nexa@sumitradsmotors.com"
"Sumitra DS Motors Pvt Ltd","Commercial Plot Rasoolpur, Khasra No. 360-362, Jahaganj Tehsil Sadar, State Highway 25, Shahjahanpur - 242001","Shahjahanpur","UTTAR PRADESH","8528231120","nexa@sumitradsmotors.com"
"Sandhu Automobiles","HOTEL CHEVRON KLASSIK, G.T. ROAD, GIASPURA RAILWAY CROSSING","LUDHIANA","PUNJAB","9814098040","Scross.sandhuautos@gmail.com"
"SWANI MOTORS  SERVICES (P) LTD.","576,MODEL TOWN, LINK ROAD,LUDHIANA-141002","LUDHIANA","PUNJAB","9815799774","swaninexamodeltown@gmail.com"
"Lovely Autos","576, Model Town, Link Road, Ludhiana","Ludhiana","Punjab","9875915444","lovelynexaldh@gmail.com "
"Prem Motors Pvt. Ltd.","Near Phoolbag Crossing,MLB Road,Gwalior - 474002 (MP)

","GWALIOR","MADHYA PRADESH","7049727000","nexa.gwalior@premmotors.com"
"STAN CARS PVT. LTD","PLOT NO 1 SHAMSHER AVENUE OPP RAJ GURU NAGAR FEROZEPUR,","LUDHIANA","PUNJAB","8872033333","stannexa@gmail.com"
"Remira Motors","Brar Complex GT Road, Moga","MOGA","PUNJAB","7087025049","remiranexa@gmail.com"
"Concept","Lucknow Chungi, Opposite CSN Degree College, Lucknow Road, Hardoi, 241001","HARDOI","UTTAR PRADESH","Â 8127280000","Â gm.nexa@conceptcarspvtltd.com"
"STAN CARS PVT. LTD.","Pragpur, Opposite Viva college, Jalandhar","JALLANDHAR","PUNJAB","8198022222","stannexajal@gmail.com"
"Competent Automobile Ltd","VPO. GUTKAR, TEHSIL SADAR DISTT. MANDI","MANDI","HIMACHAL PRADESH","9805510269/ 01905-246444","nexamandi@competent-maruti.com"
"Lovely Auto","Dr. B.R,AMBEDKAR CHOWK, OPPOSITE PASSPORT OFFICE","JALLANDHAR","PUNJAB","7087010108","lovely.nexa@gmail.com"
"Hoshiarpur Automobiles","Piplanwala , Jalandhar Byepass Chowk , Hoshiarpur","HOSHIARPUR","PUNJAB","8195900054","hoshiarp.hsp.nexasm@marutidealers.com"
"Competent Automobiles Co. Ltd.","Kh no. 493 & 494, NH 88, District Hamirpur, Himachal Pradesh – 177001","HAMIRPUR","Himachal Pradesh","9805510033","nexahamirpur@competent-maruti.com"
"Navneet Motors","PLOT NO. 7 & 8, RIICO INDUSTRIAL ESTATE NASIRABAD ROAD, MAKHUPURA, AJMER-305002","AJMER","RAJASTHAN","Â 9116116501","Â ajmernexa@navneetmotors.in"
"Auric Motors","Plot 48-49, Suratgarh Road, Sri Ganganagar 335001","SRI GANGANAGAR","RAJASTHAN","7412092301","nexa.sgnr.sm@nexadealer.com"
"Suri Automobiles","Beside Plot no-895, opposite Hansraj Modern School, Shivpuri Road ,Jhansi, UP","JHANSI","UTTAR PRADESH","8887531199"," surinexa@gmail.com"
"Shri Mangalam Auto Private Limited","Khasra No 83/985, Bikaner Road, Nagaur, Rajasthan- 341001","NAGAUR","RAJASTHAN","+91-6399292929","mangalamnexa@gmail.com"
"Auric Motors","Before Subash Petrol Pump, Tilak Nagar,Jaipur Road, Bikaner","BIKANER","RAJASTHAN","9529444468","nexa.bikaner@Gmail.com"
"KTL","KTL Pvt Ltd, 112/368 Swaroop Nagar, Kanpur, 208002","KANPUR","UTTAR PRADESH","7317001092","smnexa@knp.ktlgroup.co.in"
"My car","My Nexa Pvt Ltd., 86/275 Afeem Kothi, GT Road Kanpur - 208002","KANPUR","UTTAR PRADESH","+91-7081000404","Â srm.manager@nexamycar.com"
"Kangra Vehicleades (A unit of Pathankot Vehicleades Pvt. Ltd)","Khata No. 81, Mohal Upperli Ambari, Mouza Ambari, Nagrota Bagwan, District Kangra, HP - 176047","NAGROTA","Himachal Pradesh","9418350521","Nexakangra@gmail.com"
"Jaycee Motors","Amritsar Gateway, G T Road, Amritsar","AMRITSAR","PUNJAB","9888034555","nexa.gateway@gmail.com/sm.nexagateway@gmail.com"
"Swani Motors Pvt Ltd","1397/74, Circular Road, Opp Trillium Mall, Amritsar-143001","AMRITSAR","PUNJAB","5100180, 7527007708","nexacircularroad.swani@gmail.com"
"Bhatia & Company","Plot no. 8, Motor Market Scheme, Aerodrome Circle, Kota","KOTA","RAJASTHAN","+91-7231899999","sales.nexa@bhatiaandcompany.co.in "
"Bright 4 Wheels","CP-8, Cinders Dump Yojna, Adjacent to Alambagh Bus Stand, Kanpur Road Lucknow 226005","LUCKNOW","UTTAR PRADESH","9628370648","salesnexa@b4w.co.in"
"Kuldeep Motors Lucknow Pvt Ltd","Plot No 62B & 63, Kalyanpur, Ring Road, Lucknow, Uttar Pradesh - 226022","LUCKNOW","UTTAR PRADESH","9536022222","sm.nexa@kuldeepmotorslucknow.com"
"Anand Motors","12 Rani Lakshmi Bai Marg,Hazratganj Lucknow 226001","LUCKNOW","UTTAR PRADESH","7080000470","gmsalesnexa@anandmotor.com"
"KTL Automobile Pvt. Ltd.","CYBER HEIGHTS, VIBHUTI KHAND, GOMTI NAGAR,","LUCKNOW","UTTAR PRADESH","8303585858","ktlnexa@ktlautomobile.in"
"Pathankot Vehicleades","Simbal Chowk, Dalhousie Road, Pathankot - 145001","PATHANKOT","PUNJAB","2349274 , 2347275 / 9517700818","vehicleades.pathankot@gmail.com"
"CHAMPION CARS","NEXA SUKHADIA CIRCLE, CHAMPION CARS, AJMER ROAD, BHILWARA - 311001","BHILWARA","RAJASTHAN","8081133333","sales.nexabhilwara@gmail.com"
"Auric Motors","14 A, Heavy Industries Area (Near ITI) Jodhpur","JODHPUR","RAJASTHAN","8875012697","nexajodhpur@gmail.com"
"LMJ SERVICES LTD.","Plot No. 114, Opp- Juna Keda Pati Mandir, Chopasni Road , Jodhpur","JODHPUR","RAJASTHAN","7230013811","nexachopasni@gmail.com"
"Jamkash Vehicleades","NATIONAL HIGHWAY-1A BYEPASS, OPPOSITE CHANNI HIMMAT","JAMMU","JAMMU AND KASHMIR","7051261302","marutinexa111@gmail.com"
"Peaks Auto","4-AC, Green Belt Part, Gandhinagar, Jammu","JAMMU","JAMMU AND KASHMIR","8899007260",""
"Jammu Motors Pvt. Ltd.","Khasra No. 421, Opposite Best Price, Akhnoor Road, Jammu- 181121","JAMMU","JAMMU AND KASHMIR","9906038888","sm.nexa@jammumotors.com"
"Adinath Cars Pvt. Ltd.","Adinath Cars Private Limited Khasra No 155, P H No. -77, Baheria Gadgad, Sagar Jabalpur Road, Sagar - 470004, Madhya Pradesh, India","SAGAR","MADHYA PRADESH","7582-6262600201","adinathnexa18@gmail.com"
"Navneet Motors","Plot No. 2-3, Patho Ki Magri, Opp. B. N. College, Airport Road, Udaipur 313001","UDAIPUR","RAJASTHAN","7665889555","nexa@navneetmotors.in"
"City Cars","Amoudha, Panna Road, Satna, MP","SATNA","MADHYA PRADESH","7970006400","nitin7@gmail.com"
"Technoy Motors","Opp Nand Bhawan, Goverdhan Vilas, Udaipur","UDAIPUR","RAJASTHAN","9116007239","nexaudaipur@gmail.com"
"Amitdeep Motors","25, Stretchy Road, Civil Lines, Allahabad (UP) 211001","ALLAHABAD","UTTAR PRADESH","9621381389","sm.nexaallahabad@gmail.com"
"Greenland Motors ","4-A, Madan Mohan Malviya Marg, George Town, Allahabad, Uttar Pradesh - 211002","ALLAHABAD ","UTTAR PRADESH","7311148048","sm.greenlandnexa@gmail.com"
"My Wheels Pvt Ltd","50, Nishat Colony, Link Road 1, Bhopal, MP 462003","BHOPAL","MADHYA PRADESH","07222999888, 7222999666","relations.nexa@mywheelsbhopal.com"
"Rajrup Motor Junction","Plot No.3,ISBT, Hoshangabad Road   Bhopal 462023","BHOPAL","MADHYA PRADESH","9111501501/ 0755-2780501","nexa@rmjmotors.com"
"Jeewan Motors Pvt Ltd","MAPLE STREET MALL, OPP AASHIMA MALL, HOSHANGABAD RD, BHOPAL.","BHOPAL","MADHYA PRADESH","4925127/9826398702","nexajeewan@gmail.com"
"Druk Auto Zone Pvt Ltd","Druk Auto Zone, Airport Road, Leh- Ladakh","LEH","JAMMU And KASHMIR","6005240956","nexaleh123@gmail.com"
"Yug Cars(A unit if Rukmarani Cars Indore Pvt. Ltd.","59/1 , Nagjiri , Devas road ,ujjain -456010 ,Madhya Pradesh","UJJAIN","MADHYA PRADESH","7346262045408/18005322222","nexa.ujjain@yugcars.com"
"PATEL MOTORS (INDORE) PVT LTD","102 DO BATTI SQUARE FEEGANJ RATLAM  (M P)","RATLAM","MADHYA PRADESH","9111104500","nexa@patelmaruti.com"
"PEAKS AUTO PVT. LTD","NH -1A Lasjan Byepass Srinagar- 191101","Srinagar","JAMMU AND KASHMIR","2468462 / 9906663415","peaks.sgr.nexa@marutidealers.com"
"Smart Wheels Pvt. Ltd.","Medical College Road, Gulhariya, Gorakhpur,Uttar Pradesh","GORAKHPUR","UTTAR PRADESH","7705800740","nexa@smartwheels.co.in"
"Jamkash Vehicleades (Kashmir) Pvt Ltd","Hyderpora By-Pass Crossing Srinagar-190014","Srinagar","JAMMU AND KASHMIR","2442224, 9622999955, 8803004592","nexasales@jamkashkashmir.com"
"Rana Motors Pvt. Ltd","Khasra No 4/4/1/6, 4/1/1/1/1min, 4/1/1/12, 4/1/1/13, 4/1/1/14, Lasudia Mori, Dewas Naka, Indore - 452010,Madhya Pradesh, India



","INDORE","MADHYA PRADESH","9899400490","nexa.indore@ranamotors.in"
"Patel Motors","Plot no.18A , Scheme no.94C , Ring road , Velocity Complex","INDORE","MADHYA PRADESH","9111190999","nexa@patelmaruti.com"
"SHUBH MOTORS PVT. LTD.","764, Shubh Motors, Opposite Gulzar Hotel , Madan Mahal, Jabalpur","JABALPUR","MADHYA PRADESH","7049454545","shubhnexa@gmail.com"
"Standard Auto Agencies","1745, Subhash Chandra Banerji Ward No. 51, Near G. S. College, Sai Baba Mandir Road, South Civil Lines, Jabalpur (MP) 482002","JABALPUR","MADHYA PRADESH","9111104100","standard.nexa@gmail.com"
"AGR Automobiles Private Limited","Arazi No. 285-286, Lucchepur, Pargana – Athgawan, Tehsil - Pindra, Varanasi - 221105","VARANASI","UTTAR PRADESH","8416988888","agrnexa@gmail.com"
"Ocean Motors","Tulsi Tower, 22/3 - South Tukoganj, Street No.1, Geeta Bhawan Sqaure, A.B.Road, Indore (M.P.)","INDORE","MADHYA PRADESH","7879774774","nexa@oceanmotors.in"
"Rukmani Motors Pvt. Ltd","Bhanwarkuan, Fortune Aura Building, 1  Gurmeet Nagar, Bhanwarkuan, Indore MP","INDORE","MADHYA PRADESH","7869355555","rm.nexa@gmail.com"
"Tanu Motors","Near Dharti Resort , Abu Highway , Palanpur,(b.k.)-385001","PALANPUR","GUJARAT","9099999222","tanu.nexa@nexadealer.com"
"Kiran Motors","Revenue Survey no. 57, Sub Plot no. 4, Motipura, Himatnagar - 383001","HIMMATNAGAR","GUJARAT","7203096472","sm.hmt.nexa@kiranmotors.co.in"
"Starline Cars","NEXA Division, Nagalpur Highway, Mehsana 384002","MEHSANA","GUJARAT","9979134000","ceo.starline@marutidealers.com"
"RB Cars Private Ltd.","LUNAWADA ROAD, OPP GIDC GODHRA ,NEAR BHURAVAV CHOWKDI ","GODHRA","GUJARAT","95126 30100","rbcars.nexa@nexadealer.com"
"Nanda Automobiles","Survey No.187/A Moje Kudasan, Nr. Baghbaan Restaurant, Gandhinagar, 382421","GANDHI NAGAR","GUJARAT","9925002575","nexa@nandaautomobiles.com"
"STARLINE CARS","Neelkanth Square, Nr Nana Chiloda Railway Crossing, B/S Maruti Showroom,  Naroda Ahmedabad 382345","AHMEDABAD","GUJARAT","7046020765","Starline.ceo@marutidealers.com."
"Popular Wheelers","SHOWROOM NO. 1 & 2,OPP. GUJARAT VIDHYAPITH,USMANPURA CHOWKDI","AHMEDABAD","GUJARAT","7575806060","nexa.popular.sm1@nexadealer.com"
"Atul Motors Pvt. Ltd.","Near BSNL Office, CTM Circle, Ahmedabad","AHMEDABAD","GUJARAT","7028064758","ahm.nexa@atulmotors.com"
"Kataria Automobiles Pvt. Ltd.","Kataria Automobiles Pvt. Ltd.Shop No. 2-4, 3rd Eye Vision, Opp. Shivalik Plaza, Near AMA, Panjrapole CharRasta, Ambawadi,Ahmedabad Ã» 380006 , Gujarat","AHMEDABAD","GUJARAT","9512126000","nexa.ambavadi@kataria.co.in"
"Kiran Motors","VENUS BENECIA,NEAR GORDHAN THAL,OPP RAJPATH CLUB,S.G.HIGHWAY,AHMEDABAD","AHMEDABAD","GUJARAT","9714755588","sm.amd.nexa@kiranmotors.co.in"
"Kataria Automobiles","S.G. ROAD AHMEDABAD","AHMEDABAD","GUJARAT","9512126000","nexa.ahmedabad@kataria.co.in"
"Amar Cars Pvt. Ltd","Opp. Kaival Tower,Nr. Ganesh Chowkdi, Anand-Sojitra Road,Anand - 388001","ANAND ","GUJARAT","9081211122","nexa.anand@amarcars.net"
"Amar Cars","Ocean, Shop 1,2&3 Ground floor, Nr Central Square Mall, Sarabhai Compound, Vadodara","VADODARA","GUJARAT","7567488855","nexa.baroda@amarcars.net"
"Kiran Motors Ltd","Ground Floor, The Park, Opp : Blue lagoons Hotel, Akshar Chowk, Old Padra Road,Vadodara, 390020","VADODARA","GUJARAT","7203031031","nexa.brd@kiranmotors.co.in"
"Kataria Automobiles","SHOP NO. G.F. 1 TO  3, CORNER HEIGHTS, KALALI VADSAR RING ROAD, NEAR DELHI PUBLIC SCHOOL","VADODARA","GUJARAT","7203810000","nexa.baroda@kataria.co.in"
"Alankar Auto Sales and Service Pvt. Ltd.","OPPOSITE-RUPAS PUR THANA,  Near Gola Road, BAILEY ROAD, Patna","PATNA","BIHAR","7260892150","alankar.nexa@alankarautogroup.com/alankar.nexa@gmail.com/alankarnexa.manoj@gmail.com"
"Reeshav Automobiles Pvt. Ltd.","Plot no. 134, Patliputra Colony, P.S. Patliputra, Patna-800013, Bihar","PATNA","BIHAR","7091198040/7091198041","rapl.nexa@gmail.com, gmnexapatliputra@gmail.com"
"Automotive Mfrs. Pvt. Ltd","Plot no. 2, Near Gothra Lawn, Tekanaka Square, Kamptee Road, Nagpur - 440017","NAGPUR","MAHARASHTRA","7391075971","sm.ngpnexa@automotiveml.com"
"Seva Automotive","SEVA CENTRE OPP KASTURCHAND PARK KINGSWAY ROAD NAGPUR 440001","NAGPUR","MAHARASHTRA","+91-9130020666","sevanexa.ngp@marutidealers.com"
"SHREE GOPAL AUTO PVT. LTD.","GROUND FLOOR, BANSI VIHAR, 
ANISABAD, NEW BYEPASS ROAD, PATNA 800002","PATNA","BIHAR","7545918888","sm@gopalnexa.com"
"Rajiv Automobiles Pvt. Ltd.","Khabra, NH-28, Opposite Khabra Shiv Mandir, Muzaffarpur, Bihar","MUZAFFARPUR","BIHAR","7545877777/ 7545977777","rajiv.mzf.sal1@nexadealer.com"
"Arya Cars","PLOT NO 1902, Nr. Hotel Airport Centre Point, Ujjwal Nagar, Wardha Road, Nagpur 440025","NAGPUR","MAHARASHTRA","+91-7350373506","aryanexangp@gmail.com"
"ASPA BANDSON","NEXA Yavatmal, Himalaya Cars, Darwha Road, Yavatmal","AMRAVATI","MAHARASHTRA","+91-8805833333","Aspa.amr.sm@nexadealer.com"
"Dream Vehicles Pvt. Ltd","Opposite M P Vora commerce college, Wadhwan - Ahmedabad Highway, Wadhwan, Surendranagar","SURENDERNAGAR","GUJARAT","9512970083","dream.snr@nexadealer.com"
"Manraj Automobiles","P-93, MIDC, Ajanta road,Jalgaon -425003 Maharashtra","JALGAON","MAHARASHTRA","+91-9422280826","parag.jain1702@yahoo.com"
"Raviratna Motors","Old National Highway No.8, Near Dudhdhara Dairy, Bholav, Bharuch  392001","BHARUCH","GUJARAT","7575006675","raviratna.nexa@marutidealers.com"
"Satya Automobiles","OPPOSITE NEW BUS STAND RAIPUR ROAD,Bilaspur- 495001, Chattisgarh","BILASPUR","CHHATTISGARH","7089888884","satyanexabilaspur@gmail.com"
"SATYA AUTOMOBILES","PLOT NO. C-15, KOSABADI KORBA CHHATTISGARH 459677","KORBA","CHHATTISGARH","9109134140,9630731111","nexa.korba@teamsatya.in"
"Himalaya Cars","NEXA Yavatmal, Himalaya Cars, Darwha Road, Yavatmal, 445001","YAVATMAL","MAHARASHTRA","+91-9890222999","himalaya_nexa@yahoo.com"
"Eternal Motors","Plot No. 2B/3, Revenue Survey No. 65 & 66, GIDC Chitra, Bhavnagar - 364004","BHAVNAGAR","GUJARAT","9978639220","eternal.nexa@marutidealers.com"
"Sparsh Automobiles Pvt. Ltd.","Sparsh Automobiles Private Limited Near Supela Police Station, G. E. Road, Supela Bhilai, Chhattisgarh - 490023","BHILAI","CHHATTISGARH","9098122136 , 9754850000","nexabhilai@sparshautomobiles.com"
"Sparsh Automobiles","Sarona, Ring Road 1, Opp. Munich Motors, Raipur","RAIPUR","CHHATTISGARH","9111107254 , 9285557111","arfath.jan@sparshautomobiles.com"
"Dhru Motors","Plot No. 14 to 17, Besides Bhakti Dham Temple, Puna Kumbhariya Road, Magob, Surat - 395 010","SURAT","GUJARAT","9712661000","nexadhru@dhrugroup.com"
"SKY AUTOMOBILES","BESIDE MAGNETO THE MALL, LABHANDI","RAIPUR","CHHATTISGARH","9893190909","nexaraipur@skyautomobiles.in"
"BM Autolink","Survey No 129/26, Galpadar, Airport Crossway, Gandhidham, Kachchh, Gujarat 370201.","GANDHIDHAM","GUJARAT","9512035567","bmautolink.nexa@gmail.com"
"Amar Cars Pvt Ltd","MARVELLA THE BUSINESS HUB, OPPOSITE RTO PAL, PAL- HAJIRA ROAD, SURAT","SURAT","GUJARAT","8980033965","nexa.surat@amarcars.net"
"Kataria Automobiles","ARUN NEAR ISCON MALL, DUMAS ROAD, PIPLOD,Surat 395007","SURAT","GUJARAT","7096063950","nexa.surat@kataria.co.in"
"Kiran Motors","Kiran Nexa. G-2-3-4, Trinity Cygnus, Opp CNG Pump,Udhna Magdalla road,Vesu, Surat","SURAT","GUJARAT","9574442788","sm.srt.nexa@kiranmotors.co.in"
"GS MOTORS PVT. LTD","NH-31, Beside Aneel Fuel Service, Near Zero Point, Begusarai","Begusarai","BIHAR","9297876230","gsnexa.bgc@gmail.com"
"Kataria Automobiles Pvt. Ltd.","Survey No 284/A & 284/B, Mouje Gam, Gondal Road, Atul Building, Near Bombay Hotel, Rajkot – 360002 ","RAJKOT","GUJARAT","8095100000","nexa.rajkot@kataria.co.in"
"Atul Motors","IMPERIAL HEIGHTS, OPP. BIG BAZAR, 150 FT. RING ROAD","RAJKOT","GUJARAT","7028064754","atul.nexa@outlook.com"
"Perfect Auto Services","GONDAL ROAD NEAR RAJKAMAL PETROL PUMP RAJKOT .","RAJKOT","GUJARAT","7043999063","perfect.rjk.sal5@marutidealers.com"
"Premsons Motors Udyog","Nexa Central, Next to GST Office, Arya Nagar, Hurhuru, Hazaribagh, Jharkhand, 825301 ","HAZARIBAGH","JHARKHAND","9708038363 / 9832383838","bhnexahazaribagh@premsonsmotor.com"
"K D Motors","K.D. Motors,No. 2,3,7,8,12,13, Shankarnagar,Mirzapur Highway, Bhuj, Gujarat - 370001","BHUJ","GUJARAT","9724188844","kdmotors1@gmail.com"
"Arya Cars (Unit Of Barbate Automotive (Ind) Pvt. Ltd)","Plot No 15-18, Yashwant Nagar, Padoli Nagpur Road, Chandrapur-442401","CHANDRAPUR","MAHARASHTRA","7410100004","aryanexa.chn.sales@nexadealer.com"
"Atul Motors Pvt. Ltd","JAMNAGAR-RAJKOT HIGHWAY HAPA","JAMNAGAR","GUJARAT","7028064743","atulnexa.gm.jmn@nexadealer.com  "
"Automotive Manufacturers Pvt Ltd","ABC-EAST, Plot no.D-5/1 A,B,C MIDC,Chikalthana,Aurangabad 431006","AURANGABAD","MAHARASHTRA","+91-8390904277","contactmaruti@automotiveml.com"
"Pagaria Automobiles","Jalna Road Opp: Air India Office, Near Seven Hills Bridge, Aurangabad. Pin - 431005 ","AURANGABAD","MAHARASHTRA","+91-8411961179","ceo@pagariyaauto.com"
"Sudha Motors","OPPOSITE. OTC GROUND, HEHAL, RATU ROAD, RANCHI","RANCHI","JHARKHAND","+91-7808656565 / +91-7281000133","bhnexa.sudha@gmail.com/tdmnexa.sudha@gmail.com"
"Premsons Motors Udyog","OPPOSITE RADISSON HOTEL, KADRU, OFF MAIN ROAD, Ranchi","RANCHI","JHARKHAND","9608800400/ 7280080034","premsons.nexa.crm1@marutidealers.com"
"Premsons Motors Udyog","OPPOSITE 7th Day Adventist School","RANCHI","JHARKHAND","9065516632/9065516608","premsons.ran.crm1@marutidealers.com/ nexapremsons@gmail.com"
"Kataria Automobiles","C R CHAMBERS, PLOT NO. CM 8/15,  GIDC,","VAPI","GUJARAT","7096063950","Nexa.vapi@kataria.co.in"
"Seva Automotive","Shop No. 6,7,8, Bosco Centre, Near Maria Vihar, Gangapur Road, Nasik 422005","NASIK","MAHARASHTRA","7719930666/7719830666/8308606666","seva.nexa@gmail.com"
"Shaan Cars","Plot No. 1, 904/2/2/2, Near Seven Heaven Hotel, Nashik 422009","NASIK","MAHARASHTRA","9503511678","Shaan.sm@nexadealer.com"
"Orbit Motors Private Limited","RR Plaza,Civil Town, Panposh Road, Rourkela-769004","ROURKELA","ODISHA","8337900222","nexa.rourkela@orbitmotors.co.in"
"ODYSSEY MOTORS PVT. LTD.","Remed Chowk, Sambalpur, Odisha Pin -768006","SAMBALPUR","ODISHA","8599039994","nexasbp@odysseymotors.com"
"Hindustan Auto Agency","R2 City Centre, Sector IV, Bokaro Steel City","BOKARO","JHARKHAND","+91-9204796130/9031050025","nexa.citycenter@gmail.com"
"Reliable Industries","Reliable Industries NEXA SARAIDHELA Kola Kushma Dhanbad -828127","DHANBAD","JHARKHAND","9431721875","nexa@fairdealvehicles.com nexa.dhanbad@gmail.com"
"Seemanchal Motors Pvt.Ltd.","Damka Chowk,Kishanganj Road, NH-31,Gualbbagh,Purnea,Bihar","Purnia","BIHAR","8677998811","seemanchalmd.2011@gmail.com"
"Kankariya Motors","Nexa Savedi Ahmednagar, Kankariya Automobiles Pvt Ltd, Nagar-Manmad Road, Savedi, Ahmednagar","AHMEDNAGAR","MAHARASHTRA","7972662648","ahmednagarnexa@gmail.com"
"MOTOR WORLD","NS-06 ,2ND PHASE,TATA KANDRA ROAD,ADITYAPUR INDUSTRIAL AREA,NEXT TO MERCEDES SHOWROOM,JAMSHEDPUR -831013","JAMSHEDPUR","JHARKHAND","+91-7369944123/+91-9031570999","rkd.nexa.jsr@gmail.com"
"Pebco Motors Ltd","16, New Kalimati Road, Sakchi -Jamshedpur 831001","JAMSHEDPUR","JHARKHAND","7280060800","nexa@pebcomotors.com"
"Varun Motors","VARUN MOTORS PRIVATE LIMITED, Plot no.GP 1-51- 4 1 Pangra Borgaon Hyderabad Road, Nizamabad, Telangana, India","NIZAMABAD","TELANGANA","9160991616","nexahyd.ceo@varungroup.com"
"Sai Service Pvt. Ltd","Showroom No 4,Angel Business Centre, Sativali Road, Vasai East, District Palghar, 401202","VASAI","MAHARASHTRA","8369078401","nexa.vasai@saiservice.com"
"Beekay Auto Pvt Ltd","114, G. T. ROAD, MURGASOL,Ã¡(BESIDE SBI MURGASOL BRANCH),Ã¡ASANSOL-713303","ASANSOL","WEST BENGAL","+91-7477785551/+91-7478004473","beeky.asn.smsale1@marutidealers.com"
"Sevoke Motors Pvt Ltd.","Saraswati Rice Mill Compound, 2nd Mile, Sevoke Road, Opp. Payal Cinema Hall, Siliguri-734001, West Bengal.","SILIGURI","WEST BENGAL","9083270801","nexa.sevoke@gmail.com"
"Automotive Manufacturers Pvt Ltd.","NEXA Thane North, Automotive manufacturers pvt Ltd, Sadguru Solitaire, Next to Hyper city Mall, Kafar vadavali, Ghodbunder Road, Thane west-400615.","THANE","MAHARASHTRA","7045923341","nexa@automotiveml.com"
"Entel Autos","Ground Floor, Jigtsing Commercials, Indira Bypass Highway, Upper Sichey, Gangtok – 737101, Sikkim","Gangtok","Sikkim","8597121488","rash_arora@hotmail.com"
"Paramount Wheels Pvt Ltd","Paramount Wheels Pvt Ltd.Sanjar Business Park,Near State bank of India,NH-08, Kashimira, Thane - 401104","MUMBAI","MAHARASHTRA","29450450/51","gm.nexa@paramountwheels.in"
"Excel Autovista","Mohan Mill Compound, Manpada,Ghodbunder Rd, Thane 400607.","THANE","MAHARASHTRA","+91-8291958026/+91-7777002830","nexa@autovista.in"
"Shivam Autozone","Roop Nagar Chs Ltd,Opp.Milap Cinema,S.V.Road,Kandivali (West),Mumbai - 67","MUMBAI","MAHARASHTRA","8828199999","ronniem.nexa@shivamauto.in"
"KTS Automotors Pvt Ltd","Neptune Magnet Mall, LBS Marg, Bhandup West,Mumbai ,400078","MUMBAI","MAHARASHTRA","22-9930246246","sales.nexa@ktsmotors.com"
"Navnit Motors","SRI KRISHNA BUILDING,LINK ROAD,ANDHERI WEST,MUMBAI 400053","MUMBAI","MAHARASHTRA","7045003366","nexa@navnitmotors.com"
"SK Wheels","Plot No.D- 267 TTC Industrial Area MIDC, Turbhe, Navi Mumbai 400705","NAVI MUMBAI","MAHARASHTRA","Â 9819388888","nexa@skwheels.com"
"Simran Motors Pvt Ltd","Nexa Kharghar,Niharika MIRAGE building,Plot No. 274, SECTOR 10,Shop No. 12-15,Near Toll Naka, Mumbai Pune Highway,Kharghar Navi Mumbai,410210","KHARGHAR","MAHARASHTRA","022-61403232/ 8291101002","sm.nexa@simranmotors.com"
"Shivam Autozone India Private Ltd.","Shivam Centrium Building, Opposite Kalpita Enclave, Koldongri, Andheri Sahar Road, Andheri East, Mumbai 400069","MUMBAI","MAHARASHTRA","+91-8600288888","waqasb.nexa@shivamauto.in"
"Fortpoint Automotive Cars Pvt Ltd.","Plot No. 9, LBS Marg, Kurla Kamani, Nr. Golden Palace Hotel, Kurla West, Mumbai - 400070","MUMBAI","MAHARASHTRA","022 49245285,8689808888","gm.nexa@fortpoint.co.in"
"SWG CAR WORLD (A unit of Sainath Autolinks Private Limited)","G.T Road, Bhiringee, Durgapur-713213, West Bengal","DURGAPUR","WEST BENGAL","7872002000","nexadurgapur@gmail.com"
"Adarsha Auto World Private Ltd","Adarsha Auto World Private Ltd, H.No:8-7-238, Survey no:836,838&838/A, Hyderabad Road, Kothi Rampur, Karimnagar-505001.","KARIMNAGAR","TELANGANA","8897096633","nexa@adarshamaruti.com"
"Sai Service","High Street Phoenix,Gandhi Nagar,Lower Parel,Mumbai 400 013","MUMBAI","MAHARASHTRA","022-43030351-58","nexa.mumbai@saiservice.com"
"Wonder Cars","SURVEY NO. 71 & 72, GOVIND YASHADA SQUARE, BRT ROAD, PIMPLE SAUDAGAR. PUNE-411027","PUNE","MAHARASHTRA","+91-7350760000","sales@wondernexa.com"
"The Kothari Wheels","PLOT NO 80, SAPPHIRE PLAZA,SURVEY NO 232,NEW AIRPORT ROAD, SAKORENAGAR . PUNE- 411014","PUNE","MAHARASHTRA","9168683333","imran.attar@nexakothariwheels.com"
"Mahalaxmi Automotives Vehicles Pvt. Ltd","MARVEL FUEGO, OPP SEASONS MALL  MAGARPATTA ROAD, HADAPSAR","PUNE","MAHARASHTRA","7768009046 / 7768009049","gmsales.bmt@mahalaxmiautomotive.com"
"Sai Services","Supreme Icon,Plot No-5,Survey no-80,Hissa no-5,Sakal Nagar,Baner Road,Pune 411007","PUNE","MAHARASHTRA","+91-7722028776,+91-7745044000","nexasaipune@saiservicestation.com"
"Excel Autovista Pvt Ltd","NEXA Baner Highway Bangalore Mumbai Highway, Near Yaara Di Haveli ,Baner Pune ,411045","PUNE","MAHARASHTRA","7208093522","atul.gaikwad@autovista.in"
"My Car","RAMSUKKH HOUSE, PLOT NO11, CTS NO1486-92, SHIVAJI NAGAR, PUNE 411005","PUNE","MAHARASHTRA","+91-9890255255","nexasaleshead@mycarmaruti.com"
"Sehgal Auto Rider","Fun & Shop building S.No 17A/1 Fatima Nagar Chowk, Wanowdi Pune-41140","PUNE","MAHARASHTRA","8888881302/7888002102","tdm@sehgalautoriders.com"
"ODYSSEY MOTORS","NH 55, KANDASAR, NALCO NAGAR, ANGUL, PIN 759145","ANGUL","ODISHA","9938948207","nexaang@odysseymotors.com"
"Chowgule Industries Pvt. ltd","Chowgule Industries  Pvt. Ltd. CTS No. 1858, Mahavir Park, Bibvewadi, Pune-Satara Road, Near Rao Hospital, Pune-411037","PUNE","MAHARASHTRA","7887898803; 02067005000","atre@chowguleind.com"
"Mahalaxmi Automotives Vehicles Pvt. Ltd","KARBHARI CIRCLE, RING ROAD, BARAMATI - 413102","BARAMATI","MAHARASHTRA","9922101857","asm.nexabaramati@mahalaxmiautomotive.com"
"Adarsha Auto World Private Ltd","H.no: 15-1-423,424, Industrial Estate,Mulugu Road,Warangal, Telangana 506007","WARRANGAL","TELANGANA","9133398806","adarsha.nexawgl@gmail.com"
"Chavan Motors","359, Ashok Chowk, Solapur,413005","SHOLAPUR","MAHARASHTRA","+91-8888669991","chavan.nexa@gmail.com"
"Bhandari Automobile Pvt Ltd","Chowrangee, Plot No-138 & 139, O T Road, Kharagpur-721301. Dist-Paschim Midnapur.","KHARAGPUR","WEST BENGAL","9800119409/7547900078","nexakgp@bhandariautomobile.com"
"Sevoke Motors Pvt Ltd.","Mahishbathan, NH-31, KHGRABARI, COOCHBEHAR ","COOCHBEHAR","WEST BENGAL","8001001215","gm.sevokenexaccb@gmail.com"
"Adarsha Auto World Private Ltd","#Plot No:8 &9,22-262/3&261/4 , Kukatpally","HYDERABAD","TELANGANA","8897972200","adarsha.ceo@marutidealers.com"
"Acer Motors Private Ltd.","Survey NO.163,HYDERNAGAR, GHMC KUKATPALLY,OPP HYDERABAD METRO STAFF TRAINING COLLEGE (HMWSSB), HYDERABAD . 500072","HYDERABAD","TELANGANA","40-7995075830","acer.hyd.sm1@nexadealer.com"
"Autofin Limited","Plot No. 16, Sy. No. 267/1, 267/2, Air Force Land, Bowenpally, Secunderabad - 500011, Telangana ","SECUNDERABAD","TELANGANA","8886698127","haresingh@autofinlimited.net"
"Varun Motors","VARUN MOTORS PRIVATE LIMITED, Plot no 147 and 133, 2nd Cross Vavupuri Sainikpuri Road Secunderabad","SECUNDERABAD","TELANGANA","918000033666","nexahyd.ceo@varungroup.com"
"Jayabheri Automotive","PLOT NO 1, JAYABHERI ENCLAVE, ADJ TO BOTANICAL GARDNES, GACHIBOWLI, HYDERABAD 500 032","HYDERABAD","TELANGANA","69926666, 9100909052","nexavisakhapatnam@jayabheriauto.com"
"Rks Motors","KKR Square, Road No 36, Jubilee Hills, Hyderabad 500033","HYDERABAD","TELANGANA","9989511111","nexajubilee@saboomaruti.in"
"Mithranexa automobiles","Mithra Nexa automobiles Pvt. Ltd. Paradise Pearl building, 1-7-178, Paradise Circle ,MG Road, Secunderabad-500003","SECUNDERABAD","TELANGANA","9515048048","Nexa.secunderabad@gmail.com"
"Varun Motors","D No.8-2-120/117/A/2 Plot No.83, Road No.2, Beside KTM Duke Showroom, Banjara Hills, Hyderabad","HYDERABAD","TELANGANA","040-49005900","nexahyderabad@varungroup.com"
"Sai Service","No. 6-3-1090/B/4/B/G-1, Rajbhavan Road, Somajiguda, Hyderabad","HYDERABAD","TELANGANA","7337531111","varun.blr.ceo1@marutidealers.com"
"JYOTE MOTORS (BALASORE) PVT LTD","NH-5, JANUGANJ, REMUNA GOLAI,BALASORE, ODISHA, PIN:756019","BALASORE","ODISHA","8338033994","nexa.balasore@jyotegroup.com"
"Lahoti Motors Private Limited","H No. 7-1211, CTS No. 391/1, Block No. II,Humnabad Main Road, Opp Gunj Bus Stand","GULBARGA","KARNATAKA","6366247365","sm.lahotinexa@gmail.com"
"RKS MOTORS PVT LTD.","5-9-22/1/B,SHAPOORJI TOWERS ,SHAPOOWADI,ADARSH NAGAR ,HYDERABAD -500004","HYDERABAD","TELANGANA","9553211111","nexalumbini@saboonexa.in"
"JYOTE MOTORS PVT. LTD.","Krishna Conclave, Plot No -334 , Unit -9, Barabati Killa, Near Chandi Temple Square, Cuttack-753001","CUTTACK","ODISHA","8338033889 , 7440005239","nexa.stadium-rd@jyotegroup.com"
"Kalyani","Survey No 110-112, Nagole Village, uppal Mandal, Ranga Reddy District","HYDERABAD","TELANGANA","9100102157","sm.nexahyd@kalyanimotors.com"
"GEM Motors","Gem Motors India Pvt. Ltd,Door No. 16-2-741/C/8/2&3,Asmangadh,Malakpet,Hyderabad. Pin : 500036 Telangana","HYDERABAD","TELANGANA","9912345830","gem.hyd.hr@marutidealers.com"
"Chowgule Industries Pvt. Ltd.","Chowgule Industries Private Limited Survey No 36/14B, 36/15B, 35/15A, Pune Bangalore Highway,Godoli, Satara - 415004, Maharashtra, India","SATARA","MAHARASHTRA","7796659817","nexa.satara@chowguleind.com"
"Jyote Motors","DLF CYBER CITY, BBHUBANSHWAR OPP-SILICON COLLEGE, CHANDAKA IND. ESTATE, CHANDRASEKHARPUR","BHUBANESHWAR","ODISHA","8338033884","nexa.cybercity@jyotegroup.com"
"NARAYANI MOTORS","PLOT -116 B, Surya Nagar, Bhubaneswar - 751001","BHUBANESHWAR","ODISHA","9583022008,7381094898","nexasales@narayanimotors.com"
"Sky Automobiles","PLOT NO. 1531,1532, MOUZA-NAHARKANTA, N H-5,","BHUBANESHWAR","ODISHA","9776497764,7064400101","nexa@skyautomobiles.in"
"Starburst Motors Pvt Ltd","Ground Floor, Premises No : B-8/17, CA,P.O. + P.S. – Kalyani, Dist. – Nadia, West Bengal, PIN – 741235","Kalyani","WEST BENGAL","9007799000","starburstnexa@manikz.in"
"Pavan Motors","Pavan nexa -nalgonda north Addanki by pass,nalgonda, Nalgonda, Telangana 508001","NALGONDA","TELANGANA","9100261666","pavan.nlg.sm1@nexadealer.com"
"MACHINO TECHNO SALES LIMITED","109/ 1, Foreshore Road, HOWRAH - 711 102","HOWRAH","WEST BENGAL","+91-6290857238, +91-8335941469","nexamachino.foreshoreroad@gmail.com"
"PARAMSHIVA MOTORS (MITHRA AUTO AGENCIES)","NEXA WYRA ROAD, PARAMSHIVA MOTORS Survey no-507, velugumatla, Khammam Urban, Khammam-507002","KHAMMAM","TELANGANA","9848659456","paramashiva.ceo@nexadealer.com"
"Premier Car World","Park Mansion, 57A Park Street, Kolkata","KOLKATA","WEST BENGAL","+91-8336989600/8336989645","nexaparkstreet@premiergroup.in"
"Bhandari Automobiles","Modgul Lounge, 23 Chetla Central Road, Kolkata 700027","KOLKATA","WEST BENGAL","9674970000/8336971181","nexa.alipore@bhandariautomobile.com"
"OSL Motocorp","G1,G2, The Meridian, Kazi Nazrul Islam Sarani, VIP Road, Opp. Baguihati Big Bazar, Kolkata (WB) 700059","KOLKATA","WEST BENGAL","+91-8336996066/+91-8336996301","sm.nexa@gmail.com"
"Sanei Motors Pvt Ltd.","Ideal Unique Centre, 10, East Topsia Road, Kolkata -700046.","KOLKATA","WEST BENGAL","33-8584050193","nexa@saneimotors.com"
"JYOTE MOTORS PVT. LTD.","Godrej Genesis, Plot No, XI, Block EP & GP, Sector V, Salt Lake, Kolkota. West Bengal - 700091","KOLKATA","WEST BENGAL","7603076030 / 7603076009","nexa.saltlake@jyotegroup.com"
"Bharati Motors Pvt ltd","NH 31C, CHAPAGURI,WARD NO-04,DIST- CHIRANG,ASSAM- 783385","BONGAIGAON","ASSAM","+91-9957711834, +91-9678640974,+91-9435056218","bharati.nexa@gmail.com"
"Varun Motors","NEXA PEDAPADU ROAD VARUN MOTORS Pedapadu Road, Pedapadu, SRIKAKULAM DITRICT","SRIKAKULAM","ANDHRA PRADESH","9885438355","nexasrikakulam@varungroup.com"
"Chowgule Motors","Chowgule Industries Private Limited, Kubera Chambers, Ground Floor and Basement, Plot No 1 out of R S 118/2/1, Vakharbhag, Near IMA Hall,Sangli- 416416, Maharashtra","SANGLI","MAHARASHTRA","+91-7447764128","nexasangli.sales@chowguleind.com"
"Jagrut Motors Pvt Ltd","NEXA Showroom, Ratnagiri, Ratnagiri Kolhapur Highway, Shivajinagar, Salvi Stop Ratnagiri","RATNAGIRI","MAHARASHTRA","220084","nexartn@gmail.com"
"Sai Service","2104/16 A, E WARD HOTEL OPAL BUILDING, OLD PUNE BANGALORE ROAD, KOLHAPUR-416005","KOLHAPUR","MAHARASHTRA","9168615245; 9168615262","saiklp@saiservicestation.com"
"Jayabheri Automotives","Door No.9-1-223B;CBM compound; Visakhapatnam","VISAKHAPATNAM","ANDHRA PRADESH","9100980764, 8008333556","Nexavisakhapatnam@jayabheriauto.com"
"Varun Motors","D No.11-9-61, Dasapalla Hills, Visakhapatnam 530003","VISAKHAPATNAM","ANDHRA PRADESH","0891-2733222/+91-9885428255","varunvizag.nexa@varungroup.com"
"SB Motors","SB Motors Corp NEXA Rajahmundry, D.NO : 84-1-2, Padmavathi nagar ,Besides ONGC Base Complex,NH-5 , Rajahmundry -533106","RAJAHMUNDRY","ANDHRA PRADESH","8297784119","nexa.sbmotors@gmail.com"
"Varun Motors","D No. 54-15-1/2D No. 398/5A&C, NH5 Service Road, veterinary Colony, Gunadala, Vijaywada","VIJAYAWADA","ANDHRA PRADESH","07799994679,0866-2541513","varun.bza.nexa@varungroup.com"
"Paramshiva Motors (Mithra Auto Agencies)","38-8-17, MG road, Opposite All India Radio,Vijayawada - 520010","VIJAYAWADA","ANDHRA PRADESH","0866-2484129","cheruvu64@yahoo.com"
"Jayalaxmi Automotives","JAYALAKSHMI AUTOMOTIVES PVT LTD,AUTHORISED MARUTI DEALERS,BLOCK NO-4 AUTONAGAR,PHASE-IV MANGALAGIRI ROAD,GUNTUR","GUNTUR","ANDHRA PRADESH","2261000","veeramallu.suresh@nexadealer.com"
"Novelty Reddy and Reddy","D.No: 4-1-32 in R.S No. 238/2, Thadepalligudem Road, Bhimavaram -534202","BHIMAVARAM","ANDHRA PRADESH","9133378630","reddy.bhm.gm@marutidealers.com"
"MSA Motors","MSA Motors Plot No. 1, 1A, 2, 2A, Ward No. 96 Auto Nagar, NH-44, Kurnool Pin:518003, Andhra Pradesh","KURNOOL","ANDHRA PRADESH","9133307844","msa.sm@nexadealer.com"
"Shantesha Motors","Shantesha Motors, Bauxite Road, Opp Rani Channamma Collage, Vibhav Nagar, Belgaum - 590010","BELGAUM","KARNATAKA","8884433912/ 9513601993",""
"Poddar Car World","Royal Arcade, Near Gorchuk Police Station, NH-37, Guwahati 781035","GUWAHATI","ASSAM","7086099009","nexa.guwahaticentral@gmail.com"
"PALLAVI MOTORS PVT. LTD.","KAZIRANGA TOWER, R.G.BARUAH ROAD, NEAR GUWAHATI COMMERCE COLLEGE, GUWAHATI-781021","GUWAHATI","ASSAM","9127074777/9127075777","nexachandmari@gmail.com"
"Bimal Auto Agency","OPPOSITE PANTALOONS, RUKMINIGAON, G.S. ROAD,","GUWAHATI","ASSAM","+91-8403055555 / +91-8811055555","nexa.bimal01@gmail.com"
"Rani Motors","Mawlai Nongkwar Block-13, Shillong-793017, Meghalaya","SHILLONG","Meghalaya","9366715944","nexa.rani@gmail.com"
"Lekhya Motors Private Limited","Opposite Unkal Lake, Plot no 7, Hubli- Dharwad road, HUBLI- 580031","HUBLI","KARNATAKA","9513366707","sm@nexalekhya.in"
"Revankar Motors Private Limited","Opposite Urban Oasis Mall, Gokul Road, Hubli - 580030","HUBLI","KARNATAKA","7349292948","nexarevankar.gm@gmail.com"
"Sai Service","Vasvani Marquis Eemporium,NH-17, Opp. Magsons Super Centre,Scorro, Porvorim,  Bardez Goa. 403501","GOA","GOA","7720028888 / 9834161107","nexasm.goa@saiservice.com"
"KPF PVT LTD","NEXA BALLARI , KPF PVT LTD
INFANTRY ROAD, BALLARI - 583104","BELLARY","KARNATAKA","241200, 94806 97305","nexably@gmail.com"
"Aryaman Sai","NEAR GOA MEDICAL COLLEGE, KENKRE PLAZA, OPP. CAFÉ COFFEE DAY, BAMBOLIM, GOA 403005","GOA","GOA","+91-7720093900","nexasm@saipoint.com"
"Chowgule Industries Pvt. ltd","Chowgule industries pvt ltd,  NEXA Showroom,Next to Arlem RTO, Village Raia,Arlem salcete ,Goa","GOA","GOA","832-8326688888/8379887788","nexa.goa@chowguleind.com"
"RD Motors","NH-37, A.T Road,Khutikatia , Nagaon, Assam - 782002","NAGAON","Assam","08724005141/9127806033","rdnexanagaon@gmail.com "
"RD MOTORS","N.H-37, Nikamul Satra, Tezpur - 784154 ,Sonitpur, Assam","TEZPUR","ASSAM","+91-7578012457","rdnexatezpur@gmail.com"
"Sri Durga Maruthi Automotives Pvt Ltd","17-1-266/2 Gooty Road Anantpuram, 515001","ANANTHAPUR","ANDHRA PRADESH","9100902696","nexa.durga@gmail.com"
"Jain Udyog","Kadamtalla,Rongpur-Part IV, Silchar-788009,Assam","SILCHAR","ASSAM","+91-9401545529","jain.saz.sm@marutidealers.com"
"Bhargavi Automobiles","Bhargavi automobile Pvt Ltd,103-A,wood Complex vedayapalem,Nellore,52404","NELLORE","ANDHRA PRADESH","7095393333","bhargavinexa.nlr.sales@gmail.com"
"GIG Motors","Lunlei Road,Thuampui,Opposite helipad, Mizoram- 796017","AIZAWL","MIZORAM","7005204712","aizawlnexa@gmail.com"
"Shruti Motors","Shruti Motors, Near DVS Circle, Sir M. V. Road, Shimoga . 577 201","SHIMOGA","KARNATAKA","7618778666",""
"PROGRESSIVE MOTORS","Dimapur - Kohima Road, Darogapathar, Dimapur - 799712","DIMAPUR","NAGALAND","+91-7628838888","sales@nexaprogressive.com"
"ANAMIKA MOTORS","A.T Road, Pulibor, Jorhat, Assam, Pin-785006","JORHAT","ASSAM","7086050191","anamikanexa@gmail.com"
"Bhargavi Automobiles","Bhargavi Automobiles Pvt. Ltd, 11/56-1, Renigunta Road, Tirupati - 517501","TIRUPATI","ANDHRA PRADESH","7730894444",""
"Saketh Automobiles","Sira Road, Tumkur","TUMKUR","KARNATAKA","816-2255118, 2255119",""
"Eastern Motors","Chingmeirong West Imphal West, Manipur – 795001","IMPHAL","MANIPUR","+91-6909157487, +91-6909157482","eastern.imh.smnexasales@marutidealers.com"
"Abharan Motors Pvt Ltd","Survey No.84-1A3, Door No.8-3-26, Shivalli Village, Kadiyali, Udupi-576102","UDUPI","KARNATAKA","9972925333/0820-2520988","sm.udupi@nexadealer.com"
"Mandovi Motors Pvt. Ltd.","33/2, Allalasandra Gate, Yelahanka Main Road, Bangalore - 560065","BANGALORE","KARNATAKA","9916805500","salesyelahanka.nexa@mandovi.in"
"VARUN MOTORS PVT LTD","No.37/56,Outer Ring Road,Nagawara Village,Hebbal,Bangalore-560024","BANGALORE","KARNATAKA","9513838777","nexasm.hbl@varungroup.com"
"Kalyani Motors","#152/7, OUTER RING ROAD,DODDABANASWADI,NEAR HORAMAVU SIGNAL,BANGALORE-560043","BANGALORE","KARNATAKA","9590990011","dgm.nexa@kalyanimotors.com"
"GARUDA AUTOCRAFT PVT LTD","152/7 OUTER RING ROAD,DODDABANASWADI,NEAR HORAMAVU SIGNAL,BANGALORE-560043","BANGALORE","KARNATAKA","7026566888","gm@garudanexa.com"
"Mandovi Motors","New Municipal No. 6,Old No: 214, Upper Palace Orchards, Sadashivnagar, Bellary Road, Bangalore 560080","BANGALORE","KARNATAKA","9880912425","palacenexa@mandovi.in"
"VARUN MOTORS PVT LTD","NEXT TO BIG BAZAAR, CHORD ROAD, RAJAJI NAGAR","BANGALORE","KARNATAKA","9885166644","varun.blr.ceo1@marutidealers.com"
"Bimal Auto Agency","No 62,Doddanekkundi,Opp EMC,Outer Ring Road,Bangalore 560037","BANGALORE","KARNATAKA","9066199461","sales@bimalnexa.com"
"Bimal Auto Agency","No.4, 3rd Block, 2nd Stage, Nagarbhavi Outer Ring Road, Bangalore, Pin- 560072, Karnataka","BANGALORE","KARNATAKA","9066199461","nbvsales@bimalnexa.com"
"Pratham Motors","No. 15, Museum road, St. Marks circle, Richmond Town Opp. SBI Gate No 2 & 3, Bangalore 560001","BANGALORE","KARNATAKA","080-40945858;9880006006","info@nexabangalore.com"
"Kalyani Motors","Kalyani Motors, #17/2, 12th KM, Opposite to Bangalore University Metro Station, Mysore Road, Bangalore – 560039","BANGALORE","KARNATAKA","80-26258999","gm.nexa2@kalyanimotors.com"
"KATARIA AUTOMOBILES PRIVATE LIMITED","NO1 , HOSUR MAIN ROAD, KIRA LAYOUT, NEAR FORUM MALL, SUDDAGUNTE PALYA, BENGALURU, KARNATAKA- 560029","BANGALORE","KARNATAKA","46681111","divya@kataria.co.in"
"Pratham Motors","NEXA Sarjapur Road, No. 120, Sarjapur Main Rd, Near Indian Oil Petrol Pump, Carmelaram, Doddakannelli, Bangalore-560035","BANGALORE","KARNATAKA","9008455550","experience@nexabangalore.com"
"Kalyani Motors","JP Nagar,15th Cross,5th Phase,JP Nagar,Bangalore 560078","BANGALORE","KARNATAKA","9845477722","dgm.nexa@kalyanimotors.com"
"Khivraj Motors","Plot No.85, FB-4, South Avenue Road, SIDCO Industrial Complex, Ambattur, Chennai 600058","CHENNAI","TAMIL NADU","9043041133","salesmanager@khivrajnexa.com"
"SURAKSHAA CAR CARE PVT LTD","201/2  BERATENA AGRAHARA  HOSUR MAIN ROAD ELECTRONIC CITY POST 560100","BANGALORE","KARNATAKA","080-25732229 / 8884442229","nexasales@surakshaa.in"
"Vishal Car World","Mohpualimora Gohain Gaon, A.T. Road, Dist: Dibrugarh, Assam","DIBRUGARH","ASSAM","+91-8100600004/8100500004","admin.manager@vishalnexa.com"
"Rajalakshmi Cars Pvt Ltd","Rajalakshmi Cars Pvt Ltd, New No.88/Old No.J-18, Plot No.3636, J Block, 3rd Avenue, Anna Nagar East, Chennai - 600102","CHENNAI","TAMIL NADU","9884450000","kiran@rajalakshmicars.com"
"Ganesh Cars","NEXA Perumugai, No.96/6, NH-46, Chennai-Bangalore Highway, Perumugai, Vellore - 632009","VELLORE","TAMIL NADU","9585558929","nexavellore@gmail.com"
"Vishnu Cars Pvt Ltd","Vishnu Cars Pvt Ltd, Plot No.219, Next to HP petrol Pump, Kumanchavadi, Katupakkam, Poonamallee High Road, Chennai - 600056","CHENNAI","TAMIL NADU","7339333703","gmsales@vishnunexa.in"
"Popular Vehicles & Services","Plot No.93/1/2/3, Popular Vehicles & Services, NSK Salai, Arcot Road, Virugambakkam, Chennai - 600092","CHENNAI","Tamil Nadu","8939014444","nnm.sln.sm@popularv.com"
"Popular Vehicles & Services","New No 15, Old No 9, 2nd Street Extension, 3rd Main Road, CIT Nagar, Near Buhari Hotel, Nandanam, Chennai","CHENNAI","TAMIL NADU","9282405816","nexachennai@popularv.com"
"ABT LIMITED","123, Velacherry Main Road, Guindy, Chennai - 600 032","CHENNAI","TAMIL NADU","6384497767","smchennai@abtnexa.com"
"Mandovi Motors","SUMMIT APARTMENT BUILDING, AIRPORT ROAD, MARY HILL, Mangalore","MANGALORE","KARNATAKA","9686502123","nexa@mandovi.net"
"Bharath Autocars","Bharat Bagh, Kadri Road, Mangalore  575003","MANGALORE","KARNATAKA","9538543030","nexa@bharathauto.co.in"
"Vishnu Cars Pvt Ltd","#171 & 173, GST Road, Opp. Vetri Theatre, Chromepet, Chennai - 600044","CHENNAI","TAMIL NADU","7339333703","sales@vishnunexa.in"
"Sri Amman Cars India Pvt Ltd","Sri Amman Cars India Pvt Ltd, NH7, Opposite Anand Electronics, Beside MS Complex, Seetharamamedu, Hosur - 635109","HOSUR","TAMIL NADU","7639779999","nexa.amman@gmail.com"
"Pillai & Sons","74, Old Mahabalipuram Road, Rajiv Gandhi Salai, Perungudi (Next to Perungudi Toll Gate), Chennai 600096","CHENNAI","TAMIL NADU","9789045000","nexachennai@gmail.com"
"Indus Motor Company Pvt Ltd","Indiranagar, Chengala P.O, Kasaragod,Kerala-671541","KASARAGOD","KERALA","9656406789","nexakgd@indusnexa.com"
"MANDOVI MOTORS PRIVATE LIMITED","# 2268,D29, Vinoba road, Jayalakshmipuram, Mysore - 570012","MYSORE","KARNATAKA","9148973098","sales.nexamys@mandovi.in"
"Friendly Motors (India) Pvt Ltd","No.580, New CH-44, Vanivilasa Road, Chamaraja Mohalla, Mysuru - 570004","MYSORE","KARNATAKA","+91-9606480468","friendly.nexa@friendlymotors.in"
"KVR AutoMall Pvt. Ltd","KVR Auto Mall Pvt. Ltd. Near Koyili Hospital, Talap, Kannur - 670004","KANNUR","KERALA","+91-7561040000","nexa@kvrautogroup.com"
"Shenbaka Cars Pvt Ltd","No.201, Villianur Main Road, Moolakulam, Pondicherry- 605010","PONDICHERRY","PONDICHERRY","8220099992","sales.nexa@shenbakacars.com"
"Indus Motors Pvt Ltd","Indus Motor Company Pvt Lt)dTC Road, Pallithazhe, Chirakkara Thalassery- Kerala Pin: 670104","THALASSERY","KERALA","9747593456","tlysr@indusnexa.com"
"Thriveni Car Company Pvt Ltd","Thriveni NEXA, Meyyanur Main Road, Five Roads, Salem - 636004","SALEM","TAMIL NADU","9943317599","ceo@thriveninexa.com"
"S M CAR Pvt Ltd","SF:131/1A, Bye pass Road, Near Indian Oil Association Petrol Bunk, Kondalampatty, Salem-636010","SALEM","TAMIL NADU","7094471234","info.smcar-nexa@jailaxmigroup.com"
"Vishnu Cars Pvt Ltd","Plot No. 63-F, Arun Nagar Layout, Ward No. 3, Block No. 16, Sellankuppam, Cuddalore Town  - 607003","Cuddalore","TAMIL NADU","9677129422","gmsales@vishnunexa.in"
"AMBAL AUTO","No. 305/2, Veerapan Chathiram Panjayat, Perundurai Road, Erode-638009, Tamil Nadu","ERODE","TAMIL NADU","9787149000",""
"AM Motors","Opp. BEM UP School, Puthiyangadi Post, Calicut 673021","KOZHIKODE","KERALA","+91-9745822222","nexa@ammotors.in"
"Popular Vehicles & Services","Jaya Arcade, Malaparamba, Thondayad Byepass Calicut 17","KOZHIKODE","KERALA","8086072525","nexa@popularv.com"
"Shashti Car Pvt Ltd","Shashti Car Pvt Ltd, 16, A5, Shree Padminine Gardens, Kangeyam Road, Tiruppur 641604","TIRUPUR","TAMIL NADU","91-7373723603","nexasales@sreshashticars.com"
"ABT LIMITED","SF No.103/1, Sathy Road, Ramakrishnaouram, Ganapathy, Coimbatore - 641006","COIMBATORE","TAMIL NADU","9626634444","bhcbe@abtnexa.com"
"AM Motors","Konompara, Melmuri Post, Malappuram - 676517","MALAPPURAM","KERALA","+91-9072000755","nexamalappuram@ammotors.in"
"Aadhi Cars","1141, Mettupalayam Road, Old Muthu Theatre, Coimbatore  641034","COIMBATORE","TAMIL NADU","7708100200","nexa@aadhimaruti.com"
"Ambal Auto","480/761, Avinashi Rd, Near Suguna Mandapam, Peelamedu, Coimbatore 641004","COIMBATORE","TAMIL NADU","422-6996999","enquiry.nexa@ambalauto.com"
"JAIKRISHNAA AUTOSALES PVT.LTD","656, Trichy Road ,Coimbatore -641005","COIMBATORE","TAMIL NADU","9750917979, 
9047611000","bh@jaikrishnaamaruti.com
sasi@jaikrishnaamaruti.com"
"KVR AutoMall Pvt. Ltd","Survey no : 85/5,6 , Palakkad – Calicut Highway , Angadippuram (PO) ,Malappuram Dt , Kerala, PIN:679321 ","PERINTHALMANA","KERALA","+91-7909220000","nexapmna@kvrautogroup.com"
"Indus Motors Pvt Ltd","Orchid Mall,Calicut Bypass Road,Sekaripuram,Palakkad-678010","PALAKKAD","KERALA","9744688888","nexapkd@indusnexa.com"
"Pillai & Sons","T.S.NO. 9/22A, KARUR BYEPASS ROAD, TRICHY- 620018","TRICHY","TAMIL NADU","8489900306","nexatrichy@pillaimotors.in"
"PLA Motors","TS NO. 29-31 ANNA NAGAR, MAIN ROAD ( NEAR ULAVAR SANTHAI), TENNUR, TRICHY -17","TRICHY","TAMIL NADU","7010920077","planexatrichy@gmail.com"
"Pillai & Sons Motor Company","Pillai & Sons Motor Company, 237/1C, Near New Bus Stand, Vallam Road, Thanjavur - 613005","THANJAVUR","TAMIL NADU","9655467676","gm.nexa.tnj@pillaimotors.in"
"BRD Car World Ltd.","T.K.M. Complex, Kokkalai, Thrissur 680021 ","THRISSUR","KERALA","+91-9072455555","nexa@brdcarworld.com"
"Popular Vehicles & Services","18/250-B Mannuthy Byepass, Marathakkara Signal Junction, Marathakkara,Thrissur 680306","THRISSUR","KERALA","9072530023","rajesh.sivan@popularv.com"
"Indus Motors Pvt Ltd","NH 47, Thykattukara P.O. Thaikavu, Muttom, Kalamassery, Cochin - 688586","COCHIN","KERALA","9744688888","nexachn@indusnexa.com"
"Sai Service","NH-47 Pathadipalam, Edapally P.O. , Cochin","COCHIN","KERALA","+91-9645106105","nexacochin@saiservicestation.com"
"Popular Vehicles & Services","32/633 D, Opp. Ernakulam Medical Centre Hospital, NH 47 Byepass, Palarivattom Cochin 682025","COCHIN","KERALA","9846498641","nexapalarivattom@popularv.com"
"Indus Motors Pvt Ltd","NH 49,sangamam jn.,Kadathy, Muvattupuzha.,Ernakulam dst. Kerala,Pin. 686673.","MUVATTUPUZHA","KERALA","9744688888","mvpnexa@indusnexa.com"
"Siva Automotive Trading (P) Ltd.","Door No: 89/102, Theni Main Road, Kalavasal, Madurai - 625016","MADURAI","TAMIL NADU","9585188888","sales@sivanexa.com"
"ASIR AUTOMOBILES","80 Feet Road, Next to Milanem Mall, KK Nagar, Madurai - 625020","MADURAI","TAMIL NADU","8012551220","ales.mdu@asirnexa.com"
"AVG Motors Ltd.","MC Road, Kodimatha, Nattakom P.O., Kottayam - 686013","KOTTAYAM","KERALA","+91-9048190481","nexa@avggroup.net"
"Hercules Hospitalities Pvt Ltd","XIV/51, 51A Vadakkal P.O. Punnapra Panchayat, Alleppey - 688003","ALLEPEY","KERALA","+91-9072401111","info.alpy@hercules-nexa.com"
"AVG Motors Ltd.","AVG Motors Ltd, Ezhinjillam,Perumthuruthy P.O, Thiruvalla,Pin : 689107,Kerala","THIRUVALLA","KERALA","9048290482","nexathiruvalla@avggroup.net"
"Sarathy Cars Pvt Ltd","Palimukku PO ,Kollam","KOLLAM","KERALA","+91-9947719965","nexa@sarathygroup.com"
"ASIR AUTOMOBILES","DSF Grand Plaza, No.:379/1, 2 VE Road, Tuticorin - 628002","TUTICORIN","TAMIL NADU","9597111220","praveen@asirmaruti.com"
"Aadhi Cars Pvt Ltd","Aadhi Cars Pvt Ltd, 3A/A2, Survey No 140/1B3, 140/2B, South Byepass Road, Vannarapettai, Tirunelveli - 627002","TIRUNELVELI","TAMIL NADU","7397100200","nexa.tnv@aadhimaruti.com"
"Indus Motors Pvt Ltd","SFS pyramid ,Near MGM School, Thampuran Mukku,NH Bypass,Karmanal PO,Trivandrum-695583","TRIVANDRUM","KERALA","9744688888","nexatvm@indusnexa.com"
"Srivatsa International Pvt. Ltd","TC-86/1431 (1), Enchakkal Chackai, NH Bypass, Chackai, Trivandrum - 695024","TRIVANDRUM","KERALA","+91-9207019991","nexa@srivatsamaruti.com"
