"Dealer Name","Address","City","State","Pincode","Contact","Email"
"GENNEXT MOTORS(ANDAMANS) PVT LTD","ROOM NO 14, ATUL SMRITI SAMITY COMPLEX (BENGALI CLUB), MIDDLE POINT, SHADIPUR JUNCTION","Port Blair","Andaman","744101","03192 - 239889","sagar.khurana@hotmail.com"
"RITHVIKAA CARS PVT LTD","SY NO 159/3, NH-7, BYE PASS ROAD, OPP SAKSHI PUBLICATIONS, KAKKALA PALLI, MARUTHINAGAR","Anantapur","Andhra Pradesh","515004","8096955774","admin@rithvikaagroup.com"
"JASPER INDUSTRIES PVT LTD-3008530","R K COMPLEX, UNDI ROAD","Bhimavaram","Andhra Pradesh","534202","08816-224421/251113","vjwjilcars@sancharnet.in;suresh.r@jasperindustries.com"
"VIJAYABHARATHI AUTOMOBILES PRIVATE LIMITED","OPP: YAMAHA SHOWROOM, NEAR SAIBABA TEMPLE, KATTAMANCHI","Chittoor","Andhra Pradesh","","7680073805","vbapvtltd@gmail.com"
"JASPER INDUSTRIES PVT LTD-3008530","DOOR NO. 22â€“D-3-4 CANAL ROAD, NEAR COSMOPOLITON CLUB, RK PURAM","Eluru","Andhra Pradesh","534001","08812-241949","jilelpcd@jasperindustries.com;suresh.r@jasperindustries.com"
"JASPER INDUSTRIES PVT LIMITED-3008520","SURVEY NO.179, PLOT NO.4, BLOCK NO.6, PHASE IV, AUTO NAGAR, PEDAKAKANI","Guntur","Andhra Pradesh","522509","0863-2266112","kanak@jasperindustries.com"
"HAROON CARS PVT LTD","D. NO 3/168-5-8, CHINNA CHOWK","Kadapa","Andhra Pradesh","516002","7995019686","mujeeb5552@gmail.com"
"HAROON CARS PVT LTD","96/3/35/261, NH-7, OPP TGV PETROL BUNK","Kurnool","Andhra Pradesh","518006","9666635410","arshad.basha@gmail.com"
"VIJAYABHARATHI AUTOMOBILES PRIVATE LIMITED","D.NO:10/46, SADASIVA NAGAR, OLD R.T.O OFFICE, PUNGUNOOR ROAD, BASINIKONDA","Madanapalle","Andhra Pradesh","","7680073806","vijayabharathi.rsm@gmail.com"
"HAROON CARS PVT LTD","OPP. ITC TOBACO COMPANY, BESIDE RAPHA HOSPITAL, BOMMALASATRAM ROAD","Nandyal","Andhra Pradesh","518501","7995019669","harooncars.ndl@gmail.com"
"VIJAYABHARATHI AUTOMOBILES PRIVATE LIMITED","SURVEY NO. 252/2A 3A 253/3A, THANAPALLI ROAD, NEAR MARKET YARD","Tirupati","Andhra Pradesh","517503","9866196669","vbapvtltd@gmail.com"
"JASPER INDUSTRIES PVT LTD-3008530","D. NO 54-15-5, NH-5, SRINIVASA NAGAR, BANK COLONY","Vijayawada","Andhra Pradesh","520008","0866-2544436","kanak@jasperindustries.com"
"SIVA SANKAR MOTORS PVT LTD","43-9-141, T S N COLONY, NU","Vishakhapatnam","Andhra Pradesh","530016","0891 - 6469101-104","ceo@sivasankarmotors.org"
"SIVA SANKAR MOTORS PVT LTD","NCS CINEMA THEATRE ROAD, OPP ICICI BANK","Vizianagaram","Andhra Pradesh","535001","08922 279918","salesmanager@sivasankarmotors.org"
"AAB TARA MOTORS","NH-52A, LEKHI VILLAGE, NIRJULI","Itanagar","Arunachal Pradesh","791109","9436800766","aabtara_tatamotors@rediffmail.com"
"AAB TARA MOTORS","2 MILE, OPP. ESSAR PETROL PUMP","Pasighat","Arunachal Pradesh","791102","9862258618","aabtaramotors.psg@gmail.com"
"ASHUTOSH  MOTORS & ALLIED BUSINESS PVT LTD","NH-15, KALYANPUR","Biswanath Chariali (tc)","Assam","784176","9435061467","dg.amabpl@gmail.com"
"PRAGATI TRADING COMPANY LTD","NH-37, A T ROAD","Bokakhat","Assam","785612","8486480185","pragatimotors_jrt@rediffmail.com"
"BHAGYASHREE MOTORS PVT LTD","NORTH BONGAIGAON, CHAPAGURI ROAD, OPP DC'S RESIDENCE","Bongaigaon","Assam","783380","7399050214","bhagyashreemotorspvtltd@gmail.com"
"HEMAVI MOTORS PVT. LTD.","NALANIPAM, P.O. DHEMAJI","Dhemaji","Assam","787057","9435186920","hemavimotors@gmail.com"
"SUBHANGSHU MOTORS (A UNIT OF J.D. VENTURES PVT. LTD.)","JHAPARA GAON, NH-37, P.O. MOHANAGHAT","Dibrugarh","Assam","786008","7035727570","jdmotors.dbr@gmail.com"
"SUBHANGSHU MOTORS (A UNIT OF J.D. VENTURES PVT. LTD.)","KAMLABARI ROAD, P.O. DULIAJAN, P.S. DULIAJAN","Duliajan No.1","Assam","786602","9435003095","subhangshumotors@gmail.com"
"MARWET PETROLEUM AGENCY","D.N. TOWER, BASISTHA CHARIALI, N.H.-37, OPP. MEGHA PLAZA","Guwahati","Assam","781029","8011003650","bimal.cars@gmail.com"
"UTKARSH MOTOTECH PVT LTD","SWASTIK AYODHYA COMPLEX, KAMAKHYA GATE, AT ROAD","Guwahati","Assam","781009","7578000456","rohitmalhotra.ghy@gmail.com"
"ASHUTOSH  MOTORS & ALLIED BUSINESS PVT LTD","RAMKRISHNA MISSION ROAD (BORAH MARKET)","Hojai","Assam","782435","9435061467","sales@ashutoshmotors.com"
"PRAGATI TRADING COMPANY LTD","A T ROAD, PULIBOR, NU","Jorhat","Assam","785006","0376 - 2371800 / 01 /  02","pragatimotors_jrt@rediffmail.com"
"HIGHWAY WHEELS","VILL-BHATGRAM, P.O.SILCHAR ROAD, SARISHA","Karimganj","Assam","788713","9435046829","highwaywheels.silchar@gmail.com"
"UTKARSH MOTOTECH PVT LTD","PUNIA NH-52, NEAR PODDAR CAR WORLD","Mangaldoi","Assam","784529","8134923939","upensarmah@gmail.com"
"ASHUTOSH  MOTORS & ALLIED BUSINESS PVT LTD","BIROH BEBEJIA, NEAR NHPC GODOWN, SENSOWA","Nagaon","Assam","782002","3672258368","ashutoshmotors1@gmail.com"
"BHAGYASHREE MOTORS PVT LTD","DHAMDHAMA ROAD, NH31, NEAR GANESH MANDIR","Nalbari","Assam","781337","03624 - 224442","bhagyashreemotorspvtltd@gmail.com"
"HEMAVI MOTORS PVT. LTD.","WARD NO- 3, P.O.& P.S. NARAYANPUR","Narayanpur","Assam","784164","7002188377","hemavisubansiri.nrp@gmail.com"
"HEMAVI MOTORS PVT. LTD.","NH-15, HATILUNG","North Lakhimpur","Assam","787031","9435186920","hemavimotors@gmail.com"
"HIGHWAY WHEELS","NH 54, RAMNAGAR, NEAR RAMKRISHNA FILLING STATION","Silchar","Assam","788003","8638060650","highwaywheels.silchar@gmail.com"
"ASHUTOSH  MOTORS & ALLIED BUSINESS PVT LTD","UDMARI BORJHAR GAON, P.O- DEKARGAON, MOUZA-HOLESWAR, P.S-TEZPUR, NEAR HOLESWER MANDIR, NEAR SALNIBARI AIRFORCE STATION","Tezpur","Assam","784104","3672280005","sales@ashutoshmotors.com"
"DHANSRI AUTO VENTURES PVT LTD","OPP. NEW TINSUKIA RAILWAY STATION, HIJUGURI, A.T. ROAD","Tinsukia","Assam","786125","0374-2333397","admin@dhansri.com"
"SHANKAR MOTORS PVT LTD - 3003240","SH 63, SISAUNA","Araria","Bihar","854311","6207925648","smplpurnea@gmail.com"
"ANANYA AUTO AGENCY PVT LTD","NEW POLICE LINE, OPPOSITE IDBI BANK, CHANDWA","Arrah","Bihar","802301","7033093130","ananyaautoagency@gmail.com"
"KUSUMNATH AUTOMOBILES PVT LTD","NH-139, AHIYAPUR","Arwal","Bihar","804401","6205919275","gmsales@magadhmotors.com"
"OMKAR MOTORS PVT LTD-3004881","S/O-RANA PRATAP SINGH, RAMRAJYA NAGAR,KARMA ROAD,AURANGABAD","Aurangabad","Bihar","824101","8406003406","omkarmotorspvtltd@yahoo.in"
"SHANKAR MOTORS PVT LTD - 3001590","NEAR DEOGHAR BUS STAND, AT. KATORIA ROAD","Banka","Bihar","","7766909150","ranjiv.roy2025@gmail.com"
"GANGA VEHICLES PVT LTD","RAMJANPUR","Begusarai","Bihar","851129","8102097296 / 9955861934","gvpltd@gmail.com"
"NITIRAJ MOTORS PVT.LTD.","NH- 28B, MANSA TOLA, OPP. MUFFASSIL PS","Bettiah","Bihar","845450","7766909664","praveen.kumar@nitirajmotors.com"
"ANANYA AUTO AGENCY PVT LTD","17 NO. CHOWK, NH 80, BAKHTIYARPUR ROAD","Biharsharif","Bihar","803118","9771443154","ananyaautoagency@gmail.com"
"ANANYA AUTO AGENCY PVT LTD","NEAR BABA DHARAMKANTA, OPPOSITE CANARA BANK, GOLAMBAR","Buxar","Bihar","802101","9771443154","ananyaautoagency@gmail.com"
"OMKAR MOTORS PVT LTD-3004881","BHAKHAURAN MORE, SATBIGAHAWA, AURANGABAD ROAD","Daudnagar","Bihar","824143","8406003401","vermar2001@yahoo.com"
"SHANKAR MOTORS PVT LTD - 3003240","NEAR HERO SHOWROOM, RANIGANJ ROAD, RAMPUR CHOWK","Forbesganj","Bihar","854318","9771497939","sudershan.jha1984@gmail.com"
"KUSUMNATH AUTOMOBILES PVT LTD","NH:- 83, GAYA BODHGAYA ROAD","Gaya","Bihar","823004","9608307499","magadhmotorsgaya@gmail.com"
"SHANKAR MOTORS PVT LTD - 3001590","NEAR  ENGG COLLEGE, SABOUR ROAD","Gohario","Bihar","812006","0641 - 2452467 / 468","mkhmh@mauryamotors.in"
"URMILA AUTOMOBILES PVT LTD","BHOJPURWA, POST-GOPALGANJ, PS-MAJHAGARH","Gopalganj","Bihar","841428","7561924414","ceo.urmilaauto@gmail.com"
"SHANKAR MOTORS PVT LTD - 3001590","PREET TRACTOR, MANGLAM ENTERPRISE","Jamui","Bihar","811307","7004499488","shankarmotors.bhagalpur@gmail.com"
"KUSUMNATH AUTOMOBILES PVT LTD","AT-KANOUDI, GAYA PATNA ROAD, NEAR RELIANCE PETROL PUMP","Jehanabad","Bihar","804417","6205919275","gmsales@magadhmotors.com"
"SHANKAR MOTORS PVT LTD - 3003240","SHIVPURI, B.M.P. CAMP, KATIHAR PURNEA ROAD","Katihar","Bihar","854106","","mkhmh@mauryamotors.in"
"SHANKAR MOTORS PVT LTD - 3003240","RAMPUR, NEAR MAHINDRA SHOWROOM, POST- KISHANGANJ, NH31","Kishanganj","Bihar","855107","9234667200","ashishmuvdsm@yahoo.com"
"NITIRAJ MOTORS PVT.LTD.","NH-28 BETTIAH ROAD, NEAR CHHATAUNI CHOWK","Motihari","Bihar","845401","9263639001 / 9263639031","nitiraj.service@gmail.com"
"YASHRAJ MOTORS PVT LTD","BIBI GANJ, NH-28","Muzaffarpur","Bihar","842001","9263638201 / 9263638215","yashraj.motors@yahoo.co.in"
"KUSUMNATH AUTOMOBILES PVT LTD","AT-NH-31, NAHARPAR, SHAHPUR, PATNA RANCHI ROAD","Nawada","Bihar","805123","6205919276","gmsales@magadhmotors.com"
"GUINEA MOTORS (P) LTD.","""ANAND VIHAR"", WEST BORING CANAL ROAD","Patna","Bihar","800013","0612 - 2230982 / 2275689 / 2275195","guineamotors27@gmail.com"
"ANANYA AUTO AGENCY PVT LTD","DANAPUR KHAGUAL ROAD, NEAR GAYATRI HOSPITAL AND SSB CAMP","Patna","Bihar","801503","7480878551","ananyaautoagency@gmail.com"
"ANANYA AUTO AGENCY PVT LTD","KUMHRAR KANKARBAGH MAIN ROAD, OPP INDIAN OIL PETROL PUMP, KUMHARAR","Patna","Bihar","800020","9297877409","ananyaautoagency@gmail.com"
"SHANKAR MOTORS PVT LTD - 3003240","DAMKA, KISHANGANJ ROAD, GULABBAGH, NATIONAL HIGHWAY-31","Purnia","Bihar","854326","06454 - 234688 / 232144 / 9234667200","ashishmuvdsm@yahoo.com"
"NITIRAJ MOTORS PVT.LTD.","NH 28A, LAXMIPUR, NEAR BHARAT PETROL PUMP","Raxaul Bazar","Bihar","845305","9122331318","basantvats1@gmail.com"
"SHANKAR MOTORS PVT LTD - 3003240","AT TIWARI TOLA, NH 107, NEAR TIWARI TRANSPORT","Saharsa","Bihar","852201","7066909086","smplsaharsa@gmail.com"
"OMKAR MOTORS PVT LTD-3004881","OPP. MALWAR GATE, NEAR TOLL TAX, G.T. ROAD, PS-SHIVSAGAR","Sasaram","Bihar","821115","06184 - 221285","vermar2001@yahoo.com"
"YASHRAJ MOTORS PVT LTD","BARIYARPUR CHOWK, BYPASS ROAD","Sitamarhi","Bihar","843302","9570463333","diwakar.singh29@gmai.com"
"URMILA AUTOMOBILES PVT LTD","VILL -  JASAULI, NH-85, PS - PACHRUKHI","Siwan","Bihar","841226","7561924414","ceo.urmilaauto@gmail.com"
"SHANKAR MOTORS PVT LTD - 3003240","NEAR BUS STAND, PIPRA ROAD, WARD NUMBER 7","Supaul","Bihar","852131","7766909172","smpl.supaul@gmail.com"
"RSA MOTORS PVT. LTD.","PLOT NO 40, INDUSTRIAL AREA, PHASE II","Chandigarh","Chandigarh","160002","7710666606","sm2.sales@berkeleyindia.com"
"RSA MOTORS PVT. LTD.","PLOT NO.5, INDUSTRIAL AREA, PHASE I","Chandigarh","Chandigarh","160002","0172 - 5033333 / 9914110606","gmsales.tata@berkeleyindia.com"
"SUNIL VEHICLES PVT LTD","M.G. ROAD, OPPOSITE DEEPAK ENGINEERING WORKS","Ambikapur","Chhattisgarh","497001","8000400048","sunilautocars@outlook.com"
"SUNIL VEHICLES PVT LTD","MANENDRAGARH ROAD","Baikunthpur","Chhattisgarh","497335","8000400048","sales.sunilautocars@outlook.com"
"SAIRAM AUTOMOBILES & SERVICES PVT LTD","JHALMALA ROAD, SHIVNI","Balod","Chhattisgarh","491226","8463820000","sales.sairamautomobiles@gmail.com"
"BHASIN VENTURES PVT LTD","NEAR LAWAN BYPASS, LAWAN ROAD, VILLAGE - BAMANMUDI","Baloda Bazar","Chhattisgarh","493332","9229330903","sales@bhasinmotors.com"
"SUNIL VEHICLES PVT LTD","IN FRONT OF GOVT. GUEST HOUSE, RAMANUJGANJ ROAD","Balrampur","Chhattisgarh","497119","8000400048","sales.sunilautocars@outlook.com"
"SAIRAM AUTOMOBILES & SERVICES PVT LTD","G.E. ROAD , KRISHNA NAGAR, SUPELA","Bhilai","Chhattisgarh","490023","0788 - 6647006 / 9630304267 / 9826428511","sairam_automobiles@yahoo.com"
"J D AUTONATION","BILASPUR   ROAD,. ,  KIRATPURSAHIB, BILASPUR ROAD, KIRATPUR SAHIB","Bilaspur","Chhattisgarh","495001","07752 - 430804","manish@jdautonation.com"
"JAGDALPUR MOTORS (P) LTD","OPP. RTO OFFICE","Dantewada","Chhattisgarh","494449","7773088855","madhu78rao@gmail.com"
"JAGDALPUR MOTORS (P) LTD","PANDRIPANI, GEEDAM ROAD, NH-16","Jagdalpur","Chhattisgarh","494001","07782 - 225261","tatajagdalpur@rediffmail.com"
"NATIONAL GARAGE-3008650","TIKRAPARA, MAIN ROAD, IN FRONT OF ST. MICHEALS SCHOOL","Kanker","Chhattisgarh","494334","9826428521","shank31@hotmail.com"
"SAIRAM AUTOMOBILES & SERVICES PVT LTD","VILLAGE - JORATAL, BILASPUR ROAD, NEAR NEW POLICE LINE","Kawardha","Chhattisgarh","491995","8889977445","sales.sairamautomobiles@gmail.com"
"JAGDALPUR MOTORS (P) LTD","MARKAM COMPLEX, MAIN ROAD","Kondagaon","Chhattisgarh","494226","7773088855","tatajagdalpur@rediffmail.com"
"SHIVAM AUTOMOTIVE","C-13 NIHARIKA, NEAR PETROL PUMP","Korba","Chhattisgarh","495677","07759-245041/43","ssm.baapl@gmail.com"
"BHASIN VENTURES PVT LTD","NR. TRIMURTY COLONY, RAIPUR ROAD","Mahasamund","Chhattisgarh","493445","9229330903","sales@bhasinmotors.com"
"SUNIL VEHICLES PVT LTD","JHAGRAKHAND ROAD, INFRONT OF KHAN NURSING HOME","Manendragarh","Chhattisgarh","497442","8000400048","sales.sunilautocars@outlook.com"
"J D AUTONATION","NEAR GOVIND FUELS, BESIDES HARSH MOTORS (BAJAJ SHOWROOM), BILASPUR ROAD","Mungeli","Chhattisgarh","495334","9826112131","mungeli@jdautonation.com"
"J D AUTONATION","CHAMPA ROAD, IN FRONT OF HOTEL DREAM POINT","Naila-janjgir","Chhattisgarh","495668","9522204410","gmsales@jdautonation.com"
"SHIVAM AUTOMOTIVE","BHAGWANPUR, JINDAL ROAD","Raigarh","Chhattisgarh","496001","9109179555","rasailysuraj@gmail.com"
"BHASIN VENTURES PVT LTD","NH-6, NEAR CHOKRA NALA, OPP. M.S. PETROL PUMP, P.O. RAVIGRAM, LABHANDI, TELIBANDHA","Raipur","Chhattisgarh","492006","0771 - 4224501 - 598 / 2444891 - 893","info.bhasinventures@gmail.com"
"NATIONAL GARAGE-3008650","OPP. DHUPPAD PETROL PUMP, G.E. ROAD","Raipur","Chhattisgarh","492001","0771 - 4083300","ng_raipur@yahoo.com"
"BHASIN VENTURES PVT LTD","NEAR GAYATRI MANDIR, MAIN ROAD","Saraipali","Chhattisgarh","493558","9329657180 / 9425157180","info.bhasinventures@gmail.com"
"SIKKA LOCOMOTIVES PVT. LTD.","B 72/4 WAZIRPUR INDUSTRIAL AREA","Delhi","Delhi","110052","9810906222","vpsales@hemkundtata.com"
"AUTOVIKAS SALES & SERVICE PVT. LTD.","K-1, MATIALA ROAD, RAJAPURI, DWARKA, OPP. SEC-5","Delhi","Delhi","110075","011 - 45303000","deepak.saini@autovikas.com"
"AUTOVIKAS SALES & SERVICE PVT. LTD.","26/3-4, NAJAFGARH ROAD, INDUSTRIAL AREA, SHIVAJI MARG","Delhi","Delhi","110015","011 - 49050505","deepak.saini@autovikas.com"
"GO AUTO PVT. LTD.","D-189, OKHLA PHASE I, NEAR HOTEL CROWN PLAZA","Delhi","Delhi","110020","011-48422200 / 9015444444","gmsales@goauto.in"
"SPARSH AUTOTECH PVT. LTD.","RZ A- 70, GARG PLAZA, DABRI - PALAM ROAD, DWARKA","Delhi","Delhi","110043","9319198300","gmsales.tata@sparsh.co"
"ANR AUTOMOBILES PVT LTD","3535, NETAJI SUBHASH MARG, KALAN MAHAL, DARIYA GANJ","Delhi","Delhi","110002","011 - 49104910","sales@aryamotors.in"
"SPARSH AUTOTECH PVT. LTD.","PLOT NO. 8-9-10-11, MASOODABAD, MAIN NAJAFGARH ROAD, NEAR SAI BABA MANDIR","Delhi","Delhi","110043","9319198300-01-02","sales.tata.njf@sparsh.co"
"TRUENORTH AUTOMOBILES PVT LTD","A1/1, MAYAPURI INDUSTRIAL AREA, PHASE 1","Delhi","Delhi","110064","8800693630","gm.sales@truenorthautos.com"
"MALWA AUTOMOBILES PVT. LTD.","A-1/16, PRASHANT VIHAR","Delhi","Delhi","110085","8510919191 / 8510929292 / 8510949494","tarun_ekansh@yahoo.com"
"GO AUTO PVT. LTD.","A-2/14, SAFDARJUNG ENCLAVE","Delhi","Delhi","110029","8586009456","edp.bhikaji@goauto.in"
"DURGA MOTORS-3001241","PLOT NO 67/10, H. NO. 416/13,, NEAR ""O"" COQUEIRO CIRCLE, PORVORIM","Pilerne","Goa","403521","0832 - 2410601","ashoktsapra@gmail.com"
"KARNAVATI MOTORS","SR. NO. 122-1-2, FINAL PLOT NO. 683, OPP. KAILASH PETROL PUMP, GALAXY CINEMA ROAD, N.H NO-8","Ahmadabad","Gujarat","382330","8980980007","jatin@karnavatigroup.com"
"RIYA AUTOLINK","NEAR DEVKUTI BUNGLOW, OPP BOPAL AMBLI BRTS BUS STAND, ISCON-BOPAL","Ahmadabad","Gujarat","380058","9687622255 / 9925279055 / 9712317755","gmsales@riyatata.com;servicemanager@riyatata.com"
"RIYA AUTOLINK","NEAR RAJPATH CLUB, SG HIGHWAY","Ahmadabad","Gujarat","380054","9687622255","gmsales@riyatata.com"
"PROGRESSIVE CARS PVT LTD-3004670","OPP. BAGGA HYUNDAI, NEAR IOCL PETROL PUMP, CHANDKHEDA","Ahmadabad","Gujarat","382424","9825662430","pcplchandkheda@gmail.com"
"PROGRESSIVE CARS PVT LTD-3004670","G-9,  SHAPATH V, BESIDE HOTEL CROWNE PLAZA, NEAR KARNAVATI CLUB , SG HIGHWAY","Ahmadabad","Gujarat","380015","9227150657","avinash.gupta@progressivecars.com"
"NAVNIT AUTO CENTER","C/O. NAVNIT PETROLEUM, HP PETROL PUMP, NEAR JANKI OIL MILL, LATHI ROAD","Amreli","Gujarat","365601","9601444404","navnitauto@outlook.com;service.navnitauto@outlook.com"
"PROGRESSIVE CARS PVT LTD","N.H. NO.8, CHIKHODARA CROSSING, OPP.  VISAMO HOTEL, GAMDI VILLAGE","Anand","Gujarat","388001","02692 - 251603 / 606","avinash.gupta@progressivecars.com"
"SHREEJI AUTOMART PVT. LTD.","OPP. ADINATH MARBLE, TEN GIDC, NADIDA CHOKDI, SURAT - BARDOLI ROAD","Bardoli","Gujarat","394601","0261 - 6592203","gmsales@shreejiautomart.com"
"PROGRESSIVE CARS PVT LTD-3004670","10-11, ADITYA SHOPING CENTRE, NH. NO. 8","Bareja","Gujarat","382425","7046023942","info@progressivecars.com"
"SHRADDHA MOTORS PVT LTD","ROURKELA, OPP. QUEEN ANGELS SCHOOL, N.H. 8","Bharuch","Gujarat","392015","0264 - 231526 / 231528","shraddhamotors@gmail.com"
"PD CARS PVT. LTD.","""SHANTI PRASTHA"", OPP. HDFC BANK LIMITED, NEAR CHITRA PETROL PUMP, DESAINAGAR, CHITRA","Bhavnagar","Gujarat","364003","7575001717","rajarshitata@gmail.com"
"PD CARS PVT. LTD.","ARYA PLAZA, PALIYAD ROAD","Botad","Gujarat","364710","7575001702","sales@rajarshitata.com"
"SP VEHICLES","DARBHAVATI SHOPING CENTER, NEAR MIRAB MARBLE, VEGA DABHOI ROAD","Dabhoi","Gujarat","391110","6359882551","salessmvehicles@spgroups.co.in"
"GAJANAND MOTORS PVT LTD-3002990","AT-DEESA    PO-DEESA., TA-DEESA,DIST-B.K..","Deesa","Gujarat","385535","9099959638","gajanand_pcd78@yahoo.co.in"
"PARTH AUTOCARS LLP","OLD INDORE ROAD, NEAR BAPU NAGAR","Dohad","Gujarat","389151","9512700119","parthautocars@gmail.com"
"HARSOLIA BROTHERS","SECTOR - 28, PLOT NO.-301, GIDC","Gandhinagar","Gujarat","382028","079-23211085","harsoliabros@gmail.com"
"PARTH AUTOCARS LLP","AT-VAVDI BUZARG, GODHRA DAHOD HIGHWAY ROAD, NEAR HOTEL LUXURA","Godhra","Gujarat","389001","9512700117","parthautocars@gmail.com"
"HARSOLIA MOTORS","NEAR HATHMATI BRIDGE, AMBAJI HIGHWAY ROAD","Himatnagar","Gujarat","383001","02772 - 241624 / 230046","harsolia@yahoo.com; harsoliamotors@gmail.com; zedharsolia1994@yahoo.com"
"BHAGVATI AUTOLINK PVT LTD","JETPUR-JUNAGADH HIGHWAY, OPP. HOTEL UTSAV, NEAR SARDAR CHOWK","Jetpur Navagadh","Gujarat","360370","9998992699","sm@bhagvatiautolink.com"
"BHAGVATI AUTOLINK PVT LTD","PLOT NO. 7, 8 & 15, OPP. S.K. INDUSTRIES, RAJKOT HIGHWAY, DOLATPARA","Junagadh","Gujarat","362037","0285 - 2661555 / 777","sales@bhagvatiautolink.com"
"PD CARS PVT. LTD.","MAHUVA BY PASS ROAD, RAJULA HIGHWAY, OPP AKSHARWADI TEMPLE","Mahuva","Gujarat","364290","02844-297120","sales@rajarshitata.com"
"HARSOLIA BROTHERS","MANGAL MURTI COMPLEX, GANDHINAGAR HIGHWAY ROAD","Mansa","Gujarat","382845","9824611845","aonemoto_tata@yahoo.com"
"FALCON MOTORS","PLOT-176, OPP. SHIVALA HOTEL, NR. BYPASS CIRCLE, HIGHWAY ROAD, AT-MEVAD","Mehsana","Gujarat","382710","9825303707","admin@falconmotors.co.in"
"PARIN MOTORS-3006660","OPP. AJANTA CLOCK GATE, MORBI-RAJKOT HIGHWAY, SANALA ROAD","Morvi","Gujarat","363641","9725213402","sm.morbi@parinmotors.com"
"GAJANAND MOTORS PVT LTD-3002990","ABU-DELHI NATIONAL HIGHWAY NO.14, NR. OLD R.T.O. OFFICE","Palanpur","Gujarat","385001","02742 - 255536 / 37","gajanand_pcd78@yahoo.co.in"
"PARIN MOTORS-3006660","SURVEY NO. 149, PLOT NO. 2, NEAR PARIN FURNITURE, NH 8B, GONDAL HIGHWAY","Rajkot","Gujarat","360004","0281-3300777","kumar.anjaria@parinfurniture.com"
"KARNAVATI MOTORS","A-1, RADHEUPVAN SOC., OPP. JALARAM MANDIR, NR. SOMNATH BUS STAND","Sanand","Gujarat","382110","7069404049","parth@karnavatigroup.com"
"PRAMUKH AUTOMOTIVE PRIVATE LIMITED","PLOT NO. 409/27-A, UMIYA NAGAR SOCIETY, NEAR CHOSATH JOGNI MATA TEMPLE, UDHNA MAGDALLA ROAD","Surat","Gujarat","394210","9825307771","ceo@pramukhautomotive.com"
"SHREEJI AUTOMART PVT. LTD.","04 A/B, SHREEJI HOUSE, OPPOSITE BIG BAZAR, DUMAS ROAD, PIPLOD","Surat","Gujarat","395002","8980007640","gmsales@shreejiautomart.com"
"FALCON MOTORS","S9 COMPLEX, UNJHA - SIDDHPUR ROAD","Unjha","Gujarat","384170","9909000446","sales@falconmotors.co.in"
"SP VEHICLES","PLOT NO. 177, PAIKI TP NO. 13, CHHANI ROAD, FATEHGANJ","Vadodara","Gujarat","390002","6359882551","jayesh@spgroups.co.in"
"ABC AUTO LINK","1401, RANOLI, GIDC","Vadodara","Gujarat","391350","9376225824","abcautolink@gmail.com"
"BHAGVATI AUTOLINK PVT LTD","VERAVAL JUNAGADH HIGHWAY, NEAR SAI BABA TEMPLE, OPP. HOTEL DAKSH","Veraval","Gujarat","362265","02876-244111","gunjan@bhagvatiautolink.com"
"FALCON MOTORS","DHARKESH COMPLEX, NR ITI COLLEGE","Visnagar","Gujarat","384315","7043242711","sales@falconmotors.co.in"
"PRAMUKH AUTOMOTIVE PRIVATE LIMITED","D-1/2, ARNAV POINT, VYARA-DHULIA ROAD, AT: TADKUWA, TA: VYARA","Vyara","Gujarat","394650","9081990531","sales.rural@pramukhautomotive.com"
"METRO MOTORS","121, RAILWAY ROAD, AMBALA CANT","Ambala","Haryana","133001","0171-4092200","manavdas@metromotors.co.in"
"RAMA AUTO CARS","AKASH TOWER, OPP. METRO PILLAR # 807, BAHADURGARH - DELHI ROAD","Bahadurgarh","Haryana","124507","9053099021","sales.ramaautocars@gmail.com"
"MAHADEV MOTORS-3008820","OPP. SANJEET FILLING STATION, ROHTAK ROAD","Bhiwani","Haryana","127021","9467927227","tatabhiwani@gmail.com"
"MAHADEV MOTORS-3008820","LOHARU ROAD, NEAR LOHARU CHOWK","Charki Dadri","Haryana","127306","9467927227","tatabhiwani@gmail.com"
"RP JHUNTHRA AUTOWHEELS PVT. LTD.","NEAR LADHA SERVICE STATION, SIRSA ROAD","Ellenabad","Haryana","125102","8222900336","sm.rpjtatasrs@gmail.com"
"MULTITECH MOTORS LLP-3007570","15/2, SEC-27A MATHURA ROAD","Faridabad","Haryana","121003","7290085455","gmsales@multitechmotors.com"
"MULTITECH MOTORS LLP-3007570","PLOT NO.1 NORTHERN INDIA COMPLEX, 20/3 MATHURA ROAD","Faridabad","Haryana","121003","7290085455","gmsales@multitechmotors.com"
"TELMOS AUTOMOBILES (P) LIMITED","SIRSA- DELHI ROAD","Fatehabad","Haryana","125050","9466221161","telmossales.fatehabad@gmail.com"
"SWAN MOTORS PVT. LTD.","FOWAHARA CHOWK","Gohana","Haryana","131301","9215217772","sales@swanmotors.com"
"HARTRON MOTORS LLP","KHASRA NO 352/3, ISLAMPUR","Gurgaon","Haryana","122001","0124-2200444","gmsales@hartronmotors.com"
"ANR AUTOMOBILES PVT LTD","PLOT NO 90, IDC, MEHRAULI ROAD","Gurgaon","Haryana","122001","0124 -4888000/ 4888001","gmsales@aryamotors.in"
"TELMOS AUTOMOBILES (P) LIMITED","JIND CHUNGI, GT ROAD","Hansi","Haryana","125033","9996603132","shankar04188@gmail.com"
"TELMOS AUTOMOBILES (P) LIMITED","OPP.  VIDYUT NAGAR, DELHI ROAD","Hisar","Haryana","125005","9896420990 / 9896420993","telmos@rediffmail.com"
"RAJ MOTORS","BANK ROAD, ADJACENT TO OBC BANK","Jhajjar","Haryana","124103","9728091200","raj.motors465@gmail.com"
"MAHADEV MOTORS-3008820","ROHTAK ROAD, NEAR ROHTAK BY-PASS CHOWK","Jind","Haryana","126102","8607777029","jind.mahadevmotors@gmail.com"
"METRO MOTORS PVT. LTD.-3009655","112/60 MILESTONE, NEAR ARPANA HOSPITAL, G. T ROAD, VILLAGE KUTAIL","Karnal","Haryana","132037","9812412507","smtataknl@metromotors.co.in"
"RP JHUNTHRA AUTOWHEELS PVT. LTD.","OPP. HDFC BANK, CHAUTALA ROAD","Mandi Dabwali","Haryana","125104","8222900326","rpjtata.dabwali@rpjgroup.com"
"PREMIUM MOTOCORP INDIA PVT LTD","DELHI NARNAUL ROAD, OPPOSITE PUNJAB & SIND BANK","Narnaul","Haryana","123001","8059894444","gm.tatarewari@gmail.com"
"MAHADEV MOTORS-3008820","KAITHAL HISSAR ROAD, HARI NAGAR","Narwana","Haryana","126116","9467927227","gm.tatabhiwani@gmail.com"
"MULTITECH MOTORS LLP-3007570","SN TOWER, 62 MILESTONE, RAM NAGAR, GT ROAD","Palwal","Haryana","121102","9811139039","gmsales@multitechmotors.com"
"PANCHKULA ROLLER FLOUR MILLS LTD.","PLOT NO.79, INDUSTRIAL AREA PHASE 1","Panchkula","Haryana","","8558894701-2-3-4 / 0172 - 2560618 / 891","prfml79ph1@gmail.com"
"AARYAMAN AUTOMOBILES","PLOT NO 64, HUDA INDUSTRIAL AREA, PHASE 1","Panipat","Haryana","132103","0180 2666222","puneetexports@yahoo.com"
"PREMIUM MOTOCORP INDIA PVT LTD","PLOT NO. 7685/15, DELHI ROAD, OPPOSITE RAO TULA RAM STADIUM","Rewari","Haryana","123401","8221849000","premiummotocorp@gmail.com"
"RAJ MOTORS","RAJ COMPLEX, OPP LIBERTY THEATRE, DELHI ROAD","Rohtak","Haryana","124001","9728091200 / 9728091203","raj_motors@rediffmail.com"
"RAMA AUTO CARS","OPP POWER HOUSE, NEAR SUKHPURA CHOWK, NORTHERN BYEPASS","Rohtak","Haryana","124001","9991400009","ramaautocars@gmail.com"
"RP JHUNTHRA AUTOWHEELS PVT. LTD.","NEAR MINAXI PETROL PUMP, BAJEKAN CHOWK, NH-9, HISAR ROAD","Sirsa","Haryana","125055","01666 - 250300, 250301 / 8222900302","gm.tatasrs@rpjgroup.com;service.tatasrs@rpjgroup.com"
"SWAN MOTORS PVT. LTD.","NEAR RAILWAY OVERBRIDGE, ROHTAK ROAD","Sonipat","Haryana","131001","9215317773","ashish7007@gmail.com;sales@swanmotors.com"
"METRO MOTORS - 3001710","NR. BHAI KANHAIYA SAHEB CHOWK","Yamunanagar","Haryana","135001","9254302000/9996026102","managerynr@metromotors.co.in;salesynr@metromotors.co.in"
"J P MOTORS","VILL MANPURA, BADDI NALAGARH HIGHWAY","Baddi","Himachal Pradesh","174101","1792-228396","mdjpmotors@gmail.com"
"J K R MOTORS PVT LTD","JWALAJI ROAD, NH 20A","Dehra Arla","Himachal Pradesh","176215","9805508423","jkrmotors@gmail.com"
"J K R MOTORS PVT LTD","VILLAGE JACHH, NEAR HOTEL HEIGHTS, PATHANKOT ROAD","Jasor","Himachal Pradesh","176201","9805440006","crosales@Jkrmotors.com"
"J K R MOTORS PVT LTD","VPO - GHURKARI","Kangra","Himachal Pradesh","176001","01892 - 209744 / 9318549094","jkrmotors@gmail.com"
"J K R MOTORS PVT LTD","NEAR NIRDOSH CHILDREN HOSPITAL, BAIJNATH ROAD","Palampur","Himachal Pradesh","176061","8894702703","dir.tushar@jkrmotors.com"
"J P MOTORS","VILL- DAKHOLAR, PO- SHINGLA, TEHSIL- RAMPUR","Rampur","Himachal Pradesh","171001","01792 - 228396","mandeepsingla@yahoo.com"
"J P MOTORS","BAROG BYEPASS, VILLAGE ANJI","Solan","Himachal Pradesh","173211","01792 - 228396 / 9805092306","jp_motors@rediffmail.com"
"APEX MOTORS-3005630","KHUSHAAL PORA, DELINA, SANGRAAMA","Baramulla","Jammu","193101","01952 - 235806","apexbuilders_group@yahoo.com"
"SMAM AUTOMART PRIVATE LIMITED","NH 1 A, BYE PASS ROAD NARWAL, OPPOSITE HOTEL RADDISON","Jammu","Jammu","180004","9484088888","accounts@amtata.net"
"FAIRDEAL MOTORS & WORKSHOP PVT. LTD.-3002901","KUNJWANI BYE PASS ROAD","Jammu","Jammu","180001","0191 - 2480075 - 76 / 9086480040-41-45","rohitgandotra76@yahoo.com"
"FAIRDEAL MOTORS & WORKSHOP PVT. LTD.-3002901","WARD NO-4, OPP. PHE OFFICE","Rajauri","Jammu","185131","91 2480075-76","dgmpcdjammu@fairdealmotorsjk.com"
"FAIRDEAL MOTORS & WORKSHOP PVT LTD-3002900","SRINAGAR-BARAMULA BYE PASS ROAD, PARIMPORA","Srinagar","Jammu","190017","9906627649 / 9622067771","gn.baba@fairdealmotorsjk.com"
"BULLA MOTORS PVT. LTD.","NH 1, BYEPASS, HYDERPORA","Srinagar","Jammu","190014","9419052747","saleskashmir@amtata.net"
"FAIRDEAL MOTORS & WORKSHOP PVT. LTD.-3002901","NH 1A, NEAR DOLPHIN HOTEL, SHIV NAGAR","Udhampur","Jammu","182101","9906069026","ceo-jammu@fairdealmotorsjk.com"
"KRAFT AUTO PVT LTD","PLOT NO. - A/18, CITY CENTRE, SECTOR IV, BOKARO STEEL CITY","Bokaro","Jharkhand","827004","6542 - 231914 / 231927","kraft.auto@gmail.com"
"ASL MOTORS PVT LTD","LIC BUILDING, BARA BAZAR","Chaibasa","Jharkhand","833201","9234620775","salesgm@aslmotors.in"
"JAIMAA SHARDA AUTOMOBILES","DC OFFICE ROAD, NEAR COLLECTORATE BUILDING","Chatra","Jharkhand","825401","8789555313","jmstatamotors@gmail.com"
"SS MOTOGEN PVT. LTD.","AAMGACHI, DUMKA ROAD","Deoghar","Jharkhand","814112","7633998686","ssmotogen@gmail.com;service.ssmotogen@gmail.com"
"SS MOTOGEN PVT. LTD.","NH-2, KASHITAND, BARWADDA, NAG NAGAR","Dhanbad","Jharkhand","826004","7633998699 / 7633998696","ssmotogen@gmail.com"
"TIWARI AUTOMOBILES PVT LTD","LAKHIKUNDI, NU","Dumka","Jharkhand","814101","9304705458","drtiwari.j@gmail.com"
"SS MOTOGEN PVT. LTD.","CENTRAL TOWER, NEAR MARUTI SHOWROOM, BORO, POST - PACHAMBA","Giridih","Jharkhand","815316","7633998585 / 9431597806","ssmtogen@gmail.com"
"TIWARI AUTOMOBILES PVT LTD","PLOT NO 176, NEAR ELECTRICITY OFFICE, ASANBANI","Godda","Jharkhand","814133","9771446493","digvijaytapl@gmail.com"
"BASUDEB AUTO LIMITED","CHAMPA NAGAR, SISAI, GUMLA ROAD","Gumla","Jharkhand","835207","7209045129","sm@basudebgroup.com"
"BASUDEB AUTO LTD","ZULU PARK ROAD, NEAR SBI MAIN BRANCH","Hazaribagh","Jharkhand","825301","06546 - 272178","kataruka@vitalmail.com"
"ASL MOTORS PVT LTD","PLOT NO 395 & 396, MOUZA PARDIH, MANGO, NEAR MOTOR WORLD","Jamshedpur","Jharkhand","831012","9204855415","mango@aslomotors.in"
"ASL MOTORS PVT LTD","A-7, 2ND PHASE, ADITYAPUR INDUSTRIAL AREA","Jamshedpur","Jharkhand","832109","0657-669999","admin@aslmotors.in"
"TIWARI AUTOMOBILES PVT LTD","JAMTARA BUS STAND","Jamtara","Jharkhand","815351","9955259588","deepakroy.kumar0@gmail.com"
"SS MOTOGEN PVT. LTD.","LAKHIBAGI, NEAR SHIV MANDIR CHECHAI","Kodarma","Jharkhand","825409","7633998685","ssmotogen@gmail.com"
"JAIMAA SHARDA AUTOMOBILES","NH 39, NEAR USHA HONDA, KARKAT","Latehar","Jharkhand","829207","8789555313","jmstatamotors@gmail.com"
"JAIMAA SHARDA AUTOMOBILES","RANCHI ROAD, REDMA","Medininagar (daltonganj)","Jharkhand","822101","8789555313","jmstatamotors@gmail.com"
"TIWARI AUTOMOBILES PVT LTD","SHARKOL, HIRANPUR ROAD","Pakur","Jharkhand","","9771446503","bhaskartapl@gmail.com"
"BASUDEB AUTO LIMITED","YASH HEIGHT BUILDING, OPP. AAROGYA BHAWAN, BARIYATU","Ranchi","Jharkhand","834009","9234670413","arvind@basudebgroup.com"
"TIWARI AUTOMOBILES PVT LTD","IN FRONT OF SAHIBGANJ COLLEGE, COLLEGE ROAD","Sahibganj","Jharkhand","816101","7763806533","sahibganj.tapldumka@gmail.com"
"BIJJARGI MOTORS-3003010","ILKAL(POST)","Achanur","Karnataka","587125","","ilkal.sales@bijjargimotors.com"
"MANICKBAG AUTOMOBILES PVT LTD-3002955","691, BEMCIEL INDUSTRIAL ESTATE, NH4 A, NEXT TO BEMCO KHANAPUR ROAD, UDYAMBAG BELGAUM","Belgaum","Karnataka","590008","0831 - 4219999 / 4219903","mailmeshirishmg@rediffmail.com"
"BELLAD ENTERPRISES PVT LTD","NEAR BELLARY STEEL ROLLING MILL, ANANTPUR ROAD","Bellary","Karnataka","583101","8392261234","umeshwadkar@belladandcompany.com"
"PRERANA MOTORS (P) LTD-3002450","KANTHA COURT, #132, LALBAGH ROAD","Bengaluru","Karnataka","560027","080 - 41135105, 41270300","premshenoy@preranamotors.com"
"ADISHAKTI CARS PVT LTD-3007720","#56, OPPOSITE LUMBINI GARDENS, VEERANNA PALYA RING ROAD, VEERANNA PALYA, ARABIC COLLEGE POST","Bengaluru","Karnataka","560045","080-43250000","venkatesh@adishakticars.com"
"KHT MOTORS","SH SHREYA, NO.5, INTERMEDIATE RING ROAD, AMAR JYOTI LAYOUT, DOMLUR","Bengaluru","Karnataka","560071","9035001188","branchhead@khtmotors.com"
"KEY MOTOR VENTURES PRIVATE LIMITED","NO. 71/1A & 71/7, JARAGANAHALLI VILLAGE, OPP TEMPLE APARTMENT, KANAKAPURA MAIN ROAD","Bengaluru","Karnataka","560078","9606059002 / 9606059011 / 9513904243","cmd@keymotors.in"
"PRERANA MOTORS (P) LTD-3002450","SRI KRISHNA AKSHAYA, 9, 27TH MAIN, BTM LAYOUT, PHASE I, RING ROAD","Bengaluru","Karnataka","560068","9731309701","btmsales@preranamotors.com"
"PRERANA MOTORS (P) LTD-3002450","PEENYA INDUSTRIAL AREA, NEAR NTTF, 2ND STAGE","Bengaluru","Karnataka","560058","9108552577","sudeepshetty@pcd.preranamotors.com"
"PRERANA MOTORS (P) LTD-3002450","NO.46, 10TH CROSS, WEST OF CHORD ROAD, 2ND STAGE, NEAR NAVARANG UNDER PASS,  RAJAJINAGAR","Bengaluru","Karnataka","560079","9845488215","chrd@prerana motors.com"
"KHT MOTORS","NO. 736 VIJAYALAKSHMI SQUARE, KUNDALAHALLI MAIN ROAD","Bengaluru","Karnataka","560066","080 - 42594444/ 28476611 / 28475566","branchhead@khtmotors.com"
"KROPEX AUTO PVT LTD","NO 49/1, HOSUR MAIN ROAD, SINGASANDRA, BANGALORE URBAN","Bengaluru","Karnataka","560068","9663388822","crm.sales@kropexauto.com"
"BIJJARGI MOTORS-3003010","NH-13, BYE PASS INDI ROAD CROSS, NU","Bijapur","Karnataka","586104","08352 - 650931 / 650831 / 253531","agm@bijjargimotors.com"
"SREE AUTO","BVKS LAYOUT, BHEEMASAMUDRA ROAD","Chitradurga","Karnataka","577501","08194-226610","gmtumkur@sreeautos.com"
"MANICKBAG AUTOMOBILES PVT LTD-3002955","APMC ROAD, DONGRE BUILDING, OPP. RELIANCE PETROL PUMP, BELGAUM ROAD","Gokak","Karnataka","591307","8884411634","belgaumsm@gmail.com"
"URS KAR SERVICE CENTRE (P) LTD","OPP. BHAGAVATI TEMPLE, KAIKERI","Gonikoppal","Karnataka","571213","9620333462","sales.gk@urkar.com"
"MANICKBAG AUTOMOBILES PVT LTD-3002970","PB ROAD, UDAY NAGAR, ASHWINI NAGAR","Haveri","Karnataka","581110","9845510472","deepak@manickbag.com"
"BELLAD ENTERPRISES PVT LTD","BESIDE TMAE POLYTECHNIC COLLEGE, BELLARY ROAD","Hospet","Karnataka","583201","9945524047","shivanandwaghamore@belladandcompany.com"
"MANICKBAG AUTOMOBILES PVT LTD-3002970","VIDYA NAGAR, HUBLI, TQ : HUBLI DIST : DHARWAD","Hubli","Karnataka","580021","0836 - 2372486 / 2374535","sanjot@manickbag.com"
"KEY MOTOR VENTURES PRIVATE LIMITED","SURVEY NO 38/14, KALLAHALLI VILLAGE, KASABA HOBLI, KANAKAPURA TALUK","Kanakapura","Karnataka","562117","9148846459","cmd@keymotors.in"
"BELLAD ENTERPRISES PVT LTD","AMMINPUR STREET, NEAR SANGEETA MOBILE SHOP, GADAG ROAD","Koppal","Karnataka","583231","0836-2218318","umeshwadkar@belladandcompany.com"
"AUTO MATRIX","MANJUSHA BUILDING, NEAR KSRTC, BEJAI CHURCH ROAD, BEJAI","Mangalore","Karnataka","575004","0824 - 6539237","matrixsales@rediffmail.com"
"URS KAR SERVICE CENTRE (P) LTD","CH-11 NEW KANTHARAJ URS ROAD, KRISHNAMURTHYPURAM","Mysore","Karnataka","570004","0821 - 4005400","kurs@urskar.com"
"BELLAD ENTERPRISES PVT LTD","OPP. AGRI UNIVERSITY, NEAR JOHN MILTON SCHOOL, LINGASUGUR ROAD","Raichur","Karnataka","584101","9945524047","shivanandwaghamore@belladandcompany.com"
"PRERANA AUTOMOTIVE","PLOT NO.118, 1ST MAIN, AUTO COMPLEX,, SAGAR ROAD,KALAHALLI VILLAGE","Shimoga","Karnataka","577204","",""
"ADISHAKTI CARS PVT LTD","# 21, SHESHADRIPURAM, SHANKARMUTT ROAD","Shimoga","Karnataka","577201","08182 - 658888 / 659488","info@adishakticars.com"
"MANICKBAG AUTOMOBILES PVT LTD-3002970","A K GROUP'S BUILDING, OPP APMC GATE, HUBLI ROAD","Sirsi","Karnataka","581402","9845445450","mahaveer@manick.com"
"AUTO MATRIX","MANGALORE MYSORE HIGHWAY, NEAR FIRE STATION","Sulya","Karnataka","574239","9980007768","ceo@automatrixcars.in"
"SREE AUTO","BANDI HALLY INDUSTRIAL ESTATE, B.H.ROAD","Tiptur","Karnataka","572201","9845991688","srinivashd@sreeautos.com"
"SREE AUTO","NO. 1, NEXT TO HEMAVATHI CHANNEL, NEAR GUBBI GATE, B H ROAD","Tumkur","Karnataka","572107","9845991688","srinivashd@sreeautos.com"
"NCS AUTOMOTIVES PRIVATE LIMITED","KANJIRAMCHIRA MURIYIL, NEAR GOVT. GUEST OFFICE, SOUTH ARYAD","Alappuzha","Kerala","688007","9526011193","sales3@ncsautocorp.com"
"SREE GOKULAM MOTORS AND SERVICES PV","NO. XX11/158B, CEEPEES BUILDING, OPP. ST. JOSEPHS HIGH SCHOOL","Angamaly","Kerala","683572","9847324342","ceo@gokulammotors.com"
"NCS AUTOMOTIVES PRIVATE LIMITED","JOHNS BUILDINGS, NEAR GEORGE FUELS, AROOR P O","Aroor","Kerala","688534","7909289721","sales7@ncsautocorp.com"
"NCS AUTOMOTIVES PRIVATE LIMITED","ST. THOMAS ORTHODOX BUILDING, UMAYATTUKKARA, KALLISSERY","Chengannur","Kerala","689124","7909289727","sales8@ncsautocorp.com"
"NCS AUTOMOTIVES PRIVATE LIMITED","11TH MILE, NH 66","Cherthala","Kerala","688524","9526011193","cmd@ncscorp.org"
"SREE GOKULAM MOTORS AND SERVICES PV","NO. 10, 256/C, SURVEY NO 1562/1, NH47, BYE PASS ROAD, NETTOOR","Ernakulam","Kerala","682040","9847324342","ceo@gokulammotors.com"
"KVR DREAM VEHICLES PVT LTD","PAYANCHERI MUKKU, IRITTY-PERAVOOR ROAD","Iritty","Kerala","670703","9746476001","info@kvrtata.com;sales@kvrtata.com"
"KVR DREAM VEHICLES PVT LTD","KOVVALPALLY, NEAR LATEST DAILY","Kanhangad","Kerala","671315","9746476001","info@kvrtata.com;sales@kvrtata.com"
"MK MOTORS","26TH MILE, PARATHODU P O","Kanjirappally","Kerala","686512","9946102772","gm@mkmotors.co.in"
"KVR DREAM VEHICLES PVT LTD","CHIRAKKU THAZHE, P.O. KIZHUNNA, NADAL","Kannur","Kerala","670007","9746476001","info@kvrtata.com;sales@kvrtata.com"
"TRIVANDRUM MOTORS PVT. LTD.","KRISHNA TOWERS, ETIRUTHY","Kattakada","Kerala","695572","9072035555","ceo@trivandrummotors.com"
"MALAYALAM VEHICLES INDIA PVT LTD","VELLAYAMKUDY P.O","Kattappana","Kerala","685515","0484 4211011","rben@malayalamgroup.in"
"NCS AUTOMOTIVES PRIVATE LIMITED","KALLUMOODU, NH 66","Kayamkulam","Kerala","690502","9526011193","cmd@ncscorp.org"
"TRIVANDRUM MOTORS PVT. LTD.","BUILDING NO.1033/D, CHIRAYINKEEZHU, KILIMANOOR P.O","Kilimanoor","Kerala","695601","9072035555","ceo@trivandrummotors.com"
"MALAYALAM VEHICLES INDIA PVT LTD","CC NO.52/3171, 3172, SHARON TOWER, OPP. SALAFI MASJID, VYTTILA","Kochi","Kerala","682019","0484 4211011","rben@malayalamgroup.in"
"MALAYALAM VEHICLES INDIA PVT LTD","BUILDING NO 18/615-1, 615-2, SY NO 176/2, 176/3, ALUVA WEST VILLAGE","Kochi","Kerala","683101","8111991717","saleshead@malayalamvehicles.com"
"MALAYALAM VEHICLES INDIA PVT LTD","BUILDING NO: 3/382, EDAPPUTHUSSERIL BUILDING, M.C. ROAD","Koothattukulam","Kerala","686662","8111991717","saleshead@malayalamvehicles.com"
"MALAYALAM VEHICLES INDIA PVT LTD","BUILDING NO - XVI/ 269 D+E, NEAR KUTHUKUZHI SOCIETY, KUTHUKUZHI P.O.","Kothamangalam","Kerala","686691","8111991717","saleshead@malayalamvehicles.com"
"MUTHOOT AUTOMOBILE SOLUTIONS PRIVATE LIMITED","INCHAKKAL TOWER, LOWER KARICKOM, M C ROAD","Kottarakkara","Kerala","691531","9656700995","pramod.s@muthoot.com"
"MK MOTORS","KURIAN JOHN BUILDING, MANIPUZHA, MC ROAD","Kottayam","Kerala","686013","0481 - 2568360","gm@mkmotors.co.in"
"MARINA MOTORS(INDIA) PVT LTD","BYE PASS ROAD, PANTHEERANKAVU","Kozhikode","Kerala","673019","0495 - 2436100 / 2436111","admin@marinamotorsindia.com"
"ROTANA MOTOR PRIVATE LIMITED","BUILDING NO.6/1026, KANNUR ROAD, NEAR PARAGON RESTAURANT","Kozhikode","Kerala","673001","8606000900","ajishadkk@gmail.com"
"HYSON MOTORS (P) LTD","DOOR NO. VII/245G, AKKIKAVU P.O.","Kunnamkulam","Kerala","680519","9249569435","ed@hysonmotors.com"
"ROTANA MOTOR PRIVATE LIMITED","DWARKA, NALLOORNADU (PO)","Mananthavady","Kerala","670645","9072625411","gmsales@rotanatata.com"
"SREE GOKULAM MOTORS AND SERVICES PV","BUILDING NO. VIII/395, ACHANKAVALA, THODUPUZHA MUVATTUPUZHA HIGHWAY, MADAKATHANAM P.O.","Manjalloor","Kerala","686670","9847324342","ceo@gokulammotors.com"
"NCS AUTOMOTIVES PRIVATE LIMITED","PYNUMOOTTIL BUILDINGS, KUNNAM P O","Mavelikkara","Kerala","690108","7909289707","sales4@ncsautocorp.com"
"MARINA MOTORS(INDIA) PVT LTD","ULPURATH BUILDING, PO MUKKAM, AGASTIAMUZHI","Mukkam","Kerala","673602","9544787878","admin@marinamotorsinda.com"
"MALAYALAM VEHICLES INDIA PVT LTD","OPP. MAKKAR PLAZA, PNB JUNCTION, EEC MARKET ROAD, KEECHERIPADY, MUVATTUPUZHA MARKET P O","Muvattupuzha","Kerala","686673","8111991726","mvpsales@malayalamvehicles.com"
"DERIK MOTORS PVT. LTD.","NMC XVIII / 343 (8), SUBAIR KUNJU MEMORIAL BUILDING, MANCHA PO","Nedumangad","Kerala","695541","7594970000","saleshead@deriktata.in"
"TRIVANDRUM MOTORS PVT. LTD.","NMC 5/455A, SIVAPULARI, MARUTHUR","Neyyattinkara","Kerala","695121","7356605555","gm.ss@trivandrummotors.com"
"KVR AUTOMOTIVE PVT. LTD.","VELIYAMTHODE","Nilambur","Kerala","679329","7558860066","shahabad.a@kvrtata.com"
"MK MOTORS","AREECKAL BUILDING, KANATTUPARA, KIZHATHADIYOOR P O","Palai","Kerala","686574","9946102772","gm@mkmotors.co.in"
"MALAYALAM VEHICLES INDIA PVT LTD","BUILDING NO:515/A,, MANNAM P.O","Paravur","Kerala","683520","8111991717","saleshead@malayalamvehicles.com"
"MK MOTORS","AMBALATHINKAL BUILDING, VARIYAPURAM P.O","Pathanamthitta","Kerala","689643","9946102754","gm@mkmotors.co.in"
"HYSON MOTORS (P) LTD","ROOM NO. 21/415 A, B, SHOBA COMPLEX, NEAR PZNR BUS STAND, THIRUVILWAMALA ROAD","Pazhayannur","Kerala","680587","0488-5283827","ed@hysonmotors.com"
"MARINA MOTORS(INDIA) PVT LTD","DOTTAPPANKULAM, KALPETTA BYPASS ROAD","Sulthanbathery","Kerala","673592","9544787878","admin@marinamotorsindia.com"
"KVR DREAM VEHICLES PVT LTD","HIGHWAY TALIPARAMBA, NEAR MOOTHEDATH HSS","Taliparamba","Kerala","670141","9746476001","info@kvrtata.com;sales@kvrtata.com"
"MK MOTORS","ST. GEORGE ARCADE, PALLIKAVALA","Thalayolaparambu","Kerala","686605","9946102737","smktm@mkmotors.co.in"
"MK MOTORS","KUTTOOR P.O","Thiruvalla","Kerala","689101","9946102750","gm@mkmotors.co.in"
"DERIK MOTORS PVT. LTD.","DERIK PLAZA, DERIK JUNCTION, NAGERCOIL MAIN ROAD, NEERAMANKARA, KAIMANAM","Thiruvananthapuram","Kerala","695018","9446006061","admin@derikmotor.com"
"TRIVANDRUM MOTORS PVT. LTD.","ENCHAKKAL - KOVALAM BY-PASS ROAD, BEHIND AMBALATHARA MILMA DIARY, POONTHURA","Thiruvananthapuram","Kerala","695026","0471 - 2384133","gm.ss@trivandrummotors.com"
"MALAYALAM VEHICLES INDIA PVT LTD","ATHICKAL ARCADE, VENGALLOOR MANGATTUKAVALA 4 LANE BYE PASS, MOTHALKKUDAM PO, VADAKKUMMURY","Thodupuzha","Kerala","685584","8111991744","sm.emo@malayalamvehicles.com"
"HYSON MOTORS (P) LTD","PUZHAKKALPPADAM, GURUVAYUR ROAD, PUNKUNNAM (P.O.)","Thrissur","Kerala","680002","0487 - 6457777 / 6458888 / 6459999","ed@hysonmotors.com"
"KVR DREAM VEHICLES PVT LTD","AAK TOWER, NADUVILANGADI","Tirur","Kerala","676107","9746476001","info@kvrtata.com;sales@kvrtata.com"
"MARINA MOTORS(INDIA) PVT LTD","21/111/ B1 & B2, UNITY PLAZA BUILDING, OPP APPOLO GOLD,  NH BYEPASS","Vadakara","Kerala","673101","9544787878","admin@marinamotorsindia.com"
"TRIVANDRUM MOTORS PVT. LTD.","RICHMAN TOWER, RICHMAN JUNCTION, PALACHIRA PO","Varkala","Kerala","695141","0471-2384122","gm.ss@trivandrummotors.com"
"DERIK MOTORS PVT. LTD.","TRIVANDRUM KILIMANOOR ROAD","Venjaramoodu","Kerala","695607","7594970000","saleshead@deriktata.in"
"SANGHI BROTHERS (INDORE) PVT LTD-3000504","NEAR CHHAWANI AGAR","Agar","Madhya Pradesh","465441","9425351342","deepak.t@sbil.in"
"M/S SETH & SONS","NEAR VIVEK TALKIES, STATION ROAD","Ashoknagar","Madhya Pradesh","473331","9425407992","emoaskn.tatasales@gmail.com"
"SUNIL AUTOMOTIVES-3009170","RM CITY, NAVEGAON, GONDIA ROAD","Balaghat","Madhya Pradesh","481001","7771003675","gmsales@sunilauto.com;service@sunilauto.com"
"SUNIL AUTOMOTIVES-3009170","INFRONT OF JANI DHABA, BADORA, CHHINDWARA ROAD","Betul","Madhya Pradesh","460001","7771003669","devesh5512@gmail.com"
"VEER MOTOR COMPANY","NEAR SREE RAM COLONY , NH-12, HOSHANGABAD ROAD","Bhopal","Madhya Pradesh","462026","8236836401","sales@veermotors.com"
"VARENYAM MOTOR CAR","189, JINSI ROAD","Bhopal","Madhya Pradesh","462008","0755-2575244","varenyamtata@gmail.com"
"VARENYAM MOTOR CAR","56 / 57, GOVINDPURA INDUSTRIAL AREA, J.K. ROAD","Bhopal","Madhya Pradesh","462023","0755-4927888","tata@varenyam.com"
"VARENYAM MOTOR CAR","OLD AB ROAD, BHOPAL BY PASS","Biaora","Madhya Pradesh","465674","8959905351","varenyamtata@gmail.com"
"SUNIL AUTOMOTIVES-3009170","NEAR HANUMAN MANDIR, GRAM SARRA NAGPUR ROAD","Chhindwara","Madhya Pradesh","480001","9425148248","sunilautomotives63@gmail.com"
"CHHABRA AUTOLINK PVT LTD","3 YAMUNA NAGAR, A.B. ROAD","Dewas","Madhya Pradesh","455001","0731-234000","accounts@chhabraauto.com"
"SANGHI BROTHERS (INDORE) PVT LTD-3000500","34 SILVER HILL, DHAR ROAD","Dhar","Madhya Pradesh","454001","7292408735","adarshmishra@sbil.in"
"M/S SETH & SONS","NEAR VANDANA CONVENT SCHOOL, A.B. ROAD","Guna","Madhya Pradesh","473001","07542-224221","sethsons.tatamotors@gmail.com"
"SAMARTH CARS PVT.LTD.","SHIVPURI LINK ROAD","Gwalior","Madhya Pradesh","474001","7514013128","agrawal.mukeshgwalior@gmail.com"
"SHYAM AUTOMOTIVE","4, ADITYA NAGAR, BETWEEN RAJIV GANDHI SQUARE AND BHAWARKUA CIRCLE, A.B. ROAD","Indore","Madhya Pradesh","452001","9644644222","tata.shyamauto@gmail.com"
"SANGHI BROTHERS (INDORE) PVT LTD-3000500","#6 MANORAMA GANJ","Indore","Madhya Pradesh","452001","0731 - 2490361","adarshmishra@sbil.in"
"COMMERCIAL AUTOMOBILES  LTD-3007000","SHASTRI BRIDGE, 124, NAPIER TOWN","Jabalpur","Madhya Pradesh","482001","0761 - 2451941-45 / 2450821","sales.pcd@tatacommercial.com"
"PRAHLAD ABHIKARAN","INFRONT OF MAHARASHI VIDYA MANDIR, BISTAN ROAD","Khargone","Madhya Pradesh","451001","07282-242444","md@prahladgroup.com"
"CHHABRA AUTOLINK PVT LTD","NEMAWAR ROAD, FRONT OF GOVT COLLEGE","Khategaon","Madhya Pradesh","455336","9285103000","gmsales.t@chhabraauto.com"
"SHYAM AUTOMOTIVE","KHASRA NO. 236/9, MAIN ROAD","Kukshi","Madhya Pradesh","454331","9109106103","automotiveshyam@gmail.com"
"SUGANDH AUTOMOTIVE","STEEL NAGAR, KRISHI MANDI ROAD","Mandsaur","Madhya Pradesh","458001","9285000112","sugandhmandsaur@gmail.com"
"SAMARTH CARS PVT.LTD.","SADAR BAZAR, SHIKSHA NAGAR, MAHARAJPUR, JAURA ROAD","Morena","Madhya Pradesh","476001","7771007626","gm@samarthcars.org"
"SANGHI BROTHERS (INDORE) PVT LTD-3000504","BERCHA ROAD, IN FRONT OF SHREE KRISHAN RESTAURANT","Nagda","Madhya Pradesh","456335","9425351342","deepak.t@sbil.in"
"SUGANDH AUTOMOTIVE","MHOW ROAD, NEAR RELIANCE PETROL PUMP","Neemuch","Madhya Pradesh","458441","7747000027","gm.sugandhautomotive@gmail.com"
"VEER MOTOR COMPANY","SHREE RAM COLONY, NH 12","Raisen","Madhya Pradesh","464551","8236836410","harshvidyarthi@veermotors.com"
"SUGANDH AUTOMOTIVE","12/1 MHOW ROAD, OPPOSITE BUS STAND","Ratlam","Madhya Pradesh","457001","9425329796","sugandhautomotive@gmail.com"
"R R AUTOMOBILES-3002591","NH7, IN FRONT OF DINDAYAL PLAZA, DHEKHA","Rewa","Madhya Pradesh","486001","9425811010","gmrrautomobile@gmail.com"
"R R AUTOMOBILES-3002591","PANNA ROAD, VIRAT NAGAR, PATERI","Satna","Madhya Pradesh","485001","07672 - 230551","stargrp@hotmail.com"
"VARENYAM MOTOR CAR","NEAR BUS STAND, SECRA KHERI ROAD","Sehore","Madhya Pradesh","466001","8959905351","varenyamtata@gmail.com"
"SUNIL AUTOMOTIVES-3009170","BESIDES ISHWAR COLONY, JAHARAT NAKA, JABALPUR ROAD","Seoni","Madhya Pradesh","480661","7771003668","gmsales@sunilauto.com"
"SAMARTH CARS PVT.LTD.","SHRIRAM COLONY, SARASWATI NAGAR","Shivpuri","Madhya Pradesh","473551","7773000122","gm@samarthcars.org"
"SANGHI BROTHERS (INDORE) PVT LTD-3000504","AB ROAD, IN FRONT OF DIPTI CONVENT SCHOOL, DHOBI CHAURAHA","Shujalpur","Madhya Pradesh","465333","9425351342","deepak.t@sbil.in"
"SANGHI BROTHERS (INDORE) PVT LTD-3000504","111, CHACKKAMED, AGAR ROAD","Ujjain","Madhya Pradesh","456006","9669201209","sanghipcd_ujjain@yahoo.com"
"VEER MOTOR COMPANY","NEAR GIRLS COLLEGE, IDGAH CHOURAHA, BHOPAL ROAD","Vidisha","Madhya Pradesh","464001","8236836461","sales@veermotors.com"
"KAMU MOTORS","E2/2, MIDC","Ahmadnagar","Maharashtra","414111","9860027570","vishal.karachiwala@gmail.com"
"STERLING MOTORS - 3006930","OPP DONBOSCO, KEDGAON, NAGAR - PUNE HIGHWAY","Ahmednagar","Maharashtra","414005","8380878111","msrathi@sterlingmotors.in"
"SATISH MOTORS (AKOLA) PVT LTD","BHAGYALAXMI, SURVEY NO 7, N.H. 6, AKOLA-BALAPUR ROAD","Akola","Maharashtra","444001","0724 - 6520701/02","gmsales@satishmotors.com"
"SUDARSHAN MOTORS-3007210","GLOBE BUSSINESS PARK, PLOT NO 30, KALYAN BADLAPUR ROAD, LAKSHMI NAGAR HOUSING BOARD COLONY","Ambarnath(m Cl)","Maharashtra","421505","7098217777","sm_dm@sudarshanmotors.com"
"JAIKA MOTORS-3002405","NEAR SAI NAGAR, BADNERA ROAD","Amravati","Maharashtra","444701","(0721) 2510488 / 2510599 / 2510666","pankajt@amravati.jaika.com"
"SANYA MOTORS-3002030","P-72 / 1(API COMPOUND), MIDC, CHIKALTHANA, JALNA ROAD","Aurangabad","Maharashtra","431212","0240 - 2483100 / 3030","sanyacar@sancharnet.in"
"SATISH MOTORS PVT. LTD.-3006040","SHOW-ROOM NO. 1 & 2, SMS ARCADE, SEVEN HILLS, GAJANAN MAHARAJ MANDIR ROAD","Aurangabad","Maharashtra","431005","9158044777","nvkulkarni@satishmotors.com"
"JAY AUTOMOTIVE","S. NO. 48/345/19, PHALTAN ROAD, KASABA","Baramati","Maharashtra","413102","9763508050","jayautomotive18@gmail.com"
"JAIKA MOTORS LIMITED-3002400","NEW BHARAT SAW MILL, NEAR BHARAT PETROL PUMP, NATIONAL HIGHWAY ROAD","Bhandara","Maharashtra","441904","9373904517","kartik@jaika.com"
"INDERJIT CARS PVT. LTD.","OPP MUKAT TANK, PLOT NO 223, NEXT TO MAHINDRA SHOWROOM","Boisar","Maharashtra","401501","8291891480","gmsales@inderjitcars.com"
"SATISH MOTORS PVT. LTD.-3006040","KESHARGANDH PLAZA, CHIKHLI ROAD","Buldhana","Maharashtra","443001","9158044777","nvkulkarni@satishmotors.com"
"SRIDHA MOTORS PVT LTD","GAT NO. 143/3, PUNE-NASHIK HIGHWAY, WAKI (KH)","Chakan","Maharashtra","410501","9146034411","sridhamotors@gmail.com"
"JAIKA MOTORS LTD-3002408","PLOT NO. 3, BAPAT NAGAR, NAGPUR ROAD","Chandrapur","Maharashtra","442401","7172256183","pravin@nagpur.jaika.com"
"SURYODAY AUTO PVT. LTD.","GALA NO.3, GROUND FLOOR, B.K. 106/43, RANI MINNAT ENCLAVE, MALYAN","Dahanu","Maharashtra","401602","0250-6697777","gmsales.tata@suryodaygroup.com"
"UJWAL AUTOMOTIVES PRIVATE LIMITED","MUMBAI-AGRA ROAD., AWDHAN","Dhule","Maharashtra","424311","02562 - 239362 / 659 / 847","carsales@ujwalauto.com"
"UNITY MOTORS PVT LTD","C/O. SHIV SERVICE, SANKESHWAR ROAD","Gadhinglaj","Maharashtra","416502","9011099829","sm@unitymotors.in"
"ADITYA AUTO AGENCIES-3007760","FULCHUR NAKA, KOHMARA ROAD","Gondiya","Maharashtra","441614","9921261717","udit@adityacars.com"
"UNITY MOTORS PVT LTD","NEAR ABHISHEK HALL, MAGDHUM COLONY, SANGLI ROAD","Ichalkaranji","Maharashtra","416115","9011099829","sm@unitymotors.in"
"JAY AUTOMOTIVE","PANDURANG COMPLEX, OLD AKLUJ NAKA, INDAPUR - PUNE ROAD","Indapur","Maharashtra","413106","9970273231","jayautoindapur@gmail.com"
"UJWAL AUTOMOTIVES PVT LTD - 3008705","146, AUTO NAGAR, BHUSAWAL ROAD, NATIONAL HIGHWAY 6","Jalgaon","Maharashtra","425001","0257 - 2225243","admin@ujwalauto.com"
"SATISH MOTORS PVT. LTD.-3006040","DEEPALI PETROL PUMP, AURANGABAD ROAD","Jalna","Maharashtra","431203","9158044777","nvkulkarni@satishmotors.com"
"SUDARSHAN MOTORS-3007210","SHOP 8/9, HARMONY ARCADE, BHIWANDI-KALYAN ROAD, KONGAON","Kalyan-dombivli","Maharashtra","400601","022-66996699","tata@sudarshanmotors.com"
"SUDARSHAN MOTORS-3007210","SHOP NO.1 TO 5, KALYAN SHIL ROAD, DAVDI NAKA","Kalyan-dombivli","Maharashtra","421203","9820526949","sachin.sawant@sudarshanmotors.com"
"JAIKA MOTORS LIMITED-3002400","OPPOSITE KRUSHI UTPANNA BAZAR SAMITI, NAGPUR ROAD","Katol","Maharashtra","441302","9822568737","deepa@nagpur.jaika.com"
"J V MOTORS","JATH ROAD, NEAR VIRUPASHY HOSPITAL","Kavathe Mahankal","Maharashtra","416405","8380044555","sales@jvmotors,in"
"JAY AUTOMOTIVE","PUNE SOLAPUR HIGHWAY, CHOUFULA","Kedgaon","Maharashtra","412203","8830919511","jayautomotivegm@gmail.com"
"UNITY MOTORS PVT LTD","PLOT NO.170/176, GOKUL SHIRGAON, PUNE-BANGALORE HIGHWAY, NH 4","Kolhapur","Maharashtra","416234","0231 - 6455901 / 02 / 03","gmsales@unitymotors.in"
"BAFNA MOTORS PVT LTD - 3004302","GUT NO.125 / 126, KOLPA, NANDED ROAD","Latur","Maharashtra","413512","02382-263589 / 9922004356","bafnalatur@gmail.com"
"INDERJIT CARS PVT. LTD.","PLATINUM BUILDING, GROUND FLOOR, OPP. PLEASANT PARK, NEXT TO BRAND FACTORY SHOWROOM","Mira-bhayandar","Maharashtra","401107","022-65610921","inderjitcars@gmail.com"
"WASAN MOTORS LTD.","WASAN HOUSE, 4, SWASTIK PARK, SION TROMBAY ROAD, CHEMBUR","Mumbai","Maharashtra","400071","022 - 66831111 / 25237070","chembur@wasanonline.com"
"MYDSM GLOBAL SERVICES PRIVATE LIMITED","UGB 2,3, 55,56,57,58,59, PHOENIX PARAGON PLAZA, KURLA WEST","Mumbai","Maharashtra","400070","9819801017","shruti.poddar@dsminfocom.com"
"WASAN MOTORS LTD.","UNIT 3 & 4, BLUE ROSE INDUSTRIAL ESTATE, WESTERN EXPRESS HIGHWAY, BORIVALI (EAST)","Mumbai","Maharashtra","400066","022 - 28706000 / 9900 - 03","wasan_borivali@hathway.com"
"PUNEET AUTOMOBILES PVT. LTD.-300A050","LLOYDS CENTRE POINT, APPASAHEB MARATHE MARG, PRABHADEVI","Mumbai","Maharashtra","400025","9930304228","mishra.sagar1992@gmail.com"
"KESHVA MOTORS","SHOP NO.10/11, MARATHON MAX CO-OPERATIVE HOUSING SOCIETY, MULUND GOREGAON LINK ROAD, MULUND (WEST)","Mumbai","Maharashtra","400080","022 - 40209999","keshva.motors@gmail.com"
"PUNEET AUTOMOBILES PVT. LTD.-300A050","ACCORD NIDHI BUILDING, SHOP NO. 4, BESIDE PALM SPRING COMPLEX, LINK ROAD, MALAD WEST","Mumbai","Maharashtra","400064","9930304228","mishra.sagar1992@gmail.com"
"DEOGIRI AUTO","59 A/B, S.V. ROAD, NEAR AMBOLI NAKA, NEXT TO BHARAT PETROL PUMP, JOGESHWARI WEST","Mumbai","Maharashtra","400102","022 - 42341111","jayanti.iyerkini@deogiriauto.com"
"JAIKA MOTORS LIMITED-3002400","POST BOX NO. 1, CIVIL LINES, COMMERCIAL ROAD-1","Nagpur","Maharashtra","440001","0712 - 6731100","renuka@nagpur.jaika.com;deepa@nagpur.jaika.com"
"ADITYA AUTO AGENCIES-3007760","HUMPYARD ROAD, OPPOSITE BENGALI HIGH SCHOOL, DHANTOLI","Nagpur","Maharashtra","440012","7122451085","udit@adityacars.com"
"ADITYA AUTO AGENCIES-3007760","PLOT NO 498, NARA RING ROAD, NEAR POWER GRID SQUARE, SUGAT NAGAR","Nagpur","Maharashtra","440026","7122451085","udit@adityacars.com"
"BAFNA MOTORS PVT LTD","NANDED- AKOLA ROAD, SANGAVI","Nanded","Maharashtra","431605","02462 - 223223 / 224206 /222432","bmlnnd@rediffmail.com"
"SRIDHA MOTORS PVT LTD","NEAR POONAM HOTEL, PUNE - NASHIK HIGHWAY, JUNNAR PHATA","Narayangaon","Maharashtra","410504","9146034417","ashutosh1011@gmail.com"
"STERLING MOTORS-3004400","P B NO. 033, OLD AGRA RD., GADKARI CHOWK","Nashik","Maharashtra","422001","0253 - 2598298","pcd.nsk@sterlingmotors.in"
"Fortune Cars Pvt. Ltd.","PLOT NO. D-400, TTC INDUSTRIAL AREA, MIDC, NEAR URAN PHATA SIGNAL, NERUL","Navi Mumbai","Maharashtra","400706","022 - 67341111 / 109","helpdesk@fortunecars.com"
"UNITY MOTORS PVT LTD","NH 17, MUMBAI GOA HIGHWAY, KHARYEWADI","Oras Bk.","Maharashtra","416812","7276293366","gmsales@unitymotors.in"
"SURYODAY AUTO PVT. LTD.","SHOP NO. 1,2,3, GROUND FLOOR, FORTUNE SOLITAIRE, VILLAGE â€“TEMBODE","Palghar","Maharashtra","401404","0250-6697777","amitvartak11@gmail.com"
"RUDRA MOTORS-3007530","KASTURBA HOUSING SOCIETY, NEXT TO SBI, VISHRANTWADI","Pune","Maharashtra","411015","9823674477","gmsales@rudramoto.co.in"
"SAI BABA AUTOWHEELS PVT LTD","5/4, NAKHATE NAGAR, KALEWADI MAIN ROAD, THEREGAON","Pune","Maharashtra","411033","9607711234","sanjay@ssplp.com"
"RUDRA MOTORS-3007530","GAT NO.1343/A, NEAR UBALE NAGAR BUS STOP, WAGHOLI","Pune","Maharashtra","412207","9822217429","rudramotors.tml@gmail.com"
"BAFNA MOTORS (PUNE) PVT. LTD.","101-102, THE MILANGE, OPPOSITE SANDVIK ASIA, PHUGEWADI, PIMPRI","Pune","Maharashtra","411012","9881007137","rajesh.jadhav@bafnamotors.in"
"BAFNA MOTORS (PUNE) PVT LTD","SURVEY NO.104/3, MUMBAI BANGALORE HIGHWAY, BANER","Pune","Maharashtra","411045","020 - 66036800","mahesh.parab@bafnamotors.in"
"BAFNA MOTORS (PUNE) PVT LTD","SHOP NO-3, MAYFAIR TOWERS, WAKDEVADI, MUMBAI - PUNE ROAD, SHIVAJI NAGAR","Pune","Maharashtra","411005","8080080234","mahesh.parab@bafnamotors.in"
"PANCHJANYA RESIDENCY PVT LTD","688/2B, SHRI SAI VENKATA TRADE CENTER,, PUNE-NASHIK HIGHWAY, BHOSRI","Pune","Maharashtra","411039","020-30790000","sales@panchjanya.co.in"
"BAFNA MOTORS (PUNE) PVT. LTD.","SWOJAS CAPITAL 2, SHANTISHILA SOCIETY, LAW COLLEGE ROAD, ERANDWANE","Pune","Maharashtra","411004","9870716666","saumit.deb@bafnamotors.in"
"MAC VEHICLES PVT. LTD.","MAHUR PHATA","Pusad","Maharashtra","445204","07233 - 249944","pusadbranch@macvehicles.com"
"BAFNA MOTORS (RATNAGIRI) PVT LTD-3005150","D-69, M.I.D.C., MIRJOLE","Ratnagiri","Maharashtra","415639","02352 -  228253 / 54 / 230178","bafnartn.pcd@gmail.com"
"J V MOTORS","PLOT NO 534, 3K+535, 2D, NEAR AAKSHWANI, SANGLI-KOLHAPUR ROAD","Sangli","Maharashtra","416416","8380044651","gmsales@jvmotors.in"
"HEM AGENCIES (CAR DIV) PVT LTD","A-4/2, OLD MIDC, PUNE BANGALORE HIGHWAY","Satara","Maharashtra","415001","02162 - 247651 / 52 / 247931 / 2","hemmotor@gmail.com"
"SRIDHA MOTORS PVT LTD","NEAR CHAKAN FATA, PUNE NAGAR ROAD","Shikrapur","Maharashtra","412208","9623450277","ashutosh1011@gmail.com"
"KAMU MOTORS","NAGAR MANMAD ROAD, OPPOSITE SAIRAJE SHOWROOM, NEAR BAVKE VASTI, SAKURI","Shirdi","Maharashtra","423107","7720027570","sales.kamumotors@gmail.com"
"STERLING MOTORS-3004405","74/3 BALE PUNE ROAD, TALUKA NORTH SOLAPUR","Solapur","Maharashtra","413006","0217-2911300","pcd.sol@sterlingmotors.in"
"PANCHJANYA RESIDENCY PVT LTD","NEAR NUTAN POLYTECHNIC, TALEGAON URSE ROAD","Talegaon Dabhade","Maharashtra","410507","020-30790000","sales@panchjanya.co.in"
"J V MOTORS","PUNDAI ROAD, SAINATH COLONY","Tasgaon","Maharashtra","416312","8380044652","sales@jvmotors.in"
"HERITAGE MOTORS (MUMBAI) PVT LTD","ROSAVISTA, OPPOSITE SURAJ WATER PARK, KAVESAR VILLAGE, NEAR LALANI RESIDENCY, GHODBANDAR ROAD","Thane","Maharashtra","400607","9967017535","parsuram@heritagemotors.in"
"HERITAGE MOTORS (MUMBAI) PVT LTD","OFFICE NO 9, MEENA APARTMENT, E.E. HIGHWAY, PANCHPAKHADI","Thane","Maharashtra","400602","9821714468","sachin_yog@rediffmail.com"
"SURYODAY AUTO PVT. LTD.","GALA NO.03 & 04, RAJ PRABHA, LAND MARK INDUSTRIAL ESTATE, BUILDING NO.06, SATIVALI ROAD","Vasai-virar City","Maharashtra","401208","0250-66397777","amitvartak11@gmail.com"
"HEM AGENCIES (CAR DIV) PVT LTD","105 YASHWANT NAGAR, NEAR SHAKUNT HOTEL, OPP.WAI BAZAR SAMITI","Wai","Maharashtra","412803","9765553331","hemmotorwai@gmail.com"
"MAC VEHICLES PVT. LTD.","CHIKHALGAON ROAD","Wani","Maharashtra","445304","9765858000","mac_vehicles@yahoo.com"
"MAC VEHICLES PVT. LTD.","NEAR VADGAON GRAM PANCHAYAT, ARNI ROAD","Yavatmal","Maharashtra","445001","07232 - 245410","mac_vehicles@yahoo.com"
"TIDDIM MOTORS","KAWAKEITHEL, OPP. IMPHAL COLLEGE","Imphal","Manipur","795001","0385 - 2455237","tiddimmotors@yahoo.com"
"TIDDIM MOTORS","THOUBAL PUKCHOU, NEAR DC OFFICE","Thoubal","Manipur","795138","9366476686","hrtiddim@gmail.com"
"MODRINA AUTO ENTERPRISES-3007160","MAWLAI NONGKWAR T.S.S ROAD, SHILLONG","Shillong","Meghalaya","793017","0364 - 2575408 / 2575409 / 2575355","modrinaauto@rediffmail.com"
"NATIONAL BUSINESS ENTERPRISES","JOHNSON ESTATE, E-1, PETER STREET, KHATLA","Aizawl","Mizoram","796001","0389 - 2334106 / 2333142","nbetata@rediffmail.com"
"NILI MOTORS","NH 29, OPP. SBI, PURANA BAZAAR","Dimapur","Nagaland","797112","9436004715","nilitata2017@gmail.com;tatasparesnilimotors@gmail.com"
"NILI MOTORS","NEW SECRETARIAT ROAD, NEAR SECRETARIAT","Kohima","Nagaland","797001","7005321919","nilitata2017@gmail.com"
"MONALISHA MOTORS PVT LTD","PO KANDASAR, PS NALCO NAGAR","Angul","Orissa","759145","7381059129 / 9668814442","monalishamotors_7979@rediffmail.com"
"GRAMPS AUTOTEC PVT LTD","N.H. 18, BYPASS PALABANI","Baripada","Orissa","757001","7328835639","mkjhunjhunwala.premiergroup@gmail.com"
"MONALISHA MOTORS PVT LTD","NH-55, RAITHANI, SARSARA","Baudhgarh","Orissa","","7381059129","monalishamotors_7979@rediffmail.com"
"DION AUTOMOTIVES PVT LTD","AT- TATA BENZ SQUARE, KAMAPALLI MAIN ROAD","Berhampur","Orissa","760005","0674-2976855","manojsahoo@diongroup.in"
"DION AUTOMOTIVES PVT LTD","PLOT NO. 2175/3766, SAMANTARAPUR, OLD TOWN","Bhubaneswar","Orissa","751002","0674-2976855","manojsahoo@diongroup.in"
"TRUPTI ENTERPRISES PVT LTD-3007010","M-15, N.H. 5, OPPOSITE FIRE STATION, BARAMUNDA","Bhubaneswar","Orissa","751003","0674 - 2470303","dealer.pcd@truptigroup.co.in"
"GUGNANI AUTOCARS PVT LTD","PLOT NO. 785, NH-16, PRATAP NAGARI","Cuttack","Orissa","753011","9337102073","gugnaniautocars@gmail.com"
"GUGNANI AUTOCARS PVT LTD","JAHANA CHOWK, INFRONT OF YAHAMA SHOWROOM, JAJPUR ROAD","Jajpur","Orissa","755019","9438173395","gmsales@gugnaniautocars.com"
"LANKESWARI MOTORS PVT LTD","PLOT NO. 576, 1378, 3792, HATPADA","Jeypore L/r","Orissa","764001","7894025630","lankeswarimotors@gmail.com"
"TRUPTI ENTERPRISES PVT LTD-3007010","DURGA PRASAD MAIN ROAD, NEAR INDIAL OIL PETROL PUMP","Nayagarh","Orissa","752069","9658508579","saleshead.pcd@truptigroup.co.in"
"TRUPTI ENTERPRISES PVT LTD-3007010","UDAYABATA, CUTTACK PARADIP HIGHWAY, NEAR AXIS BANK ATM","Paradip","Orissa","754141","7440006252","saleshead.pcd@truptigroup.co.in"
"SS STEELLOY PVT LTD","PLOT NO 18/2, BRAHMANITARANG, VEDVYAS ROAD","Raurkela","Orissa","769041","9040096002","balramtata.sales@gmail.com"
"LANKESWARI MOTORS PVT LTD","KOTAPETA","Rayagada","Orissa","765001","7894025630","gm.lankeswari@gmail.com"
"SS STEELLOY PVT LTD","INFRONT OF BANADURGA MANDIR, NEAR SARANGI TRACTOR, SANKRA","Sundargarh","Orissa","770020","8249100061","mittalsumant@gmail.com"
"SCHAKRALAYA MOTORS-3002312","NO. 28, NAGORE MAIN ROAD, PRAVIN NAGAR, NEAR ONGC - MULLAI RIVER","Karaikal","Pondicherry","609607","8220774888","jaykaychennai@gmail.com"
"SCHAKRALAYA MOTORS-3002312","431 CUDDALORE MAIN ROAD, NAINARMANDAPAM, MURUNGABAKKAM","Puducherry","Pondicherry","605004","9994244544","gmschakralayamotors@gmail.com"
"DADA MOTORS LTD-3003550","NEAR GURU NANAK KHALSA COLLEGE, MALOUT BYEPASS","Abohar","Punjab","152118","9876039292","bmabohar@dadamotors.com"
"A G MOTORS","ADJ. H-PROMISE NOVELTY HYUNDAI, G.T. ROAD, NEW AMRITSAR","Amritsar","Punjab","143001","6239910007","edp@amigotata.com"
"RP JHUNTHRA AUTOMOBILES","1711/2, 1712/2, MALOUT ROAD, OPP. AMBUJA CEMENT PLANT","Bathinda","Punjab","151001","7527051851","gm.tatabti@rpjgroup.com;service.tatabti@rpjgroup.com"
"MOHALI AUTOMOBILES PVT. LTD.","OPP. SUKHMANI DENTAL COLLAGE, AMBALA CHANDIGARH HIGHWAY, NEAR SATKAR HONDA","Dera Bassi","Punjab","140507","01762 - 522201","director@pmgchd.com"
"DADA MOTORS PRIVATE LIMITED-3009340","PIPLA WALA, JALANDHAR HOSHIARPUR ROAD","Hoshiarpur","Punjab","146001","9876913232","vikram@dadamotors.com"
"AAKRITI WORLD","VASAL TOWER, POLICE LINE ROAD, OPP PRESIDENT HOTEL","Jalandhar","Punjab","144001","8872001432","customercaresales@aakritiworld.com"
"KOSMO VEHICLES PVT TLD","NEAR DEHLI PUBLIC SCHOOL, G.T ROAD, PARAGPUR","Jalandhar","Punjab","144008","0181 - 5044700 / 9988086786","raghavkosmo@gmail.com"
"KOSMO VEHICLES PVT TLD","BYEPASS CHOWK, CIRCULAR ROAD","Kapurthala","Punjab","144601","9780026839","raghavkosmo@gmail.com"
"DADA MOTORS LTD-3003550","SAVITRI I, G.T.ROAD, DHOLEWAL CHOWK","Ludhiana","Punjab","141003","9915739779 / 9876913232","tl1@dadamotors.com;vikram@dadamotors.com;dssm@dadamotors.com"
"GARYSON MOTORS PVT LTD","SHERPUR CHOWK ,, G T ROAD","Ludhiana","Punjab","141001","0161 - 5095837 / 9914308787","ravleen@garysonmotors.com"
"RP JHUNTHRA AUTOMOBILES","NM COLLEGE ROAD, NH-14, BARNALA SIRSA NATIONAL HIGHWAY","Mansa","Punjab","151505","7527051851","gm.tatabti@rpjgroup.com"
"MOHALI AUTOMOBILES PVT. LTD.","B-16, PHASE-II, INDUSTRIAL AREA","Mohali","Punjab","160055","0172 4657228","director@pmgchd.com"
"RP JHUNTHRA AUTOMOBILES","OPP. PREET TRACTOR AGENCY, BHATINDA ROAD","Muktsar","Punjab","152026","7527051867","rpjtata.mkt@rpjgroup.com"
"MOHALI AUTOMOBILES PVT. LTD.","18, RAILWAY ROAD, NEAR BHAKHRA HYUNDAI OUTLET","Nangal","Punjab","140124","7527025595","director@pmgchd.com"
"MOHALI AUTOMOBILES PVT. LTD.","SHOWROOM NO 5066, ROPAR KURALI ROAD","Rupnagar","Punjab","140001","8195857799","sale.ropar@pmgmohali.com"
"MUDGAL MOTORS","JAIPUR ROAD, NEAR PETROL PUMP, PARBATPURA BYPASS, N.H. 8","Ajmer","Rajasthan","305002","8766622444","mudgalajmer@gmail.com"
"CLASSIC MOTORS-3008620","VILLAGE TAMROLLI,POST MAROLLI, DIS VARADPUR, RJ,321001, SH- 25 , JAIPUR BHIWADI MEGA HIGHWAY","Alwar","Rajasthan","301001","7300494444","classicmotors.alw@gmail.com"
"DUNAC AUTOMOBILES PVT. LTD.-3008110","PRITI PALACE AND VIDHUT VIBHAG ROAD, NEAR RUMAN AND SONS WORKSHOP","Anupgarh","Rajasthan","335701","9672440404","gm.dunaccarsbkn@gmail.com"
"ROSHAN MOTORS PRIVATE LIMITED","LAMBA MARKET, NH-8, AJMER ROAD","Bagru","Rajasthan","303007","0141-2864024","bagru@roshantata.com"
"CHAMBAL MOTOCORP LLP","DUNGARPUR LINK ROAD, NEAR SAI KRIPA VATIKA","Banswara","Rajasthan","327001","8875017721","chambaludaipur@gmail.com"
"CHAMBAL MOTORS PVT LTD","OPP. VIVEKANAND PARK, KOTA ROAD","Baran","Rajasthan","325205","9214436006","kumarnarendra82@gmail.com"
"VEERPRABHU MARKETING LIMITED","INFRONT OF SADAR THANA, NH 15, RING ROAD","Barmer","Rajasthan","344001","9116474497","pcdsales@veerprabhu.net"
"CLASSIC MOTORS-3008620","A-15B, CHILLER COMPLEX, NH-8, NEAR RTECH PLAZA, RICCO INDUSTRIAL AREA","Behror","Rajasthan","301701","7728890288","gm.classicservice@gmail.com"
"CLASSIC MOTORS-3008620","SHOP NO 229, TRANSPORT NAGAR, DEEG ROAD","Bharatpur","Rajasthan","321203","9116009802 / 9116048583","classic.auto11@gmail.com"
"YASH MOTORS-3002020","3 KM STONE, NEAR  SIKHARIA CIRCLE, JODHRAS CHOURAHA, GAURAV PATH, AJMER ROAD","Bhilwara","Rajasthan","311001","01482 - 264181, 264441, 264017","yashmotors@rediffmail.com"
"CLASSIC MOTORS-3008620","KHASRA NO 1209/262, VILLAGE KHEEJURIBAS, ALWAR - BHIWADI BYPASS","Bhiwadi","Rajasthan","301019","9116009803","classicmotors.alw@gmail.com"
"DUNAC AUTOMOBILES PVT. LTD.-3008110","JETHA RAM DUDI PETROL PUMP, JAISALMER ROAD","Bikaner","Rajasthan","334001","9999402399","dunaccars.bahuley@yahoo.com"
"DUNAC AUTOMOBILES PVT. LTD.-3008110","OPP. POWER HOUSER, NEAR UDASAR FANTA, JAIPUR BIKANER ROAD, TILAK NAGAR","Bikaner","Rajasthan","334001","9982562225","gm.dunaccarsbkn@gmail.com"
"CHAMBAL MOTORS PVT LTD","MOTOR MARKET BYY PASS ROAD BUNDI RJ, NH12, SILOR ROAD BYASS","Bundi","Rajasthan","323001","8875008417","nanochambal@gmail.com"
"SHRI KRISHNA FOUR WHEELS PVT. LTD.","SURAJGARH BYE PASS ROAD","Chirawa","Rajasthan","333026","8094019980","gmshrikrishna@gmail.com"
"SHREE SHYAM MOTORS-3008660","NH 11, JAIPUR ROAD","Chomu","Rajasthan","303702","7229818889","gmsales.shreeshyam@gmail.com"
"SHRI KRISHNA FOUR WHEELS PVT. LTD.","NEAR DTO OFFICE, JAIPUR ROAD","Churu","Rajasthan","331001","8094019953","tatasikar@gmail.com"
"AKAR FOURWHEEL PRIVATE LIMITED","JAIPUR BYPASS, TIRAHA AGRA ROAD","Dausa","Rajasthan","303303","9828722444","sales@akarfourwheel.com"
"SHREE CHARBHUJA AUTOMOBILES","KUM TERAYA, OPP. JAT BOLDING, AJMER ROAD","Degana","Rajasthan","341503","8239836521","charbhuja.automobiles.merta@yahoo.co.in"
"CLASSIC MOTORS-3008620","NEAR RTDC, AGRA BOMBAY HIGHWAY","Dhaulpur","Rajasthan","328001","9116009801","sales.classicmotor@gmail.com"
"DAKSH AUTOMOTIVE PVT LTD","OPPOSITE RTO OFFICE, KUCHAMAN ROAD","Didwana","Rajasthan","341303","8423292929","dakshautomotivepvtltd@gmail.com"
"CHAMBAL MOTOCORP LLP","BIIDI SCHOOL, SAGWARA ROAD","Dungarpur","Rajasthan","314001","9214436030","chambaludaipursales@gmail.com"
"DUNAC AUTOMOBILES PVT. LTD.","3 ML, HANUMANGARH BYPASS ROAD","Ganganagar","Rajasthan","335001","0154-2466485","dunaccars.bahuley@yahoo.com"
"CHAMBAL MOTORS PVT LTD","NEAR GOVT. COLLEGE, NATODI ROAD","Gangapur City","Rajasthan","322201","9214436006","kumarnarendra82@gmail.com"
"DUNAC AUTOMOBILES PVT. LTD.","TOWN AND JUNCTION ROAD, OPP. RELIANCE PETROL PUMP","Hanumangarh","Rajasthan","335513","9587047225","gm.dunaccarsbkn@gmail.com"
"ROSHAN MOTORS PRIVATE LIMITED","OPPOSITE GANPATI ENCLAVE, AJMER ROAD, AJMER PULIA, NEAR HAWA MAHAL HOTEL","Jaipur","Rajasthan","302006","0141 - 4077719","roshancars@hotmail.com"
"ROSHAN MOTORS PRIVATE LIMITED","B-7, ADARSH NAGAR, GOVIND MARG","Jaipur","Rajasthan","302004","9829096688","accounts@roshangroup.co.in"
"AKAR FOURWHEEL PRIVATE LIMITED","PLOT NO 309 - 310, NEMI SAGAR COLONY, QUEENS ROAD","Jaipur","Rajasthan","302021","9116667878","akarfourwheel@gmail.com"
"KAMAL AND COMPANY","NEAR GOPALPURA PULIYA, GOPALPURA MODE, TONK ROAD","Jaipur","Rajasthan","302018","0141 - 2700702 / 2700843 / 2704504","adityakasliwal@hotmail.com"
"SHREE SHYAM MOTORS-3008660","KH NO 52-53, KUKAR KHERA, ROAD NO 3, VKI AREA","Jaipur","Rajasthan","302013","7229838880 / 7229828887","bthakur.jal@gmail.com"
"AUTOPLEX AV","KHASRA NO 112, SITABARI, NEAR SANGANER FLYOVER, TONK ROAD","Jaipur","Rajasthan","302011","9772177177","sales.manager@autoplexav.com"
"FIRST MOBITAL PVT. LTD.","17, 18 PURUSHATH NAGAR â€“ A, VISTAR MEHAL ROAD, NEAR SHYAM BABA MANDIR, JAGATPURA","Jaipur","Rajasthan","302025","9928239990","sales@techwheels.in"
"CHAMBAL MOTORS PVT LTD","OPP. ROOP NAGAR COLONY, KOTA ROAD","Jhalawar","Rajasthan","326001","9214436006","kumarnarendra82@gmail.com"
"SHRI KRISHNA FOUR WHEELS PVT. LTD.","PIRU SINGH CIRCLE, ROAD NUMBER 3","Jhunjhunun","Rajasthan","333001","8094019984","tatasikar@gmail.com"
"MARUDHARA MOTORS","29/2, LIGHT INDUSTRIAL AREA","Jodhpur","Rajasthan","342003","0291 - 2744340 / 2744336","marudmot@vsnl.com"
"VEERPRABHU MARKETING LIMITED","JODHPUR MFC, JODHPUR RAILWAY STATION","Jodhpur","Rajasthan","342001","0291 - 2740624","ceo@veerprabhu.net"
"CHAMBAL MOTORS PVT LTD","G-7 & 8, AUTOMOBILE ZONE, INDRAPRASTHA INDUSTRIAL AREA, DHAKNIYA STATION ROAD","Kota","Rajasthan","324005","0744 - 6606000","CHAMBALMOTORS@HOTMAIL.COM"
"SHREE SHYAM MOTORS-3008660","NEAR CHINKARA CANTEEN, DABLA ROAD, WARD NO. 12","Kotputli","Rajasthan","303108","9887387695","gmsales.shreeshyam@gmail.com"
"SHREE CHARBHUJA AUTOMOBILES","NH89 NAGAUR ROAD BYPASS, RAJ NAGAR- B","Merta City","Rajasthan","341510","9024567747 / 01590 - 220641","charbhuja_automobiles.merta@yahoo.co.in"
"DAKSH AUTOMOTIVE PVT LTD","N.H. 89, BIKANER ROAD","Nagaur","Rajasthan","341001","9610815737","gmdakshcars@gmail.com"
"VEERPRABHU MARKETING LIMITED","3, SHANTI NAGAR, JODHPUR PALI ROAD","Pali","Rajasthan","306401","9828032108","ceo@veerprabhu.net"
"YASH MOTORS-3002020","INFRONT OF HOUSING BOARD, NEAR POOJA ELECTRONICS, DHARIYAWAD ROAD","Pratapgarh","Rajasthan","312605","9214471251","yashmotors@rediffmail.com"
"SHEKHAWATI ENTERPRISES","KANKROLI ROAD, NEAR DHOHINDA BUS STAND","Rajsamand","Rajasthan","313324","9782343613","gm.udr@sepl.tech"
"CHAMBAL MOTORS PVT LTD","NEAR PANCH MUKHI HANUMAN MANDIR, HOUSING BOARD CIRCLE","Sawai Madhopur","Rajasthan","322001","0744 - 6606000","nanochambal@gmail.com"
"FIRST MOBITAL PVT. LTD.","N.H. 8, NEAR PHAPHIYA PULIYA","Shahpura","Rajasthan","303103","7792987559","kapilmamodiya1998@gmail.com"
"SHRI KRISHNA FOUR WHEELS PVT. LTD.","WARD NO. 15, KHICHARO KA BASS, NEAR CIRCUIT HOUSE, JAIPUR ROAD","Sikar","Rajasthan","332001","01572 - 245971","tatasikar@gmail.com"
"SHEKHAWATI ENTERPRISES","RICCO PLOT NO. B-131, ROAD NO. 1, M.I.A., MADRI","Udaipur","Rajasthan","313001","8890222977","nareshgargudr@gmail.com;tatamotors@sepl.tech"
"CHAMBAL MOTOCORP LLP","UDAIPUR 1, VALLABHNAGAR TEHSIL,UDAIPUR DIST,RJ","Udaipur","Rajasthan","313024","0294 - 2427721","chambaludaipur@gmail.com"
"RANGEET AUTO PRIVATE LIMITED","BELOW HARKA MAYA COLLEGE, 6TH MILE","Gangtok","Sikkim","737102","7063589420","sm.tatamotors@gmail.com"
"SAYAR AAUTOMOTIVE PVT. LTD.","NO:1887, A/3, VELLORE BYPASS ROAD, SEVOOR","Arani","Tamil Nadu","632301","7094476239","tatasayarkpmsm@gmail.com"
"SREE GOKULAM MOTORS AND SERVICES PVT. LTD.","NO 2 V N D COMPLEX, NANDHAGOPAL NAGAR, TKM ROAD","Chengalpattu","Tamil Nadu","603003","9384088099","saleshead@gokulammotors.com"
"SRILAKSHMI AUTO ENTERPRISES INDIA PVT. LTD.","118, OKKIAM, THORAIPAKKAM","Chennai","Tamil Nadu","600097","9966008885","srikanthrao_e@yahoo.co.in"
"TAFE ACCESS LTD-3006900","ADDISONS BUILDING, 803 ANNA SALAI","Chennai","Tamil Nadu","600002","7401699805 /044 - 42282000 / 28412892","unnikrishnan@tafe.co.in"
"PHOENIX MOTORS","NO. 448, G.N.T. ROAD, KAVANKARAI","Chennai","Tamil Nadu","600066","9994422822","gowtham.9911@gmail.com"
"SREE GOKULAM MOTORS AND SERVICES PVT. LTD.","NO 322, GST ROAD, CHROMPET","Chennai","Tamil Nadu","600044","9847324342","ceo@gokulammotors.com;arun.k.rajan@gmail.com"
"KLN MOTOR AGENCIES PVT LTD-3006640","NO.8 (NP)DEVELOPED PLOT, INDUSTRIAL ESTATE, EKKATTUTHANGAL","Chennai","Tamil Nadu","600032","044-23458941","praveen@klnmotors.in"
"GURUDEV MOTORS PVT LTD","OLD NO 90, NEW NUMBER 1090, E.V.R. PERIYAR HIGH ROAD, ARUMBAKKAM","Chennai","Tamil Nadu","600106","9941544000 / 9094711000","mahaveer@gurudevmotors.com"
"S R TRANZCARS PVT. LTD.","OLD NO.496, NEW NO.787, AVINASHI ROAD, PEELAMEDU","Coimbatore","Tamil Nadu","641004","9500507777","sakthivel7777@yahoo.com"
"TAFE ACCESS LIMITED","27 - C, RACE COURSE ROAD, OPP. MASONIC  HOSPITAL","Coimbatore","Tamil Nadu","641018","7401699899 / 0422 - 4303000","jk@tafeaccess.com"
"S R TRANZCARS PVT. LTD.","1142-A, METTUPALAYAM ROAD","Coimbatore","Tamil Nadu","641043","9600852777","sales.west@srt-tata.com"
"SCHAKRALAYA MOTORS","69, IMPERIAL ROAD","Cuddalore","Tamil Nadu","607002","04142 - 224417 / 18 / 19","schakralayamotors@yahoo.in"
"THE TRUE SAI WORKS-3008831","#5/515, SALEM ROAD, ILAKKIYAM PATTI","Dharmapuri","Tamil Nadu","636705","04342-645244","vasu@thetruesai.com"
"KAVERI GARAGE PVT LTD","NO 478/1A2, SEELAPADI, TRICHY BYPASS","Dindigul","Tamil Nadu","624005","7094405555","saleshead@kaveritata.com"
"TAFE ACCESS LTD - 3006910","140 P & C TOWERS, PERUNDURAI MAIN ROAD","Erode","Tamil Nadu","638011","7401699801","gm@tafeacces.com"
"SCHAKRALAYA MOTORS","227, SINGAVARAM ROAD, KARNIKA COMPLEX","Gingee","Tamil Nadu","604202","7339555933","schakralayavillupuram@gmail.com"
"THE TRUE SAI WORKS-3008831","SURVEY #46/ 1 A & 47/1 A, THORAPALLI AGRAHARAM","Hosur","Tamil Nadu","635109","04344- 6492446 / 6449255","vasu@thetruesai.com"
"SCHAKRALAYA MOTORS","NO.88, DURGAM MAIN ROAD","Kallakkurichi","Tamil Nadu","606202","7358776222","gmtnsalesschakralaya@gmail.com"
"SAYAR AAUTOMOTIVE PVT. LTD.","219 INDIRA NAGAR, NEAR NEW RAILWAY STATION","Kancheepuram","Tamil Nadu","603209","7094476226","tatasayarkpmsm@gmail.com"
"SRI CHIMA CARS PRIVATE LIMITED","COLLEGE ROAD, DURAISINGA NAGAR, SUBRAMANIAPURAM, 10TH STREET","Karaikudi Rf","Tamil Nadu","630002","9362329944","cars@chima.in"
"THE TRUE SAI WORKS - 3008830","SALEM BYEPASS ROAD, PERIYA KULATHU PALAYAM, OPP SPRING FIELD","Karur","Tamil Nadu","639002","04324-648421","saleskarur@thetruesai.com"
"SUSEE AUTO LIMITED-3003310","3F/22, ETTAYAPURAM ROAD, NEAR SHUNMUGA THEATRE","Kovilpatti","Tamil Nadu","628501","9442188155 / 9442185155","salesmanagersuseetata@gmail.com; suseeautoservice1@gmail.com"
"THE TRUE SAI WORKS-3008831","#417A/1-A, PETHANAPALLI VILLAGE, OPP. TO HOTEL TAMIL NADU, KRISHNAGIRI-CHENNAI HIGHWAY","Krishnagiri","Tamil Nadu","635001","04343-642001","vasu@thetruesai.com"
"JAYARAJ KARZ","799/T FEMINA COMPLEX, KARAIKAL MAIN ROAD, MUTHU PILLAI MANDAPAM","Kumbakonam","Tamil Nadu","612401","9643804194","customercare.tnj@jayarajkarz.com"
"SRI CHIMA CARS PRIVATE LIMITED","H-14, H-14A, SIDCO INDUSTRIAL ESTATE, UCCHAPATTI VILLAGE, KAPPALUR","Madurai","Tamil Nadu","625008","9362636263","cars@chima.in"
"SRI CHIMA CARS PRIVATE LIMITED-3007920","171, LIG COLONY, LAKE VIEW ROAD, K.K. NAGAR","Madurai","Tamil Nadu","625020","9362636263","cars@chima.in"
"KUMARAN AUTOMOBILES (NGL) PVT LTD","27/1, 253 E1/1, K.P ROAD","Nagercoil","Tamil Nadu","629001","04652 - 233386 / 220699 / 237825","charlesmdkumaran@gmail.com"
"THE TRUE SAI WORKS - 3008830","134/B5, NSR BUILDING, SALEM MAIN ROAD","Namakkal","Tamil Nadu","637001","04286-647655","salesnamakal@thetruesai.com"
"KAVERI GARAGE PVT LTD","NO 190/2, DINDIGUL ROAD, OPP RTO OFFICE","Palani","Tamil Nadu","624601","7094405555","saleshead@kaveritata.com"
"KAVERI GARAGE PVT LTD","375/7B1, NH SERVICE ROAD, SUNGU PETTAI, TRICHY - CHENNAI HIGHWAY","Perambalur","Tamil Nadu","621212","7094405555","bijupaul@kaveritata.com"
"S R TRANZCARS PVT. LTD.","249 UDUMALAI ROAD","Pollachi","Tamil Nadu","642001","9894657777","sakthivel7777@yahoo.com"
"JAYARAJ KARZ","5915/1, KALIF NAGAR, THURMAYAM ROAD","Pudukkottai","Tamil Nadu","622001","9643804194","customercare.tnj@jayarajkarz.com"
"THE TRUE SAI WORKS - 3008830","#73 SALEM - OMALUR HIGHWAY, NEXT TO HOTEL GRAND ESTANCIA, NARASODHIPATTI","Salem","Tamil Nadu","636004","0427-2443266","sathish@thetruesai.com"
"ATHIRST AUTO PVT. LTD.","DOOR NO 230, TIRUVENGADAM ROAD","Sankarankoil","Tamil Nadu","627756","0462 - 247045 / 46","accounts@athirstauto.com"
"THE TRUE SAI WORKS - 3008830","#1-6 PONU SAMY GOUNDER COMPLEX, TIRUCHENGODU MAIN ROAD","Sankari","Tamil Nadu","637301","9994193786","truesai.sankari@hotmail.com"
"SRI CHIMA CARS PRIVATE LIMITED","DOOR NO. 360A6, SIVAKASI-VIRUDHUNAGAR ROAD, THIRUTHANGAL","Sivakasi","Tamil Nadu","626130","9362329944","cars@chima.in"
"ATHIRST AUTO PVT. LTD.","DOOR NO 208, KUTHUKAVALASAI, SIVANTHINAGAR","Tenkasi","Tamil Nadu","627803","9488995066","accounts@athirstauto.com"
"JAYARAJ KARZ","NO: D3/1, VALLAMPUDURSETHI, VALLAM BYE-PASS ROAD, VALLAM","Thanjavur","Tamil Nadu","613403","9643804194","customercare.tnj@jayarajkarz.com"
"SRI CHIMA CARS PRIVATE LIMITED","DOOR NO. 158/3, RATHINAM NAGAR, PERIYAKULAM ROAD","Theni Allinagaram","Tamil Nadu","625531","9362329944","cars@chima.in"
"JAYARAJ KARZ","NO-2/8 NAGAI BYE-PASS ROAD, VIJAYAPURAM, OPP. BHARATH TVS","Thiruvarur","Tamil Nadu","610001","9643804194","customercare.tnj@jayarajkarz.com"
"SUSEE AUTO LIMITED-3003310","109/6 A ETTAYABURAM ROAD","Thoothukkudi","Tamil Nadu","628002","9442188155","suseeauto@gmail.com"
"KAVERI GARAGE PVT LTD","27/5, DINDIGUL MAIN ROAD, DHEERAN NAGAR, PIRATIYUR","Tiruchirappalli","Tamil Nadu","620009","9790598295","bijupaul@kaveritata.com"
"ATHIRST AUTO PVT. LTD.","16/1B, KEELA VEERARAGHAVAPURAM, PALAYAMKOTTAI","Tirunelveli","Tamil Nadu","627007","9566060006","rajkumar.b@athirstauto.com"
"SAYAR AAUTOMOTIVE PVT. LTD.","177/1, HAYATH NAGAR (ASIYAR NAGAR), VANIYAMBADI MAIN ROAD","Tirupathur","Tamil Nadu","635601","7373748101","tatasayartpt@gmail.com"
"S R TRANZCARS PVT. LTD.","NO.2, AVINASHI ROAD, ANUPPARPALAYAM","Tiruppur","Tamil Nadu","641652","9600852777","sales.west@srt-tata.com"
"SAYAR AAUTOMOTIVE PVT. LTD.","NO.24, CHENGAM ROAD","Tiruvannamalai","Tamil Nadu","606601","7373267666","darsh.coolzy@gmail.com"
"ATHIRST AUTO PVT. LTD.","NO. 330, OPP TO CONCORDIA SCHOOL, NEXT TO BALAJI HOSPITAL","Vadakkuvalliyur","Tamil Nadu","627117","9488995077","edp@athirstauto.com"
"SAYAR AAUTOMOTIVE PVT. LTD.","NO: 1630, PHASE II, 61 ST STREET,, SATHUVACHARI, VELLORE DT.","Vellore","Tamil Nadu","632009","7373546000","sayaraautomotive@gmail.com"
"SCHAKRALAYA MOTORS","NO. 304 /1,  R.G. NAGAR, NEAR TPTC QUARTERS, TRICHY MAIN ROAD","Villupuram","Tamil Nadu","605401","7339555933","schakralayavillupuram@gmail.com"
"SREE VENKATESWARA MOTORS (INDIA) PVT LTD","SHED NO 9, INDUSTRIAL AREA, NEAR BALAJI SCHOOL, DASNAPOOR","Adilabad","Telangana","504346","9246919688","omkaram_k@yahoo.com"
"SREE VENKATESWARA MOTORS (INDIA) PVT LTD","#1-25/3/D, OPPOSITE HERO SHOWROOM, PERKIT ROAD","Armur","Telangana","503224","08462-235535","omkaram_k@yahoo.com"
"VENKATARAMANA AUTOMOBILES","13-4-145, CHERLA ROAD","Bhadrachalam","Telangana","507111","9160368888","khammamtata@gmail.com"
"SREE VENKATESWARA MOTORS (INDIA) PVT LTD","H NO:1-3-450, GUNJ ROAD, BODHAN MANDAL","Bodhan","Telangana","503185","9246919688","omkaram_k@yahoo.com"
"MALIK CARS","6-3-248/3, INDRALOK COMPLEX, ROAD NO.1, BANJARA HILLS, OPP. TAJ BANJARA","Hyderabad","Telangana","500034","040 - 23303753 / 54","malikcars@rediffmail.com"
"VENKATARAMANA MOTORS - 3008780","PLOT NO :9 & 10, BESIDE BATA SHOWROOM, PANAMA CROSS ROADS, VANASTHALIPURAM","Hyderabad","Telangana","500070","9642978888","gmsales@venkataramanamotors.com"
"SELECT CARS","H.NO.2-3-457/3/1, SAINAGAR COLONY, ROAD NO.3, ALKAPURI JUNCTION, NAGOLE COLONY","Hyderabad","Telangana","500036","9948099481","select.vijay@gmail.com"
"MALIK CARS","3-6-422 & 422/A, STREET NO.3, MAIN ROAD, HIMAYATNAGAR","Hyderabad","Telangana","500029","040 - 27651100 / 27655555 / 27656666","malikcars@rediffmail.com"
"SELECT CARS","PLOT NO. 98 & 99, GROUND FLOOR, CHANDANAGAR","Hyderabad","Telangana","500050","9948099481","select.vijay@gmail.com"
"TEJASWI AUTOMOBILES","PLOT NO. 4/14, OPP. CYBER TOWERS, KPHB ROAD, MADHAPUR","Hyderabad","Telangana","500081","7799001155","tejaswi.bhaskarraju@gmail.com"
"VENKATARAMANA MOTORS - 3008780","PLOT NO 11, VICTORY PLAZA, ECIL X ROADS","Hyderabad","Telangana","500062","9642928888","rsm@venkataramanamotors.com"
"ORANGE AUTO PVT LTD","8-3-164/2, SHANKARAMMA TOWERS, GROUND FLOOR, OPP. BHARATH PETROL PUMP, ERRAGADDA","Hyderabad","Telangana","500018","9885065757","gmsales@orangeauto.in"
"VENKATARAMANA MOTORS - 3008780","H.NO :1-26/1/42, GACHIBOWLI","Hyderabad","Telangana","500081","9100055493","admin@venkataramanamotors.com"
"MALIK CARS","D.NO:16-2-704, HANUMAN TOWERS, MAIN ROAD, BESIDE CHERMAS, MALAKPET","Hyderabad","Telangana","500036","040 - 24555678","sm.mp@malikcars.com"
"SELECT MOTORS","PLOT NO.6-2-4/5, JANGAON AREA, JANGAON HYDERABAD ROAD, OPP. TO BHARATH GAS","Jangaon","Telangana","506167","08716 - 220003 / 9550002255 / 8790995556","select.knrgm@gmail.com"
"SREE VENKATESWARA MOTORS (INDIA) PVT LTD","H NO 5-5-215, NH-7 ROAD, NH-7 ROAD, NEAR IBP PETROL BUNK","Kamareddy","Telangana","503111","9246919688","omkaram_k@yahoo.com"
"SELECT MOTORS-3001275","8-6-396,, KOTHIRAMPUR, HYDERABAD ROAD","Karimnagar","Telangana","","0878 -2277444 / 2277445 /2277446","selectknr@gmail.com"
"VENKATARAMANA AUTOMOBILES","V.V.C. GARDENS, OPP. MAMTA GENERAL HOSPITAL","Khammam","Telangana","507001","08742 - 314141 / 243111","Khammamtata@gmail.com"
"SELECT MOTORS","1-4-112 / J, GILADA MODERN DAL & OIL MILL COMPLEX, YELLANDU ROAD","Mahabubabad","Telangana","506101","9550005544","select.wglgm@gmail.com"
"SELECT MOTORS-3001275","# 1-5-103/1 & 2, WARD NO. 13, JAGITYAL ROAD","Metpally","Telangana","505325","8790995565","ferozselect@yahoo.com"
"SREE VENKATESWARA MOTORS (INDIA) PVT LTD","BORGAON (PANGRA), HYDERABAD ROAD","Nizamabad","Telangana","503230","08462-235535","mahinalla@yahoo.com"
"SELECT MOTORS-3001275","HOUSE NO 5-6-54/55/56, CI CROSS ROAD, OPP NTPC POLICE STATION, JOTHYNAGAR, GODAWARI KHANI","Ramagundam","Telangana","505208","08278-272788 / 8008104443","select.gdk@gmail.com"
"TEJASWI AUTOMOBILES","KANDI VILLAGE, NH 65 MAIN ROAD, OPP BALAJI HOSPITAL","Sangareddy","Telangana","502001","040-44229999","ceo@tejaswiautomobiles.com"
"ORANGE AUTO PVT LTD","PLOT NO.54, GAYATRI WESTEND, KAKAGUDA, KHARKANA","Secunderabad Cantt","Telangana","500015","040-66205999","gmsales@orangeauto.in"
"MALIK CARS","SURVEY NO.33, NH ROAD NO.7, OLD BOWENPALLY","Secunderabad Cantt","Telangana","500011","9959484499","sm.bp@malikcars.com"
"TEJASWI AUTOMOBILES","SY NO 198/3, PONNLA VILLAGE, SIDDHIPET X ROAD, HYDERABAD ROAD","Siddipet","Telangana","502277","040-44229999","ceo@tejaswiautomobiles.com"
"VENKATARAMANA MOTORS - 3008780","3-2-46, YENNEPALLY, HYDERABAD ROAD","Vicarabad","Telangana","501101","9642928888","rsm@venkataramanamotors.com"
"SELECT MOTORS","15-1-422/A&B, BESIDE INDUSTRIAL ESTATE KAMAN, SVB ROAD","Warangal","Telangana","506007","0870 - 2500999 / 2505888 / 8008104424","vijay_select@rediffmail.com;selectwglcro@gmail.com"
"TEJASWI AUTOMOBILES","PLOT NO 7, SY NO 96/A/7, PASTAPUR VILLAGE, ZAHEERABAD TEHSIL","Zahirabad","Telangana","502228","040-44229999","ceo@tejaswiautomobiles.com"
"G P MOTORS PVT LTD","AMANPUR, BEDI PULIA","Achur Nerua","Uttar Pradesh","210205","0532-2408055","manish.gpmotors@hotmail.com"
"ARVIND AUTO SALES","B-3, LAWYERS COLONY, BYE PASS ROAD","Agra","Uttar Pradesh","282005","9068378600","arvindautosales@gmail.com"
"ASHOK AUTO SALES LTD-3009100","ASHOK AUTO SALES LTD, 119-120/8, SANJAY PLACE","Agra","Uttar Pradesh","282002","0562 - 6540155 / 9897599229","pcdsale@ashokautosales.com"
"MASCOT MOTORS PVT LTD","5TH KMS STONE, DELHI GT ROAD","Aligarh","Uttar Pradesh","202001","9639008800","mayank@mascotmetal.com"
"G P MOTORS PVT LTD","31, M.G. MARG, CIVIL LINES","Allahabad","Uttar Pradesh","211001","0532 - 2408055 / 2408253","gp.motors@hotmail.com"
"SOCIETY MOTORS LTD","KAKHAWATU BAMBA, (DIVYAPUR ROAD), NEAR POWER HOUSE","Auraiya","Uttar Pradesh","206122","9235653691","gmsales@societymotors.com"
"PUNEET AUTOMOBILES PVT. LTD.-3003683","HAMIDPUR, SAIDWARA, NEAR RANI KI SARAI","Azamgarh","Uttar Pradesh","276207","9918902188/9919790353/7705802379","puneetpcdsales@gmail.com"
"GROVER TRADE LINKS PVT LTD","NEAR ROAD WAYS BUS STAND, BY PASS ROAD","Baheri","Uttar Pradesh","243201","9927500140","gmsale@grovermotors.in"
"SHREE DEV WHEELS PVT. LTD.","KEDIA BHAWAN, NEAR RAILWAY CROSSING, GONDA ROAD","Bahraich","Uttar Pradesh","271801","9554965414","sales.bahraich@shreedevwheels.com"
"PUNEET AUTOMOBILES PVT. LTD.-3003683","RAJDHANI ROAD, PHEPHNA","Balia","Uttar Pradesh","277001","0548-232304","puneetautomobile.balia@gmail.com"
"SHREE DEV WHEELS PVT. LTD.","ANAND BAGH, NEAR RAPTI GAS AGENCY","Balrampur","Uttar Pradesh","271201","9554965414","matendra.vikram@shreedevwheels.com"
"JMK MOTORS","BANDA ATARRA ROAD, ALI GANJ","Banda","Uttar Pradesh","210001","9984383900 / 05192 - 224001","jmkmotorsbanda@gmail.com"
"GROVER TRADE LINKS PVT LTD","4TH KM, RAMPUR ROAD, C.B GANJ, OPP. MINI BYE PASS","Bareilly","Uttar Pradesh","243502","0581-2560777,2560667,2560666/9690084888","groverbly@yahoo.co.in"
"R K LAXMI GENERAL SALES LTD.-3008610","CHANPURWA FOUR LANE BYPASS, BESIDE MANURI CHAURAHA SIDE LANE","Basti","Uttar Pradesh","272002","7310105502","sales.rklmotors@gmail.com"
"OKEY MOTORS PVT. LTD.-3009910","RAJAPURA CHAURHA, BALU MANDI, OPP.TEHSIL","Bhadohi","Uttar Pradesh","221401","9670494227","okmotorsmzp@gmail.com"
"SHRI VASU AUTOMOBILES LTD","OPP KAMAKHYA STEEL FACTORY, NAJIBABAD ROAD","Bijnor","Uttar Pradesh","246701","9837135627","shreevasu@hclinfinet.com"
"MASCOT MOTORS PVT LTD","KAILASH PURI, NEAR SYNDICATE BANK, RAILWAY ROAD","Bulandshahr","Uttar Pradesh","203001","9639008859","mascothemant@hotmail.com"
"BRIJLAX MOTORS PVT LTD","WARD NO-11, SANJAY NAGAR, G T ROAD","Chandauli","Uttar Pradesh","232104","9415228576 / 9415228580","nkjain@brijlax.com;singh.randheer2@gmail.com"
"R K LAXMI GENERAL SALES LTD.-3008610","PURVA CIRCLE, HATA ROAD","Deoria","Uttar Pradesh","274001","7310105555","lkraitata@gmail.com"
"ARVIND AUTO SALES","KHASRA NO 323, NH 2, OPP. K.P ENGINEERING COLLEGE","Dharera","Uttar Pradesh","283202","9068378600","arvindautosales@gmail.com"
"R.A. MOTORS PVT. LTD.","KASGANJ ROAD","Etah","Uttar Pradesh","207001","9837545777","ritvik.chaturvedi@gmail.com"
"MAA SATYAVATI MOTORS PRIVATE LIMITED","PLOT NO 211, 212, NH 2, KANPUR ROAD, PILKAR","Etawah","Uttar Pradesh","206001","8826390188","ankur.gupta0810@gmail.com"
"SHREE DEV WHEELS PVT. LTD.-3006960","252 ABU SARAI, LUCKNOW BYPASS, SAHADATGANJ","Faizabad","Uttar Pradesh","224001","9554690111 / 9999901057","shreedevfaizabad@gmaiil.com"
"R.A. MOTORS PVT. LTD.","LAL DARWAJA, THANDI SADAK","Farrukhabad-cum-fatehgarh","Uttar Pradesh","209625","05742-233997","gmpcbu@ramotors.co.in"
"ARVIND AUTO SALES","DHOLPURA, RAJA KA TAAL, NH 2","Firozabad","Uttar Pradesh","283204","9068378600","arvindautosales@gmail.com"
"SHREE BALAJI AUTOWHEELS (INDIA) PVT LTD","NEAR PARK VIEW RESTAURANT, N.H-24 DELHI ROAD","Gajraula","Uttar Pradesh","244235","7007990969","shreebalajiautowheels@gmail.com"
"SAB MOTORS PVT. LTD.","CF 1-1/1 TO 1/5 HARSHA COMPOUND, SITE II, LONI ROAD INDUSTRIAL AREA, MOHAN NAGAR","Ghaziabad","Uttar Pradesh","201007","0120- 6405545","sales@sabmotors.com;salescar@sabmotors.com;workshopcar@sabmotors.com"
"SAB MOTORS PVT. LTD.","G-94, PATEL NAGAR - III","Ghaziabad","Uttar Pradesh","201001","0120 - 4376914","sales@sabmotors.com;salescar@sabmotors.com"
"BRIJLAX MOTORS PVT LTD","SARIYA, PO CANTT","Ghazipur","Uttar Pradesh","233001","0542- 2220094","anujrai929@gmail.com"
"SHREE DEV WHEELS PVT. LTD.","34, CIVIL LINES, KUTTCHERY ROAD, GONDA LUCKNOW ROAD","Gonda","Uttar Pradesh","271001","05262 - 233720 / 9554965416","shreedevwheels@gmail.com"
"R K LAXMI GENERAL SALES LTD.-3008610","AL- 4A, SEC. 9, GIDA","Gorakhpur","Uttar Pradesh","273209","7310105555","rklaxmigmsales@gmail.com"
"SHREE DEV WHEELS PVT. LTD.-3006960","NAKARIPUR","Gosainganj","Uttar Pradesh","224141","9554690111","shreedevfaizabad@gmail.com"
"SAB MOTORS PVT. LTD.","NEAR AMBIKA TILES, ADJACENT TO SARASWATI ENCLAVE, DELHI ROAD","Hapur","Uttar Pradesh","246101","7065005493","saleshead@sabmotors.com"
"KD MOTOCORP INDIA PVT. LTD.","NANAKGANJ, LUCKNOW ROAD","Hardoi","Uttar Pradesh","241001","8429026006","hardoi.kdtata@gmail.com"
"PUNEET AUTOMOBILES PVT. LTD.-3003684","ILMAASGANJ, JALALPUR TIWARI","Jagdishpur","Uttar Pradesh","227809","7081400262","puneet.jagdishpur@gmail.com"
"KD MOTOCORP INDIA PVT. LTD.","NEAR RELIANCE PETROL PUMP, KATRA JALALABADPUR MARG","Jalalabad","Uttar Pradesh","242221","8429026028","salesmkdmotocorp@gmail.com"
"PUNEET AUTOMOBILES PVT. LTD.-3003683","JAGARNATH PATTI, PARGANA- HAVELI, SADAR","Jaunpur","Uttar Pradesh","222002","9919790353","manish.puneetpcd@gmail.com"
"JMK MOTORS","JANKI PURAM, CIVIL LIINES, NEAR KAPOOR NURSING HOME","Jhansi","Uttar Pradesh","284001","0510 - 2370555 / 2370655","jmkmotors@rediffmail.com;jmkmotors2010@gmail.com"
"SOCIETY MOTORS LTD","SHEETLA PRASAD COMPLEX, OPP. SPARSH HOSPITAL, TIRWA ROAD","Kannauj","Uttar Pradesh","209725","9235448610","ravi@societymotors.com"
"BRINDAVAN SHELTERS PVT LTD","119/505, OPPOSITE LAKSHMIRATAN MILL, FAZALGANJ, KALPI ROAD","Kanpur","Uttar Pradesh","208006","0512 - 2222746 /  745 / 748 / 9235406768","brindavanshelters@yahoo.co.in"
"SOCIETY MOTORS LTD","87/8, G.T.ROAD, GUNJAN CINEMA COMPLEX","Kanpur","Uttar Pradesh","208003","8795829365","salesgtr76@gmail.com"
"SOCIETY MOTORS LTD","12/483, MACROBERTGANJ","Kanpur","Uttar Pradesh","208001","0512 - 6450706 / 9235661813","societymotors1@gmail.com"
"BRINDAVAN SHELTERS PVT LTD","225/2, OPPO KULGAON POLICE CHOWKI, ALLAHABAD ROAD, RUMA","Kanpur","Uttar Pradesh","208007","0512-2410491,493/ 2222746,745,748","brindavanshelters@yahoo.co.in"
"R.A. MOTORS PVT. LTD.","NEAR COMMUNITY HALL, NEAR PRABHU PARK, NADARAI GATE","Kasganj","Uttar Pradesh","207123","9837849337","gmpcbu@ramotors.co.in"
"R K LAXMI GENERAL SALES LTD.-3008610","NEAR MATHIA RAM GOVIND","Kushinagar","Uttar Pradesh","274402","73101056000","gm.rklmotors@gmail.com"
"RANA MOTORS-3004520","LOHARI NAGAR, BAHRAICH ROAD","Lakhimpur","Uttar Pradesh","262701","05872-279993","ranamotors.car@gmail.com"
"GOLDRUSH SALES & SERVICES LTD","19,  ASHOK MARG","Lucknow","Uttar Pradesh","226001","0522 - 4927400 / 2353581 /7860024346","edp@thegoldrushgroup.com"
"PUNEET AUTOMOBILES PVT. LTD.-3003684","403-407, TIWARIGANJ, UTTARDHAUNA, NEAR BBD UNIVERSITY, FAIZABAD ROAD","Lucknow","Uttar Pradesh","226028","0522 - 2819476","manish.puneetpcd@gmail.com"
"GOLDRUSH SALES & SERVICES LTD","GOPAL PLAZA, OPPOSITE HAL, FAIZABAD ROAD","Lucknow","Uttar Pradesh","226016","0522 - 2353581 / 82","smgp@thegoldrushgroup.com"
"MOTORSALES LIMITED - 3001790","OPP. CHARBAGH RAILWAY STATION, CHARBAGH, NEAR RAVINDRALAYA","Lucknow","Uttar Pradesh","226004","0522 - 2630830 / 2630831 / 2630832","msl_lko@rediffmail.com"
"SRM MOTORS","11-CP/2, VIKAS NAGAR EXTENSION, RING ROAD","Lucknow","Uttar Pradesh","226022","0522 - 4159311 / 33","piyush@srm-motors.com"
"SRM MOTORS","PLOT NO. 588, HIND NAGAR, KANPUR ROAD, INFRONT OF SAROJNI NAGAR ESI HOSPITAL","Lucknow","Uttar Pradesh","226012","0522 - 4159333","srm@srm-motors.com"
"MAA SATYAVATI MOTORS PRIVATE LIMITED","KARHAL CHAURAHA","Mainpuri","Uttar Pradesh","205001","6399155532","maasatyavatimnp@gmail.com"
"G P MOTORS PVT LTD","OSA MANJHANPUR ROAD, NEAR MANDI PARISHAD,","Manjhanpur","Uttar Pradesh","212207","8874204102","manish.gpmotors@hotmail.com"
"NAWAL MOTORS-3004615","C-11, INDUSTRIAL AREA, SITE A","Mathura","Uttar Pradesh","281004","0565 - 6536533","madhav.nawalmotors@gmail.com"
"PUNEET AUTOMOBILES PVT. LTD.-3003683","MAHENDRA NAGAR, POLICE LINE, NEAR SP OFFICE","Mau","Uttar Pradesh","275101","0542-338335","punnet.auto@gmail.com"
"SHRI VASU AUTOMOBILES LTD","C-1 SHATABDI NAGAR, DELHI ROAD","Meerut","Uttar Pradesh","250104","0121 - 2440800 - 01 / 9837049144","shreevasu@hclinfinet.com"
"OKEY MOTORS PVT. LTD.-3009910","BHARAUNA, CHUNNAR ROAD","Mirzapur-cum-vindhyachal","Uttar Pradesh","231001","9616873055","okmotorsmzp@gmail.com"
"SAB MOTORS PVT. LTD.","KHASRA NO. 680, NEAR MOHAN PARK, VILLAGE- BISOKER, DELHI â€“ MEERUT ROAD","Modinagar","Uttar Pradesh","201204","7065005493","saleshead@sabmotors.com"
"SHREE BALAJI AUTOWHEELS (INDIA) PVT LTD","OPPOSITE CIRCUIT HOUSE, DELHI ROAD","Moradabad","Uttar Pradesh","244001","0591 - 2485666","shreebalajiautowheels@gmail.com"
"MIDAS MOTORS","PLOT NO. 77/1, VILL. BILASPUR, NH-58, DELHI HARIDWAR HIGHWAY","Muzaffarnagar","Uttar Pradesh","251001","9927889900","dir@midasmotor.com"
"PUNEET AUTOMOBILES PVT. LTD.-3003684","HANUMANNT NAGAR, PALHARI CHAURAHA","Nawabganj","Uttar Pradesh","225001","7311165629","manish.puneetpcd@gmail.com"
"SAGAR MOTORS-3006230","PLOT NO B 123, SECTOR 5","Noida","Uttar Pradesh","201301","0120 â€“ 4200066 / 9599555506 / 9599555507","rajeshsagar290@gmail.com;sagarmotorsindia@gmail.com"
"SAGAR MOTORS-3006230","E-36, SITE-4, UDSIDC, SURAJPUR KASNA ROAD, (NEAR PARI CHOWK)","Noida","Uttar Pradesh","201310","9205198934","gmsales@sagarmotors.in"
"R K LAXMI GENERAL SALES LTD.-3008610","SONAULI BYPASS ROAD","Pharenda","Uttar Pradesh","273155","73101056000","gm.rklmotors@gmail.com"
"KD MOTOCORP INDIA PVT. LTD.","NEAR OLD RELIANCE PUMP, KHUTAR ROAD","Powayan","Uttar Pradesh","242401","8429026028","salesmkdmotocorp@gmail.com"
"G P MOTORS PVT LTD","BHUPIYA  -  MAU CHOWRAHA","Pratapgarh","Uttar Pradesh","230131","0532 - 2408055 / 2400777/9415190445","tripathiumesh79@gmail.com"
"GROVER TRADE LINKS PVT LTD","BANDA ROAD, OPP. SUPERMARKET","Puranpur","Uttar Pradesh","262122","9927500140","gmsale@grovermotors.in"
"SRM MOTORS","BARGAD CHAURAHA","Rae Bareli","Uttar Pradesh","229001","7233812345","srm@srm-motors.com"
"NAWAL MOTORS-3004615","MANT ROAD","Raya","Uttar Pradesh","281204","9720109720","madhav.nawalmotors@gmail.com"
"MIDAS MOTORS","21 B, CHANDAR NAGAR, AMBALA ROAD","Saharanpur","Uttar Pradesh","247001","9927889900","gmshr@midasmotor.com"
"KD MOTOCORP INDIA PVT. LTD.","NEAR MEZBAN HOTEL, ROZA BYPASS, NH 24, ROZA","Shahjahanpur","Uttar Pradesh","242001","8429026028","salesmkdmotocorp@gmail.com"
"KD MOTOCORP INDIA PVT. LTD.","VILLAGE GULAMKHEDA, PARGANA JAMOUR, NH- 24","Shahjahanpur","Uttar Pradesh","242001","9710720000","kdmotocorp@gmail.com"
"MIDAS MOTORS","GANGA VIHAR, KARNAL MEERUT ROAD","Shamli","Uttar Pradesh","247776","7055514001","gmshrmidasmotor1@gmail.com"
"SHREE DEV WHEELS PVT. LTD.","GORAKHPUR ROAD","Siddharthnagar","Uttar Pradesh","272153","9554965414","shreedevwheels@gmail.com"
"ANANYA MOTORS","546 AMKOL, FAIZABAD ROAD","Sultanpur","Uttar Pradesh","228001","05362 - 293600","ananyamotors2010@gmail.com"
"SOCIETY MOTORS LTD","PLOT NO. 1, TULSI PURAM, GADAN KHERA BYE PASS ROAD","Unnao","Uttar Pradesh","209801","0512 - 6450552","skapoor@societymotors.com"
"SUYASH MOTORS","PAMA COMPLEX, SHIVDASPUR, LAHARTARA","Varanasi","Uttar Pradesh","221002","0542 - 2373961 /62 /2373959/8805051909","info@suyashmotors.com"
"BRIJLAX MOTORS PVT LTD","D58/19, CHURCH COMPOUND, SIGRA","Varanasi","Uttar Pradesh","221010","0542-2220094/1442/6719/8004925871","brijlaxmotors@live.com"
"GOLA GANPATI MOTORS","LOWER MALL ROAD, KARNATAK KHOLA","Almora","Uttarakhand","263601","9927688808 / 9927153663","sales@golaganapati.com;ggmsales@hotmail.com"
"OBERAI MOTORS","P.O. MAJRA, SAHARANPUR ROAD","Dehradun","Uttarakhand","248171","0135 - 2645011 -13 / 9639016008","oberaimotors@gmail.com"
"DOON WHEEL PRIVATE LIMITED","PLOT NO.50, CHAKRATA ROAD, OPP. DOON SCHOOL, NEAR HP PETROL PUMP","Dehradun","Uttarakhand","248001","7302255800","doon.tatamotors@gmail.com"
"GOLA GANPATI MOTORS","6TH KM STONE, GORA PARAO, BAREILLY ROAD,  N H 87","Haldwani","Uttarakhand","263139","05946 - 232853-54-55-56 / 9927688806","sales@golaganapati.com;ggmsales@hotmail.com"
"MIDAS MOTORS-300A090","E-17, OLD INDUSTRIAL AREA","Hardwar","Uttarakhand","249401","9639009941","gmrrk@midasmotor.com"
"OBERAI MOTORS","HOTEL DEV DARSHAN, NEW BUS STAND","Karanprayag","Uttarakhand","246444","0135 - 2645011","oberaimotors@gmail.com"
"GOLA GANPATI MOTORS","DHARCHULLA ROAD, RAI, NEAR MAA KRIPA BARRAT GHAR","Pithoragarh","Uttarakhand","262501","9927524000","ceo@golaganapati.com"
"GOLA GANPATI MOTORS","KICHHA BYPASS ROAD, NEAR BHEL","Rudrapur","Uttarakhand","263153","7055305852","office@golaganapati.com"
"OBERAI MOTORS","OPP. KAILASH HOTEL, BABU GANJ","Vikasnagar","Uttarakhand","248198","0135 - 2645011","oberaimotors@gmail.com"
"T C MOTORS PVT LTD","PLOT NO 204, NEW TOWN ROAD, NEAR NOAPARA SCHOOL, NOAPARA, RAJARHART","Kolkata","West Bengal","700157","033-30443044","anupchakraborty@tcmotors.in"
"LEXUS MOTORS LTD-3002150","PLOT NO. IID/13, D MAJOR ARTERIAL ROAD, ACTION AREA II, NEW TOWN, RAJARHAT","Kolkata","West Bengal","700156","9831031002","raymond.das@lexusmotors.in"
"K B MOTORS PVT LTD","63C, BALLYGUNGE CIRCULAR ROAD","Kolkata","West Bengal","700019","033 - 40022700 / 01 / 02 / 03","anilbagaria@kbmotors.in"
"DULICHAND MOTORS PVT. LTD.","686, ANANDPUR, SHRACHI TOWER, NEAR RUBY HOSPITAL","Kolkata","West Bengal","700107","033 - 40141616 / 9836176501","salesgm@dulichandgroup.com"
"DULICHAND MOTORS PVT. LTD.","NEAR BISHNUPUR THANA, VILL& POST : BISHNUPUR, THANA: BISHNUPUR","Amtala","West Bengal","743503","9836176506","salesgm@dulichandgroup.com"
"LEXUS MOTORS LTD-3002150","45/A, VILLAGE PARUL BAKULTALA, WARD NO 13, PO AND PS ARAMBAGH","Arambag","West Bengal","712601","9831481090","bhaskar.dasgupta@lexusmotors.in"
"CHANDRANI ENTERPRISES PVT LTD","N/536 BOGRA CHATTI, ON NH-2","Asansol","West Bengal","713332","0341-7136255","gmoperations@chandrani.co.in"
"BANERJEE AUTOMOBILES PVT. LTD.","SUKANTA PALLY, SATI GHAT BY PASS, NEAR POST OFFICE","Bankura","West Bengal","722101","7872577634","banerjeeautomobiles@gmail.com"
"BANERJEE AUTOMOBILES PVT. LTD.","UTTARA BUS STAND, NAWABHAT, NH2","Barddhaman","West Bengal","713102","7872577634","banerjeeautomobiles@gmail.com"
"DULICHAND MOTORS PVT. LTD.","KHASMALLIK, DAKSHIN GOBINDPUR","Baruipur","West Bengal","700145","9836176506","salesgm@dulichandgroup.com"
"LEXUS MOTORS LTD-3002150","VILLAGE - GOBINDAPUR, POST- KHOLAPOTA, PS- BASIRHAT","Basirhat","West Bengal","743428","9831031002","raymond.das@lexusmotors.in"
"NIBIR MOTORS PVT LTD","JALANGI ROAD, KATBELTALA, P.O.- BOYALIADANGA","Berhampore","West Bengal","742101","9734481756","nibirmotorspvtltd@gmail.com"
"BANERJEE AUTOMOBILES PVT. LTD.","KASHIPUR BY PASS MORE, PO+PS BOLPUR","Bolpur","West Bengal","731204","7477792300","banerjeeautomobiles@gmail.com"
"LEXUS MOTORS LTD-3002150","VILLAGE - SIKDARPALLY, POST+PS- BONGAON","Bongaon","West Bengal","743235","9831031002","raymond.das@lexusmotors.in"
"T C MOTORS PVT LTD","PRIYOPAN APARTMENT, GROUND FLOOR, PRIYONAGAR, GT ROAD, CHINSURAH","Chandannagar","West Bengal","712136","8584868412","baptist@tcmotors.in"
"RANGEET AUTO PRIVATE LIMITED","MERRY VILLA, NEAR MARUTI SHOWROOM","Darjiling","West Bengal","734101","9647777778","rangeetauto2018@gmail.com"
"KRISHNAA CAR WORLD PVT LTD","BARBAJITPUR BRAJALAL CHOWK, NEAR GIRL SCHOOL","Haldia","West Bengal","721645","7063599454","ceo@krishnaacar.com"
"T C MOTORS PVT LTD","NEAR KOLKATA WEST INTERNATIONAL CITY, NH-6, SALAP MORE, BANKRA KABAR PARA WEST, P.O.- DOMJUR, P.S.- DOMJUR","Howrah","West Bengal","711403","033-30433043","baptist@tcmotors.in"
"RANGEET AUTO PRIVATE LIMITED","STATE FARM COLONY, COLLEGE MORE, NH - 34","Islampur","West Bengal","733202","9475520047","ruralsales.rangeetauto@gmail.com"
"RANGEET AUTO PRIVATE LIMITED","SIRISH TALA, NEAR A.C. COLLEGE","Jalpaiguri","West Bengal","735101","9647777778","rangeetauto2018@gmail.com"
"BANERJEE AUTOMOBILES PVT. LTD.","BURDWAN ROAD, LICHU TALA","Kalna","West Bengal","713409","7477792305","banerjeeautomobiles@gmail.com"
"NIBIR MOTORS PVT LTD","B4/69, NIMTALA BUS STAND","Kalyani","West Bengal","741235","7548066699","gm.nibirsales@gmail.com"
"KRISHNAA CAR WORLD PVT LTD","ARMAN BUILDING, INDA OT ROAD","Kharagpur","West Bengal","721305","9556677844","ceo@krishnaacar.com"
"NIBIR MOTORS PVT LTD","NH-34, MADHUBAN, BHATJUNGLA","Krishnanagar","West Bengal","741102","7548066699 / 7548066665","nibirmotorspvtltd@gmail.com;sm.nibirmotors@gmail.com"
"LEXICAN MOTORS","P. O.: MANGALBARI, VILLAGE: NALDUBI, N H 34","Malda","West Bengal","732142","03512 - 260326","lexicanmotors@rediffmail.com"
"BANERJEE AUTOMOBILES PVT. LTD.","DULMI, TATA ROAD, OPPOSITE HARI BOL MANDIR, DULMI-NADIHA","Puruliya","West Bengal","723102","7477792350","autmobilesbanerjee@gmail.com"
"BANERJEE AUTOMOBILES PVT. LTD.","SH5, BLOCKDANGA, RAGHUNATHPUR NORTH, PO-RAGHUNATHPUR","Raghunathpur","West Bengal","723133","7477792352","banerjeeautomobiles@gmail.com"
"RANGEET AUTO PRIVATE LIMITED","SOHAROI MORE, N.H. 34","Raiganj","West Bengal","733134","7076299033","rangeetauto2018@gmail.com"
"BANERJEE AUTOMOBILES PVT. LTD.","NH-60, BOKTUI MORE, OPP. ABANTIKA LODGE, PO-RAMPURHAT","Rampurhat","West Bengal","731224","7477792300","banerjeeautomobiles@gmail.com"
"CHANDRANI ENTERPRISES PVT LTD","WEST RANGAMATIA, NEAR ICICI BANK, CHITTRANJAN","Rupnarayanpur","West Bengal","713386","7005321919","nilitata2017@gmail.com"
"LEXUS MOTORS LTD-3002150","234/2 GRAND TRUNK ROAD, PO-MAHESH, PS-SERAMPORE","Serampore","West Bengal","712202","9831031002","raymond.das@lexusmotors.in"
"RANGEET AUTO PRIVATE LIMITED","SHOP NO. 1 & 2, ORCHID, OPPOSITE VEGA CIRCLE MALL, SEVOKE ROAD","Siliguri","West Bengal","734001","9832068361","rangeetauto@gmail.com"
"LEXICAN MOTORS-3001513","KUSUMNAGAR, NH 31, MATIGARA","Siliguri","West Bengal","734010","0353 - 2571398","anshul.h@lexiconauto.com"
"BANERJEE AUTOMOBILES PVT. LTD.","ABADAPUR ROAD, OPPOSITE RELAX BAR","Suri","West Bengal","731101","7872577634","aamargangulyy@gmail.com"
"NIBIR MOTORS PVT LTD","NH-34, PO GHORSALA, PS RAGHUNATHGANJ","Umarpur","West Bengal","742225","8016132465","gm.nibirsales@gmail.com"
