"Dealer Name","Address","City","State","Pincode","Contact","Email"
"ANDAMAN MOTORS PRIVATE LIMITED-1009300","C/O S RAJU ABERDEEN BAZAR, PORT BLAIR","Port Blair","Andaman","744101","9434262124/13192-232963/ 167","mghani@rediffmail.com"
"VISHNU CARRIERS PVT LTD","SKBR COLLEGE ROAD, KONKAPALLI, AMALAPURAM","Amalapuram","Andhra Pradesh","533201","98481968791","vcpldirector@gmail.com"
"DHANVI MOTORS INDIA PVT LTD","D NO. 6-5-575, MAIN ROAD,, RAM NAGAR,","Anantapur","Andhra Pradesh","515004","9440286353","dhanvimotorsindia@gmail.com"
"MERU AUTOMOBILES PVT LTD","DOOR NO. 14-225-EU,, KADIRI TOWN BY PASS ROAD, KADIRI","Anantapur","Andhra Pradesh","515591","9492098267",""
"JASPER INDUSTRIES LTD.","2/15/25/5,R K COMPLEX,UNDI ROAD, NDI ROAD,BHIMAVARAM,","Bhimavaram","Andhra Pradesh","534202","9248022666","yj.naidu@jasperindustries.com"
"JASPER INDUSTRIES LTD.","D.NO:  CHIKKALA SATYANARAYANA COMPLEX,, MARUTHI NAGAR","Chintalapudi","Andhra Pradesh","534460","9441113006","acevij@jasperindustries.com"
"VARALAKSHMI AUTOMOBILES PVT LTD","D.NO. 23/2/23, GATTUVARI STREET, OPP: NAVATHA TRANSPORT, CHIRALA","Chirla Dinne","Andhra Pradesh","523155","92464 23031","vivek@ksngroup.in"
"VARALAKSHMI AUTOMOBILES PVT LTD","O V ROAD, OPP LORRY OWNER'S ASSOCIATION,, KANDUKURU TOWN, PRAKASAM DIST,","Chittoor","Andhra Pradesh","523105","9963337495","bhaskar@ksngroup.in"
"VARALAKSHMI AUTOMOBILES PVT LTD","PLOT NO 13, NEAR GOVT EMPLOYMENT EXCHANGE OFFICE,, KONGA REDDY PALLI, CHITTOOR,","Chittoor","Andhra Pradesh","517001","80096696627","saivagnash@rediffmail.com"
"VARALAKSHMI AUTOMOBILES PVT LTD","LINEMAN RAMAMURTHY BUILDING,, NEAR NERNAPALLI, PALAMANER ROAD,","Chittoor","Andhra Pradesh","517424","8096690017","pradeep@ksngroup,in"
"SBAK AUTOMOBILES PVT LTD-1007640","DOOR NO. 8/1025, ALMAPET,, KADAPA TOWN,","Cuddapah","Andhra Pradesh","516001","9666635410","arshad.basha@gmail.com"
"MERU AUTOMOBILES PVT LTD","COURT ROAD, L P CIRCLE,, CITY - DHARAMVARAM, DIST - ANANTAPUR,","Dharmavaram","Andhra Pradesh","515671","9866310089",""
"SRI RAMDAS MOTOR TRANSPORT LTD.","391/4,  BESIDE AUTO NAGAR ROAD, N H 5,, DIWANCHERUVU, RAJANAGARAM MANDAL, RAJAHMUNDRY","East Godavari","Andhra Pradesh","533294","8008577373/0883-246815","cvdwsrjy@srmt.com"
"JASPER INDUSTRIES LTD.","RS NO 119/1, PLOT NO 112 & 113, POSTAL COLONY, SRINIVASA CO-OERATIVE  HOUSE BLDG SOC,ELURU","Eluru","Andhra Pradesh","534003","9246477979","Sharieff@jasperindustries.com"
"VARALAKSHMI AUTOMOBILES PVT LTD","SERVEY NO:644, ONGOLE HIGHWAY ROAD,, NR. CHANIKYA RESIDENTIAL SCHOOL,","Giddaluru","Andhra Pradesh","523357","9248741917","vlauto09@gmail.com"
"JASPER INDUSTRIES LTD.","RS NO 225/5, D.NO: 1/20-D1, GRANDHI COMPLEX,, BYPASS ROAD, GUDIVADA","Gudivada","Andhra Pradesh","521301","9248022666","yj.naidu@jasperindustries.com"
"JASPER INDUSTRIES LTD.","D.NO. 8/24-35/4, MOHAMED JONY NAGAR,, MANGALGIRI ROAD","Guntur","Andhra Pradesh","522001","9246477979","shareieff@jasperindustries.com"
"VISHNU CARRIERS PVT LTD","D.NO:7-14-30, PALLA APPARAO COMPLEX,, NEAR PANTHULAGARI MEDA, GAJUWAKA,","Gurajala","Andhra Pradesh","530026","","vishnucarriers@rediffmail.com"
"MERU AUTOMOBILES PVT LTD","H.NO.9/1/3B, OPP: PALLA RESIDENCY,, PANDU RANGA NAGAR,","Hindupur","Andhra Pradesh","515201","",""
"JASPER INDUSTRIES PRIVATE LIMITED-1004850","SHOP NO 09 & 10, PLOT NO 41,, PHASE -1 IDA, JEEDIMETLA, HYDERABAD,","Hyderabad","Andhra Pradesh","500055","9640808097","saelsjeedimetla@jasperindustries.com"
"VISHNU CARRIERS PVT LTD","35/7/8/9, RAMANAYYAPETA VILLAGE,, SARPAVARAM, KAKINADA","Kakinada","Andhra Pradesh","533005","9848198791","vishnucarrierspvtltd@gmail.com"
"SRI RAMDAS MOTOR TRANSPORT LTD.","20-1-8, SUBHASH ROAD, POST BOX NO - 42,","Kakinanda","Andhra Pradesh","533001","09247011136","ho@srmt.com"
"SRI RANGA MOTORS PVT LTD","3-45/C, GS NAIDU NAGAR, VIZAG ROAD,, NEAR EASTERN POWER OFFICE, KOTHAVALASA, SRIKAKULAM","Kothavalasa","Andhra Pradesh","532185","7702333975","srirangamootrspvtltd@yahoo.co.in"
"JASPER INDUSTRIES LTD.","D NO 3-55, MAIN ROAD,, OPP. DONBOSCO HIGH SCHOOL, RAITUPETA,","Krishna","Andhra Pradesh","521366","9652762024","acevij@jasperindustries.com"
"JASPER INDUSTRIES LTD.","D-104/1A VIJAYAWADA ROAD,, NU","Krishna","Andhra Pradesh","521105","",""
"MERU AUTOMOBILES PVT LTD","SHOP # 21&22, SAP COMPLEX,, BELLARY CHOWRASTA,","Kurnool","Andhra Pradesh","518004","9949555878","meruauto@rediffmail.com"
"VENKATA SAI AUTOMOBILES PVT LTD","S NO 133/1, NEAR EENADU PRESS,, MAMI DALAPADU (V), NH - #44,","Kurnool","Andhra Pradesh","518004","9848076567","venkatasikni@gmail.com"
"MERU AUTOMOBILES PVT LTD","NH-7 SANTOSH NAGAR (POST), BESIDE IOC JUBLEE PETROL PUMP","Kurnool","Andhra Pradesh","518004","08518 254224","jayaram309@hotmail.com"
"MERU AUTOMOBILES PVT LTD","PAMURAI VILLAGE, VADIYAMPET  POST,N. H. -7","Kurnool","Andhra Pradesh","518381","8554200521","jayaram309@hotmail.com"
"JASPER INDUSTRIES LTD.","15-1-1089/A, GUNTUR ROAD, BESIDE MAHALAXMI COLD STORAGE, MACHARLA,","Macherla","Andhra Pradesh","522426","",""
"JASPER INDUSTRIES LTD.","DOOR NO 17-231-1,ZILLA COURT CENTRE,, BESIDE NAGA SAIBABA TEMPLE","Machilipatnam (r)","Andhra Pradesh","521001","",""
"VARALAKSHMI AUTOMOBILES PVT LTD","NEAR DCP BUNGLOW,, PUNGANOOR ROAD","Madanapalle","Andhra Pradesh","517325","9010299494",""
"JASPER INDUSTRIES PRIVATE LIMITED-1004850","H NO 9-317/B, BALAJI NILAYAM,, MAIN ROAD, MULUGAL, WARANGAL","Madanpalli","Andhra Pradesh","","9010033376","salesmulugu@jasperindustries.com"
"VISHNU CARRIERS PVT LTD","D NO 34-15-30/1A, OPP KAMAT PETROL BUNK,, BY PASS ROAD,","Mandapeta","Andhra Pradesh","533308","9848124566","sureshgrandhi@hotmail.com"
"VARALAKSHMI AUTOMOBILES PVT LTD","CUMBUM ROAD, OPP.SRINIVASA THEATER BRAHMAGIRI TEMPLE,, CITY - MARKAPUR, DIST - PRAKASAM,","Markapur","Andhra Pradesh","523116","9391190109","vlauto40@gmail.com"
"MERU AUTOMOBILES PVT LTD","R S ROAD, OPP. MUNCIPAL OFFICE,, NANDYAL, KURNOOL,","Nandyal","Andhra Pradesh","518501","9989577795","meruauto@rediffmail.com"
"JASPER INDUSTRIES LTD.","D.NO:20-1-58/2,VASAVI COMPLEX,, GUNTUR ROAD,NARASARAOPET,","Narasaraopet","Andhra Pradesh","522601","9248022666","yj.naidu@jasperindustries.com"
"M. G. BROTHERS AUTOMOBILES LTD.","SURVEY NO.35,WOOD COMPLEX,, OPP. 5TH TOWN POLICE STATION","Nellore","Andhra Pradesh","524004","0861 2342939 / 2321845","mgbcvd@mgbrothers.in"
"VARALAKSHMI AUTOMOBILES PVT LTD","SURVEY NO: 364/2, NATIONAL HIGHWAY ROAD,, NR RANGA PRASAD APARTMENTS,, SULURUPETA","Nellore","Andhra Pradesh","524121","9248741944","vlauto07@gmail.com"
"VARALAKSHMI AUTOMOBILES PVT LTD","SURVEY NO 1464/3B, BESIDE THUMMALA PENTA VILLAGE,, NH-5, KAVALI MANDALTALUK, KAVALI","Nellore","Andhra Pradesh","524201","8985966155","vivek@ksngroup.in"
"VARALAKSHMI AUTOMOBILES PVT LTD","PLOT NO.20, BUJABUJA, NATIONAL HIGHWAY-5","Nellore","Andhra Pradesh","524004","0861 2383888","vlauto07@gmail.com"
"JASPER INDUSTRIES LTD.","DOOR NO : 1-88-1,, NH-5, P.O - GUDAVALLI,","Nidamanuru","Andhra Pradesh","521104","0866 2474571 / 72 / 73 / 74","babu@jasperindustries.com"
"JASPER INDUSTRIES LTD.","D NO:2/12,ALEX COMPLEX,JHAN PETA,, OPP:CHURCH,BHIMAVARAM ROAD, KAIKALRU","Nuzvid","Andhra Pradesh","521333","",""
"VARALAKSHMI AUTOMOBILES PVT LTD","OPP:ANJANEYA SWAMY TEMPLE, NH-5, VENKATESWARA COLONY,","Ongole","Andhra Pradesh","523002","9246423039","bhaskar@ksngroup.in"
"JASPER INDUSTRIES LTD.","D.NO:358/10,NATIONALHIGH WAY ROAD, KONDAMODU(V),KOTANELAMALIPURI PANCHAYATHI","Piduguralla","Andhra Pradesh","522510","",""
"JASPER INDUSTRIES LTD.","D NO 358/10, KUBADUPURAM, KOTHA NEMALAPAURI PANCHAYAT,, PIDUGURALLA CITY","Piduguralla","Andhra Pradesh","","","yl.naidu@jasperindustries.com"
"VARALAKSHMI AUTOMOBILES PVT LTD","BLDG. NO.1/155/1, OPP  FISHIRIES OFFICE,, KADAPA ROAD","Pileru","Andhra Pradesh","517214","",""
"JASPER INDUSTRIES LTD.","NEAR R.T.C. DEPOT,, G.B.C. ROAD,","Ponnur","Andhra Pradesh","522124","",""
"VARALAKSHMI AUTOMOBILES PVT LTD","D. NO: 4-447/A, PODILI ROAD,, OPP: SHIVA MARBLES, DARSI,","Prakasam","Andhra Pradesh","523247","8096871209","vlauto09@gmail.com"
"SBAK AUTOMOBILES PVT LTD-1007640","SURVEY NO.489/1A1, 490-1A1,, NEAR KOTHAPALLY CROSS ROAD,","Proddatur","Andhra Pradesh","516361","9666635410","sbakautomobiles@gmail.com"
"VISHNU CARRIERS PVT LTD","84/1/2, NEAR PADAMAVATHI NAGAR,, ONGC BASE COMPLEX, N H 16, RAJAHMUNDRY, EAST GODAVARI","Rajahmundry","Andhra Pradesh","533106","9848198791",""
"SRI RANGA MOTORS PVT LTD","DOOR NO. 8-3-3, CHEEPURUPALLI ROAD,, OPP. VENKATESHWARA KALYANA MANDAPAM,","Rajam","Andhra Pradesh","532127","879099765","srirangamotorspvtltd@yahoo.in"
"JASPER INDUSTRIES LTD.","D.NO.23-10/A,T.B.R COMPLEX, BHADRACHALAM BYPAS ROAD,","Ramannapalem","Andhra Pradesh","521235","",""
"SBAK AUTOMOBILES PVT LTD-1007640","D NO. 38/186, CHITTOR ROAD,, RAYACHOTI, Y.S.R.","Rayachoti","Andhra Pradesh","516269","6309062645","sbakautomobilespvtltd@gmail.com"
"SRI RANGA MOTORS PVT LTD","ADJ -TO- BPCL PETROL BUNK, NH-5, PEDAPADU","Srikakulam","Andhra Pradesh","532005","9440806406","srirangamotorspvtltd@yahoomail.com"
"JASPER INDUSTRIES LTD.","D.NO.10-1-62/A, BHIMAVARAM ROAD, TADEPALLIGUDEM","Tadepalligudem","Andhra Pradesh","534102","",""
"VARALAKSHMI AUTOMOBILES PVT LTD","S NO 76/2, DR NO. 19-122/2, OPP VARTHA NEWS PAPER OFFICE,RENINGUNTA ROAD","Tirupathi","Andhra Pradesh","517501","0857 9247011144","vlauto07@gmail.com;"
"VARALAKSHMI AUTOMOBILES PVT LTD","SURVEY NO: I-BM200, NR. K.V.R. PROJECTS,, BANGARUPETA V C PALEM,","Venkatagiri","Andhra Pradesh","524132","9248741929","vivek@ksngroup.in"
"JASPER INDUSTRIES LTD.","D.NO.40-1-133,, BESIDES INDICA SHOWROOM,BENZ CIRCLE,","Vijayawada","Andhra Pradesh","520008","",""
"VISHNU CARRIERS PVT LTD","D.NO.14-8-30, MAIN ROAD,, KONATALA COMPLEX,  CITY - ANAKAPALLI, DIST - VISAKHAPATNAM,","Vishakhapatnam","Andhra Pradesh","531036","9247076867","vishnucarriers@rediffmail.com"
"VISHNU CARRIERS PVT LTD","D. NO. 1/46-168, BYEPASS ROAD,  NEAR SURYA NURSING HOME,, CITY - TAGARAPUVALASA, DIST - VISAKHAPATNAM","Vishakhapatnam","Andhra Pradesh","531126","9247075346","vishnucarriers@rediffmail.com"
"VISHNU CARRIERS PVT LTD","D.NO.2, 2-79/1 PEDDABODAPALLI ROAD,, BESIDE NTR COLLEGE,","Vishakhapatnam","Andhra Pradesh","531126","92470757000","vishnucarriers@rediffmail.com"
"SRI RAMDAS MOTOR TRANSPORT LTD.","D NO:27-32-94, 75FEET ROAD,","Vishakhapatnam","Andhra Pradesh","530012","0891 517045","ho@srmt.com"
"VISHNU CARRIERS PVT LTD","D1, D2 & D4, INDUSTRIAL ESTATE,, 104 AREA,  HIGHWAY,","Vishakhapatnam","Andhra Pradesh","530007","0891 2713924","vishnucarriers@rediffmail.com"
"SRI RANGA MOTORS PVT LTD","S/O. NARASIMHULU, H.NO:5-6, VEDULLAVALASA(V), GARIVIDI(M), VIZIANAGARAM","Vizianagaram","Andhra Pradesh","535003","08922 - 272036","srirangamotorspvtltd@yahoo.in"
"BUCHO MOTORS PVT LTD","ZINGANG COLONY, PAPUNALAH,  N.H.52,, NAHARLAGUN","Naharlagun","Arunachal Pradesh","791110","0360-2001046,2001047,224477","buchomotors@rediffmail.com"
"SUNDARAM MAHADEO AUTOWORLD PVT LTD","NH -15, NEAR CHAGANMAL PETROL PUMP,, MANGALDOI CITY","Akalibari","Assam","784125","7399090082","info@smautoworld.com"
"BORAH AUTOMOBILES PVT LTD","NH-61, HILOIDHARI GAON,, NEAR BHARAT PETROLIUM PUMP,","Amguri","Assam","785685","9127066153","hemanta.tata@yahoo.in"
"AUTO AXIS PVT LTD","NH -37 ASTC BUS STAND,, PO BOKAGHAT,","Bokakhat","Assam","785612","9435093622","mukesh@autoaxis.org"
"CHIRANG MOTORS PVT LTD","KUKURMARI, DAG NO. 190, PATTA NO. 83, CHIRANG, (BTAD), OPP BRPL GATE NO.5, NATIONAL HIGHWAY- 31, BONGAINGOAN","Bongaigaon","Assam","783380","03664-225289","bnchakraborthy@chirangmotors.com"
"GARGO MOTORS","THAPORI PORT SHIRING THAOPRI DIBRUGARH, NU","Dibrugarh","Assam","786001","0373-2329856","gargosiv@rediffmail.com"
"BORAH AUTOMOBILES PVT LTD","SEGUNBARI, NR. PETROL PUMP,, MARGHERITA","Dibrugarh","Assam","786181","9854005063","borahscv_tsk@yahoo.com"
"BORAH AUTOMOBILES PVT LTD","KUMARNICHIGA TIN ALI, P O RAJABHATA","Dibrugarh","Assam","786004","9435030446","mkonwar2@gmail.com"
"BORAH AUTOMOBILES PVT LTD","JYOTI NAGAR,DIGBOI,A T ROAD,, BORBIL","Digboi","Assam","786171","9435137239","borahhscv_tsk@yahoo.com"
"GARGO MOTORS","P O DULIAJAN, TIPLING NAHARKTIA ROAD","Dulia Gaon","Assam","786602","9435037777","gargomotorsdjn@rediffmail.com"
"BORAH AUTOMOBILES PVT LTD","KOMALABARI ROAD, BORAH HYUNDAI,, BORAGDHOI VILLAGE, DULIAJAN","Dulia Gaon","Assam","786602","9854005063","borahscv_tsk@yahoo.com"
"GARGO MOTORS LTD","TIPLING ROAD,, TEHSIL/TALUKA - TENGAKHAT,","Duliajan Oil Town","Assam","786602","03742800419","gargomotorscvd@gmail.com"
"FRENCH MOTOR CAR CO. LTD.(GHW)","AGIA ROAD, PARTH-II,PO& PS:AGIA,GOALPARA,781034","Goalpara","Assam","783134","03663-240298","fmcguwahati@rediffmail.com"
"ABHIJIT AUTO AGENCY (INDIA) PVT LTD","VILLAGE AGIA PART 1, PLOT NO. 783120, P O AGIA, AGIA","Goalpara","Assam","783120","9435134945/8486976155","abhi_jasraaria@rediffmail.com"
"SUNDARAM MAHADEO AUTOWORLD PVT LTD","NH - 15, PURUBARI, NEAR ST JOSEPH SCHOOL,, GOHPUR","Gohpur","Assam","784169","9101497674","salesmanager@smautoworld.com"
"AUTO AXIS PVT LTD","NEAR DHULIAGAON WATER SUPPLYS, NH - 39, TALUKA MORANGI,","Golaghat","Assam","785621","908574601","mukesh@autoaxis.org"
"ABHIJIT AUTO AGENCY (INDIA) PVT LTD","DAG NO. 64, 1220T01224, SARUSAJAI, BELTOLA, NEAR SPORTS COMPLEX STADIUM, N.H. 37","Guwahati","Assam","781034","0361- 2732305","abhi _ jasrasaria@rediffmail.com"
"FRENCH MOTOR CAR CO. LTD.(GHW)","DISPUR, HOUSE NO 224, GAUHATI-SHILLONG ROAD","Guwahati","Assam","781006","0361-2223060","fmcguwahati@rediffmail.com"
"MGT MOTORS PVT LTD-1009040","AMERIGOG NK, OPP BSNL EXCHANGE, JORABAT TINALI,N H-37, MAIN ROAD,","Guwahati","Assam","781023","94360253331/3852446177",""
"FRENCH MOTOR CAR CO. LTD.(GHW)","NH - 37, ADJACENT TO CENTRAL BANK OF INDIA,, LOKHRA CHARIALI,","Guwahati","Assam","781034","0361-2236920","b.choudhury@frenchmotor.in"
"SURANA MOTORS LTD.","LALA ROAD,VICHINGCHA-I, NH-154","Hailakandi","Assam","788155","9859994495","hailakandi@suranamotors.com"
"ABHIJIT AUTO AGENCY (INDIA) PVT LTD","NH- 37,, INFRONT OF JAIN HOTEL,","Jagiroad","Assam","782410","9864753771","dipakkashyap@abhijitauto.com"
"AUTO AXIS PVT LTD","P O R R L,N H 37 AT ROAD, NATIONAL HIGHWAY- 37 AT ROAD","Jorhat","Assam","785006","9435437262","autoaxis@rediffmail.com"
"ABHIJIT AUTO AGENCY (INDIA) PVT LTD","EIDGAH MARKET ROAD NO.37,, OPP. ANUKUL THAKUR MANDIR,CHAYAGAON","Kamrup","Assam","781124","9435134945","sales_chayagaon@abhijitauto.com"
"SURANA MOTORS LTD.","KARIMGANJ,SILCHAR ROAD,, KARIMGANJ","Karimganj","Assam","788710","9859994498","asim.kj@suranamotors.com"
"SUNDARAM MAHADEO AUTOWORLD PVT LTD","NH-15, BOLOGARAH,, KHARUPETIA COLLEGE TURNING POINT,","Kharupatia","Assam","784115","7399090078","SALESMANAGER@SMAUTOWORLD.COM"
"GLORIOUS MOTORS PVT LTD","PATTA NO. 122 AND 124, N. H.52,  KAMALABARIA,, VILL - RAONAPUR, P O HATILUNG, LAKHIMPUR","Lakhana Bari","Assam","787001","8011754230","gloriousmotors@rediffmail.com"
"FRENCH MOTOR CAR CO. LTD.(GHW)","UTTAR LUMDING TINALI,, NEAR RELIANCE JIO OFFICE,","Lumding","Assam","782447","8721047473","ranjit.p@frenchmotor.in"
"L M J AUTO PVT LTD","NH- 37, JAGI ROAD,, OPPOSITE RAM MANDIR,","Morigaon","Assam","782410","9127071363","agm.assam@cosmopolitangroup.com"
"AUTO AXIS PVT LTD","P.P. NO - 206, DAG. NO - 404,SANCHOWA, VILL. FOKOLIPATHAR, A. T. ROAD, KACHHOMARI","Nagaon","Assam","782002","03672 - 221333","vinay@autoaxis.org"
"AUTO AXIS PVT LTD","NH - 37 NEAR RAIL GATE,, JAKHLABANDHA,","Nagaon","Assam","782136","9435722665","vinay@autoaxis.org"
"AUTO AXIS PVT LTD","WORD NO 7, SIL BASTI,, LANKA TOWN, LANKA, NAGAON,","Nagaon","Assam","782446","9435093622","vinay@autoaxis.org"
"BORAH AUTOMOBILES PVT LTD","DAG NO 375, SH - 27, NEAR MORAN ROAD,, CITY AND DISTRICT - NAHARKATIA","Naharkatia Chah Bagicha","Assam","786610","9401302253","bhrahscvnhk@gmail.com"
"MGT MOTORS PVT LTD-1009040","DAG NO. 21, PATTA NO. 450, VILLAGE DORAKAHRAS,, MOUZA AND P S RANGIA, NH - 31, KAMALAPUR,","North Guwahati Gaon","Assam","781101","7086055960","sadique@mgtmotors.com"
"SURANA MOTORS LTD.","HAILAKANDI  ROAD,, SILCHAR","Silchar","Assam","788006","03842-241168 /69 /70","smlkolkata@suranamotors.com"
"GARGO MOTORS LTD","A T ROAD,, RANG GHAR CHARIALI,","Sivasagar","Assam","785640","9435057678","gargomotors.sbr@rediffmail.com"
"GARGO MOTORS","SURVEY NO.2,SIVASAGAR-SONARI RD, NEAR STATE BANK","Sivasagar","Assam","785690","","gargosiv@rediffmail.com"
"GARGO MOTORS","SRUVEY NO. 2,, RANGHAR CHARIALL (A T ROAD)","Sivasagar","Assam","785640","03772-270884","gargosiv@rediffmail.com"
"BORAH AUTOMOBILES PVT LTD","DAG NO. 617, PATA NO. 228, AT ROAD, SIVASAGAR, DORKIAR PAR,, OPP  D.T.O. OFFICE, CITY AND DISTRICT","Sivasagar","Assam","785640","9401685045","borah_sbr@rediffmail.com"
"SUNDARAM MAHADEO AUTOWORLD PVT LTD","PATTA NO.204, DAG NO.395, NEAR ITBP HEADQUARTERS,, BIHAGURI, NH-52, RANGAMATI, TEZPUR CITY, SONITPUR DISTRICT,","Tezpur","Assam","784153","","info@myautoworld.com"
"BORAH AUTOMOBILES PVT LTD","NEAR HOTEL AROMA RESIDENCY,, RANGAGORA ROAD,BORGURI,TINSUKHIA,","Tinsukia","Assam","786125","09854005063/8486002240","borahcv_tak@yahoo.com"
"GARGO MOTORS","A T ROAD, TINSUKHIA","Tinsukia","Assam","786125","0374-2311960","gargomotors@rediffmail.com"
"GARGO MOTORS LTD","A T ROAD, HIJUGURI, NH - 37, TINSUKIA,","Tinsukia","Assam","786125","01374-2312545","gargomotors@rediffmail.com"
"DBS AUTOMOBILES PVT LTD","NEW POLICE LINE ROAD,, NEAR JAGJIWAN COLLEGE,","Araila","Bihar","802301","7280001350","anilkumar.singh@dbsautomobiles.com"
"GIRHINDA MOTOR PRIVATE LIMITED","TOJI NO- 8/1, KHATA NO - 2438, KHASRA NO - 9546,ARARIA, VANDANA VIJAY MARRIAGE HALL,WARD NO-9/ARARIA RANIGAJ ROAD/NH-327E","Araria","Bihar","854311","7992211474, 9955587253","mukeshkrkhanna0@gmail.com"
"MAHAKALI MOTORS PVT LTD","KHATA NO -415, KHESRA NO. 2622/1595, MAULANA AZAD CHOWK,, NEAR SALIMAR HOTEL ZERO MILE ARARIA,  ARARIA, BIHAR","Araria","Bihar","854311","",""
"KIRAN AUTO-1007690","NH - 57, NEAR FLYOVER,, SAKRI","Az Rakbe Sankarpur","Bihar","847239","9931027226","tata.madhubani@gmail.com"
"CHAMPARAN COMMERCIAL","SHASTRI NAGAR, NH 727 MAIN ROAD,, OFFICE OF NAGAR PARISHAD,","Bagaha","Bihar","845105","9771455933","commercialchamparan@gmail.com"
"KIRAN AUTO-1007690","BABURBARHI KHUTAUNA ROAD,, NEAR KHOJPLUR CHOWK,","Balirajpur","Bihar","847224","9931027226","tata.madhubani@gmailc.om"
"GLOBAL AUTOWHEELS PVT LTD","S P NO. 312, KHATTA NO. 95, TAUZI NO. 805, NEAR PARPAUR CHOWK,, N H 31, PAPRAUR, SINGHDANA TALUKA","Begusarai","Bihar","851210","7779911111","globalautowheels@yahoo.com"
"CHAMPARAN COMMERCIAL","MANSHA TOLA, KHATA 60 KHESRA 508/9,, NH 28 B,","Bettiah","Bihar","845438","9939677250","commercialchamparan@gmail.com"
"DBS AUTOMOBILES PVT LTD","MOHANIA ROAD, KUDRA, NEAR BANK OF BARODA,, KUDRA","Bhabua","Bihar","821108","7070091519","anilkumar.singh@dbsautomobiles.com"
"GLOBAL AUTOWHEELS PVT LTD","1ST FLOOR, HOTEL GOPAL IN,, ZEROMILE BHAGALPUR,","Bhagalpur","Bihar","813210","9264449002","globalautowheels@gmail.com"
"MAURYA MOTORS LTD.","KHATA NO 119, PATASANG,, THANA RAHUL,BIHARSARIF,","Biharsharif","Bihar","803119","9263632399","mmlwmworsk@yahoo.com"
"DBS AUTOMOBILES PVT LTD","ARA BUXAR STATION ROAD,, NEAR BUXAR GOLAMBAR","Buxar","Bihar","802101","7070091529","anilkumar.singh@dbsauttomobiles.com"
"ESTEE DEALERS PRIVATE LIMITED","MOUZA BHENDI, KHATA NO 158 KHESRA NO 148, PARAGNA BERUI, PS SADAR,","Darbhanga","Bihar","847115","",""
"MAA MUNDESHWARI MOTORS PVT LTD - 1006541","PLOT NO.86,38, SURYA MANDAL DOBHI,, NH-2, GAYA","Dobhi","Bihar","824201","8388831192","mundeshwariconstn@gmail.com"
"DBS AUTOMOBILES PVT LTD","379/774, BIKRAMGANJ DUMRAON ROAD,, NEAR BLOCK,","Dumraon","Bihar","802122","7070091519","anilkumar.singh@dbsautomobiles.com"
"RAJEEV TRADECOMM PRIVATE LIMITED-1007260","KHATA NO.91/32, 53/32,91,35,80 KHESRA NO.839,840,842,822,827,825, N H 28, DANAPUR NEAR MANJHA POLICE STATION,","Gopalganj","Bihar","841428","9771486125","shreegopal.auto@gmail.com"
"IDEAL DEALERS PVT. LTD.","AT CHAKSARIFABAD, HAJIPUR - MUZAFFARPUR ROAD,, NH - 77, SAGAR,, SADAR","Hajipur","Bihar","844101","9204650264","hazipur@idealdealers.in"
"MAURYA MOTORS LTD.","STATION ROAD, NEAR R. K. M. LINE HOTEL","Jamui","Bihar","","9263639260/776918737","ranjan.kumar@mauryamotors.in"
"MAHAKALI MOTORS PVT LTD","AT AMIRPUR HARDAS GONDWARA,, NR. FULWARIA CHOWK, N.H. 31,KODHA,","Katihar","Bihar","854105","9631248848","md@mahakalimotor.com"
"DBS AUTOMOBILES PVT LTD","SASARAM ROAD, KOCHAS, NEAR BSNL OFFICE,  SASARAM","Kochas","Bihar","821112","7070091519","anilkumar.singh@dbsautomobiles.com"
"MAURYA MOTORS LTD.","SANGAM TRANSPORT BUILDING, PATNA BRAAHIYA ROAD","Lakhisarai","Bihar","811302","",""
"MAHAKALI AUTOMOBILES PVT LTD, SAHARSA","JAIPAL PATTI CHOWK, BY PASS ROAD,, MADHEPURA,","Madhepura","Bihar","852113","8804119826","madheplura@mahakaliautomobiiles.com"
"KIRAN AUTO-1007690","KHATAS NO. 182/782, (O)46 (N) KHESRA 111 (O)/2474 (N)/4913(N),, ADJOINING ROYAL ENFIELD DEALERSHIP,MADHUBANI DARBHANGA ROAD","Madhubani","Bihar","847212","06276-228014","ajaniljha@gmail.com"
"DBS AUTOMOBILES PVT LTD","BHABHUA ROAD, MOHANIA,, OPP, MARUTI SUZUKI SHOWROOM,","Mohania","Bihar","821108","7070091529","sanjeet.kumar@dbsautomobiles.com"
"JAGAT RADHA MOTORS PVT LTD","NEAR OLD CHECK POST, KHATA NO 52, BANKAT, NH 28 A","Motihari","Bihar","845401","9955594561","jrmotorspvtltd@gmail.com"
"MAURYA MOTORS LTD.","SURVEY NO.2,, N. D. ROAD, GHOSHITOLA","Munger","Bihar","811201","9263639260/0612-6531064","ranjan.kumar@mauryamotors.in"
"IDEAL DEALERS PVT. LTD.","NEAR GANDAK PROJECT 1B, SH-74, DEWARIYA ROAD, KESAV CHOWK, SAHBGANJ","Muzaffarpur","Bihar","843125","9204650811","sahebganj@ideal.in"
"CHAMPARAN COMMERCIAL","PURANI BAZAR, THORI ROAD,, NORTH JAI SHIR CINEMA HALL,","Narkatiaganj","Bihar","845455","9771455933","commercialchamparan@gmail.com"
"MAURYA MOTORS LTD.","PLOT NO. 335, PITAMBAR NAGAR (KHEDALPURA), BIHTA, N.H.30, PATNA ARA ROAD","Patna","Bihar","801113","0923466906","mkhmh@mauryamotors.in"
"LAXMI BARTER PVT LTD-1006180","PLOT NO. 291, TAUJI NO. 6207,MAUJA MUSTAFA PUR,, PATNA GAYA HIGHWAY, N H 83, THANA GAURI CHAK,","Patna","Bihar","804451","9135099999",""
"MAURYA MOTORS LTD.","NH - 30, FATWA ROAD STREET, NEAR DEEDARGANJ RAILWAY CROSSING","Patna","Bihar","800013","0361-2519740","mkhmh@mauryamotors.in"
"MAURYA MOTORS LTD.","BEHIND MAIHAR HOTEL,, N.H.31,HATHIDAH, PATNA","Patna","Bihar","803301","9263632377","bhushankumar282@yahoomail.com"
"LAXMI BARTER PVT LTD-1006180","WEST RAMKRISHNA NAGAR,, NEAR PUNJAB NATIONAL BANK,","Patna","Bihar","800027","9117922222","laxmibarter01@gmail.com"
"MAHAKALI MOTORS PVT LTD","KHATA NO: 35, KHESRA NO-296, NEAR BAILORI BRIDGE, BYE PASS ROAD, MARANGA","Purnia","Bihar","854301","9431260541","motors.mahakali@gmail.com"
"MAHAKALI AUTOMOBILES PVT LTD, SAHARSA",". PLOT NO. 34, 33 (NEW), SOUZA BAZAR,, NEAR VASHTU VIHAR MAIN GATE","Saharsa","Bihar","","7542863872","sanjeet.suman@mahakalimotor.com"
"ADRIKA MOTORS PRIVATE LIMITED","PLOT NO. 1320, 1321, TAUZI NO. 175,, MAUZA DHARMPUR NISTAMA, AMIRGANJ, TAJPUR ROAD","Samastipur","Bihar","848101","98385034061","adrika.motors@gmail.com"
"DBS AUTOMOBILES PVT LTD","MAUZA KURDUN, THANA NO. 236, KHATA NO. 7, 55, 63,70, PLOT NO.302,, 309/311, EAST OF MAA TRACHANDI TEMPLE, NH 2, DHANKARA, DHOWDAN PO","Sasaram","Bihar","821112","",""
"MAURYA MOTORS LTD.","N. H. 31, SUBASH CHOWK,, NU","Sheikhpura","Bihar","811101","9431530131","phooltas@sancharnet.com"
"IDEAL DEALERS PVT. LTD.","OPPOSITE OF ITI, SHANTINAGAR,, DUMRA ROAD,SITAMARHI","Sitamarhi","Bihar","843301","9204650982","sitamarhi@ideal.in"
"RAJEEV TRADECOMM PRIVATE LIMITED-1007260","NH-19, SONPUR BYPASS ROAD,, NEAR REESHAV HERO AGENCY, PERVEJABAD, WARD NO 01,","Sonepur","Bihar","841101","7360077192",""
"MAHAKALI AUTOMOBILES PVT LTD, SAHARSA","KHATA NO 55 & 597, KHASRA NO. 2047 &2029,, SUPAUL THANA NO 218","Supaul","Bihar","847452","8709112284","sajeet.suman@mahakaliautomobiles.com"
"ADRIKA MOTORS PRIVATE LIMITED","TAJPUR-MUSHRIGHARI ROAD,, NEAR GANDHI CHOWK,","Tajpur Ratanpur","Bihar","848130","7033333349","adrika.motors@gmail.com"
"PASCO MOTORS","PLOT NO 2,, INDUSTRIAL AREA PHASE -I","Chandigarh","Chandigarh","160002","9810064688","pascomotors@sify.com"
"CMPL MOTORS PVT LTD","PLOT NO. 52, INDUSTRIAL AREA,, PHASE 1, CHANDIGARH","Chandigarh","Chandigarh","160002","09814014439/0172-5087003","cmplmotors@hotmail.com"
"SHIVAM MOTORS LTD.","KHARSA NO 1080/3, 1156/2, 1203/2,,, NEAR SAMRAT DHABA TILAI, JANJGIR-AKALTARA ROAD,","Akaltari","Chhattisgarh","495668","9753360333","sml_bsp@rediffmail.com"
"SHIVAM MOTORS LTD.","SANJAY NAGAR, MAHAVIRPUR,, MANENDRAGARH ROAD, AMBIKAPUR, SURAJPUR","Ambikapur","Chhattisgarh","497001","982639710","smlambk@yahoo.com"
"SHIVAM MOTORS LTD.","SHOP NO 24 BILASPUR ROAD ,, PURANA NAKA,","Bilaspur","Chhattisgarh","495334","8305807646/07752-252019","vinay_george@yahoo.com"
"SHIVAM MOTORS LTD.","P B NO 17 , INDUSTRIAL AREA SIRGITTI ,, RAIPUR ROAD","Bilaspur","Chhattisgarh","495004","07752-252014","smlbsp@yahoo.co.in"
"SHIVAM MOTORS LTD.","MARWAHI ROAD, PENDRA ROAD,, SANJAY CHOOK,","Bilaspur","Chhattisgarh","495117","9425844070","m.shukla21@yahoo.co.in"
"MANGALAM MOTORS","SHAMBALPUR, N H 30,, DHAMTARI","Dhamtari","Chhattisgarh","493773","8982408000","mangalam.motors2004@gmail.com"
"SHIVAM MOTORS LTD.","MAIN ROAD, ODGI NAKA,, BHAKUNTHPUR,","Dohadapara","Chhattisgarh","497335","8120190300","sml_bsp@rediffmail.com"
"JAIKA AUTOMOBILES & FINANCE LIMITED","RAIPUR,DIST DURG, G E ROAD","Durg","Chhattisgarh","","0788-2623344","jaikaanjora@gmail.com"
"JAIKA AUTOMOBILES & FINANCE LIMITED","NR. KASTURBA GANDHI SCHOOL,, BEMETRA,","Durg","Chhattisgarh","491335","07782-228647","jaikabemetara@gmail.com"
"JAIKA AUTOMOBILES & FINANCE LIMITED","2/47.TRANPORT NAGAR, HATHKHOJ,BHILAI-490026","Durg","Chhattisgarh","490026","9981991784","jaikabhilai@gmail.com"
"JAIKA AUTOMOBILES & FINANCE LIMITED","DALLIRAJHARA ROAD,, NEAR THE BUS STAND,","Durg","Chhattisgarh","491001","91791-96271","raipur@jaika.com"
"JAIKA AUTOMOBILES & FINANCE LIMITED","497 KATANGI ROAD ,KARMETA,, OPP.SHRIRAM ENGINEERING COLLEGE,","Jagdalpur","Chhattisgarh","494010","99933-33666","rajesh@raipur.jaika.com"
"JAGDALPUR MOTORS (COMMERCIAL) PRIVATE LIMITED","N H 16, GEEDAM ROADS,, PANDARIPANI","Jagdalpur","Chhattisgarh","494010","77730888855","neeraj24120061@gmail.com"
"JAIKA AUTOMOBILES & FINANCE LIMITED","VILLAGE BIATARI, SAMBALPUR ROAD,, OPP. SAMBLESHWARI RICE MILL, N.H.53, SARAIPALI","Janjgir","Chhattisgarh","493558","9179062100","sudhirbsp.verma@gmail.com"
"SHIVAM MOTORS LTD.","JASHPUR ROAD,, NEAR VIJAY MEDICAL,","Jashpurnagar","Chhattisgarh","496118","","smlbsp@yahoo.co.in"
"SHIVAM MOTORS LTD.","RAIGADH ROAD,, OPP. HERO HONDA,","Jashpurnagar","Chhattisgarh","496118","","smlbsp@yahoo.co.in"
"JAIKA AUTOMOBILES & FINANCE LIMITED","NEAR GOVT COLLEGE,, RAIPUR ROAD,","Kanker","Chhattisgarh","494334","98265-75054","raipur@jaika.com"
"MANGALAM MOTORS","MANGALAM MOTORS, RAIPUR ROAD,, NEAR THE MAHINDRA TRACTOR SHOWROOM","Kawardha","Chhattisgarh","491995","99268-72277","mangalam.motors@yahoo.com"
"SHIVAM MOTORS LTD.","VILLAGE NAKHTIKHAR, PANDRIPANI BYPASS ROAD, KORBA","Korba","Chhattisgarh","495677","07759- 227499    223967","shiv_gupta06@rediffmail.com"
"KRISHNA AND COMPANY","WARD NO.7, CHHURI,, MAIN ROAD,KORBA, CHHATTISGARH STATE.","Korba","Chhattisgarh","495450","7759-248127","krishnatata2015@gmail.com"
"JAIKA AUTOMOBILES & FINANCE LIMITED","NEAR LIC OFFICE,, RAIPUR ROAD,","Mahasamund","Chhattisgarh","493445","94252-15735","raipur@jaika.com"
"SHIVAM MOTORS LTD.","NH 200 ORISSA ROAD, BY PASS CHOWK","Raigarh","Chhattisgarh","496001","07762-233526          233527","smlrgh@yahoo.co.in"
"MANGALAM MOTORS","NEAR TATIBANDH, G E ROAD","Raipur","Chhattisgarh","492009","0771-4072233","mmrcvd@gmail.com"
"MANGALAM MOTORS","CHAMPARAN CHOWK, NAWAPARA,","Raipur","Chhattisgarh","493881","9826600407/0771-4233333","mangalam.motors@yahoo.com"
"JAIKA AUTOMOBILES & FINANCE LIMITED","RING ROAD NO 1,, RAIPUR (C.G.)","Raipur","Chhattisgarh","492013","0771-  3051400 / 3051428 / 2262425","hbjoshi@raipur.jaika.com"
"MANGALAM MOTORS","NEAR PATAL BHARAVI MANDIR,, CHANDRA COLONY,","Rajnandgaon","Chhattisgarh","491441","9826530000","mangalam.motors@yahoo.com"
"SHIVAM MOTORS LTD.","AMBIKAPUR ROAD,, OPP. LIC BLDG,","Surguja","Chhattisgarh","497448","","smlbsp@yahoo.co.in"
"PASCOS","1/23 B, ASAF ALI ROAD, DELHI","Delhi","Delhi","110002","",""
"TATA MOTORS SALES AND SERVICE","NO. 1, GAZIPUR, PATPARGANJ","Delhi","Delhi","","011-66246666",""
"PASCOS","SHOP NO. 1 & 2, HCMR COMPLEX,EAST GOKULPURI, MAIN WAZIRABAD ROAD,, NEXT TO CONCORDE MOTORS, BHAJANPURA","Delhi","Delhi","110094","9999007075","dsmace@pascosindia.com"
"CARGO MOTORS (DELHI) PVT LTD","PLOT NO.219/220, VILLAGE BUDHPUR,, G T KARNAL ROAD, DELHI","Delhi","Delhi","110036","9643002828","khaanna.rk@cargomotors.com"
"PASCOS-1009500","G.T. KARNAL ROAD, NU","Delhi","Delhi","110033","",""
"PASCOS","OKHLA INDUSTRIAL AREA, D-11, PHASE - 1,, NEW DELHI","Delhi","Delhi","110021","011-48755555","pc.sood@pascosindia.com"
"CARGO MOTORS (DELHI) PVT LTD","F-26/4, NEAR ROYAL ENFIELD OUTLET,, OKHLA CITY, OKHLA INDUSTRIAL AREA PHASE 2,","Delhi","Delhi","110021","011-41402444","rohit@cargomotors.co.in"
"NARCINVA DAMODAR NAIK","V N NAIK ROADS,, P O FATORDA, SALCETE","Margao","Goa","403601","0832-2740316/320","ashwin@ndnaik.com"
"DURGA MOTORS","BARDEZ O-COCERIO CIRCLE,, NH-17 NORTH GOA PORVORAIM","Panaji","Goa","403521","(0832) - 6510215/216","durga_motors@rediffmail.com"
"GALLOPS AUTOLINK PRIVATE LIMITED","SONINI CHALI CROSS ROAD - RAKHIAL,, SONINICHALI-BRTS BUS STOP,","Ahmadabad","Gujarat","382415","9909046647","dinesh.patil@gallopsautolinks.com"
"GALLOPS AUTOLINK PRIVATE LIMITED","BEFORE SANATHAL OVERBRIDGE,SARKHEJ SAVLA HIGHWAY, SARKHEJ, NEAR INDIAN BIKE,","Ahmadabad","Gujarat","382210","8980001724","crdms@gallopsautolink.com"
"CARGO MOTORS PVT LTD-ANAND","OPP INDIA HOTEL, CHIKOHDRA SAMARCHA CHOWKDI, NATIONAL HIGHWAY NO 8,GAMDI","Anand","Gujarat","388001","9879608906","cargoanand@gmail.com"
"TEJPAL MOTORS PVT LTD","PARISHRAM PARK, UNAI VASDA ROAD,, HANUMAN BARI, VASDA,","Bansda","Gujarat","396580","02637-225025","vasda@tejpalmotors.com"
"SHREE AMBICA AUTO SALES & SERVICE","PLOT NO./BLDG NO : 1-2,, MAKTAMPUR ROAD, AVISHKAR COMPLEX,","Bharuch","Gujarat","392001","",""
"SHREE AMBICA AUTO SALES & SERVICE","D-2, E - 343/1, DAHEJ - II INDUSTRIAL ESATE,, VAGRA, DAHEJ TALUKA , CITY BHARUCH,","Bharuch","Gujarat","392130","989820888","niteshmodi@ambicaauto.com"
"SHREE AMBICA AUTO SALES & SERVICE","SHOP 8/9, JAMBUSAR VADODARA BYEPASS ROAD,, NEAR GOODLUCK SHOPPING COMPLEX, JAMBUSAR, BHARUCH","Bharuch","Gujarat","392150","",""
"SHREE AMBICA AUTO SALES & SERVICE","AT & POST ANDADA,NATIONAL HIHWAY NO  8","Bharuch","Gujarat","393010","02646-234771 / 233864","salesank@ambicaauto.com"
"CARGO MOTORS PVT LTD-JAMNAGAR","NEAR ESSAR PETROL PUMP, DEV BHOOMI DWARKA- MITHAPUR HIGHWAY,, DEV BHOOMI DWARKA, BHIMRANA","Bhimrana","Gujarat","","98205038016","cmldwarka@gmail.com"
"CARGO MOTORS PVT. LTD.-GANDHIDHAM","SHAHJANAND BHAVAN, STATION ROAD","Bhuj","Gujarat","370001","9978920875","cargobhujs@yahoo.co.in"
"M/S. RAJ MOTORS","HIMATNAGAR,, BORIA","Boriya Khurad","Gujarat","","9376949149","raj.motors1@gmail.com"
"GALLOPS AUTOLINK PRIVATE LIMITED","KALOL- MEHSANA HIGHWAY,, NR. SAHYOG HOTEL,","Chhatral","Gujarat","382721","9687692557","himmatsinh@tatamotors.com"
"CARGO MOTORS PVT LTD-MEHSANA","AKHOL NANI RAHDAMPUR HIGHWAY DEESA, 54/1 PAIKI 2 OPP ESSAR PETROL PUMP","Deesa","Gujarat","385535","982526074","vimalgujral@yahoo.com"
"CARGO MOTORS PVT LTD-1001350","OPP. NARAYAN COMPLEX, DHONI WAY BIRDGE,, MODASA ROAD, DEHGAM, GANDHI NAGAR","Dehgam","Gujarat","382305","98252260274","cmlahd@gmail.com"
"CARGO MOTORS PVT. LTD.-GANDHIDHAM","PLOT NO. 45 TO 48, SECTOR 10C, POST BOX NO.64 NATIONAL HIGHWAY","Gandhidham","Gujarat","370240","9825226074","vimalgujral@gmail.com"
"GALLOPS AUTOLINK PRIVATE LIMITED","PLOT NO. 906, B/S NIGAM PETROL PUMP,, SECTOR 21","Gandhinagar","Gujarat","","9909257076","nirwani.aman@gmail.com"
"CARGO MOTORS PRIVATE LIMITED","PLOT NO.1276, OPP. GHUNGHAT HOTEL, RANDHEJA CHOKDI, PETHANAGAR, GANDHINAGAR MANSA HIGHWAY","Gandhinagar","Gujarat","382620","9825226074","vimalgujral@yahoo.com"
"M/S. RAJ MOTORS","PLOT NO      , NEAR RELIANCE PUMP, POPATPURA,, GODHRA - VADODARA HIGHWAY,","Godhra","Gujarat","389001","9925350500","rajmotors@gmail.com"
"M/S. RAJ MOTORS","MODASA HIGHWAYS ROAD,, NR. OCTROI NAKA,","Godhra","Gujarat","389230","9725445041","r.motors1@gmail.com"
"M/S. RAJ MOTORS","SHAMLAJI ROAD,, HAJIRER THREE ROAD,","Himatnagar","Gujarat","383350","9426555810","r_motors@tatamotors.com"
"CARGO MOTORS PVT LTD-JAMNAGAR","JAMNAGAR RAJKOT HIGHWAY, HAPA","Jamnagar","Gujarat","361120","9879611106","cmljam@rediffmail.com"
"PERFECT RETREADS PVT. LTD.","TATA DIVISION,SURVEY NO 26, JETPUR ROAD","Junagadh","Gujarat","362002","9426717987","pastelco@sancharnet.in"
"CARGO MOTORS PVT LTD-1001350","SHOP NO 5&6, AVADHPURI COMPLEX, KALOL, MEHSANA HIGHWAY,, NR. SINDABAD HOTEL, KALOL,","Kalol","Gujarat","382721","079-27556142","maheshmenon888@gmail.com"
"CARGO MOTORS PVT LTD-ANAND","SURVEY NO.1, 2 PRITI COMPLEX,, NR.  PRIYA CINEMA, OPP MARKET YARD","Kapadvanj","Gujarat","387620","02692-259618","cmlbrd@icenet.net"
"CARGO MOTORS PVT LTD-MEHSANA","MEHSANA, MEHSANA","Mahesana","Gujarat","384001","9913535476","mehcml@gmail.com"
"CARGO MOTORS PVT. LTD.-GANDHIDHAM","DHANLAXMI COMPLEX, SHOP NO 6/A-B, MANDVI-BHUJ HIGHWAY,, NR. BHUJ OCTROI NAKA, MANDVI,","Mandvi","Gujarat","370465","9825359232","cmlgdm@yahoo.com"
"PERFECT RETREADS PVT. LTD.","SURVEY NO 285,294,295/2,296/2,297/1,PLOT NO 5,, RAJKOT HIGHWAY,MORBI,SHANALA","Morbi","Gujarat","363641","9099058044","salemorbi.tata@perfectautoservices.com"
"CARGO MOTORS PVT. LTD.-GANDHIDHAM","PLOT NO 74/75 & 76, G.I.D.C. INDUSTRIAL ESTATE,, DHRUB VILLAGE, TALIKA MUNDRA","Mundra","Gujarat","370421","9825226074","jayantnanda@gmail.com"
"CARGO MOTORS PVT LTD-ANAND","D\9-10, BALASINOR-VEERPUR ROAD,, INFRONTOF AMUL CHILLING CENTER, BALSINOR,","Nadiad","Gujarat","388255","02692-266724","cargoanand@gmail.com"
"CARGO MOTORS PVT LTD-1001350","HIMMATNAGAR ROAD, NEAR GALAXY CINEMA,","Nanodara","Gujarat","382330","9909028836","cmlahd@icenet.net"
"TEJPAL MOTORS PVT LTD","NEAR SHIV SHAKTI FARM,VILLAGE UNN, PLOT NO 34,35,36 , NATIONAL HIGHWAY NO 8","Navsari","Gujarat","396445","02637-225025","rajeev@tejpalmotors.com"
"CARGO MOTORS PVT LTD-BARODA","SHOP NO.28,29,30, GRAMYA LAXMI COMPLEX,, OPP. PHOOL,BAUG,","Padra","Gujarat","391440","",""
"CARGO MOTORS PVT LTD-MEHSANA","AHMADABAD HIGHWAY,, OPP. KARNAVATI SHOPPING CENTRE,","Palanpur","Gujarat","","02742-258438","cmlpln@rediffmail.com"
"PERFECT RETREADS PVT. LTD.","PLOT NO.286, 202/1 202/2,VANANA GIDC ESTATE, NEAR TOLL PLAZA,NATIONAL HIGHWAY 8 -B","Porbandar","Gujarat","360575","9227722288","pastelco@sancharnet.in"
"PERFECT RETREADS PVT. LTD.","TATA DIVISION,GONDAL ROAD, AT: VAVDI","Rajkot","Gujarat","360004","9925003555","progressiver@sify.com"
"JITENDRA AUTOMOBILES","8/B NATIONAL HIGHWAY,  OPP KISHAN PETROL PUMP,, KANGASHIYALI, GONDAL ROAD HIGHWAY","Rajkot","Gujarat","360022","9979400001",""
"SHREE AMBICA AUTO SALES & SERVICE","PLOT NO 63,NEAR GUJARAT POLITHIN FACTORY ,, RAJPIPLA,NANDOD","Rajpipla","Gujarat","393145","9898208888/2640222493","niteshmodi@ambicaauto.com"
"CARGO MOTORS PVT. LTD.-GANDHIDHAM","PLOT NO 01, SHOP NOS. 4 & 5, NR. PADHAR DEVI MANDIR, MUNICIPAL SURVEY NOS. 26/25/1/1, 26/25/2(4) & 26/25/2(5), RAPAR","Rapar","Gujarat","370165","9825226074","jayantnanda@gmail.com"
"M/S. RAJ MOTORS","SR  NO. 293, OPP. EICHER SHOWROOM, N H NO. 8, HAJIPURA, HIMMATNAGAR","Sabarkantha","Gujarat","383120","9998159286","r.motors@gmail.com"
"M/S. RAJ MOTORS","OPP.HERO SHOWROOM,, DHANSURA ROAD,","Sabarkantha","Gujarat","383325","9376949141","r.motors1@gmail.com"
"SHREE AMBICA AUTO SALES & SERVICE","BLOCK NO-410, PLOT NO:2,, OPP MILANO CINEMA,SURAT BARDOLI ROAD,","Surat","Gujarat","394601","02622-221061","niteshmodi@ambicaauto.com"
"SHREE AMBICA AUTO SALES & SERVICE","PO KATHOR,TAL KAMREJ, NU","Surat","Gujarat","394150","0261-2335101 / 2363485","ambicaauto@gmail.com"
"SHREE AMBICA AUTO SALES & SERVICE","MANDVI DOODH UPTADAK,, JANKHAV HIGHWAY ROAD,NR. SHIKSHABHAVAN,","Surat","Gujarat","394160","",""
"SHREE AMBICA AUTO SALES & SERVICE","1,2,3 GHANSHYAM COMPLEX,, UDHANA-NAVSARI ROAD,PRAMUKH PARK,","Surat","Gujarat","394221","",""
"SHREE AMBICA AUTO SALES & SERVICE","PLOT NO. 10-11, BHATPORE GIDC,. OPP. ONGC, NEAR GAIL INDIA., MAGDALLA - HAZIRA ROAD, SURAT, GUJRAT","Surat","Gujarat","394510","9898047416","manishmodi@ambicaauto.com"
"CHARTERED MOTORS PVT LTD","WADWAN ROAD, SUR SAGAR DAIRY,, CITY - SURENDRANAGAR, DIST - SURENDRANAGAR","Surendranagar Dudhrej","Gujarat","363001","",""
"CARGO MOTORS PVT LTD-BARODA","SURVEY NO 88/P, OPP RELIANCE PETROL PUMP,, DABHOI ROAD,P O BODELI, SANKHEDA, AT ZANKHARPUR,","Vadodara","Gujarat","391135","9978407424",""cmlbrd.gmail.com; 
cmlbrdac12@gmail.com""
"SHREE AMBICA AUTO SALES AND SERVICE","PLOT NO. 10B,, G.I.D.C. RANOLI, N. H. 8,","Vadodara","Gujarat","391350","9898047380","chintanm@ambicaauto.com"
"RAJ WHEELS","OPPOSITE PRANNATHJI VIDYA MANDIR,, AJWA WAGHODIA ROAD CROSSING, N H 8,","Vadodara","Gujarat","390019","9879588134","rajwheelstata@gmail.com"
"CARGO MOTORS PVT LTD-BARODA","OPP. G S F C , NATIONAL HIGHWAY- 8,, PO FERTILIZER NAGAR","Vadodara","Gujarat","391750","0265-2241524","cmlbrd@gmail.com"
"CARGO MOTORS PVT LTD-BARODA","SHOP NO -12, BARODA -SAVLI ROAD,, NEAR NEW BUS STAND,","Vadodara","Gujarat","391770","0265-2241524","cmlbrdscv@gmail.com"
"TEJPAL MOTORS PVT LTD","NEAR WOODLAND HOTELS,, NEXT TO RTO OFFICE BALITHA","Vapi","Gujarat","396191","0260-2400378","deepak@tejpalmotors.com"
"CHARTERED MOTORS PVT LTD","OPP VIRAJ FARM VARTEJ,","Vartej","Gujarat","364060","9879209011/9879209100","lalit@chartered.co.in"
"SHREE AMBICA AUTO SALES & SERVICE","PLOT NO./BLDG NO : 22/23,, PRAKASH PARK, OPP G.E.B.,  ,","Vyara","Gujarat","394650","",""
"METRO MOTORS PVT LTD-1009650","G.T.ROAD, OPP MOHRI RAILWAY STATION","Ambala","Haryana","133004","0171-28710171","cv-admin@metromotors.co.in"
"PASCO MOTORS-1009061","OLD AMBALA ROAD,GURUDWARA ,, BARWALA,","Ambala","Haryana","134118","",""
"M. G. MOTORS","SAFIDON ROAD,","Bahadurgarh","Haryana","124507","",""
"M. G. MOTORS","LOHARU ROAD., NU","Bhiwani","Haryana","127021","",""
"PASCO MOTORS LLP","RECTANGLE NO. 175, KHASRA, KALA NO. 7 (8-0) OF VILLAGE BHORAKALAN, BILASPUR MAHAKAL MANDIR,","Bilaspur","Haryana","122503","9996055001","pasco.bhorakalan@pasco.in"
"M. G. MOTORS","ROHTAK ROAD, RAWALDI BYE PASS,, CITY AND DISTRICT - CHARKHI DADRI","Charkhi Dadri","Haryana","","8689000937","backoffice.dadri@mgmotors.co.in"
"PASCO MOTORS LLP","PLOT NO. 2, SECTOR 6, MATHURA ROAD, FARDIABAD","Faridabad","Haryana","121006","7042494400/0129-4325000","pasco.ffd@pasco.in"
"JOHAR AUTOMOBILES PVT LTD","SHOP NO 1 &  2, PLOT NO-12/4, BANARASI MARKET, MAIN MATHURA ROAD,, SARAI TOLL PLAZA, SARAI KHAWAJA, FARIDABAD","Faridabad","Haryana","121003","01292300044","bm.saraijohar-group.com"
"JOHAR AUTOMOBILES PVT LTD","1/A SECTOR -5,, MAIN MATHURA ROAD, MUJJESAR,","Faridabad","Haryana","121006","0129-2300044","joharautomobiles0@gmail.com"
"VIPIN MOTORS (P) LTD-1003030","G T ROAD,, NEAR RELIANCE PETROL PUMP,","Fatehabad","Haryana","125050","",""
"PASCO MOTORS LLP","WARD NO 11, DELHI- ALWAR ROAD,, NEAR HDFC BANK, CITY - NUH-MEWAT, DISTRICT - GURGAON,","Gurgaon","Haryana","122107","0822-2070302","pasco.nuh@pasco.in"
"PASCO MOTORS LLP","N H 8, VILLAGE NARSINGHPUR BUS STOP,, NARSINGHPUR, GURGAON","Gurgaon","Haryana","122001","9810061248","pasco.ggn@pasco.in"
"G.N.G. AUTO AIDS PVT LTD","PATAUDI ROAD, NR. BHARAT GAS AGENCY,, OPP HYUNDAI SHOWROOM HAILY - MANDI,","Gurgaon","Haryana","","9991762588","gngautoaids@gmail.com"
"G.N.G. AUTO AIDS PVT LTD","PLOT NO -2436/3, ADJACENT TO NEAR AJIT CINEMA, OLD DELHI ROAD,GURGAON","Gurgaon","Haryana","122001","9818910767/8527000316","gngautoaids@gmail.com"
"DAISY MOTORS PVT LIMITED","OPP TCP 3,DELHI HISAR SIRSA BYE PASS, NH-10","Hisar","Haryana","","01662222518","daisymotors@rediffmail.com"
"VIPIN MOTORS (P) LTD-1003030","4KM STONE SIRSA ROAD,, NATIONAL HIGHWAY 10","Hisar","Haryana","125001","01662-275841","vikasjindal167@gmail.com"
"VIPIN MOTORS (P) LTD-1003030","OPP PUNJAB PALACE,, HISAR ROAD,SIRSA","Hisar","Haryana","125005","9896270568/01662-2777744","vipinmotors@gmail.com"
"M. G. MOTORS","12TH KM STONE, DELHI ROAD NH-10  OPP. TCP GATE NO. 3, HISAR CANTT, HISSAR CANTT","Hisar","Haryana","125044","9810014148","rajeshmehtamgm@yahoo.com"
"M. G. MOTORS","TEHSIL ROAD,, ARYA NAGAR,","Jhajjar","Haryana","124103","",""
"METRO MOTORS PVT LTD-1009650","NR SHAHNAI PALACE, JIND ROAD,KAITHAL","Kaithal","Haryana","136027","9812032115","cv-sales-mohra@metromotors.com"
"METRO MOTORS PVT LTD-1009650","AMBALA  ROAD, NU","Kaithal","Haryana","136027","",""
"METRO MOTORS PVT LTD-1009650","LIBERTY CHOWK, 76 / 1 MILE STONES, G.T. ROAD, KUTAL, KARNAL","Karnal","Haryana","132001","9812412509","cv-admin@metromotors.co.in"
"PASCOS","G.T. KARNAL ROAD,, CITY - KUNDLI, DISTRICT - SONEPAT,","Kundli","Haryana","131028","011- 23235060","pascos.headoffice@gmail.com"
"METRO MOTORS PVT LTD-1009650","KDB ROAD,, NEAR NEW GRAIN MARKET,","Kurukshetra","Haryana","136118","",""
"SANGHI AUTOMOBILES","NANGAL CHAUDHARY ROAD, DISTRICT - MOHINDERGARH","Mahendragarh","Haryana","","01282-252048","sanghiauto@yahoo.com"
"G.N.G. AUTO AIDS PVT LTD","VILLAGE RAMPURA, NEAR INDIAN OIL PETROL PUMP,, MAP TYRE SEC - 82,MANESAR,","Manesar","Haryana","122001","8527000317","mis.gngautoaids@gmail.com"
"PASCO MOTORS-1009061","NATIONAL HIGHWAY- 73, AMBALA JAGADHARI HIGHWAY,","Mullana","Haryana","133203","9991178960","pascomotors@sify.com"
"PASCO MOTORS-1009061","BARWALA,NEAR PANJALSA CHOWK,, OPP.BANK OF BARODA,NARAINGARH","Naraingarh","Haryana","133001","",""
"M. G. MOTORS","NIZAMPUR RAOD,, NEAR HAFED OIL MILL,","Narnaul","Haryana","","",""
"PASCO MOTORS LLP","RECTANGLE NO. 28, KILLA NO 26,, MAIN MATHURA ROAD, NEAR AMBINO GARDEN,  CITY - PALWAL,","Palwal","Haryana","121102","",""
"SAHIB AUTO PVT LTD","ADJACENT TO MARUTI SHOWROOM,, ADJACENT TO MARUTI SHOWROOM,  G T ROAD","Panipat","Haryana","132103","",""
"METRO MOTORS PVT LTD-1009650","85, MILE STONE, G T ROAD,  NEAR BBMB POWER STATION,, VPO - SIWAH,G.T.ROAD, TALUKA - SIWAH,","Panipat","Haryana","132103","9812412522","cv-service-ppt@metromotors.co.in"
"M. G. MOTORS","82 MILE STONE NH-8, DELHI-JAIPUR HIGHWAY NEAR GOLDEN HUT","Rewari","Haryana","123401","9896486555","narenmgm@yahoo.co.in"
"M. G. MOTORS","MAUJA KUTANA, HISSAR ROAD","Rohtak","Haryana","124001","01262248382","sureshmgm@yahoo.com"
"M. G. MOTORS","NEAR MALIK MILLS, INDIAN OIL FUEL STATION, SAFIDON PANIPAT ROAD,, KARSINDHU, SAFIDON, JIND DIST","Safidon","Haryana","126112","8689000882","agmoperations.safidon@mgmotors.in"
"JOHAR AUTOMOBILES PVT LTD","44/1, MAIN MATHURA ROAD,, VILL-SIKRI, FARIDABAD","Sikri","Haryana","121004","9711991021","joharautoservice.fbd@johar_group.com"
"M. G. MOTORS","OPP TELMOS AUTOMOBBILES ,DABWALI ROAD, TESIL ,CITY - SIRSA, DIST - SIRSA","Sirsa","Haryana","125055","",""
"VIPIN MOTORS (P) LTD-1003030","CHANDIGARH ROAD,, NEAR RAILWAY CROSSING,","Sirsa","Haryana","125102","",""
"SAHIB AUTO PVT LTD","NEAR FIMS HOSPITAL,, SONIPAT BAHALGARH ROAD,","Sonipat","Haryana","131001","9416145458","mohanbambha@gmail.com"
"METRO MOTORS PVT LTD-1009650","VISHWAKARMA CHOWK,, CAMP LANDMARK,","Yamunanagar","Haryana","135001","",""
"PASCO MOTORS-1009061","JAGADHRI COURT ROAD,, NR. HUDA OFFICE,","Yamunanagar","Haryana","135003","",""
"SAINI MOTOR COMPANY","290,264/273, 634/281,, VPO SARU, CHAMBA","Chamba","Himachal Pradesh","176310","9805091900, 9418137643","sainimotor13@yahoo.com"
"BEHL MOTORS PVT. LTD.","MANDI-KULLU, NU","Kailu","Himachal Pradesh","171003","",""
"SAINI MOTOR COMPANY","GAAGAL  THESIL,NH-21, NU","Kangra","Himachal Pradesh","176209","1892-231013","sainimotor13@yahoo.com"
"SAINI MOTOR COMPANY","NH-20, VILLAGE CHATRRAULI,, JASSUR,","Kangra","Himachal Pradesh","176201","",""
"BEHL MOTORS PVT. LTD.","PLOT NO. 6 - 7, INDUSTRIAL AREA PHASE 3, SAULIKHAD, N.H. 21","Mandi","Himachal Pradesh","175001","1905235102","d.pdhawan@rediffmail.com"
"LIBRA AUTOMOBILES LIMITED","VILLAGE KHEDDA CHAK, BELLI DYOR,, NALAGARH-BADDI ROAD","Nalagarh","Himachal Pradesh","174101","9855017556","sethi.libraautomobiles.com"
"BEE GEE AUTOMOBILES","PLOT NO. 1B INDUSTRIAL AREA, SHOGHI, P O SHOGHI TEHSIL, VILLAGE NAGALI, SHIMLA,","Shimla","Himachal Pradesh","171219","9815100672","beegeeautomobiles@gmail.com"
"LIBRA AUTOMOBILES LIMITED","V & P O BEHDALA, NANGAL ROAD","Una","Himachal Pradesh","174306","9855017556","libraautomobiles@yahoo.com;gslibra@sify.com"
"FAIRDEAL MOTORS & WORKSHOP PVT. LTD.","POONCH ROAD, MANDA,, CITY AND DISTRICT AKHNOOR,","Akhnoor","Jammu","181201","",""
"K Y AUTO PRIVATE LIMITED","ANANTNAG TO KULGAM,, OPP PEAKS AUTO PVT LTD.,KULGAM","Anantnag","Jammu","192231","9596127891","kyautoanantnag@gmail.com"
"K Y AUTO PRIVATE LIMITED","KHASRA NO. 287/183 MIN,, MOHALLA HARNAG, NH -1A, ANANTNAG","Anantnag","Jammu","192101","9419042196, 9906640111","kyautoanantnag@gmail.com"
"FAIRDEAL MOTORS & WORKSHOP PVT. LTD.","PAZALPORA, BIJBEHARA, ANANTNAG., NEAR MARAAZ NURSING TRAINING INST","Bijbehara","Jammu","192101","",""
"JAMKASH TRUCKING PVT LTD","KHEWAT NO. 89,  KHATA NO. 636,, JAMMU-SRINAGAR BY PASS, NEAR HOTEL JAMMU DARBA","Jammu","Jammu","180011","1912467201","jamkashtruckin.gm@gmail.com"
"JAMKASH TRUCKING PVT LTD","BYE PASS ROAD, NARWAL BALA,, OPP RADISSON BLUE HOTEL,","Jammu","Jammu","180006","9906084208","vikas_borka@jamkashtrucking.com"
"FAIRDEAL MOTORS & WORKSHOP PVT. LTD.","KHASRA NO 512, BEHIND FAIRDEAL FILLING STATION,, GANGYAL, N.H.1A, JAMMU","Jammu","Jammu","180001","0191-2480075","fdmjk@yahoo.com"
"FAIRDEAL MOTORS & WORKSHOP PVT. LTD.","MAIN CHOWK,, KALIBADI,","Kathua","Jammu","184101","9419228335","cvdsales.jammu@faidealmotorsjk.com"
"FAIRDEAL MOTORS & WORKSHOP PVT. LTD.","PATEL NAGAR, NEAR JAMMU AND KASHMIR BANK,, AKHNOOR ROAD, JAMMU","Kupwara","Jammu","193222","9055540071",""
"FAIRDEAL MOTORS & WORKSHOP PVT. LTD.","BUMHAMA, NATIONAL HIGHWAY -1,, NEAR FOOD CORPORATION OF INDIA GODOWN","Kupwara","Jammu","193222","9797790502",""
"K Y AUTO PRIVATE LIMITED","OPP. SOMANI TEXTILES, SRINAGAR ROAD,, PULWAMA,","Pulwama","Jammu","192123","9713994355","kyautoanantng@gmail.com"
"FAIRDEAL MOTORS & WORKSHOP PVT. LTD.","WARD NO 04, FALANI ROAD,, OPP. PHE DEPARTMENT,","Rajauri","Jammu","185132","9419167272",""
"FAIRDEAL MOTORS & WORKSHOP PVT. LTD.","SANGRAMA CHOWK,, SANGRAMA CHOWK,","Sadi Pora","Jammu","193202","",""
"K Y AUTO PRIVATE LIMITED","MUGHAL ROAD,  OPP.NEW GREEN LAND, HIGH SCHOOL, SHOPIAN,","Shupiyan","Jammu","192303","9697461728","kyautoanantnag@gmail.com"
"FAIRDEAL MOTORS & WORKSHOP PVT. LTD.","BARAMULLA ROAD,, PARIMPORA","Srinagar","Jammu","190017","0194- 2495628","fdmjk@yahoo.com"
"FAIRDEAL MOTORS & WORKSHOP PVT. LTD.","NATIONAL HIGHWAY (NH) 1A, SHIV NAGAR, CITY UDHAMPUR","Udhampur","Jammu","182101","",""
"JAMKASH TRUCKING PVT LTD","SAPWAL, NATIONAL HIGHWAY, SAMBAL TALUKA,, VIJAYPUR, JAMMU AND KASHMIR","Vijay Pur","Jammu","184120","9419191501","jamkashtrucking.gm@gmail.com"
"BUDHIA AGENCIES PVT LTD","NH-98, SATGAWAN,, HARIHARGANJ,","Ambajharana","Jharkhand","822101","9334834056","rahulbudhia@gmail.com"
"MITHILA MOTORS PRIVATE LIMITED","HNO 106  NEAR SCHOOL CHOWK,, BEHRAGORA","Baghrui","Jharkhand","832101","6299628139","sales@mithilamotors.com"
"J. M. A. STORES LTD.","G T ROAD,, OPP BHARAT PETROL PUMP,","Bagodar","Jharkhand","825322","9304826419","agmppm@jmastores.com"
"J. M. A. STORES LTD.","PLOT NO.15, E/3, BOKARO STEEL CITY, WESTERN AVENUE, NAYAMORE, BOKARO","Bokaro","Jharkhand","827001","09204058406 / 09204750314","ho@jmastores.com / scmhead@jmastores.com"
"ENAR INDUSTRIAL ENTP. LTD.","WESTERN AVENUE NAYA MORE,, BOKARO STEEL CITY","Bokaro","Jharkhand","827001","06542-247696 /242915","kamanirp@hotmail.com,enarbksc@rediffmail.com"
"MITHILA MOTORS PRIVATE LIMITED","HNO 121 RAGHUNATHPUR POST CHAIBASA, CHAIBASA","Chaibasa","Jharkhand","833201","9234110576","sales@mithilamotors.com"
"SHANKARACHARYA MTORS PVT LTD","NEW PLOT NO. 61,.62 AND 63 BY PART,, NEAR FOREST OFFICE, EUROPEAN QUARTERS,","Chaibasa","Jharkhand","833201","06582-2551100","info@shankaracharyamotors.com"
"MITHILA MOTORS PRIVATE LIMITED","PLOT NO 233, KHATA NO 31,WARD NO 8,, CKP MAIN ROAD,CHAKRADHARPUR,","Chakardharpur","Jharkhand","833102","9204058621",""
"J. M. A. STORES LTD.","DHANBAD PURULIA ROAD, OPP BANK OF INDIA,, NEAR CHAS GURUDWARA,","Chas","Jharkhand","827013","9204058346","backofgiridh@jmastores.com"
"MITHILA MOTORS PRIVATE LIMITED","PLOT NO.411, MAIN ROAD, CHOWKA","Chauka","Jharkhand","832404","9204058642","sales@mithilamotors.com"
"HIMATSINGKA AGENCIES PVT LTD-1002372","2, CIRCULAR ROAD,, NEAR SOREN PETROL PUMP,","Deoghar","Jharkhand","814112","","rahsssharma@yahooco.in"
"KRISHNA AUTOWHEELS PVT LTD","LAND UNDER MAUZA AMMGACHHI NO 701,P S MOHANPUR NO 719 AND 722,, DEOGARH DUMKA MAIN ROAD, AAMGACHHI,","Deoghar","Jharkhand","814157","94311132955","krishnaautowheels@gmail.com"
"J. M. A. STORES LTD.","MAIN ROAD, DHANSAR","Dhanbad","Jharkhand","828106","09204058406 / 09204750314","ho@jmastores.com / scmhead@jmastores.com"
"J. M. A. STORES LTD.","GOVINDPUR, DHANSAR, G T ROAD,, CITY - DHANBAD, DISTRICT - DHANBAD, STATE - JHARKHAND,","Dhanbad","Jharkhand","828109","9204058400","dineshparikh@jmastores.com;"
"GAJRAJ VAHAN PVT LTD","KHATA NO.89, PLOT NO.181, OPP RITIKA LINE HOTEL,, N.H.-33, MAUZA-HATMARA, ANCHAL MANDU, CITY-DIGWAR DIST RAMGARH","Digwar","Jharkhand","825326","9304381070","amitkejriwal@gajrajvahan.com"
"HIMATSINGKA AGENCIES PVT LTD-1002372","MAHARAO MORE, NEAR BHARAT PETROLEUM PETROL PUMP, DEOGHAR ROAD, DUMKA","Dumka","Jharkhand","814101","7781019800","rkdo@hapl.inet.in"
"KRISHNA AUTOWHEELS PVT LTD","PLOT NO. 201, GOSHALA ROAD,, INFRONT OF NATIONAL SCHOOL","Dumka","Jharkhand","814101","8051808317","krishnaautowheels@gmail.com"
"MITHILA MOTORS PRIVATE LIMITED","PLOT NO 37, KHATA NO 266,, SURVEY THANA NO 85, N.H.33,GHATSILA","Ghatshila","Jharkhand","832104","9234001925","dilooparikh@mithilamotors.com"
"ASHA COMMERCIAL VEHICLES","MAUJA - PARSOA, JAHAMBANDI NO. 85,, NEAR DAG NO.13, GODDA, N H 18","Godda","Jharkhand","814133","9955474180","ashacommercial.naman@gmail.com"
"MITHILA MOTORS PRIVATE LIMITED","BIRSA CHOWK,, NEAR SONALIKA SHOWROOM,","Gomiadih","Jharkhand","832109","9204058636","sales@mithilamotors.com"
"J. M. A. STORES LTD.","GOMIA KHATARA ROAD,, NEAR AXIS BANK","Gumia","Jharkhand","829111","8789819571","agmopm@jmastores.com"
"BUDHIA AGENCIES PVT LTD","AT-PUSHPUR KHIJRI, PO+PS-SIMEGA, DIST-SIMDEGA","Gumla","Jharkhand","835223","9334834046","budhiaagencies@rediffmail.com"
"BUDHIA AGENCIES PVT LTD","N H - 23, NEAR HP PETROL PUMP, PALKOT ROAD, GUMLA,","Gumla","Jharkhand","835207","9334834047","shivshankarjha11@gmail.com"
"ENAR INDUSTRIAL ENTP. LTD.","2707, KHATA NO.11,, N. H. 33, NR. H. P. PETROL PUMP","Hazaribag","Jharkhand","825410","","rajkishor_enar@rediffmail.com"
"J. M. A. STORES LTD.","15/16 PALIKA MARKET, NEAR GOVERNMENT BUS STAND","Hazaribag","Jharkhand","825301","09204058406 / 09204750314","ho@jmastores.com / scmhead@jmastores.com"
"GAJRAJ VAHAN PVT LTD","PLOT NO. 2448,THANA NO.160, NEAR VINOBHA BHAVE UNIVERSITY,N.H. 33,","Hazaribag","Jharkhand","825301","09431114390","amitkejriwal@gajrajvahan.com"
"MITHILA MOTORS PRIVATE LIMITED","VILLAGE - DEOGHAT,, MUKHIA DANGA, NH-33, PS.-MGM, JAMSHEDPUR","Jamshedpur","Jharkhand","831018","9204058643","dilooparikh@mithilamotors.com"
"MITHILA MOTORS PRIVATE LIMITED","H NO. 48, BARA GAMHARIA NAMO PARA, P.O.- GAMHARIA, BARA GAMHARIA","Jamshedpur","Jharkhand","831013","0657-2200018 /19","dilooparikh@mithilamotors.com"
"BUDHIA AGENCIES PVT LTD","PLOT NO. 75, PIPRA TOLI,, MAIN ROAD, DAHUGUTU,KHUNTI","Khunti","Jharkhand","835210","9431115665","budhiaagenceis@rediffmail.com"
"GAJRAJ VAHAN PVT LTD","BYPASS ROAD, NEAR GAYATRI MANDIR, INDERWA CHOWK,, JHUMRITALAYA, CITY - KODERMA, DISTRICT - KODARMA, JHARKHAND","Kodarma","Jharkhand","825409","9304381070","bhanujalan@gajrajvahan.com"
"KRISHNA AUTOWHEELS PVT LTD","S.R.D. ROAD,, NEAR SANIRAM PETROL PUMP","Madhupur","Jharkhand","815352","9931598563","krishnaautowheels@gmail.com"
"BUDHIA AGENCIES PVT LTD","TOWN NO 2 REDMA OLD INCOME TAX OFFI,ROAD RANCHI ROAD DIST PALAMU, NU","Medininagar (daltonganj)","Jharkhand","822101","9431788349","rahulbudhia@gmail.com"
"KRISHNA AUTOWHEELS PVT LTD","DUMKA MAIN ROAD, NEAR BABA DHABA","Pakuria","Jharkhand","816104","9934141233","krishnaqutowheels@gmail.com"
"BUDHIA AGENCIES PVT LTD","PALKOT ROAD,, NU","Palamu","Jharkhand","822114","9431785606","budhiaagencies@rediffmail.com"
"BUDHIA AGENCIES PVT LTD","MAIN ROAD STREET, NEAR BANK OF INDIA","Ranchi","Jharkhand","835102","",""
"BUDHIA AGENCIES PVT LTD","NEAR TIRUPATI DHABA, NH33 BOOTY RANCHI 835217, NU","Ranchi","Jharkhand","835217","0651- 2275103","budhiaagencies@rediffmail.com"
"BUDHIA AGENCIES PVT LTD","MAIN ROAD, NEAR SBI,, NU","Ranchi","Jharkhand","835204","9334618947","budhiaagencies@rediffmail.com"
"ENAR INDUSTRIAL ENTP. LTD.","S/O MD.UMAR","Ranchi","Jharkhand","834001","943118044","rajen.kamani@enar.in"
"HIMATSINGKA AGENCIES PVT LTD-1002372","MAIN ROAD,, IN FRONT OF JHARKHAND ELECTRICITY BOARD, ,","Sahibganj","Jharkhand","816109","","rahsssharma@yahooco.in"
"PRERANA MOTORS REGIO","#70/1, GANGARAM SINGH COMPLEX,, HARJHARA BYPASS ROAD, AVARAGERE VILLAGE, DAVANGERE,","Achuthapura","Karnataka","577002","9845488274/080-22211489","jyanthpai@preranamotors.com"
"ARVIND MOTORS PVT. LTD.","D CROSS, MAIN RAOD,, NEAR FEDERAL BANK,, BANGALORE RURAL","Adde Vishwanathapura","Karnataka","561203","",""
"PRERANA MOTORS (P) LTD.","PLOT NO. #22/1-4, BIRATENA AGRAHARA, HOSUR MAIN ROAD,, NEXT TO BMW SHOWROOM","Agara","Karnataka","560068","080-29763422","girishbvd@tata.preranamotors.com"
"HIREGOUDAR AUTOMOBILES PVT LTD-1007600","368/2B (SURVEY NO.) SIDDDESHWAR NAGAR,, OPP.KARAJAGI FARM, P B ROAD","Aladakatti","Karnataka","581115","7022987139","hapl2018.rnr@gmail.com"
"PRERANA MOTORS (P) LTD.","GAVIGOWDA COMPLEX, OPP. POST OFFICE, MYSORE, HASSAN - 571426","Anagalli","Karnataka","571426","",""
"VENKUN AUTO","PLOT NO. 193,194, STATE HIGHWAY-35,SARJAPUR ATTIBELE ROAD, S. MEDAHALLI","Anekal","Karnataka","562107","9342858230","sampath@venkunmotors.com"
"MANICKBAG AUTOMOBILES PVT LTD-1002961","271, KARWAR ROAD, ANKOLA","Ankola","Karnataka","581314","0836-23724869","sarang@manickbag.com"
"MANICKBAG AUTOMOBILES PVT. LTD","PLOT NO. 792A/2, BIJAPUR ROAD,, NEAR NANDGAON PETROL PUMP,","Athni","Karnataka","591304","9900137725","manickbagatm@yahoo.co.in"
"S. C. MOTORS","NEAR NANDAGOAN PETROL PUMP, BIJAPUR ROAD","Athni","Karnataka","591304","",""
"MANICKBAG AUTOMOBILES PVT. LTD","KANNUR BUILDING, NH - 50,, NEAR HERO SHOWROOM, LIKAL, HUNGUND, BAGALKOT","Bagalkot","Karnataka","587125","8861406762","manickbagatm@yahoo.co.in"
"MANICKBAG AUTOMOBILES PVT. LTD","SHOP NO 18-20, BVVS COMPLEX, VIDYAGIRI,, NR. B.E. HOSTEL NETAJI BLOCK,","Bagalkot","Karnataka","587102","8008570676","mainckbagatm@yahoo.co.in"
"S. C. MOTORS","JAKKANNAVAR BUILDING, BELGAUM ROAD, OPP:  CHANNAMMA KITTUR CO-OP SOCIETY","Bailhongal","Karnataka","591102","8884294715",""
"MANICKBAG AUTOMOBILES PVT LTD-1006570","PLOT NO. 32, SURVEY NO. 123,, INDUSTRIAL AREA, TIPRANTH HOBLI","Basavakalyan","Karnataka","585327","7259973999","ketan@manickbag.com"
"MANICKBAG AUTOMOBILES PVT. LTD","GOUDAR COMPLEX,, BESIDE S4 HOSPITAL SHIVAJI CIRCLE GOKAK","Belgaum","Karnataka","591307","",""
"S. C. MOTORS","NEW GANDHI NAGAR, P B ROAD,, NU","Belgaum","Karnataka","590016","0831-2455191","pintoscm@yahoo.co.in"
"MANICKBAG AUTOMOBILES PVT. LTD","SURVEY NO.47/1,2, 3, SUVARNA SOUDA,, AT KONDUSKOPA CROSS, BASTWAD VILLAGE","Belgaum","Karnataka","590008","9482117777","a.mirji@manickbagbelgaum.com"
"MANICKBAG AUTOMOBILES PVT. LTD","CTS NO 175/1, APMC ROAD,, FRONT OF SWARAJ TRACTOR SHOWROOM, SAUNDATTI","Belgaum","Karnataka","591126","9900026462-0831-2489360","manickbgatm@yahoo.co.in"
"MANICKBAG AUTOMOBILES PVT. LTD","R.S.NO.49/4, TURNUR BELGAUM RD,, NR. PRAGATI SCHOOL,","Belgaum","Karnataka","591123","9845020125/08312489360","manickbagatm@yahoo.co.in"
"CAMION AUTOMOBILES PVT LTD","D NO. 124/A. CORP WARD NO. 5,, T S NO. 643/441, BLOCK NO. 5, NEAR APMC YARD,,BENGALURU ROAD,","Bellary","Karnataka","583101","9019888954","mdabrarahmed1992@gmail.com"
"PRERANA MOTORS (P) LTD.","SHIVA GARDEN, SRIRAM TOWERS,,, OLD MADRAS ROAD, NEAR CHURCH, HOSKOTE","Bengaluru","Karnataka","562114","9900060167","hoskotecvsales@tata.preranamtoors.com"
"ARVIND MOTORS PVT. LTD.","OLD NO 43, NEW NO 114, 5TH MAIN ROAD,, NEW GURAPPANA PLAYA, BANNERGHATTA ROAD,","Bengaluru","Karnataka","560029","9845822689","amplrc02@gmail.com"
"PRERANA MOTORS (P) LTD.","#26/1, B2 12AM, JAYARAM DAS BUS STOP,, MYSORE ROAD, NEXT VECTA MOTORS,","Bengaluru","Karnataka","560059","080-28605762/9900083715",""
"PRERANA MOTORS (P) LTD.","113/B, INDUSTRIAL SUBURB, IIND  PHASE,, TUMKUR ROAD, PEENYA EXTENSION, CITY &  DISTRICT -BANGALORE","Bengaluru","Karnataka","560022","9740013642","jayramkib@tata.preranamotors.com"
"ARVIND MOTORS PVT. LTD.","NO 78/1, B & C, BANGALORE-MYSORE HIGHWAY,, PUNEETH RAJKUMAR FARM, SHESHAGIRIHALLI, BIDADI HOBLI, RAMANAGARAM","Bengaluru","Karnataka","560109","9945660332",""
"PRERANA MOTORS (P) LTD.","PLOT NO #11/1A1A1D, NEAR EXIDE SHOWROOM, NH - 4, TUMKUR ROAD,, BESIDE AVIGNA LOKESH HOTELS PVT LTD,","Bengaluru","Karnataka","562123","9900038673",""
"PRERANA MOTORS (P) LTD.","BB ROAD , OLD MADARS ROAD,, TALUK SOCIETY BUILDING, DEVANAHALLY","Bengaluru","Karnataka","562110","",""
"ARVIND MOTORS PVT. LTD.","PLOT NO. # 2091  80 FEET RING ROAD,, OPP VIJAYA BANK, KENGIRI SATELLITE TOWN,","Bengaluru","Karnataka","560060","",""
"ARVIND MOTORS PVT. LTD.","CAUVERY SENATE, GROUND FLOOR,NO 10/1-1, RAGHAVENDRA EXTENSION,, NEAR YESHWANTHPUR METRO STATION,","Bengaluru","Karnataka","560022","08040060687","arvind.richmond@gmail.com"
"PRERANA MOTORS (P) LTD.","1405, NH04, SHIVANAPURA MAIN ROAD, NEXT TO SHIVA DHABA, NEXT TO SBI, BANGADABASPET POST , SOMPURA HOBLI,","Bengaluru","Karnataka","562111","",""
"ARVIND MOTORS PVT. LTD.","NO 4, L M S COMPLEX, OLD MADRAS ROAD, NEXT TO FEDERAL BANK","Bengaluru","Karnataka","560036","",""
"PRERANA MOTORS (P) LTD.","NO.117, OUTER RING ROAD,KARIYANNA LAYOUT,, HEBBAL, BANGALORE CITY,","Bengaluru","Karnataka","560024","",""
"ARVIND MOTORS PVT. LTD.","1ST FLOOR, NO.559, THANISANDRA MAIN ROAD,, HEGDE NAGAR, DR. RASHTROTHANA VIDYA KENDRA,","Bengaluru","Karnataka","560077","9632223053","syedmateen_7286@yahoo.co.in"
"ARVIND MOTORS PVT. LTD.","# 47/1, KACHOHALLI, CHIKKGOLLARAHATTI,, MAGADI MAIN ROAD,NEAR EMBASSY SCHOOL,","Bengaluru","Karnataka","560091","9900581577",""
"PRERANA MOTORS (P) LTD.","50, KAMAKSHIPALYA, MAGADI MAIN ROAD,, OPP INDIAN OIL PETROL PUMP,, NEAR POOJA KALYANA MANTARA,","Bengaluru","Karnataka","560079","9686195219","manjunath.a@cvbu.preranamotors.com"
"ARVIND MOTORS PVT. LTD.","# 19, SHIVASHANKAR PLAZA, RICHMOND CIRCLE,LALBAGH ROAD","Bengaluru","Karnataka","560058","9845039902","aar@arvindmotors.com"
"ARVIND MOTORS PVT. LTD.","NO 21, LALBAGH FORT ROAD,, MINERVA CIRCLE, NEAR NANDINI HOTEL","Bengaluru","Karnataka","560004","",""
"PRERANA MOTORS (P) LTD.","# 132/15, VEENI COURT,, LALBAGH ROAD","Bengaluru","Karnataka","560027","080 40011111","shamprasad@preranamotors.com"
"PRERANA MOTORS (P) LTD.","46/3-8, KHUDDUS BUILDING, TUMKUR ROAD,, OPP RAILWAYS STATION,","Bengaluru","Karnataka","560022","9740013642","scv@cvd.preranamotors.com"
"ARVIND MOTORS PVT. LTD.","VARTHUR MAIN ROAD,, NEAR EENU KESHAVARA TEMPLE,BANGALORE ROAD,","Bengaluru","Karnataka","560087","",""
"PRERANA MOTORS (P) LTD.","NO 7, BANGALORE PRESS LAYOUT, ULLAL MAIN ROAD,, NR. NIRMAN PUBLIC SCHOOL,","Bengaluru","Karnataka","560103","9880933963","scv@cvd.preranamotors.com"
"PRERANA MOTORS (P) LTD.","NO.117, OUTER RING ROAD, KARIYANNA LAYOUT,  CITY - HEBBAL, DIST- BANGALORE,","Bengaluru Rural","Karnataka","560099","080-23538537","2ndinings@cvd.preranamotors.com"
"ARVIND MOTORS PVT. LTD.","#60, KACHARAKANHALLI, 80 FEET ROAD,, NEAR LINJGRAJAPURAM, HBR LAYOUT, 2ND BLOCK,","Bettahalasur","Karnataka","560043","080-25435777,25436777",""
"MANICKBAG AUTOMOBILES PVT LTD-1006570","GIRI COMPLEX, HYDERABAD ROAD,, BAGAVESHWAR CIRCLE,","Bidar","Karnataka","585401","",""
"BIJJARGI MOTORS PVT LTD-1003010","SURVEY NO.133/B/2, INDI ROAD CROSS,, NH - 13, BYE PASS, CITY - VIJAYAPUR","Bijapur","Karnataka","586104","",""
"MANICKBAG AUTOMOBILES PVT. LTD","SOLAPUR ROAD,, NEAR NCC OFFICE, BIJAPUR","Bijapur","Karnataka","586103","9845510475","manickautojpg25@rediffmail.com"
"PRERANA MOTORS REGIO","OM SHIVA COMPLEX, BELLARY ROAD,, NEAR CHALLAKERAMA TEMPLE, CHALLAKERE","Challakere","Karnataka","577523","91481520312","saleschitradurga@preranamotorsregio.com"
"PRERANA MOTORS (P) LTD.","6 & 7, JAMIY MASEED COMPLEX,,, ABDUL NAZWWER SAB RAOD","Chamarajnagar","Karnataka","571111","",""
"PRERANA MOTORS (P) LTD.","SRINIVAS KALYAN MANDIR COMPLEX, HOSUR ROAD,, CHANDAPUR CIRCLE, CITY - CHANDAPURA, DIST - HAVERI,","Chandapur","Karnataka","581104","",""
"PRERANA MOTORS (P) LTD.","NO. 4, KIADB INDUSTRIAL AREAS,  OPP R.T.O. OFFICE,, N.H.7, B.B. ROAD, CHIKBALLAPUR","Chickballapur","Karnataka","","8156250150","cbpursales@cvd.preranamotors.com"
"ARVIND MOTORS PVT LTD-1001600","MALLANDUR ROAD., VIJAYPUR EXT,","Chikmagalur","Karnataka","577101","9845400652","chikmagalur@arvindmotors.com"
"ARVIND MOTORS PVT LTD-1001600","P.R.N. COMPLEX, NEAR BHUVANA RESTAURANT, ,B.H. ROAD, TARIKERE, CHIKMAGALUR,","Chikmagalur","Karnataka","577228","9945201235","arvind_kadur@yahoo.co.in"
"S. C. MOTORS","R S NO 409, HIREKUDI,, B K COLLEGE ROAD,CHIKODI","Chikoddi","Karnataka","591201","9845979150","pintoscm@yahoo.co.in/scmsales445@gmail.com"
"PRERANA MOTORS REGIO","NH4, ADJACENT TO VALI PETROL PUMP, NEAR INDUSTRIAL AREA, HIRIYUR ROAD,","Chitradurga","Karnataka","577501","9902744554","satishbanad@cv.preranamotors.com"
"PRERANA MOTORS REGIO","SITE NO 14, SIDDESHWHWARA EXTENSION, OLD COURT BUILDING,, CITY - HOSADURGA, DISTRICT - CHITRADURGA","Chitradurga (rural)","Karnataka","573124","9606480832","saleschitradurga@preranamotorsregion.com"
"MANICKBAG AUTOMOBILES PVT LTD-1002961","BILIANGADI COMPLEX,,, VIDYANAGAR, DHARWAD ROAD,","Devargudihal","Karnataka","580031","9845172525","sarang@manickbag.com"
"MANICKBAG AUTOMOBILES PVT LTD-1002961","3612 & 3613, G-1, G-2, BILE ANGADI BUILDING,VIDYANAGAR (DARWAD RD, P C JABIN SCIENCE COLLEGE, HUBALLI, DIST DHARWAD","Dharwad","Karnataka","580031","0836-2373783","sarang@manickbag.com"
"MANICKBAG AUTOMOBILES PVT. LTD","R.S. NO.-155B ARBAN PLOT NO 3&4, HUBLI SHOLAPUR ROAD,, NEXT TO MINI VIDHAN SOUDHA AT NARAGUND ENTRANCE FROM HUBLI,","Dharwad","Karnataka","582207","9738592746/8377244254","salescvdh@manickbag.com"
"MANICKBAG AUTOMOBILES PVT LTD-1002961","LAXMICHAND COMPLEX,, HUBLI ROAD,NEAR D C OFFICE CIRCLE,","Gadag","Karnataka","582102","",""
"SLPT MOTORS PVT LTD","CTS NO 47, PLOT NO.1, SHOP NO.1,  GROUND FLOOR,, SHOP NO.2,  1ST FLOOR, MUNDARAGI ROAD,","Gadag","Karnataka","582103","94448567658","shreelaxmiprakashtatamotors@gmail.com"
"MANICKBAG AUTOMOBILES PVT LTD-1002961","MEGHARAJ COMPLEX, KUSTIGI ROAD,, OPP PETROL PUMP,","Gajendragarh","Karnataka","582115","",""
"JANATHA AUTOMOBILES PRIVATE LIMITED","PLOT NO - 29/14, SURVEY NO : 83/BP/1, SINDANOOR ROAD, MARALI VILLAGE","Gangawati","Karnataka","583268","",""
"S. C. MOTORS","APMC COMPLEX, APMC ROAD, GOKAK","Gokak","Karnataka","591307","7760981218","scmsales445@gmail.com"
"SRI NISTY PVT LTD","8-1305/126/1/A, NEAR KMF MILK DAIRY, KAPNOOR,, HUMNABAD ROAD,","Gulbarga","Karnataka","585104","08472-220282","MD@SRINISTYAUTO.IN"
"MANICKBAG AUTOMOBILES PVT LTD-1006570","PLOT NO 19, C 1ST STAGE INDUSTRIAL AREA,, HUMNABAD ROAD, KAPNOOR, CITY AND DIST KALABURAGI","Gulbarga","Karnataka","585101","7259973999","ketan@manickbag.com"
"MANICKBAG AUTOMOBILES PVT. LTD","DDR COMPLEX, NEAR RING ROAD CIRCLE, HUMNABAD ROAD","Gulbarga","Karnataka","585104","9243263525","sarang@manickbag.com"
"ARVIND MOTORS PVT LTD-1001600","B H ROAD, OPP K. E. B.","Hassan","Karnataka","573103","",""
"ARVIND MOTORS PVT LTD-1001600","NEAR DEVRAYAPATTANA RAILWY OVER BRIDGE,  B.M.ROAD, HASSAN","Hassan","Karnataka","573201","08172 256279","hassan@arvindmotors.com"
"HIREGOUDAR AUTOMOBILES PVT LTD-1007600","OPP INDUSTRIAL ESTATE, HARI LAKHIMPUR,, P B ROAD, HAVERI","Haveri","Karnataka","581109","8375233893","hiregoudar.automobiles201@gmail.com"
"MANICKBAG AUTOMOBILES PVT. LTD","BAPUGOUDAR COMPLEX, P B ROAD, OPP. CORPORATION BANK, BESIDE TDB OFFICE,","Haveri","Karnataka","581104","",""
"PRERANA MOTORS (P) LTD.","# 9, HEROHALLI, MAGADI MAIN ROAD,, NEAR JANAPRIYA COMPLEX, BANGALORE NORTH,","Herohalli","Karnataka","561202","9900050720","manjunath.a@cvbupreranamotors.com"
"PRERANA MOTORS (P) LTD.","SHOP NO.1&2, NO.821,, HUNSUR MAIN ROAD,","Hinkal","Karnataka","570017","0821-2302184","acemysore@cvd.preranamotors.com"
"PRERANA MOTORS REGIO","PCA AND RD BANK, SAVALANGA ROAD, OPP LIC OFFICE,, HONNALI CITY, DISITRICT DAVANGERE","Honnali","Karnataka","","+9148150281","salesdavangere@preranamotorsregion.com"
"ARVIND MOTORS PVT. LTD.","18, YELCHINAYAKANAPURA VILLAGE,, CHINTANAMANI ROAD, BEHIND NANDI GRAND HOTEL","Hosakote","Karnataka","562162","7338453889","ravikumarampl@gmail.com"
"CAMION AUTOMOBILES PVT LTD","DAM ROADS, NEAR APMC, BHAGATH SINGH NAGAR","Hospet","Karnataka","583201","9606095180","ashokkumar@manditata.com"
"DESAI AUTOMOTIVES PVT LTD","BLOCK NO 1/A, PLOT NO 2, HUBLI DHARWAD ROAD,, BHANDEWARKOPPA,","Hubballi-dharwad","Karnataka","580025","9880595789","desaiautomotives@gmail.com"
"MANICKBAG AUTOMOBILES PVT LTD-1002961","KUNDGOL CROSS, ADORGUNCHI, HUBLI","Hubli","Karnataka","580031","0836-2374069","sarang@manickbag.com"
"M/S. BELLAD ENGINEERS P. LTD.","BELLAD CHAMBER III , UNKAL CROSS,, VIDYANAGAR","Hubli","Karnataka","580020","0836-6564822","engineers@belladlimited.com"
"PRERANA MOTORS (P) LTD.","L  1,2,3, INDUSTRIAL EXTENSION, NEAR MILK DAIRY, NEW B M BY PASS ROAD","Hunsur","Karnataka","571105","9686860221","hunsurwm@mysorecvd.preranamotors.com"
"PRERANA MOTORS (P) LTD.","JIGANI, ANEKAL, BENGALURU","Jigani","Karnataka","562107","",""
"ARVIND MOTORS PVT LTD-1001600","OPP, APMC YARD, N.H.206, KADUR","Kadur","Karnataka","577550","",""
"ARVIND MOTORS PVT LTD-1001600","ANCHI KATTE, NEAR SANMAN TALKIES,, KARKALA","Karkal","Karnataka","574104","9972062015","bm.udupi@arvindmotors.com"
"PRERANA MOTORS (P) LTD.","OLD NO.3176/3099, NEW NO.5357/4655,, M C ROAD, NR. AMBEDKAR CIRCLE,MULBAGAL,","Kolar","Karnataka","563131","9900265832","207@cvd.preranamotors.com"
"PRERANA MOTORS (P) LTD.","JSS INSTIGUTIRIONAL NEX COMPLEX,, KOLAR ROAD, NEXT TO STATE BANK OF INDIA, MALUR","Kolar","Karnataka","563130","",""
"PRERANA MOTORS (P) LTD.","PLOT NO. 4615/5, M G ROAD, SIDLAGHATTA ROAD,, NEAR PUMP HOUSE CHINTAMANI","Kolar","Karnataka","563125","",""
"ARVIND MOTORS PVT LTD-1001600","SHANKAR COMPLEX, BALGADI ROAD, NR. DEVE GOWDA CIRCLE,KOPPA,","Koppa","Karnataka","577126","","arvind_chikmagalur@yahoo.co.in"
"ARVIND MOTORS PVT LTD-1001600","SHRI MAGAGANAPATHI COMPLEX, GANDHINAGAR,   N.H. 66,","Kumta","Karnataka","581343","",""
"ARVIND MOTORS PVT LTD-1001600","N.H.66,VODERHOBLI,, .","Kundapur","Karnataka","576201","08254 231719","kundapur@arvindmotors.com"
"PRERANA MOTORS REGIO","C/O M N VENKATESH MURTHY,, B M ROAD, BESIDE MRF TYRE SHOWROOM","Kunigal","Karnataka","572130","9148150347","salestumkur@preranamotorsregio.com"
"PRERANA MOTORS (P) LTD.","NO:653/3, OPPOSITE L.I.C. OFFICE BUILDING ,, B M ROAD","Maddur","Karnataka","571428","",""
"ARVIND MOTORS PVT LTD-1001600","P. B. NO 47, RACE COURSE ROAD, NU","Madikeri","Karnataka","571201","08272 228171","madikeri@arvindmotors.com"
"ARVIND MOTORS PVT LTD-1001600","SURVEY NO.40/1E 2 A,, PUTTUR MANGALORE MAIN ROAD,BOLWAR, NEAR MAYURA THEATRE,","Mangalore","Karnataka","574201","",""
"ARVIND MOTORS PVT LTD-1001600","KULUR KAVOOR ROAD PADUKODI, .","Mangalore","Karnataka","575013","0824 2425633","govind.bhat@rediffmail.com"
"S. C. MOTORS","PAWAR BLDG, RANNA CIRCLE, ,MUDHOL,","Mudhol","Karnataka","587313","",""
"PRERANA MOTORS (P) LTD.","NO:1, 2&3, KATA NO: 3236, 17TH WARD, OPP. VENKATESHAWARA CHITRA MANDIRA, KR NAGAR","Munduru","Karnataka","571602","9686664399","acemysore@cvd.preranamotors.com"
"PRERANA MOTORS (P) LTD.","MGS ROAD, NEAR HULLALI CIRCLE, NANJANGUD,","Mysore","Karnataka","571301","",""
"ARVIND MOTORS PVT. LTD.","PLOT NO. # 1909,, 9TH CROSS, OPP LIONS CLUB,  SUBASH NAGARA,","Nelamangala","Karnataka","562163","",""
"JANATHA AUTOMOBILES PRIVATE LIMITED","NO. 14/2, SY NO. 162/1/2, ASKIHAL,, LINGASUR ROAD,","Raichur","Karnataka","584104","951080008","japl.gvt@gmail.com"
"PRERANA MOTORS (P) LTD.","NEAR SILK COCOON MARKET, JAGGESH BUILDING,, B M ROAD,","Ramanagara","Karnataka","562160","",""
"ARVIND MOTORS PVT LTD-1001600","KHATHA NO 12/C,  KOTAVALU,, OPP. KSRTC DEPO, RAMANATHAPURA,","Ramanathapura","Karnataka","573131","9900265832","207@cvd.preranamotors.com"
"ARVIND MOTORS PVT. LTD.","PLOT NO. 632/1, BHARATI EXTN, CHIKMALLUR, B M ROAD, RAMANAGARA,","Ramnagar","Karnataka","571511","",""
"ARVIND MOTORS PVT LTD-1001600","99/88/1495-25TH WARD, B.H.ROAD, N.H.-206 TOWN, CITY - SAGAR, DIST - SHIMOGA,","Sagar","Karnataka","577401","9845363777","akr@arvindmotors.com"
"ARVIND MOTORS PVT. LTD.","78/1 B&C,  OPP S V CONCRETE,, BANGALOORE - MYSORE ROAD,","Seshagirihalli","Karnataka","562109","9972590277","m.rajeev93@gmail.com"
"ARVIND MOTORS PVT LTD-1001600","BANGALORE HUBLI ROAD, NU","Shimoga","Karnataka","577201","9945146277","shimoga@arvindmotors.com"
"MANICKBAG AUTOMOBILES PVT LTD-1002961","BHAVANI TYRE BLDG, YELLAPUR RD,, NEXT TO BHAVANI TYRES,","Sirsi","Karnataka","581401","",""
"PRERANA MOTORS REGIO","NO.C-8, BANDIHALLI INDUSTRIAL AREA,, B H ROAD, TIPTUR","Tiptur","Karnataka","572201","9945207306","sreesudarshanmotors@gmail.com"
"JANATHA AUTOMOBILES PRIVATE LIMITED","NO. 188/C/3, NEAR RAVI PETROLEUM, KUREKUPPA,, NH - 63, , SANDUR","Toranagal","Karnataka","583123","9945353428","japl.gov@gmail.com"
"PRERANA MOTORS REGIO","SURVEY NO. 8, PLOT NO. 28, KASABA HOBLI, ANTHARASANAHALLI INDL. AREA, 1ST PHASE LINGAPURA VILLAGE,","Tumkur","Karnataka","572106","9845488274/080-22211489","jyanthpai@preranamotors.com"
"ARVIND MOTORS PVT LTD-1001600","NEAR IOC PETROL PUMP.","Udyavara","Karnataka","574118","9880742677","udupi@arvindmotors.com"
"ARVIND MOTORS PVT LTD-1001600","WHARF ROAD, KARWAR","Uttara Kannada","Karnataka","581301","08382-221379","karwar@arvindmotors.com"
"PRERANA MOTORS (P) LTD.","#31, 4TH CROSS, KHB COLONY,, GANDHI NAGAR, YELANKA OLD TOWN, NEAR ROYAL ENFIELD SHOWROOM,, YELAHANKA","Yelachaguppe","Karnataka","560064","9686049841",""
"FOCUZ MOTORS","KMC 7/82B, N.H.-47,, NR. EDASSERY JUNCTION","Alappuzha","Kerala","690502","",""
"POPULAR MEGA MOTORS (INDIA) LTD.","SRV NO-221/29-D/BLDG NO-KMC WARD 32/771,C1 & C2,, M.K. HEMACHANDRAN ROAD,NR. PUTHIYIDAM SREE KRISHNA TEMPLE,","Alappuzha","Kerala","690502","9846397014","kayamkulamsls@pmmil.com"
"POPULAR MEGA MOTORS (INDIA) LTD.","11/68A, NH - 47, NEAR VILLAGE OFFICE,, ERAMALLOOR","Alappuzha","Kerala","688537","9946103885","alpsls@pmmil.com"
"POPULAR MEGA MOTORS (INDIA) LTD.","WARD V111/123A PUNNAPURA NORTH, NU","Alappuzha","Kerala","688004","9447078430","naveen.philip@gmail.com"
"BSPIONEER VEHICLES AND SERVICES PVT","6/780 C TRIVANDRUM KOLLAM N H ROADS,, OPP H P PETROL PUMP,  ALAMCODE","Attingal","Kerala","695605","9846119565","bspioneer@yahoo.com"
"POPULAR MEGA MOTORS (INDIA) LTD.","6/720 (1), MACHIPLAVU P O,, CHATHURANGAPARA, ADIMALY","Chathurangapara","Kerala","685561","9745779222","ekamalas@pmmil.com"
"POPULAR MEGA MOTORS (INDIA) LTD.","BEHIND KAMMATH TOWER, MOOVATTUPHUZHA KOLENCHERY ROAD,, OLD FIRE STATTION STOP, CITY - KADATHI, MOOVATTUPUZHA,","Enanalloor","Kerala","686673","9946103802","mypasis@pmmil.com"
"POPULAR MEGA MOTORS (INDIA) LTD.","BUILDING NO II/284-C,D,F,G,H & I , MATTOOR P O,, KALADY - AIRPORT ROAD","Ernakulam","Kerala","683574","0484 - 2698670","naveen.philip@gmail.com"
"POPULAR MEGA MOTORS (INDIA) LTD.","SERIN TOWERS, BUILDING NO - XXVII/1164, NH-47, PALAMASSERY, KOCHI","Ernakulam","Kerala","682033","",""
"POPULAR MEGA MOTORS (INDIA) LTD.","VEE VEE TOWERS, BYE PASS ROAD, NORTH END, EDAPPALLY","Ernakulam","Kerala","682024","9846072117","naveen.philip@gmail.com"
"POPULAR MEGA MOTORS (INDIA) LTD.","IV/242J, KOORUVELIL BUILGING, MUVATUPUZHA-THODUPUZHA ROAD,, ACHANKAWALA, MADAKATHANAM P.O., THODUPUZHA,","Ernakulam","Kerala","686670","9946103802","tdpsls@pmmil.com"
"FOCUZ MOTORS","18/621,KATTAPPANA - ELAPPARA ROAD,, NEAR KATTAPPANA POST OFFICE,","Idukki","Kerala","685508","9846062777","admin@focuzmotors.com"
"POPULAR MEGA MOTORS (INDIA) LTD.","XI 451A,451B, IRANJALAKUDA ROAD,, OPP LAL MEMORIAL HOSPITAL, MAPRANAM","Irinjalakuda","Kerala","680712","9745141111","tsr1sjk@pmmil.com"
"POPULAR MEGA MOTORS (INDIA) LTD.","BUILDING NO. VII, 62/A1-A4, 1ST MILE, ANAKKAL P O,, KANJIRAPALLY, ERATUPETTA,","Kanjirappally","Kerala","686508","97457779222","ktmsls@pmmil.com"
"APCO AUTOMOBILES (P) LTD","EP 4/4,THOTTADA, KANNUR ROAD","Kannur","Kerala","670007","0497 28370 61","apcoknr@gmail.com"
"POPULAR MEGA MOTORS (INDIA) LTD.","KPXX/652 & 653, ANCHAL PUNALUR ROAD,, NEAR MARTHOMA CHURCH,MAMMOOD, CITY - KARAVALOOR P O, PUNALUR,","Karavaloor","Kerala","691333","9946787468","klmsls@pmmil.com"
"APCO AUTOMOBILES (P) LTD","KMCW-12/192A1,A2,A3,NATIONAL HIGHWAY (KANNUR-KASARGODE),, HIGHWAY JUNCTION, KANHANGAD SOUTH,","Kasaragod","Kerala","671531","9388166707","apcoknr@gmail.com"
"APCO AUTOMOBILES (P) LTD","NO. X/806-A,CHENGALA PANCHNAYAT,, CITIZEN NAGAR,CHENGALA,KASARGODE","Kasargod","Kerala","671541","8129188111/04994281904","apcotataksd@gmail.com"
"POPULAR MEGA MOTORS (INDIA) LTD.","SURVEY NO - 19/1, BUILDING - 1/409,, C-1, KATTAPPANA BY PASS ROAD","Kattappana","Kerala","685508","",""
"FOCUZ MOTORS","FOCUZ TOWERS, STREET, EDAPALLY","Kochi","Kerala","682024","0484 2335150","tony@focuzmotors.com"
"POPULAR MEGA MOTORS (INDIA) LTD.","XX-12(1), PULLUT,, KODUNGALLUR","Kodungallur","Kerala","680664","7593869647","tsrsr@pmmil.com"
"POPULAR MEGA MOTORS (INDIA) LTD.","BLDG NO OP III/ 11, 11A, 12, N H BYE PASS ROAD,, NEAR OCHIRA TEMPLE, OCHIRA, KOLLAM,","Kollam","Kerala","690526","9846397014","ochiraSIs@pmmil.com"
"POPULAR MEGA MOTORS (INDIA) LTD.","KP XI 697, 697 A & B, 698, KALLUMTHAZHAM, N H BYEPASS,, CITY -KOLLAM, DISTRICT - KOLLAM,","Kollam","Kerala","691004","9846280860-0474-2715304","kimar@pmmil.com"
"POPULAR MEGA MOTORS (INDIA) PVT. LTD.-1006510","9/430, C, D, E, MUNDOTH, KOYILANDY - THAMARASERRY ROAD,, KOYILANDY, CALICUT","Koorachundu","Kerala","673328","7593851972","cltsls@pmmil.com"
"POPULAR MEGA MOTORS (INDIA) LTD.","BUILDING NO.VP IV/742-C,VP V 742,KAKKAD JUNCTION, PANAVELY P.O, VALAKOM, KOTTARAKKARA","Kottarakara","Kerala","691506","9846397010","kottarakkarasls@pmmil.com"
"POPULAR MEGA MOTORS (INDIA) LTD.","BLDG NO:3/158C, SH MOUNT P.O, OPP MANGALAM PRESS,M.C ROAD","Kottayam","Kerala","686006","9846397037","pmmktser1@rediffmail.com"
"NCS AUTOCRAFT PVT LTD","XIV 254 E, NEAR MANORAMA PRESS,, TALUKA - NATTAKOM,, KODIMATHA M C ROAD,","Kottayam","Kerala","686013","7909289701","operations@ncsautocorp.com"
"FOCUZ MOTORS","PONEVAZHI CROSS ROAD, NU","Kottayam","Kerala","686001","0481 2584228","tony@focuzmotors.com"
"APCO AUTOMOBILES (P) LTD","NALLALAM PO, NH-17","Kozhikode","Kerala","673027","09387871231","apcoclt@vsnl.com;"
"POPULAR MEGA MOTORS (INDIA) LTD.","PLOT NO. 7/42-C, KUNNAMKULAM CALICUT ROAD,, GOVT. VETENARY HOSPITAL,KAMBIPALAMP","Kunnamkulam","Kerala","680519","7593861573","tsrsls@pmmil.com"
"POPULAR MEGA MOTORS (INDIA) LTD.","PLOT NO. 11/557, 114/558, MANNUVILLA BUILDING,, PUTHIYAKAVU CHAKKUVALLY ROAD,NEAR RTO OFFICE, KUNNATHUR","Kunnathur","Kerala","690522","7593890633","klmsls@pmmil.com"
"POPULAR MEGA MOTORS (INDIA) PVT. LTD.-1006510","8/14-A, EDAPPAL - CALICUT ROAD,, NEAR KSRTC REGIONAL WORKSHOP, MANOOR,","Kuttippuram","Kerala","679582","7594973249","mnjsls@pmmil.com"
"APCO AUTOMOBILES (P) LTD","N.H. - 213, ORADAMPALAM,, OPP. TAS REGENCY","Malappuram","Kerala","679321","",""
"APCO AUTOMOBILES (P) LTD","XVI/93 OF ALANKODE PANCHAYAT,, NATIONAL HIGHWAY 17 ,MANTHADAM,","Malappuram","Kerala","679585","9846537341","apcompm@gmail.com"
"APCO AUTOMOBILES (P) LTD","EP VIII/425A,B,C,D, KALPETTA-MANANTHAVADY ROAD,, CHANGADAKKADAVU, MANANTHAVADY,","Mananthavady","Kerala","670645","04935-326556","bhapcownd@gmail.com"
"APCO AUTOMOBILES (P) LTD","IT TRADE CENTRE,, RAJEEV GANDHI BYE PASS RD,OPP. MALABAR HOSPITAL,","Manjeri","Kerala","676121","",""
"POPULAR MEGA MOTORS (INDIA) PVT. LTD.-1006510","8/248 AB, MANJERI CALICUT ROAD,, 28TH MILE, NARUKARAO P O,","Manjeri","Kerala","","0483-2762121","mnjsr@pmmil.com"
"POPULAR MEGA MOTORS (INDIA) LTD.","8/297, 8/298, 8/8299, MANNARKKAD ATTAPPADI ROAD,,, LANDMARK - SAJLEE PLAZA, NELLIPPUZHA, MANNARKKAD","Mannarkad-i","Kerala","678582","9072304555","pkdsls@pmmil.com"
"POPULAR MEGA MOTORS (INDIA) LTD.","2/614-A, CHENGANNUR PANDALAM ROAD,, MUTHOOT ALBY TOWERS","Mulakuzha","Kerala","689505","9946103826","alpsls@pmmil.com"
"POPULAR MEGA MOTORS (INDIA) PVT. LTD.-1006510","3/751 AND 3/752, KALLEKKAD BLOCK,, PALAKKAD - PATTAMBY ROAD,","Palakkad","Kerala","678006","9745779222","pkdsr@pmmil.com"
"POPULAR MEGA MOTORS (INDIA) LTD.","11/422B, PODUVAL JUNCTION,, KOLAPPULLY","Palakkad","Kerala","679122","9072302419","pkdsls@pmmil.com"
"POPULAR MEGA MOTORS (INDIA) LTD.","RCC COMPLEX, WISDOM CENTRE, YAKKARA ROAD,, NR YAKKARA TEMPLE, YAKKARA VILLAGE","Palakkad","Kerala","678001","0491-2523072","pkdsls@pmmil.com"
"FOCUZ MOTORS","DOOR NO 2/372, JARAPADY,ERNAKULAM, NR. VEDIMARA PETROL PUMP, MANNAM, NORTH PARAVUR","Paravur","Kerala","683520","9846062777","admin_prrservice@focuzmotors.com"
"POPULAR MEGA MOTORS (INDIA) LTD.","BUILDING NO. III / 407C, MALLASSERRY, KUMBAZHA - KONNY ROAD, THENGHUMKAVU P.O.","Pathanamthitta","Kerala","689646","0468-2334545/46","ptasls@pmmil.com"
"POPULAR MEGA MOTORS (INDIA) LTD.","BLDGN NO. IX/391B,KARIPPAKUZHY BUILDING, PERUMTHUMURUTHY,, TRIVANDRUM - ANGAMALY -SH 1,THIRUVALLA,PATHANAMTHITTA","Pathanamthitta","Kerala","689107","9946567419/0484-4077555","tvsasls@pmmil.ocm"
"POPULAR MEGA MOTORS (INDIA) PVT. LTD.-1006510","2/447, KOTTAKKAL MANJERI ROAD,, HYKA TOWER,  KOTTAKKAL,","Ponmala","Kerala","676528","9539625844","mnjsls@pmmil.com"
"POPULAR MEGA MOTORS (INDIA) PVT. LTD.-1006510","426-1A1,425-3, FEROKE, CHUNGHAM,, N H 47, KOZHIKODE,","Ramanattukara","Kerala","673631","9846066635, 9946994261",""
"POPULAR MEGA MOTORS (INDIA) LTD.","TC 13/106, FCN TOWER,, TRIVANDRUM- PETTA ROAD,NALUMUKKU,","Thiruvananthapuram","Kerala","695024","4712742066","tvmsls2@pmmil.com"
"POPULAR MEGA MOTORS (INDIA) LTD.","NPI/ 3F,3G,3H, ANGAMALY-TRIVANDRUM (MC ROAD),, ANITHA TOWER, THYKKATTU,","Thiruvananthapuram","Kerala","695607","9745002136","venjaranmoodusls@pmmil.com"
"BSPIONEER VEHICLES AND SERVICES PVT","BUILDING NO. KP VIII/402-A & 402-B,, PALAM JUNCTION, KARAKULAM, NEDUMANGADU,","Thiruvananthapuram","Kerala","695564","957266655","bspioneer@yahoo.com"
"POPULAR MEGA MOTORS (INDIA) LTD.","DOOR NO. 354, WARD NO.8, OPP PVT BUS STAND,, THODUPUZHA - PALA ROAD","Thodupuzha","Kerala","685584","9846397031","tdpsr@pmmil.com"
"POPULAR MEGA MOTORS (INDIA) LTD.","PLOT NO 6/562-3,6/562/4,6/562-5,6/562-6, 6/562/7,, MANNUTHY BYE PASS, NH BYPASS, OLLUKKARA P O","Thrissur","Kerala","680655","0487-2372135","tsrsls@pmmil.com"
"POPULAR MEGA MOTORS (INDIA) LTD.","XI/586B,586C, NADATHARA,, N H BYEPASS ROAD, MANMUTHY,","Thrissur","Kerala","680751","9745141111","tsrsr@pmmil.com"
"APCO AUTOMOBILES (P) LTD","XVI/121, THANALUR PANCHYAT, TIRUR-TANUR HIGHWAY, T P COMPLEX, MOOCHIKKAL","Tirur","Kerala","679351","",""
"POPULAR MEGA MOTORS (INDIA) LTD.","VEDIVACHAM KOVIL P O, NATIONAL HIGHWAY - 47","Trivandrum","Kerala","695501","0471  2556152","naveen.philip@gmail.com"
"POPULAR MEGA MOTORS (INDIA) LTD.","TRIVANDRUM - KANYAKUMARI ROAD,, 0","Trivandrum","Kerala","695121","",""
"APCO AUTOMOBILES (P) LTD","16/254B, VADAKARA TALUK, CHORODE VILLAGE, NATIONAL HIGHWAY 17, (CALICUT-KANNUR), VADAKARA,","Vadakara","Kerala","673106","8129050449","apcovtk@gmail.com"
"APCO AUTOMOBILES (P) LTD","SY NO. 588/74, 2, DOOR NO VIII/72C, VARIAD, KALPETA, N H- 212, VYTHIRI TALUKA, WAYANAD","Wayanad","Kerala","673122","9388868102","apcotatawnd@gmail.com"
"SANGHI BROTHERS (I) PVT. LTD-CHINDWARA","BETUL GANJ, BHADORA ROAD,, NR. RAILWAY CROSSING,","Betul","Madhya Pradesh","460001","",""
"S. G. MOTORS","BIHIND GWALIOR ROAD,, INFRONT OF SHARDA TALKIES,","Bhind","Madhya Pradesh","477001","9300464360","sgmotor@yahoo.co.in"
"SATURN AUTO LINKS PVT LTD","TRI SECTION RATANPUR ,, HOSHANGABAD ROAD,","Bhopal","Madhya Pradesh","462026","6264918128","saturnautolinks@gmail.com"
"SANGHI BROTHERS (INDORE) PVT. LTD.","KHANDWA ROAD, LOHARMANDI,, NU","Burhanpur","Madhya Pradesh","450331","",""
"SEEMA ANAND AUTO SALES PVT LTD","WARD NUMBER 17,, JAWAHAR MARG 2, PANNA ROAD","Chhatarpur","Madhya Pradesh","471001","07682-244244","anandtruckings@gmail.com"
"SANGHI BROTHERS (I) PVT. LTD-CHINDWARA","PARTALA PARASIA ROAD., NU","Chhindwara","Madhya Pradesh","480001","9009799441","sbilcwa@rediffmail.com"
"SHREEKRISHNA MOTORS & BUSINESS PVT","OPPOSITE KULBEHRA HANUMAN MANDIR,, VILLAGE SARRA, NAGPUR ROAD,","Chhindwara","Madhya Pradesh","480001","07162-298265","shreenarmadamotors@gmail.com"
"S. G. MOTORS","OPP. KRISHI MANDI,, BHANDER ROAD,","Datia","Madhya Pradesh","475661","",""
"SANGHI BROTHERS (INDORE) PVT. LTD.","INDORE ROAD,, NR NEW BUS STAND","Dharampuri","Madhya Pradesh","454552","0731-4070287","sanghibros@rediffmail.com"
"AEONAUTO PVT LTD","DALVI  COLONY, DALVI  NAGAR,, A.B ROAD, GUNA","Guna","Madhya Pradesh","473001","9425137452","aeonautoguna@gmail.com"
"S. G. MOTORS","9,10,11, BARAGHAT INDUSTRIAL AREA, JHANSI ROAD, P. O. NO. 30,, JHANSI ROAD","Gwalior","Madhya Pradesh","474004","4097111","sgmotor@yahoo.com"
"SHRI CHAKRAPANI MOTORS","NH - 69, RASULIYA,, HOSHANGABAD","Hoshangabad","Madhya Pradesh","461001","","amitbijlani10@gmail.com"
"SHYAM SANGAM AUTOMOBILES PVT LTD","OPPOSITE AKASHAVANI, RAU, A B ROAD,","Indore","Madhya Pradesh","453331","909990244","automobiles.shyamsangam@gmail.com"
"SANGHI BROTHERS (INDORE) PVT. LTD.","#6 MANORAMA GANJ","Indore","Madhya Pradesh","452001","7747008201","sanghibros@rediffmail.com"
"SHYAM SANGAM AUTOMOBILES PVT LTD","105/1/2/4, A B ROAD,, BEFORE EMERALD HEIGHTS SCHOOL","Indore","Madhya Pradesh","453331","99993765122","office@shyamtatacv.com"
"COMMERCIAL AUTOMOBILES LTD.","497 KATANGI ROAD ,KARMETA, OPP.SHRIRAM ENGINEERING COLLEGE","Jabalpur","Madhya Pradesh","482001","0761-6451918","sales@tatacommercial.com"
"COMMERCIAL AUTOMOBILES LTD.","1811 , MADAN MAHAL,213 , SHIVHARI COMPLEX,, NAGAPUR ROAD, MAHANADDA, JABALPUR","Jabalpur","Madhya Pradesh","482001","9826634582","workshop.ghsns@tatacommercial.com"
"COMMERCIAL AUTOMOBILES LTD.","PLOT NO. 526/2 & 526/1,GRAM JHINHARY,, N.H. - 7, OPP DISTRICT COURT, KATNI, JABALPUR","Kanti","Madhya Pradesh","483501","9826634568","sales@tatacommercial.com"
"SANGHI BROTHERS (INDORE) PVT. LTD.","39/1 & 39/4  INFRONT OF PRAHLAD ABHIKIRAN, INDORE ROAD, NEAR BUS STAND","Khandwa","Madhya Pradesh","450991","7747008201","sharadsanghi@rediffmail.com"
"SANGHI BROTHERS (INDORE) PVT. LTD.","HAIKA NO 46 OLD 25, KHASRA NO 13-01-07 & 13-01-13, SANDHWA ROAD, GRAM JATAPURA,KHARGONE","Khargone","Madhya Pradesh","451001","9826032123","sharadsanghi@rediffmail.com"
"PRAHLAD ABHIKARAN-1007730","SANAWAD ROADS, NR DCB BANK","Khargone","Madhya Pradesh","451001","0782-232182","gajanandgoyal@rediffmail.com"
"COMMERCIAL AUTOMOBILES LTD.","BINJHIYA JABALPUR ROAD,, MANDLA","Mandla","Madhya Pradesh","481661","9993939344/9826634568","sales@tatacommercial.com"
"CHOUDHARY MOTORS-1007660","NEW KRISHI UPAJ MANDI,, MHOW NEEMUCH ROAD","Mandsaur","Madhya Pradesh","458001","9993329710","choudharyautomobiles@rediffmail.com"
"S. G. MOTORS","ASHIRVAD TRANSPORT COMPANY,, SHIVPURI ROAD,IN FORNT OF PRIYAL HOTEL,","Mayapur","Madhya Pradesh","476337","9300464360","sgmotors@yahoo.co.in"
"S. G. MOTORS","A B  ROAD,, NR. COMMISSIONER BUNGALOW,","Morena","Madhya Pradesh","476001","",""
"SANGHI BROTHERS (I) PVT. LTD-1000524","NR. TOLL TAX POST,, MHOW NEEMUCH ROAD,JAORA,","Ratlam","Madhya Pradesh","457226","",""
"SANGHI BROTHERS (I) PVT. LTD-1000524","KUKSHI ROAD, NR. RELAINCE PETROL PUMP,, NR. RELAINCE PETROL PUMP, ALIRAJPUR,","Ratlam","Madhya Pradesh","457990","9826090679","sanghinmh2010@gmail.com"
"AGARWAL MOTORS","PLOT NO./BLDG NO.370/01,, REWA-SINGRULI ROAD, N.H.75, NR. COURT,","Rewa","Madhya Pradesh","486661","",""
"AGARWAL MOTORS","NEAR BYPASS, CHORATA, REWA","Rewa","Madhya Pradesh","486001","9754301101","ceo.agarwalmotors@gmail.com"
"AGARWAL MOTORS","RAMTEKRI, NEAR BYE PASS,, REWA ROAD, SATNA","Satna","Madhya Pradesh","485001","9826135355","neeraj_agar@rediffmail.com"
"AGARWAL MOTORS","58 / 1 / 06, NEAR RELIANCE PETROL PUMP, NH-7, MAIHAR REWA ROAD","Satna","Madhya Pradesh","485771","07674 - 234575","ag.maihar@gmail.com"
"SANGHI BROTHERS (INDORE) PVT. LTD.","AGRA BOMBAY ROAD DIST BARWANI, NU","Sendhwa","Madhya Pradesh","451666","9826062370","sanghibros@rediffmail.com"
"COMMERCIAL AUTOMOBILES LTD.","KHASRA NO.461/2, 462/1, 463/2, VILLAGE HARRI, P C NO. 68,, BUHAR ROAD, TEHSIL SOHAGPUR, SHAHDOL, MADHYA PRADESH","Shahdol","Madhya Pradesh","484001","9826624488","devendra.agarwal@tatacommercial.com"
"SANGHI BROTHERS (INDORE) PVT. LTD.","DHAR CHIKHALAD MARG,, NU","Shajapur","Madhya Pradesh","465001","",""
"SRISHTI AUTOMOTIVE","27,GRAM KISHONE, NEAR RAM SHREE TAKIJ,, ASTHA ROAD, SHUJALPUR,","Shajapur","Madhya Pradesh","465333","8718806445","srishtiautomotive@gmail.com"
"S. G. MOTORS","A B  ROAD, NR. AMBEDKAR PARK,","Shivpuri","Madhya Pradesh","473551","",""
"COMMERCIAL AUTOMOBILES LTD.","POST BOX 24, CITY - WAIDHAN","Sidhi","Madhya Pradesh","486886","9425176757","shahnawaz.ahmad@tatacommercial.com"
"COMMERCIAL AUTOMOBILES LTD.","SINGRAULI - AMPRA ROAD,, OPP HOSPITAL NCL,","Sihawal","Madhya Pradesh","486670","",""
"SANGHI BROTHERS (INDORE) PVT. LTD.","AGAR  ROAD., NEAR RD GARDI MEDICAL COLLEGE","Ujjain","Madhya Pradesh","456771","9826029823","sanghibros@rediffmail.com"
"COMMERCIAL AUTOMOBILES LTD.","PALI ROAD,, NEAR PURANA KHALESHAR NAKA,","Umaria","Madhya Pradesh","484661","8889310192/9826634568","sales@tatacommercial.com"
"UJWAL AUTOMOTIVES PVT. LTD.","SHOP NO.3 & 4, MARUTI SHOPPING COMPLEX,, CITY - SAHADA, DIST - NANDURBAR, MAHARASHTRA STATE","Abhanpur","Maharashtra","425409","9823028593","aakp@ujwalauto.com"
"A S MOTORS","SURVAY NO 29/1A/1B/1C, NAGAR PUNE ROAD, BHINGAR, PUNE - AHMEDNAGAR HIGHWAY","Ahmadnagar","Maharashtra","414001","","santoshlonkar@asmotors.co.in"
"PIPADA MOTORS","59/1B/1C,PLOT NO 11-12,SAHYADRI CHOWK,, NAGAR MANMAD ROAD,TALUKA -NAGAR","Ahmadnagar","Maharashtra","414111","9822917611","pipadamotorsts11@gmail.com"
"SHUBHYAN AUTO PVT LTD","PLOT NO.E-4, NEXT TO EXIDE INDUSTRIES,, MIDC, AHMEDNAGAR","Ahmadnagar","Maharashtra","414001","9822193984","shubhyanauto@gmail.com"
"STERLING MOTORS","NAGAR MANMAD RD,, OPP HOTAL SANJOG,","Ahmadnagar","Maharashtra","414001","0241-2429333","deneshshetty05@tyahoo.co.in"
"SHUBHYAN MOTORS PVT. LTD.","NAGAPUR MIDC    AHMEDANAGAR, NAGAR.","Ahmednagar","Maharashtra","414111","0241-2778114/2778687","ashokbothe@rediffmail.com"
"BAFNA MOTORS PVT. LTD.","AMBEJOGAI ROAD,, NU","Ahmedpur","Maharashtra","413515","",""
"CHAVAN AUTO WHEELS PVT LTD","PLOT NO 6A, 100 FEET BYPASS ROAD, NR. SUMITRA MOTORS,, SANGRAM NAGAR, AKLUJ,","Akluj","Maharashtra","413101","02185-224488","chavanauwheels.akluj@gmail.com"
"BAFNA MOTORS INDIA PVT LTD","PLOT NO.C2/2, PHASE III, M.I.D.C. INDUSTRIAL AREA, OPP. AIRPORT,, MURTIZAPUR RD, VILLAGE SHIVAR,TALUKA- AKOLA, MAHARASHTRA","Akola","Maharashtra","444104","0724-2259376-79","dsharma@bafnamotors.in"
"BAFNA MOTORS INDIA PVT LTD","GUT. NO. 44, MAUJE NAIGAON, OPP. BAJAJ MATERIAL GATE,, NAGAR ROAD, TALUKA - WALUJ, AURANGABAD","Aurangabad","Maharashtra","431136","",""
"BAFNA MOTORS INDIA PVT LTD","GUT. NO. 84, BEHIND BAJAJ PETROL PUMP,, KANCHANWADI, PATHAN ROAD,","Aurangabad","Maharashtra","431005","9223311222/0240-2379046","dsharma@bafnamotors.in"
"SATISH MOTORS (P) LTD.","ADALAT ROAD STREET, AURANGABAD","Aurangabad","Maharashtra","431001","9960691815/2402333067","satishlodha@satishmotors.com"
"SATISH MOTORS (P) LTD.","MAHARANA PRATAP CHOWK, SURVEY NO. 90/2, NEAR AJANTA WEIGH BRIDGE, BHOKARDAN ROAD","Aurangabad","Maharashtra","431109","9960691815/02430-224477","ss@satismotors.com"
"SATISH MOTORS (P) LTD.","GAT NO.72/1, NEAR DAULATABAD T POINT,, SHERNAPUR, AURANGABAD VAIJAPUR ROAD","Aurangabad","Maharashtra","431133","0240-2970606","SS@SATISHMOTORS.COM"
"EXCEL VEHICLES (A UNIT OF MY CAR PUNE PVT LTD)","A/P DHAWAN WASTI, BARAMATI MORGAON ROAD,, NEAR MORGAON TOLL NAKA, BARAMATI, PUNE - 411043 MAHARASHTRA","Baramati","Maharashtra","413102","8600107362","agmscv@excelvehilcestata.com"
"BAFNA MOTORS PVT. LTD.","OLD RTO OFFICE,, BARSHI NAKA, BEED, BID MCL","Beed","Maharashtra","431122","9922004326/02442-222299","bafnabeed@gmail.com"
"BAFNA MOTORS PVT. LTD.","GEORAI ROAD,, SAMBHAJI CHOWK,","Beed","Maharashtra","431131","9850501776/02462-222464","bmlcvd@gmail.com"
"N S MOTOR","HOUSE NO 557, GURUNANAK MARKET,, FULCHUR,FULCHUR NAKA ,GONDIA","Bhandara","Maharashtra","","9823186056",""
"N S MOTOR","NGAPUR ROAD NH-6, GURUDEV CHOWK,, NR. INCOME TAX OFFICE,","Bhandara","Maharashtra","441904","9371370736","ns.motor.yahoo.com"
"M/S. KAMAL MOTORS","NAGESHWAR COMPOUND,, THANE - BHIWANDI ROAD,PURNA NAKA,","Bhiwandi","Maharashtra","421302","","kamalaa@bom3.vsnl.net.in"
"BAFNA AUTO ENGINEERING PVT. LTD.","SHOP NO 3 & 4, CHOWPATI ROAD,HINDUSTAN HIGHTS,, KONDHALKAR BLDG, BHOR,","Bhor","Maharashtra","412206","9970908172","gholapsuraj16@gmail.com"
"M/S. KAMAL MOTORS","SURVEY NO.252, SHOP NO.9,, GOGIVADE, 6, PROFIT CENTER,","Boisar","Maharashtra","401501","","kamalaa@bom3.vsnl.net.in"
"M/S. KAMAL MOTORS","ESSDEE AUTOZONE, PLOT NO. 223,OPP. MUKUT TANK,, NEXT TO MAHINDRA SHOWROOM, M I D C ROAD, BOISAR","Boisar","Maharashtra","401501","8888085565","boisar@kamalmotors.co.in"
"JAIKA MOTORS LTD","PLOT NO.X 2,3,4, MIDC GROWTH CENTRES, NAGPUR ROAD, TADALI","Chandrapur","Maharashtra","442402","0712-3987600","puri@nagpur.jaika.com"
"JAIKA MOTORS LTD","PLOT NO -5, CHAMOR SHIROD,, NEAR JALARAM SILK SHOP,GADCHIROLI,","Chandrapur","Maharashtra","442605","9552548051","waghide@chandrapur.jaika.com"
"SATISH MOTORS (P) LTD.","JALNA-AKOLA ROAD, NEA BY JOHN DEERE WAREHOUSE,, CHAVANBADI, CHIKHLI, BULDHANA","Chikhli","Maharashtra","443202","9960691815","krd@satishmotors.com"
"BAFNA MOTORS (RATNAGIRI) PVT. LTD.","GUT NO 867 (3), GRAM PANCHAYAT H NO 385,WALOPE","Chiplun","Maharashtra","415605","9422429710","bafna_cpn@rediffmail.com"
"UJWAL AUTOMOTIVES PVT. LTD.","JAI BABA NARAYAN  NAGAR,, SHOP NO.53 & 54,DHARANGAON ROAD,","Chopda","Maharashtra","425001","",""
"BAFNA MOTORS (RATNAGIRI) PVT. LTD.","KHONDA,, NU","Dapoli Camp","Maharashtra","415712","","bafnartn@rediffmail.com"
"SEHGAL WHEELS PRIVATE LIMITED","AJINKYATARA BLDG,SINHAGAD ROAD,, OPP DESHPANDE GARDEN, NR SAVAI HOTEL,","Dattawadi","Maharashtra","411030","",""
"BAFNA AUTO ENGINEERING PVT. LTD.","KHEDGAON PHATA,, SHOLAPUR HIGHWAY,DAUND,","Daund","Maharashtra","412203","","bafnaautomotive@indiatimes.com"
"EXCEL VEHICLES (A UNIT OF MY CAR PUNE PVT LTD)","SR NO. 15/7, PLOT NO.5, PUNE SATARA ROAD,, BHULESHWAR HOUSING SOCIETY, DHAKAWADI VILLAGE, PUNE - 411 043.","Dhanakwadi","Maharashtra","411043","020-65215555","agmscv@excelvehiclestata.com"
"UJWAL AUTOMOTIVES PVT. LTD.","MUMBAI AGRA ROAD., AWDHAN","Dhule","Maharashtra","424311","0256-2239844","ujwalauto@rediffmail.com"
"N S MOTOR","GONDIA ROAD, AMBEDKAR CHOWK,, AMGAON,","Gondiya","Maharashtra","441902","9158893063","motor.nangia@gmail.com"
"BAFNA AUTO ENGINEERING PVT. LTD.","PUNE-SOLAPUR ROAD, KIRLOSKAR BRIDGE,, HADAPSAR","Hadapsar","Maharashtra","411028","9130047001","salesgm@bafnaautomotitve.com"
"SATISH MOTORS (P) LTD.","BANGAR NAGAR,, KALAMNURI ROAD,","Hingoli","Maharashtra","431513","","satishmotors@sify.com"
"CHETAN MOTORS","GAT NOS. 854,, ICHALKARANJI KOLHAPUR ROADS","Ichalkaranji","Maharashtra","416122","0231-2616113-15","chetanmotors_accounts@ghatgegroup.com"
"UJWAL AUTOMOTIVES PVT. LTD.","M - SECTOR 155/156 KHEDISHIVAR , MIDC JALGAON ,, BEHIND HIGHWAY NO 6  , BHUSAVAL ROAD ,","Jalgaon","Maharashtra","425001","0257-2225243","rm@ujwalauto.com"
"UJWAL AUTOMOTIVES PVT. LTD.","VALLABHAI PATIL ROAD, DESHMUKH WADI","Jalgaon","Maharashtra","424201","9225121172","cvsales@ujwalauto.com"
"SATISH MOTORS (P) LTD.","PLOT NO 5,, PANCHMUKHI NAGAR, CHANDANZIRA,JALNA","Jalgaon","Maharashtra","431132","9960813333","krd@satishmotors.com"
"UJWAL AUTOMOTIVES PVT. LTD.","SHOP NO 7/8, UNDIRKHEDA ROAD,, KRISHI UTPANNA BAJAR SAMITI COMPLEX,  PAROLA,","Jalgaon","Maharashtra","425111","","cvdsales@ujwalauto.com"
"BAFNA AUTO ENGINEERING PVT. LTD.","SASWAD JEJURI ROAD,, SAKURDE PHATA, NR. MADHUBAN HOTEL,","Jejuri","Maharashtra","412303","02115-286200/020-24367979","sanjay@bafanauto.com"
"EXCEL VEHICLES (A UNIT OF MY CAR PUNE PVT LTD)","SURVEY NO. 159, HISSA NO. 2/T,  VILLAGE CHALAKWADI, PIMPALWADICHI, PUNE NASHIK HIGHWAY, TALUKA JUNNAR,, ALEPHATA","Junnar","Maharashtra","412412","9326530041","manishbalupuri@excelvehilcestata.com"
"BAFNA MOTORS PVT. LTD.","DHOKI ROAD,NEAR PETROL PUMP,, KALLAMB","Kallam","Maharashtra","413507","9552559206","bmlcvd@gmail.com"
"NICE AUTO DEALER PVT LTD","MUMBAI GOA HIGHWAY, OPP IN NEEELAMS COUNTRYSIDE,, HOTEL JANVALI, KANKAVALI","Kankavli","Maharashtra","416602","2367231401","niceauto.tatamotors@gmail.com"
"NEEVAN MOTORS PVT LTD-1007510","OPP NEW ANNAPURNA HOTEL, GOTE,, PUNE BANGALORE HIGHWAY, N H 4,","Karad","Maharashtra","415110","","karad.nevaanmotors@gmail.com"
"JAIKA MOTORS LTD","27, LAMBA LAYOUT, LAXMI NAGAR,, OPP. KSRISHIPUTAN BAZAR SAMITI,","Katol","Maharashtra","441302","9270243413","nilesh.manekar@nagpur.jaika.com"
"CHETAN MOTORS","R S NO 593/1 AURNAL PHATA,SANKESHWAR ROAD, NU","Kolhapur","Maharashtra","416502","0231-2616112/3/4/5","chetanmotors@ghatgegroup.com"
"CHETAN MOTORS","R S NO 308-2B, P O UCHGAON TALUKA-KARVIR, HUPARI ROAD, KOLHAPUR","Kolhapur","Maharashtra","416005","0231-2616112/3/4/5","chetanmotors@ghatgegroup.com"
"CHETAN MOTORS","517 E, PUNE BANGALORE  ROAD,, PUNE BANGALORE ROAD","Kolhapur","Maharashtra","416001","0231- 2537911","chetanmotors@rediffmail.com"
"CHETAN MOTORS","KODOLI MAIN ROAD,, OPP KODOLI,URBAN BANK,","Kolhapur","Maharashtra","416113","",""
"CHETAN MOTORS","PLOT NO 645, SH 126,, OPP. S T STAND, NAVE PARGAON ARCH,","Kolhapur","Maharashtra","416103","8888820420","chetanmotors@ghatgegroup.com"
"BAFNA MOTORS PVT. LTD.","GUT NO. 125/126 VILLAGE KOLPA, NANDED ROAD LATUR","Latur","Maharashtra","413512","02382-263549 / 263539","bafnalatur9@gmail.com"
"EXCEL VEHICLES (A UNIT OF MY CAR PUNE PVT LTD)","SR NO 24/6, PUNE SATARA ROAD, NEAR IOCL PETROL PUMP,, LONI","Loni","Maharashtra","412201","020-65215555","agmscv@excelvehiclestata.com"
"UJWAL AUTOMOTIVES PVT LTD-1007340","MUMBAI AGRA ROAD, NEAR HDFC BANK,, CHANDWAD","Malegaon","Maharashtra","423101","7391059271",""
"PIPADA MOTORS","SURVEY NO.574 PLOT 574/1, CHANDANAPURI SHIVAR,SAIKRUPA TRADE, MUMBAI AGRA HIGHWAY","Malegaon","Maharashtra","423203","7507511111","pipada.motors11@gmail.com"
"EXCEL VEHICLES (A UNIT OF MY CAR PUNE PVT LTD)","SURVEY NO. 19, HISSA NO. 6, SHEWALWADI,, PUNE NASHIK HIGHWAY, TALUKA AMBEGAON,","Manchar","Maharashtra","410503","9326530041","manishbalupuri@excelvehicles.com"
"EXCEL VEHICLES (A UNIT OF MY CAR PUNE PVT LTD)","SURVEY NO. 30, HISSA NO. 1,, MUMBAI PUNE BANGALORE HIGHWAY, A/P MARUNJI, TALUKA MULSHI, MARUNJ","Marunji","Maharashtra","411057","020-67205001,5113,5115,5120,5124","rajivcfo@marutimycar.com"
"UNITECH AUTOMOBILES PVT LTD","GR. FLOOR, JIVAN SILK MILL COMPOUND, OPP. SAKINAKA TELEPHONE EXCH, KURLA ANDHERI ROAD, SAKINAKA, ANDHERI (E),","Mumbai","Maharashtra","400072","022 67746666","tis@bom2.vsnl.net.in"
"M/S. KAMAL MOTORS","MANGAL MURTI  BUILDING NO. 11A WING, SHOP NO. 17,, MANKHURD GHATKOPAR LINK ROAD, CHIKUWADI, MANKHURD (WEST)","Mumbai","Maharashtra","400043","9321889901","mankhurd@kamalmotors.co.in"
"BAFNA Motors (Mumbai) Pvt. Ltd.","SHOP NO.10, S V ROAD,, NR. INDUSTRIAL ESTATE, JOGESHWARI,","Mumbai","Maharashtra","400060","022-56931314","bmmpl.thane@indiatimes.com"
"JAIKA MOTORS LTD","LOTUS KRISHNA, MOUNT ROAD,, SADAR, NR. HOTEL DUA INTERNATIONAL,","Nagpur","Maharashtra","440001","0712-2641729","puri@nagpur.jaika.com"
"JAIKA MOTORS LTD","KH. NO. 36, PH. NO. 20, 13 KM MILE STONE,, BHANDARA ROAD,ASOLI,","Nagpur","Maharashtra","441104","9011684577","cs.talwar@nagpur.jaika.com"
"JAIKA MOTORS LTD","D.R.D.E,  N.M.C MARG, CIVIL LINES","Nagpur","Maharashtra","440001","0712-3987600","puri@nagpur.jaika.com"
"N S MOTOR","HYDERABAD HIGHWAY, NU","Nagpur","Maharashtra","440016","","nangia_mahesh@yahoo.com / ns.motor@yahoo.com"
"JAIKA MOTORS LTD","ASOLI 13 KM MILES STONE, BHANDARA ROAD","Nagpur","Maharashtra","440001","9850399012 Ph No. 0721-2510663","amravati@jaika.com"
"JAIKA MOTORS LTD","NR. POLICE STATION,, PODDAR HOSPITAL, KALMESHWAR,","Nagpur","Maharashtra","441501","9552130463","puri@nagpur.jaika.com"
"BAFNA MOTORS PVT. LTD.","AIRPORT ROAD, SANGVI,, CITY AND DISTRICT NANDED","Nanded","Maharashtra","431605","9820122929","bafnaho@bafnamotors.in"
"BAFNA MOTORS PVT. LTD.","GUT NO 100 , PIMPALGAON (MAHADEV) TQ. ARDHAPUR DIST NANDED","Nanded","Maharashtra","431604","9922004323","bmlcvd@rediffmail.com"
"UJWAL AUTOMOTIVES PVT. LTD.","1 NEHA PARK DHULE ROAD, DHULE NANDURBAR ROAD","Nandurbar","Maharashtra","425412","8805012186","akp@ujwalauto.com"
"STERLING MOTORS","OLD AGRA ROAD,, GADKARI CHOWK,","Nashik","Maharashtra","422001","9822592477","sterling_nsk@yahoo.com"
"SHOURYA MOTORS","GROUND FLR, SHOP NO.1, B-01 A WING, RAVIRAJ ARCADE,, NR PANCHAWATI DENTAL COLLEGE,KEVADIBEN, PANCHAVATI,MUMBAI AGRA RD","Nashik","Maharashtra","422003","9112244821","shouryamotors099@gmail.com"
"UJWAL AUTOMOTIVES PVT LTD-1007340","TULJABHAWANI COMPLEX,, NEAR LOTUS HOSPITAL, VINCHUR ROAD, LASALGAON","Nashik","Maharashtra","422306","8669605392",""
"UJWAL AUTOMOTIVES PVT LTD-1007340","14, PAWAR CHAMBERS,, NASIK CO-OPERATIVE HSG SOCIETY, MAHATAMA NAGAR, TRYAMBAK ROAD","Nashik","Maharashtra","422005","9523028593","gm.ujwalauto.com"
"UJWAL AUTOMOTIVES PVT LTD-1007340","NEAR GULMOHAR HOTEL,, VINCHUR ROAD,","Nashik","Maharashtra","422303","8669605395",""
"M/S. KAMAL MOTORS","PLOT NO. 29, SECTOR 1,, NERUL","Navi Mumbai","Maharashtra","400706","222708982","admin@kamalmotors.com"
"UNITECH AUTOMOBILES PVT LTD","PLOT NO D - 517,TTC INDUSTRIAL AREA, MIDC,, TURBHE MAPHE ROAD,TURBHE","Navi Mumbai","Maharashtra","400705","9029096235","technoint@vsnl.com"
"BAFNA MOTORS PVT. LTD.","NEAR TRIGANESH THEATRE,, TRIGANESH COMPLEX,HIGHWAY NO.9, MAIN ROAD,","Omerga","Maharashtra","413606","",""
"BAFNA MOTORS PVT. LTD.","PLOT NO A -18/8, NEAR SAMRUDHI PETROL PUMP,, MIDC AREA, YEDSHI ROAD, OSMANABAD,","Osmanabad","Maharashtra","413501","02472-227199 / 9923405539","bafnaosmanabad@gmail.com"
"SATISH MOTORS (P) LTD.","MAIN CITY ROAD,, ABHINANDAN MANGAL ROAD,KARYALAY PAITHAN,","Paithan","Maharashtra","431107","",""
"UNITECH AUTOMOBILES PVT LTD","GAT NO 132 & 134,KOLKHE VILLAGE, NEAR PALSPHA PHATA,MUMBAI PUNE HIGHWAY","Panvel","Maharashtra","410218","",""
"BAFNA MOTORS INDIA PVT LTD","AMRAVATI ROAD, INFRONT OF JANPAD PANCHAYAT,, HIINGOLI, PARBHANI","Parbhani","Maharashtra","431511","7770937788",""
"SATISH MOTORS (P) LTD.","JINTUR ROAD, BESIDES CHOUDHARY HOSPITAL, BESIDES CHOUDHARY HOSPITAL","Parbhani","Maharashtra","431401","0252-242401","0252-242401"
"UNITECH AUTOMOBILES PVT LTD","BOMBAY- GOA ROAD,, NEAR RELIANCE PETROL PUMP,","Pen","Maharashtra","402107","02143-9225105416","tis@bom2.vsnl.net.in"
"NEEVAN MOTORS PVT LTD-1007510","83/2B/4 , PHARANDWADI, PHALTAN DIVISION,, NEAR JINTI NAKA, PHALTAN,","Phaltan","Maharashtra","415523","7798660660","md@nevaanmotors.com"
"SEHGAL WHEELS PRIVATE LIMITED","NARAYANGAON ROAD, OPP S. T. STAND, NARYANGAON","Pune","Maharashtra","412401","020-66339999","nickysehgal@sehgalautoriders.com"
"EXCEL VEHICLES (A UNIT OF MY CAR PUNE PVT LTD)","A/P 132/1B, THATHAWADE,, MUMBAI PUNE BANGALORE BYEPASS,","Pune","Maharashtra","411003","02067205111","rajivcfo@mygroupbiz.com"
"BAFNA AUTO ENGINEERING PVT. LTD.","SURVEY NO.280/1, TIMBER MARKET ROAD,, SEVEN LOVES CHOWK,","Pune","Maharashtra","411042","020-26438181","sgbafna@hotmail.com"
"EXCEL VEHICLES (A UNIT OF MY CAR PUNE PVT LTD)","GAT NO. 624, HISSA NO. 5/2, VILLAGE KURULI CHAKAN,, KHED TALUKA, CITY AND DISTRICT PUNE,","Pune","Maharashtra","410501","9326530088/020-67205001","rajivcfo@mycarmaruit.com"
"SEHGAL WHEELS PRIVATE LIMITED","CHEVANTA NIVAS, PUNE NASHIK ROAD,, NEAR SWAYAMVAR MANGAL KARYALEY,","Pune","Maharashtra","410501","9922508601/020-30635131","johnnysehgal@sehgalwheels.com"
"BAFNA AUTO ENGINEERING PVT. LTD.","A/P  DAUND","Pune","Maharashtra","412207","9822004560","sanjay@bafnaauto.com"
"VOHRA AUTO SERVICES-100A110","SR. NO. 133 OPP OCTROI POST, NH 4 JUST AFTER GHAT,, SHINDEWADI, BHOR,","Pune","Maharashtra","412203","'02113297107","vohraautoservices@gmail.com"
"SEHGAL WHEELS PRIVATE LIMITED","MUMBAI PUNE  ROAD., PLOT NO P1 D3 BLOCK MIDC","Pune","Maharashtra","411035","020-30635100","johnnysehgal@sehgalwheels.com"
"PIPADA MOTORS","449, SAKURI,NAGAR MANMAD ROAD,, TALUKA-RAHATA, SAKURI,AHMEDNAGAR","Rahta Pimplas","Maharashtra","423107","9822917611","pipadamotorsts11@gmail.com"
"BAFNA Motors (Mumbai) Pvt. Ltd.","VILLAGE- KOLKHE, PALASPA PHATA VILLAGE- KOLKHE,, C.C.I LOGISTICS, PALASPA,OLD MUMBAII- PUNE ROAD,PANVEL,","Raigad","Maharashtra","410206","9920410410/02143-220066","panvelworkshop@bafnamotors.in"
"BAFNA MOTORS (RATNAGIRI) PVT. LTD.","D/24, MIDC, MIRJOLE","Ratnagiri","Maharashtra","415639","02352-230404","bafnartn@rediffmail.com"
"UNITECH AUTOMOBILES PVT LTD","PARMAR  NAGAR, S T ROADS","Roha Ashtami","Maharashtra","402109","","technoint@vsnl.com"
"LEENA AUTOMOTIVE INDIA PVT LTD","S NO 54/3, PLOT NO. 175-A,, SANGAMNER CO-OP INDUSTRIAL ESTATE,, PUNE NASHIK HIGHWAY,","Sangamner","Maharashtra","422605","9673777711","Sable30786@h-gmail.com"
"CHETAN MOTORS","GAT NO:-441/1/2/1A, A/P KASABE DIGRAJ,, SANGLI  ISLAMPUR ROAD,MIRAJ TALUKA","Sangli Miraj Kupwad","Maharashtra","416305","9921221600","tej@ghatgegroup.com"
"NEEVAN MOTORS PVT LTD-1007510","A/2, OLD M.I.D.C..,, PUNE BANGALORE HIGHWAY,","Satara","Maharashtra","415004","012162-247932","neevanmotors@gmail.com"
"SHUBHYAN MOTORS PVT. LTD.","J2/5 ADDITIONAL M I D C, CITY - SATARA","Satara","Maharashtra","415004","9822261705","smplngr@shubhyanmotors.co.in"
"SEHGAL WHEELS PRIVATE LIMITED","AMRUTVEL COMPLEX,, SHIKRAPUR NAGAR ROAD, NR BHARAT PETROL PUMP,","Shikrapur","Maharashtra","412208","88059683432","kalwant.singh@sehgalwheels.com"
"STERLING MOTORS-1004423","1/2A SUPER MARKET MURARJI PETH,, OPPOSITE JULI MILL COMPOUND","Sholapur","Maharashtra","413006","0217 / 2745641","sterling_solpaur@yahoo.co.in"
"UJWAL AUTOMOTIVES PVT LTD-1007340","VAVIVES ROAD,, IN FRONT OF MAHINDRA TRACTOR SHOWROOM","Sinnar","Maharashtra","422103","8669605394",""
"CHAVAN AUTO WHEELS PVT LTD","OPP S T STAND, TEMBHURNI,, MADHA, SOLAPUR","Solapur","Maharashtra","413211","8378983736","sm.cawheels@gmail.com"
"CHAVAN AUTO WHEELS PVT LTD","1147, KUMBHARI,AKKALKOT ROAD,, SOLAPUR SOUTH,KUMBHARI,","Solapur","Maharashtra","413006","8805553999","chavanautohwheel@gmail.com"
"EXCEL VEHICLES (A UNIT OF MY CAR PUNE PVT LTD)","SURVEY NO.126/1B, NEAR PETROL PUMP, MUMBAI PUNE BANGALORE HIGHWAY, TALUKA MULSHI, TATHAWADE CITY, DISTRICT - PUNE,","Talavade","Maharashtra","411033","020-67205001,5113,5115, 5120, 5124","rajivcfo@marutimycar.com;ajaygarg@marutimycar.com"
"M/S. KAMAL MOTORS","KALYAN SHILPHATA ROAD,, NR, ROYAL HOTEL,DOMBIVALI, THANE,","Thane","Maharashtra","421201","9322915361","dombivili@kamalmotors.co.in"
"M/S. KAMAL MOTORS","PLOT NO. 3 NEAR S.E.S. SCHOOL, VITHALWADI STATION ROAD","Thane","Maharashtra","421005","18005324999","crebhiwandi3s@kamalmotors.co.in"
"UNITECH AUTOMOBILES PVT LTD","SHOP NO 4/5, YASH COMPLEX, BHIWANDI WADA ROAD,, NEAR MARATHA PUNJAB HOTEL, ANJUR FATA,","Thane","Maharashtra","421302","",""
"M/S. KAMAL MOTORS","SHEELA SADAN, VILLAGE GANDRE,, BHIWANDI - WADA ROAD, OPP PALLAVI HOTEL,","Thane","Maharashtra","421303","02526-686568","vada@kamlamotors.co.in"
"BAFNA Motors (Mumbai) Pvt. Ltd.","SURVEY NO 126/2, TAL BHIWANDI","Thane","Maharashtra","400607","09820427738 / 09820030190","dsharma@bafnamotors.in"
"M/S. KAMAL MOTORS","DIAMOND TOWER,NEXT TO OCTROI CHECK NAKA,, GALA NO.14-15-16, A - WING,MIRA BHAYANDAR ROAD, KASHI MIRA,","Thane","Maharashtra","401107","022-28457845","admin@kamalmotors.co.in"
"M/S. KAMAL MOTORS","SURVEY NO. 88/1, 88/2, SONALE VILLAGE,, BHIWANDI BY- PASS, MUMBAI NASIK HIGHWAY NO. 3,","Thane","Maharashtra","421302","9322705292","milind@kamalmotors.co.in"
"M/S. KAMAL MOTORS","CO-OP HOUSING SOCIETY, THANE NASIK HIGHWAY,, LOUISWADI, CITY - THANE , DIST - THANE","Thane","Maharashtra","400604","9821026403","kamal@kamalmotors.co.in"
"JAIKA MOTORS LTD","BHISI NAKA CHOWK,, NEAR LAXMI SAOJI,","Umred","Maharashtra","441203","7774071136","nilesh.manekar@nagpur.jaika.com"
"SATISH MOTORS (P) LTD.","GANGAPUR ROAD,, NU","Vaijapur","Maharashtra","423701","","satishmotors@sify.com"
"M/S. KAMAL MOTORS","NO. 78, VARTAK WADI, NEAR INDIAN OIL PETROL PUMPS, PELHAR, NALASOPARA VILLAGE, VASAI EAST,","Vasai-virar City","Maharashtra","401208","9930777775","kamal@kamalmotors.co.in; tejpal@kamalmotors.co.in"
"NEEVAN MOTORS PVT LTD-1007510","WAI- MAHABALESHWAR ROAD,, INFRONT OF BAZAR SAMITI WAI,","Wai","Maharashtra","412803","9651330330","md@nevaanmtoors.com"
"JAIKA MOTORS LTD","HOUSE NO 1593, SALOD (HIRAPUR), WARDHA YEOTMAL ROAD,, CITY - WARDHA, DISTRICT - WARDHA, STATE - MAHARASHTRA","Wardha","Maharashtra","442001","9822225050","kumar@jaika.com"
"SATISH MOTORS (P) LTD.","B/45, WASHIM-AMRAVATI ROAD,, SHIVAJI CHAURAHA, WASHIM","Washim","Maharashtra","444105","9960813333","krd@satismotors.com"
"MAC VEHICLES PVT LTD","AT.PO.NEAR WADGAON GRAM PANCHAYAT,, ARNI ROAD, YAVATMAL, TAL.DIST.YAVATMAL","Yavatmal","Maharashtra","445001","07232-245410/9764444747","mac_motors@yahoo.com"
"MAC VEHICLES PVT LTD","PLOT NO A - 72,, MIDC LOHARA, YAVATMAL","Yavatmal","Maharashtra","445001","9764444739","mac_motors@yahoo.com"
"MGT MOTORS PRIVATE LIMITED","HMUIA, VEBG, TEDDIM ROAD,, NEAR YMA HALL, CHURACHANPUR","Hmuia Veng","Manipur","795128","8416014645","gtmguite@mgtmotors.com"
"MGT MOTORS PRIVATE LIMITED","AIRPORT ROAD, OPP. ISKON TEMPLE,, SANGAI PROU, IMPHAL,","Sangaiprou Mamang","Manipur","795001","9436027666 / 9436025331","asc@mgtmotors.com"
"MGT MOTORS PRIVATE LIMITED","NH -39, MYANMAR ROAD,, NR. THAUBAL POLICE STATION,","Thoubal","Manipur","795130","9856082603","gtmguite@mgtmotors.com"
"MODRINA AUTO ENTERPRISES","LATHALABOH, NEAR DISTRICT TRANSPORT OFFICE,, NU","Jowai","Meghalaya","793150","",""
"MODRINA AUTO ENTERPRISES","T S S ROAD, MAWLAI(NONGKWAR)","Shillong","Meghalaya","793008","9863061463, 98630222288","modrick@meline.com"
"ZOTHAN AUTOWORKS","103504/01/1535, 103504/01/1537 OF 2010, SAPRAWNGA TRUCK TERMINAL,, PHUNCHAWNG, AIRPORT ROAD, CITY AND DISTRICT - AIZWAL , MIZORAM","Aizawl","Mizoram","796009","9862211027","zothan.autoworks@gmail.com"
"ZOTHAN AUTOWORKS","VENGCHAK, CHAMPHAI","Champhai","Mizoram","796321","8731992428","zothanautoworks.1@gmail.com"
"ZOTHAN AUTOWORKS","DIAKKAWN SILCHAR ROAD, NH - 54,, DIAKKAWN TRAFFIC POINT, KOLASIB","Kolasib","Mizoram","796081","982870464","isaacchawgnthu79@gmail.com"
"ZOTHAN AUTOWORKS","K LALHMANGAIA BUILDING,, SALEM VENG, KAWIZAU,","Lunglei","Mizoram","796701","9366756436","RFZTT36@GMAIL.COM"
"DIMAPUR DIESELS","KOHIMA ROAD,21/2 MILE","Dimapur","Nagaland","797112","03862-230991 / 92","dimapurdiesels@rediffmail.com"
"SAMAL AUTO (INDIA) PVT LTD","AT/PO  JANARAS,, SALAPADA BYEPASS, GHASIPURA","Anandpur","Orissa","758015","9853283519","dilip.mallick@samalautoindia.co.in"
"SAMAL AUTO (INDIA) PVT LTD","KHATA NO. 1128 / 237, AT: SANTRI CHOWK, PO: BANARPAL, NATIONAL HIGHWAY:-  42, ANUGUL","Anugul","Orissa","759128","9437058244","rajesh@samalgroup.com"
"TRUPTI AUTOMOTIVES","N.H. - 55,NUAHATA,, BANARPAL,ANGUL","Anugul","Orissa","759128","0671 - 2492392","info.angul@truptigroup.co. in"
"GAJRAJ AUTOMOBILES PVT LTD","AGRAWAL COMPLEX, NH - 49,, NEAR TOOL PLAZA, AT GANDHI CHOWK,","Balangibahal","Orissa","768216","9437028590",""
"LAXMI SALES & SERVICE PVT LTD","KHATA NO 103/142, PLOT NO 15 &16,AT- KHAMARMUNDA,, SAMBALPUR ROAD,NH-201,P.S. NO-163, BOLANGIR,","Balangir","Orissa","767001","9178049318","bm.bolangir@laxmigroup.biz"
"PAL MOVERS PVT LTD","KHAN NAGAR, KARUDA CHAWK,, NATIONAL HIGHWAY - 5,","Baleshwar","Orissa","756060","0674-2571924","harman@palgroupindia.com"
"SAMAL AUTO (INDIA) PVT LTD","KHATA NO. 94 PLOT -330, KHAN NAGAR, IN FRONT OG MODERN ENGINEERING COLLEGE, NATIONAL HIGHWAY:-  5","Baleshwar","Orissa","756056","9437058244","rajesh@samalgroup.com"
"CONSORTIUM AUTOMOBILES (P) LTD","MAIN ROAD, OPP. DIGANTIKA HOTEL,, BALUGAON, KHURDA","Balugaon","Orissa","752030","9437575085","sm.scv@consortiumauto.com"
"GAJRAJ AUTOMOBILES PVT LTD","KHATIAN NO 763 PLOT NO 2737(P) ,, AT & PO BARGARH , NH-6 ,NR.RELIANCE PETROL PUMP,","Bargarh","Orissa","768028","9437567700","gvpl.tm@gmail.com"
"LAXMI SALES & SERVICE PVT LTD","PLOT NO 19113457, NEAR TOLL GATE,N.H - 6, NEAR TOLL GATE , NATIONAL HIGHWAY - 6","Bargarh","Orissa","768028","9437067826","laxmisales_pvt ltd@rediffmail.com"
"SAMAL AUTO (INDIA) PVT LTD","MAIN ROAD,, DARGA DAHI ROAD,BARIPADA,","Baripada","Orissa","757002","9437962469","samalautoindia@yahoo.co.in"
"SAMAL AUTO (INDIA) PVT LTD","AT WARD NO.35, SRIPADJANG, PO PS BARIPADA,, INFRONT OF PANCHAYAT OFFICE,","Baripada","Orissa","757001","9437553770","rajesh.singh@samalautoindia.net"
"PAL MOVERS PVT LTD","PLOT NO 273,272/933,274/931, KHATIAN NO  154/252 ,, (NEAR MANGLA TEMPLE) SURUPVILLA , NH-18,","Baripada","Orissa","757029","7008196489","hr.palmovers@palgroupindia.com"
"ASTHAVINAYAK MOTORS PVT LTD","MANDIAPALLI, BBSR-VISAKAPATNAM NH - 5,, NEAR CHURCH, JAGANNATHPUR BYE PASS ROAD, BERHAMPUR","Berhampur","Orissa","760007","9437729015","avmotors.tata@gmail.com"
"PAL MOVERS PVT LTD","PLOT NO 840, NEAR NEHRU STADIUM,MAIN ROAD,MAOUZA SAMARAIPUR,, & PLOT NO 840/4448, KHATA NO 821/2605 & 401,BHADRAK","Bhadrak","Orissa","756181","9238589011","ccpbhdrak@palgroupindia.com"
"M/S. KALINGA AUTO SYNDICATE","PLOT NO.1297, KHAT NO. 108, MOUZA-DAKABAHALI, P.S. SADAR, NEAR FCI GODOWN, KESINGA ROAD, BHAWANIPATNA","Bhawanipatna","Orissa","766001","9437024577","kalinga4md@rediffmail.com"
"ASTHAVINAYAK MOTORS PVT LTD","PLOT  NO.728, CUTTACK-PURI ROAD, NEAR FLYOVER,, BOMIKHAL, BHUBANESWAR CITY, DISTRICT KHURDA","Bhubaneswar","Orissa","751010","9437729015","avmotors.tata@gmail.com"
"CONSORTIUM AUTOMOBILES (P) LTD","PLOT NO 644/2148, 645-647,, N H - 5, PAHAL, BHUBNESHWAR, KHURDA","Bhubaneswar","Orissa","752101","9437578038","info@consortiumauto.com"
"TATA MOTORS SALES AND SERVICE - BBSR","GOUTAMNAGAR,, RAJPATH","Bhubaneswar","Orissa","751014","9437016813","nidhinath.thakur@tatamotors.com"
"CONSORTIUM AUTOMOBILES (P) LTD","PLOT 125 SECTOR-A , ZONE B, MANCHESWAR, SACHIVALAYA MARG ,","Bhubaneswar","Orissa","751001","0674-2582204 /2128","info@consortiumauto.com"
"ASTHAVINAYAK MOTORS PVT LTD","PLOT NO 46/3905/5097,OPPOSITE NEW RTO OFFICE, TELUGU NUAGAON., PO : AGASTI  NUAGAON CHATRAPUR, NH -16,","Chhatrapur","Orissa","761026","9437170570","avmotors.tata@gmail.com"
"TRUPTI AUTOMOTIVES","NIALI, MAJHIKHANDA,, CUTTACK","Cuttack","Orissa","754004","9583040249","binavpanda@truptigroup.co.in"
"TRUPTI AUTOMOTIVES","NH - 16, MANGULI  CHOWK, NU","Cuttack","Orissa","754025","0674-2470303","memon@truptigroup.co.in"
"TRUPTI AUTOMOTIVES","SH-12, SARALA ROAD, PO/PS TIRTOL","Cuttack","Orissa","754137","9583040250","binayapanda@truptigroup.co.in"
"JALAN AUTOMOBILES PVT LTD","AT / PO RAJAMUNDA,, BESIDE CHURCH, DEOGHAR,","Deogarh","Orissa","768108","8895866961","agm@jalanauto.com"
"TRUPTI AUTOMOTIVES","NH-55,KANTANALI BYE PASS, ,NEAR DPS SCHOOL","Dhenkanal","Orissa","759001","",""
"TRUPTI AUTOMOTIVES","N.H.5, DUBURI SQUARE,, DUBURI","Duburi","Orissa","755026","7381040332","info.ctc@truptigroup.co.in"
"CONSORTIUM AUTOMOBILES (P) LTD","AT: TRIMURTI STREET(BHANJA MARG),, P O/PS - BHANJANAGAR,","Ganjam","Orissa","761126","9861877610",""
"TRUPTI AUTOMOTIVES","NH-215,PATHARAPADA,, PANIKOILI","Jajapur","Orissa","755019","9437094836","truptipanikoili@yahoo.com"
"SAI SUDHA MOTORS PVT LTD","PLOT NO 142 & 220, KHATA NO 189, THANA NO 216,, N H 215, PATHRAPADA PANIKOILI, JAJPUR","Jajpur","Orissa","755019","9583040300",""
"PAL MOVERS PVT LTD","MAIN ROAD, STATION BAZAR,, NR. RAILWAY STATION,","Jaleswarpur","Orissa","756032","9204056770","biharmotor@hotmail.com"
"TRUPTI AUTOMOTIVES","GUALSINGH,COLLEGE ROAD,THAKURPATNA,, KENDRAPARA","Kendrapara","Orissa","754244","9583040250","binayapanda@truptigroup.co.in"
"SAMAL AUTO (INDIA) PVT LTD","JODIA NATIONAL HIGHWAY 6, KEONJHAR","Kendujhar","Orissa","758002","06764-229217 /229377","rajesh@samalgroup.com"
"PAL MOVERS PVT LTD","AT & P O BHADRASAHI,, NU","Kendujhar","Orissa","758035","9437714193","palmovers@palgroupidia.com"
"PAL MOVERS PVT LTD","SUDSUDIA BY PASS,, NR. RICKSHAW STAND,","Kendujhar","Orissa","758021","9937962627","harman@palgroupindia.com"
"PAL MOVERS PVT LTD","OPP AIR STRIP,N H 215,, NU, TELKOI,","Kendujhar","Orissa","758013","9437067519","harman@palgroupindia.com"
"LAXMI SALES & SERVICE PVT LTD","KHATA NO. 148/149, PLOT NO. 92,STATE HIGHWAY 16, BHAWANI PADA RD, MOUZA - RANIPUR,P.S. NO-54, KHARIAR,NUAPADA","Khariar","Orissa","766107","8018060231","bm.khariar@laxmigroup.biz"
"ASTHAVINAYAK MOTORS PVT LTD","PLOT NO.259, PITTAPALLI,, N H - 5,  CITY AND DISTRICT KHURDA","Khordha","Orissa","752056","9437170570","avmotors.tata@gmail.com"
"KKRISHNA VAAHAN  PVT LTD","ROURKELA - KOIRA ROAD,, KOIRA CITY, SUNDARGARH DISTRICT,","Koida","Orissa","770048","7735599450","r.khaitan28@gmail.com"
"M/S. KALINGA AUTO SYNDICATE","AT TELIGUDA,, PO/PS JEYPORE,","Koraput","Orissa","764001","06854-232719","kalinga_tata05@rediffmail.com"
"CONSORTIUM AUTOMOBILES (P) LTD","PLOT NO 724, DURGA PRASAD,SINDURIA","Nayagarh","Orissa","752069","9937743429","nayagarh@consortiumauto.com"
"TRUPTI AUTOMOTIVES","PLOT NO. 155, AT- JEMADEIPUR,, PANKAL CHHAK,","Nuapatna","Orissa","754007","9583040249","binavpanda@truptigroup.co.in"
"SAI SUDHA MOTORS PVT LTD","IIFCO CHHAK,, IN FRONT OF IIFCO GATE,","Paradip","Orissa","754120","7381040379","trupti.singh@truptogroup.co.in"
"CONSORTIUM AUTOMOBILES (P) LTD","AT/PO GOVT MEDICAL SQUIRE,, P O PARALAKHEMUNDI,","Paralakhemundi","Orissa","761200","9437323756","alliedbusiness@consortiumauto.com"
"CONSORTIUM AUTOMOBILES (P) LTD","PLOT NO. 721-722,, MALATIPATPUR, N.H. 203, P O CHANDANPUR","Puri","Orissa","752012","9337106316","service@consortiumauto.com"
"PAL MOVERS PVT LTD","ARBINDA LANE, WARD NO 12, P O RAIRANGPUR","Rairangpur","Orissa","757043","9937023211","hr.palmovers@palgroupindia.com"
"KKRISHNA VAAHAN  PVT LTD","SHOP NO.08, SH-10,, NEAR HIGHWAY PETROL PUMP","Rajamunda","Orissa","770040","9040513775",""
"KKRISHNA VAAHAN  PVT LTD","PLOT NO. 2020/P,, SH - 10, MANDIAKUDAR","Raurkela","Orissa","770034","9437017750","rahul.khatian@kkrishnavahan.com"
"SREELN MOTORS PVT LTD","PLOT NO 11, KADAMBARIGUDA, J K PUR,, BERHAMPUR ROAD, RAYAGADA","Rayagada","Orissa","765001","9437095112","lnmotors@yahoo.co.in"
"M/S. KALINGA AUTO SYNDICATE","KHATA NO 50/5905, PLOT NO 129/736,, OPP SAI MANDIR, NEW COLONY, J K ROAD,","Rayagada","Orissa","765001","9437009992","kalingargd@rediffmail.com"
"GAJRAJ AUTOMOBILES PVT LTD","PLOT NO. 265/3795 & 2819/3796 ,, OPP:  BHUSHAN STEEL PLANT LTD,THEKOLI,LAPANGA,","Sambalpur","Orissa","768212","9437567700 / 9431114390","sales@gajrajautomobiles.com;service@gajrajautomobi"
"GAJRAJ AUTOMOBILES PVT LTD","N.H. - 6, AT/P.O REMED, SHOP NO.2, 3 & 4, MANISH MANSION,","Sambalpur","Orissa","","",""
"CONSORTIUM AUTOMOBILES (P) LTD","PLOT NO 858/1226,8571/1225, & 858/1226/1341, N.H.5, SINDURAPALLI","Sindurapalli","Orissa","761020","9437575058","berhampur@consortiumauto.com"
"LAXMI SALES & SERVICE PVT LTD","BLDG. NO.976, SIRTOL MAUZA, BOLANGIR ROAD,, NR. JAIGURU COMPLEX, GOKARNESWAR PADA, DISTT SONEPUR","Sonapur","Orissa","767017","0654-220226/09777775605","laxmisales_pvttd@rediffmail.com"
"KKRISHNA VAAHAN  PVT LTD","PLOT NO.352/3630, KHATA NO. 306/238,, NEAR SARDAR POLICE STATION, MCL ROAD, BANDHPALI","Sundargarh","Orissa","770002","9437017750","rahul.khaitan@kkrishnavaahan.com"
"V S T MOTORS LTD.","ULANDI KEERA PALAYAM","Puducherry","Pondicherry","605004","2358875","pondy@vstmotors.com"
"V S T MOTORS LTD.","NO.144-D, KANMANIS GARDEN,, 100 FT ROAD, ULANDAI KEERAPAYALAM, OPP RTO OFFICE,","Puducherry","Pondicherry","605004","9842340770","sdennyrajan@vstmotors.com"
"CMPL MOTORS PVT LTD","DHIMAN COMPLEX, CHANDIGARH AMBALA ROAD,, NEAR FLYOVER, S A S NAGAR,","Alamgir","Punjab","140507","9888275539",""
"NARAIN AUTOMOBILES","3/2, G.T ROAD, AMRITSAR.., AMRITSAR","Amritsar","Punjab","143001","0183-50955372","psuppal@hotmail.com"
"KRISHNA AUTO SALES-1006610","PLOT NO. 533/14, DHANULA ROAD,, NEAR TRUCK UNION,","Barnala","Punjab","148101","9855737732","tatacv@krishnauato.co.in"
"KRISHNA AUTO SALES-1006610","C-20, GROWTH CENTRE,, MANSA ROAD","Bathinda","Punjab","151001","9814010178","ashwanikumar@rediffmail.com"
"KRISHNA AUTO SALES-1006610","C-20, GROWTH CENTRE, MANSA ROAD","Bathinda","Punjab","151001","",""
"DADA MOTORS LTD.","ST NO. 3, MANSA ROAD,, NACHHATTAR NAGAR,","Bathinda","Punjab","151001","8146639705","balwant@dadamotors.com"
"NARAIN AUTOMOBILES","JODHPUR MORD SARHALI ROAD, TARN-TARAN","Chamkaur Sahib","Punjab","140112","",""
"DADA MOTORS LTD.","NEAR GURU NANAK KHALSA COLLEGE,   MALOUT ROAD, TEH. ABOHAR, DISTT","Ferozpur","Punjab","152116","01634-225305","abohar@dadamotors.com"
"DADA MOTORS LTD.","VILLAGE MALWAL MOGA ROAD, FEROZPUR","Firozpur","Punjab","152002","9876933232","ferozepur@tatamotors.com"
"CARGO MOTORS LTD.","CHAUDHARY BUILDING, DALHAUSIE ROAD,","Gurdaspur","Punjab","","0186-5082132","acenws.cargo@gmail.com"
"CARGO MOTORS LTD.","NEAR AMRITSAR OCTROI POST BATALA, BATALA","Gurdaspur","Punjab","143505","01871-503360","acenws.cargo@gmail.com"
"CARGO MOTORS LTD.","NEAR AMRITSAR OCTROI POST, G T ROAD DIST GURDASPUR","Gurdaspur","Punjab","143505","01871-503360","acenws.cargo@gmail.com"
"M/S. LIBRA AUTOMOBILES PVT. LTD., HOSHIARPUR","SINGRIWALA , JALANDHAR ROAD ,","Hoshiarpur","Punjab","146022","01882-264287","libraautomobiles@yahoo.com"
"DADA MOTORS LTD.","NEAR. SHERPU R CHOWNK OPP. PARDESI DHABA MOGA ROAD, OPP H.P PETROL PUMP,MOGA","Jagraon","Punjab","142026","9876039294","rishi@dadamotors.com"
"CARGO MOTORS LTD.","NEAR BFS CHOWK,, G.T. ROAD,","Jalandhar","Punjab","144001","0181-5015500","arunsethi_cml@rediffmail.com"
"CARGO MOTORS LTD.","CARGO HOUSE, NEAR BSF CHOWK,, G T ROAD","Jalandhar","Punjab","144001","0181-5015524","ashok.kumar@cargomotors.co.in"
"CARGO MOTORS LTD.","PARAGPUR, G T ROAD, JALANDHAR PHAGWARA HIGHWAY, DHANOWALI TALUKA","Jalandhar","Punjab","144010","9877467810",""
"CARGO MOTORS LTD.","NO 18 PATEL CHOWK, OLD G T ROAD","Jalandhar","Punjab","144001","",""
"CARGO MOTORS LTD.","SULTANPUR ROAD,OPP. BOMBAY MOTORS,, RAMNIK HOTEL,","Kapurthala","Punjab","144601","",""
"CARGO MOTORS LTD.","SHANKAR ROAD,, KARTAR PALACE,","Kapurthala","Punjab","141310","",""
"CARGO MOTORS LTD.","ALODAD CHAKK,TALWANDI ROAD,, SULTANPUR LODHI,","Kapurthala","Punjab","144626","9814060091","jayantnanda@gmail.com"
"CARGO MOTORS LTD.","VPO VIRK, OPP.VICTORIA INTERNATIONAL PUBILE SCHCOOL,, HOSHIARPUR ROAD, G.T.ROAD, PHAGWARA","Kapurthala","Punjab","144401","9877534510","scvstore.phg@gmail.com"
"DADA MOTORS LTD.","VILLAGE BULLEPUE,, G T ROAD, NR. UK MARRIAGE PLACE,","Khanna","Punjab","141401","",""
"CMPL MOTORS PVT LTD","CHANDIGARH ROPAR HIGHWAY, NEAR PRIMARY SCHOOL,, DIST SAS NAGAR, CITY - KURALI","Kurali","Punjab","160055","9041034512","sales@cmplmotors.in"
"DADA MOTORS LTD.","MALER KOTLA ROAD, DEHLON , NERA HP PETROL PUMP,, LEHRA","Lehra","Punjab","141418","9915739831","ace@dadamotors.com"
"DADA MOTORS LTD.","VILLAGE MEHANDIPUR, NEAR KHANNA,, G T ROAD, TEH. KHANNA","Ludhiana","Punjab","141401","9876039240","simranjit@dadamotors.com"
"DADA MOTORS LTD.","SAVITRI-1 COMPLEX, G.T ROAD,, DHOLEWAL CHOWK,","Ludhiana","Punjab","141115","9876909393","tata@dadamotors.com"
"DADA MOTORS LTD.","BHUGI PURA CHOWK, FEROZPUR ROAD,","Moga","Punjab","142001","01636-223636","moga@dadamotors.com"
"KRISHNA AUTO SALES-1006610","B-41  FOCAL POINT,, MOGA","Moga","Punjab","142001","9814017175","sumit.krishnaauto@yahoo.com"
"CMPL MOTORS PVT LTD","E-145, PHASE 7, INDUSTRIAL AREA,, SAS NAGAR","Mohali","Punjab","160059","0172-2638671","director@cmplmotors.in"
"M/S. LIBRA AUTOMOBILES PVT. LTD., HOSHIARPUR","NEAR MAKKAR HOSPITAL, G T ROAD","Mukerian","Punjab","144211","9855017556",""works.libra@gmail.com
sethi.libraautomobiles@gmai"
"M/S. LIBRA AUTOMOBILES PVT. LTD., HOSHIARPUR","PATIALA GATES,, NABHA, PATIALA","Nabha","Punjab","147202","9347007602","librapatialasales@gmail.com"
"M/S. LIBRA AUTOMOBILES PVT. LTD., HOSHIARPUR","VILLAGE BEER KAULI,, RAJPURA ROAD","Patiala","Punjab","140701","9855017556","sethi.libraautomobiles.com"
"CARGO MOTORS LTD.","G.T.ROAD,NEAR ST. JOSEPH CONVENT SCHOOL,PHILLAUR","Phillaur","Punjab","144311","0181-5015500","manmohan.cargo@gmail.com"
"CMPL MOTORS PVT LTD","SCF 25, ANAJ MANDI, NEAR BHATTASAHIB,, CHD ROPAR HIGHWAY, DIST ROPAR","Rupnagar","Punjab","140001","9041034513","sales@cmplmotors.in"
"KRISHNA AUTO SALES-1006610","NEAR DREAMLAND CITY,, PATIALA ROAD","Sangrur","Punjab","148001","9914115752","vijay.passi@krishnaauto.co.in"
"DADA MOTORS LTD.","G T ROAD,, NEAR NANDA PETROL PUMP","Sirhind Fatehgarh Sahib","Punjab","140406","9876039155","surinder@dadamotors.com"
"DADA MOTORS LTD.","NEAR HAJI WALI BASTI,ZIRA AMRITSAR ROAD NEAR BYEPASS,, ZIRA","Zira","Punjab","142047","9876933232","padm1@dadamotors.com"
"CARGO MOTORS (RAJ) PVT. LTD.","VILL RATAKHEDA , NEAR RAMSAR CHORAHA ,, NATIONAL HIGHWAY 79 , NASIRABAD","Ajmer","Rajasthan","305601","01491-221842",""cargonsd@ gmail.com
""
"CHANDRAMULI MOTORS PVT LTD","485-486, NEAR BAKHTAL KI CHAUKI,, OLD  DELHI  ROAD","Alwar","Rajasthan","301001","0144-3297999 / 5132209","cmmotors@gmail.com"
"CHANDRAMULI MOTORS PVT LTD","KOTHI NARAYANPUR, RAJGARH ROAD,, BHARAT PETROL PUMP KE SAMNE,","Alwar","Rajasthan","301408","9887009558","singh.manendra32@gmail.com"
"MATSYA AUTOMOBILES LTD.","1646-47, TIJARA ROAD, ALWAR","Alwar","Rajasthan","301001","0144-2732514","cao@matsya.org.in;"
"MATSYA AUTOMOBILES LTD.","NEAR HOTEL CHANDAN VILA, SAIPAU ROAD,, DHOLLPUR CITY, DHOLPUR DISTRICT","Alwar","Rajasthan","301001","09784563970","natvar@matsya.net"
"CHANDRAMULI MOTORS PVT LTD","BHIWADI MODE, APNA BAZAR,, NEAR AMARPAL HOTEL,","Alwar","Rajasthan","301019","9784594182","chandresh_sharmamca@rediff.com"
"JODHPUR TRUCKS PVT LTD","NEAR RANUJA THIRTH DHAM, BALTORA, BARMER","Balotra","Rajasthan","344022","9414470635","jodhpurtrucks@gmail.com"
"DUNAC MOTORS","N.H.15 JAISALMER ROAD, NU","Bangalanagar","Rajasthan","334004","01582- 241827","dunacmotors_ngr@yahoo.co.in"
"DUNAC MOTORS","N.H.15 JAISALMER ROAD, NU","Bangalanagar","Rajasthan","334004","9414138425","dunacmotor@yahoo.co.in;dunacmotors@gmail.com"
"CK MOTORS","NEAR VIRANGANA TALKIES,, DAHOD ROAD, BANSWARA","Banswara","Rajasthan","327001","94133056682/9314309563","skmservice.ctr@murdiagroup.com"
"PASCO MOTORS-1007960","1-B, SHYAMPURA SHARDA NAGAR,, OPP NAVEEN PETROL PUMP LINK ROAD, BANSWARA","Banswara","Rajasthan","327001","9024308278","pasco.banswara@pasco.in"
"CK MOTORS","GENERAL POST OFFICE SQAURE,, NEAR SURYA,HOTEL,","Banswara","Rajasthan","327001","",""
"KOTA TRUCKS PVT. LTD","NEAR POLICE STATION,, KAWAI SALPURA ROAD, CHABBRA, BARAN","Baran","Rajasthan","325220","0744-3987247/7443987203","sourabh@gnmotors.net"
"KOTA TRUCKS PVT. LTD","TALPURA ROAD, CHHABRA","Baran","Rajasthan","325220","",""
"KOTA TRUCKS PVT. LTD","KHASRA NO. 97, 100,101, OPP. JAGDAMBA RESTAURANT,, KOTA ROAD, VILLAGE - RAJPALI, CITY AND DISTRICT BARAN","Baran","Rajasthan","325205","",""
"VEERPRABHU MARKETING LTD-1002750","PHASE II IND (EXSOUTH), RIICO INDUSTRIAL AREA PLOT NO G-216","Barmer","Rajasthan","344001","09414890706","veerprbu@ndf.vsnl.net.in"
"JODHPUR TRUCKS PVT LTD","NH 15, OPP HITKARI SERVICE CENTRE,, BARMER,","Barmer","Rajasthan","344001","","jodhpurtrucks@gmail.com"
"CARGO MOTORS (RAJ) PVT. LTD.","S-7, RIICO COMPLEX, KAMLA MARKET, NR. BANK OF BARODA,, AJMER ROAD, BEAWAR, AJMER","Beawar","Rajasthan","305901","9928368790","cargobeawar@gmail.com"
"MATSYA AUTOMOBILES LTD.","NEAR RTO OFFICE, NH - 8, BEHROR,, ALWAR, RAJASTHAN","Behror","Rajasthan","301701","9784590691","yogesh@matsya.net"
"CHANDRAMULI MOTORS PVT LTD","N-H-08, DEHI ROAD,, NEAR MANOJ DAHRAM KATA,","Behror","Rajasthan","301701","9784594183","roshanyadav@cm.matsya.net"
"CHANDRAMULI MOTORS PVT LTD","NEAR HIRADASS CIRCLE,, AGRA ROAD,","Bharatpur","Rajasthan","321001","05644-26001","v.pareek@matsya.net"
"MATSYA AUTOMOBILES LTD.","NEAR SHER SINGH BLDG,, HIRA DASS CIRCLE,","Bharatpur","Rajasthan","321001","",""
"KOTA TRUCKS PVT. LTD","NEAR KUNDI KHERA  BYE-PASS TIRAHAS, MAIN SDM OFFICE ROADS","Bhawani Mandi","Rajasthan","326502","9828105264","bhawanimandi.sales@gnmotors.net"
"LOTUS MOTORS-1006460","1/400, 2/400 VILLAGE JODHRAS, 3 KM STONE KOTA BY PASS ROAD,, JODHRAS CHORYA, AJMER ROAD, GOURAV PATH, BHILWARA","Bhilwara","Rajasthan","311001","941115581,9829045827","lotusmotorsbh1@gmail.com"
"CARGO MOTORS (RAJ) PVT. LTD.","KESHARGANJ CHORAHA NR. PARSHVANATH CHORAHA,, VILLAGE BIJOLIYA, BHILWARA,","Bhilwara","Rajasthan","311602","9680331869","cargobijoliya@gmail.com"
"CARGO MOTORS (RAJ) PVT. LTD.","5-S-6 & 5-S-7, BASANT VIHAR COMMERCIAL COMPLEX,, BEHIND HOTEL LAND MARK, BHILWARA,","Bhilwara","Rajasthan","311001","01482-238792","cargobhilwara@gmail.com"
"CK MOTORS","NADAJI CHOURAHA, UDAIPUR ROAD,, NEAR RSEB OFFICE, VALLABH NAGAR","Bhinder","Rajasthan","313603","9680772855",""
"MATSYA AUTOMOBILES LTD.","SUKHAM TOWER PLOT NO 2 & 3,, BHAGAT SINGH COLONY, OPP. MODERN PUBLIC SCHOOL,","Bhiwadi","Rajasthan","301019","9784005356","sikander@matsya.net"
"RAJARAM DHARNIA FOURWHEELS","PLOT NO. 1, BICHWAL INDUSTRIAL AREA,, OPP. MILITARY STATION, SRIGANGANAGAR ROAD, BIKANER","Bikaner","Rajasthan","334006","9414147379","rajaramdharniafourwhels@gmail.com"
"KOTA TRUCKS PVT. LTD","CHITOR ROAD, OPP. BHATIA & COMPANY,, NEW MANSAROWAR COLONY, BUNDI,","Bundi","Rajasthan","323001","96729-84670","gnm@gnmotors.net"
"KOTA TRUCKS PVT. LTD","KHASRA NO 1045,1049, VILLAGE SATHUR,, TEHSIL HINDOLI, N H 12,BUNDI,","Bundi","Rajasthan","323024","9711555667","sourabh@gnmotors.com"
"CK MOTORS","10A,OLD INDUSTRIAL AREA, NU","Chittaurgarh","Rajasthan","312001","9829246100","adhoka2006@gmail.com"
"CARGO MOTORS (RAJ) PVT. LTD.","STATE HIGHWAY - 76, CHITTORGARH, NIMBAHERA ROAD","Chittaurgarh","Rajasthan","312001","9810011909","cargoajmer@yahoo.com"
"CK MOTORS","BEGUN ROAD, ROAD KA BALAJI,, GM VATIKA BEGUN, CHITTORGARH,","Chittorgarh","Rajasthan","312023","9928357979","ckmsales.ctr@murdiagroup.com"
"SHRI GANGA FOUR WHEELS PVT LTD","NEAR RTO OFFICE SIKAR ROAD,, JAIPUR ROAD","Churu","Rajasthan","331001","9587889595","srigangatrucks@gmail.com"
"ROSHAN MOTORS PVT. LTD.","NEAR BY PASS CHOURAHA,, AGRA ROAD,","Dausa","Rajasthan","303303","7240222272","salescvd@roshanmotors.com"
"KHANDELWAL MOTORS PVT LTD","JAIPUR BYE PASS TIRAHAYA,, NH-11, JAIPUR ROAD,","Dausa","Rajasthan","303303","",""
"LOTUS MOTORS-1006460","SHOP NO. 1-2, OLD AABKARI BUILDING,, DEOGARH - KAMLIGHAT ROAD,","Deogarh","Rajasthan","","7230009300","lotusmotorsbhl@gmail.com"
"KHANDELWAL MOTORS PVT LTD","NR. JAGDISH TOKJI,, BARI ROAD,","Dhaulpur","Rajasthan","328001","","kmplheadoffice@bsnl.in"
"ROSHAN MOTORS PVT. LTD.","N H 08, OPP POWER HOUSE,, AJMER ROAD, DUDU","Dudu","Rajasthan","303008","0141-4177777","salescvd@roshanmotors.com"
"PASCO MOTORS-1007960","KUSHAL MAGRI, SAGWARA ROAD, D, DUNGARPUR","Dungarpur","Rajasthan","314001","9024308278","pasco.dungarpur@pasco.in"
"CK MOTORS","BHILDI,, SAGWARA ROAD,","Dungarpur","Rajasthan","314001","9829241743/ 9314352997","ckmsales.dpr@murdiagroup.com"
"CK MOTORS","NR. INDUSIND BANK,, DUNGARPUR ROAD, SAGWARA,","Dungarpur","Rajasthan","314025","8003536200","ckmsales.dpr@murdiagroup.com"
"CK MOTORS","CHATURBAGH COLONY,, UDAIPUR RD, NEAR R K CAR BAZAR,","Fatehpur","Rajasthan","313205","9887136785/9929749678","ckm.fngr@gmail.com"
"SHRI GANGA FOUR WHEELS PVT LTD","JAIPUR BIKANER HIGHWAY, NH - 52,JAIPUR BIKANER BY PASS,, SARDHERPURA BUS STAND,","Fatehpur","Rajasthan","332301","9587889310","srigangatrucks@gmail.com"
"DUNAC AUTOMOBILES PVT LTD","3, MEGHALAYA , HANUMANGARH BY PASS,, SRIGANGANAGAR","Ganganagar","Rajasthan","335001","0154-5120525","dunacmotors_ngr@yahoo.co.in"
"SARAWAGI AUTOMOBILES PVT. LTD .","KILLA  NO. 20, MURBA NO. 15, CHAK 6 E CHHOTI, BEHIND   AUDI   MOTORS, NEAR CHAHAL CHOWK (NAYA CHAK)","Ganganagar","Rajasthan","335001","9414246629","saplsgnr@gmail.com"
"KHANDELWAL MOTORS PVT LTD","NADAUTI ROAD, NR. GOVT COLLEGE,, GANGAPUR CITY,","Gangapur","Rajasthan","322201","9414031455/","kmplheadoffice@bsnl.in"
"LOTUS MOTORS-1006460","KHARI GRAM MILL ROAD, NEAR POST OFFICE,, CITY - GULABPURA, DISTRICT - BHILWARA","Gulabpura","Rajasthan","311021","7230009300",""
"SARAWAGI AUTOMOBILES PVT. LTD .","BEHIND POILCE STATION,, NOHAR ROAD, NR. INDIA IRON STORE,","Hanumangarh","Rajasthan","335501","",""
"SARAWAGI AUTOMOBILES PVT. LTD .","KILLA NO. 17-18 MURBA NO. 124 / 254, CHAK NO. 50 NGS, SANGARIA ROAD, NEAR GANPATI FILLING STATION, HANUMANGARH JUNCTION","Hanumangarh","Rajasthan","335512","01552-269329","saplsgnr@gmail.com"
"DUNAC AUTOMOBILES PVT LTD","TOWN ROAD, NR. TRANSPORT UNION,, HANUMANGARH,","Hanumangarh","Rajasthan","335512","","dunaut.hanumangarh@gmail.com"
"SARAWAGI AUTOMOBILES PVT. LTD .","SHOP NO. 94-95, BHADRA ROAD NEAR KARNI MANDIR","Hanumangarh","Rajasthan","335523","",""
"MORANI FOURWHEELS PRIVATE LIMITED","SHOP NO.6, NEAR P.N.B.,, OPP. ROAD NO. 12,V.K.I. AREA, SIKAR ROAD, CITY - VKIA","Jaipur","Rajasthan","302013","",""
"MORANI FOURWHEELS PRIVATE LIMITED","B-1, SHOP NO.7-8,, GOVIND MARG, TRANSPORT NAGAR,","Jaipur","Rajasthan","302004","",""
"MORANI FOURWHEELS PRIVATE LIMITED","GOPALPURA BYE PASS ROAD, PLOT NO:1, MURTIKALA COLONY","Jaipur","Rajasthan","302018","0141-2709957","moranifourwheels@yahoo.co.in"
"GANGANAGAR VEHICLES PVT LTD","KHASRA NO- 485,THIKARIYA, JAIPUR AJMER HIGHWAY,, NH-8, JAIPUR","Jaipur","Rajasthan","302026","9784842280","md@gvpltruck.com"
"ROSHAN MOTORS PVT. LTD.","NEAR PHAPHIYA PULLIA,, NH-8, JAIPUR ROAD, SHAHPURA,","Jaipur","Rajasthan","303103","9829222260","salescvd@roshanmotors.com"
"CROSSLAND TRUCKS PVT LTD","SHOP NO. 69 & 70,  GAYATRI COLONY, TONK ROAD,, OPP. PINJRA POLE, GUASHALA,","Jaipur","Rajasthan","302031","0141-2332510","crosslandtrucks@gmail.com"
"MORANI FOURWHEELS PRIVATE LIMITED","OPP. MRF TYPE SHOWROOM,, NEAR TAFE TACTOR SHOWROOM, TONK ROAD,","Jaipur","Rajasthan","303901","0141-2709957","sales@moranifourwheels.com"
"CROSSLAND TRUCKS PVT LTD","A-118, B - 119 & 120,, VKI AREA,  SIKAR ROAD, ROAD NO. 9,","Jaipur","Rajasthan","302013","0141-2341500","crossland.trucks@gmail.com"
"ROSHAN MOTORS PVT. LTD.","KHASRA NO. 373/8066,374,375,376,390,VILLAGE- BAGRU KALAN,, CHHITROLI, TEC. SANGANER, NH-8, AJMER ROAD","Jaipur","Rajasthan","303007","9829096677","gmservice-bagru@roshanmotors.com"
"CROSSLAND TRUCKS PVT LTD","KESUPURA,AJMER ROAD, N.H.8","Jaipur","Rajasthan","303011","9414074995","crossland.trucks@gmail.com"
"MORANI FOURWHEELS PRIVATE LIMITED","AJMER ROAD, BANSI TOWER,, KESU PURA, BHANKROTA,","Jaipur","Rajasthan","303702","0141-2709957","mukesh.sharma@moranifourwheels.com"
"ROSHAN MOTORS PVT. LTD.","PLOT NO G 504-505-506, ROAD NO 9A, V K I AREA","Jaipur","Rajasthan","302013","0141-4177777","gmsales@roshanmotors.com"
"JODHPUR TRUCKS PVT LTD","JAISALMER, OPPOSITE PITHILA HAVELI,, BARMER- JAISALMER LINK ROAD, INDIRA COLONY,","Jaisalmer","Rajasthan","345001","","jodhpurtrucks@gmail.com"
"NIDHIKAMAL AUTOMOBILES (P) LTD","AHORE ROAD ,, NEAR NEW SABJI MANDI,","Jalor","Rajasthan","343001","0145-2695701","ajmertata@nidhikamal.net"
"KOTA TRUCKS PVT. LTD","WARD NO 22, BHAWANIMANDI,, JHALAWAR ROAD, JHALAWAR","Jhalawar","Rajasthan","326502","9828105275","kapil.vyas@gnmotors.com"
"SHRI GANGA FOUR WHEELS PVT LTD","NEAR DTO OFFICE, SIKAR ROAD,, JHUNJHUNU","Jhunjhunun","Rajasthan","333001","9828818111","srigangatrucks@gmail.com"
"DUNAC AUTOMOBILES PVT LTD","JHUNJHUNU-SIKAR ROADS, VILLAGE DHIGHAL,","Jhunjhunun","Rajasthan","333041","9414143625","dunac.auto@gmail.com"
"ROSHAN MOTORS PVT. LTD.","ROAD NO 3, NEAR TETERWAL DHARAMKANTA,, JHUNJHNU","Jhunjhunun","Rajasthan","333001","8233000051","salescvd@roshanmotors.com"
"JODHPUR TRUCKS PVT LTD","PLOT  NO. 11-14, UPPER  CHOPASNI  ROAD","Jodhpur","Rajasthan","342003","0291- 2658000","jodhpurtrucks@gmail.com"
"VEERPRABHU MARKETING LTD-1002750","C-61, MARUDHAR, IND AREA  PHASE II ,","Jodhpur","Rajasthan","342005","09549898904","veerprbu@ndf.vsnl.net.in"
"MATSYA AUTOMOBILES LTD.","STATION ROAD, OPP. HP PETROL PUMP,, HINDAUN CITY, KARAULI,","Karauli","Rajasthan","322230","07469-231348","darshanhnd@gmail.com"
"CARGO MOTORS (RAJ) PVT. LTD.","N H - 8, JAIPUR AJMER ROAD, NEAR V K HANDICRAFT MARKET,, MADANGANJ, KISHANGARH CITY","Kishangarh","Rajasthan","305801","7230052321","cmplksg@cargomotors.co.in"
"KOTA TRUCKS PVT. LTD","A-165, ROAD NO:5, INDRAPRASTHA INDUSTRIAL AREA, JHALAWAR ROAD","Kota","Rajasthan","324005","0744 - 3987200","sourabh@gnmotors.net"
"GANGANAGAR MOTORS","A-165  I.P.I.A. ROAD NO.5,JHALAWAR ROAD, KOTA","Kota","Rajasthan","324005","0744-3987200 /3987220","agarwal.sourabh@gmail.com"
"GANGANAGAR MOTORS","VRINDAVAN VILLAGE, NH12 KOTA BYE PASS","Kota","Rajasthan","324005","07432-512383","ganganagar@gmail.com"
"ROSHAN MOTORS PVT. LTD.","NAMAN PLAZA, UPPER GROUND FLOOR,, N H 08, PUTLI CHUARAHA,","Kotputli","Rajasthan","303108","7240222282","salescvd@roshanmotors.com"
"CROSSLAND TRUCKS PVT LTD","NH 8, JAIPUR - DELHI HIGHWAY,, KOTPUTLI, JAIPUR,","Kotputli","Rajasthan","303108","",""
"RAMJASH DHARNIA TRUCKS","DIDWANA ROAD,, KUCHAWAN","Kuchaman City","Rajasthan","341508","97230019379","ramjashdharniatrucks@gmail.com"
"DUNAC MOTORS","CHUNGI CHOWKI DIDWANA ROAD,, IN FRONT OF INDUSIND BANK,","Kuchaman City","Rajasthan","341508","9461335818","dunacmotors@gmail.com"
"DUNAC MOTORS","NEAR MRF TYRES AGENCY,, VISHWARKARMA MARKET,","Lunkaransar","Rajasthan","334403","7665749787","dunacmotors@gmail.com"
"KHANDELWAL MOTORS PVT LTD","KHASRA NO 51 , POST SAMEGHALAYAETI ,VILLAGE KHOHRANAND SINGH ,, JAIPUR AGRA HIGHWAY NO 11","Mahwa","Rajasthan","321608","07461-240551","kmplheadoffice@sancharnet.in"
"CHANDRAMULI MOTORS PVT LTD","ALWAR ROAD, NR. LAXMAN HOSPITAL,, NAGAR, BHARATPUR","Nagar","Rajasthan","321205","",""
"RAMJASH DHARNIA TRUCKS","N.H.- 89, NEAR R.T.O. OFFICE,, BIKANER ROAD","Nagaur","Rajasthan","341001","01582-247629","ramjashdharniatrucks@gmail.com"
"CARGO MOTORS (RAJ) PVT. LTD.","VILLAGE SENDERIYA, NH 8, JAIPUR ROAD","Nasirabad Cantt","Rajasthan","305025","9829064873","cargoajmer@yahoo.com"
"CARGO MOTORS (RAJ) PVT. LTD.","J K CHOURAHA, NEAR AGARWAL TRANSPORT,, NIMBAHERA CITY, CHITTORGARH DISTRICT","Nimbahera","Rajasthan","312001","7230052331","cmpkhgsales@cargomotors.co.in"
"RAJARAM DHARNIA FOURWHEELS","BIKANER ROAD,, NEAR YASH BANK,","Nokha","Rajasthan","334803","8696664738","rajaramdharniafourwheels@gmail.com"
"CK MOTORS","MANDI ROAD,, OPPOSITE ARCHANA TALKIES,","Pratapgarh","Rajasthan","312605","9261319190","narensonalika@gmail.com"
"LOTUS MOTORS-1006460","DARIBA ROAD, OPPOSITE SHIV MANDIR TEMPLE,, CITY - RAILMAGRA, DISTRICT - RAJSAMAND","Railmagra","Rajasthan","","7230009300",""
"DUNAC AUTOMOBILES PVT LTD","NEAR AUDI MOTORS,, AMBEDKAR CIRCLE, RAJGARH","Rajgarh","Rajasthan","331023","9672975025","sales@dunacauto.com"
"PASCO MOTORS-1007960","OPP GOVT. COLLEGE, NEAR TRANSPORT NAGAR,, N H 8, VILLAGE : RAJNAGAR, TEHSIL : RAJSAMAND, RAJASTHAN","Rajsamand","Rajasthan","313326","9024308278","pascoudaipur@gmail.com"
"PASCO MOTORS-1007960","NAVRANG COMPLEX, ABU ROAD,, NEAR GOVT HIGHER SECONDARY SCHOOL,","Santpur","Rajasthan","307026","9772580365","pasco.sirohi@pasco.in"
"KHANDELWAL MOTORS PVT LTD","ALANPUR, LINK ROAD,, SAWAI MADHOPUR,","Sawai Madhopur","Rajasthan","322001","9414031455","sachin@khandelwalmotors.com"
"MATSYA AUTOMOBILES LTD.","PLOT NO 81, CEMENT FACTORY,, NR. OLD TRUCK UNION CIRCLE,","Sawai Madhopur","Rajasthan","322001","07462-223927","mahendra@matsya.net"
"GANGANAGAR VEHICLES PVT LTD","DELHI JAIPUR RAOD, N.H. - 08,, RAJPURA PULIA, SHAHPURA,","Shahpura","Rajasthan","303103","7412073732","sales.bo@gvpltrucks.com"
"SHRI GANGA FOUR WHEELS PVT LTD","WARD NO. 17, KHICHRU KA BASS, NEAR CIRCUIT HOUSE,, JAIPUR ROAD, SIKAR","Sikar","Rajasthan","332001","9828818111","srigangatrucks@gmail.com"
"NIDHIKAMAL AUTOMOBILES (P) LTD","NEAR GOYALAI CHOURAHA,, N.H.-14, OPP. GOVT. CLUB,","Sirohi","Rajasthan","307001","",""
"SARAWAGI AUTOMOBILES PVT. LTD .","IN FRONT OF PUBLIC ROAD,, NR. GANESH MANDIR, ANOOPGARH,","Sri Ganganagar","Rajasthan","335701","",""
"SARAWAGI AUTOMOBILES PVT. LTD .","SURATGARH BYEPASS N.H. 15, NEAR SHERWOOD PUBLIC SCHOOL","Sri Ganganagar","Rajasthan","335804","",""
"RAJARAM DHARNIA FOURWHEELS","BIKANER ROAD,, NEAR HERO MOTORCYCLE SHOWROOM,","Sridungargarh (rural)","Rajasthan","","9414147379/8696947379","rajaramdharniafourwheels.com"
"VEERPRABHU MARKETING LTD-1002750","KHASRA NO.724/1, 741/2,, MOJJA GRAM NETRA, SUMERPUR","Sumerpur","Rajasthan","306401","09351832207","accounts@veerprabhu.net"
"PASCO MOTORS-1007960","PLOT NO. 126, ABC HIRAN MACARI,, SECTOR 11, NEAR ALLAHABAD BANK, UDAIPUR","Udaipur","Rajasthan","313001","9166410444/0294-282241","pasco.udaipur@pasco.in."
"CK MOTORS","PLOT NO 46 /47, CITY STATION RD, CRPF BARAK","Udaipur","Rajasthan","313001","9314368736","varunmurdia@hotmail.com"
"CK MOTORS","NR. DR. RAJESH JOSHI CLINIC,, SLUMBER,","Udaipur","Rajasthan","313001","9784480423","ckmsales.udr@murdiagroup.com"
"NIM-DAO MOTORS (P) LTD","BAGHEY KHOLA , NATIONAL HIGHWAY 31A, CITY - RANGPO","East Sikkim","Sikkim","737132","9733033289","guru_tl@yahoo.co.in"
"V S T MOTORS LTD.","MEYYANUR MAIN ROAD, ALAGAPURAM POST","Alagapuram","Tamil Nadu","","0427-2447847","slm@vstmotors.com"
"V S T MOTORS LTD.","2D, DINDUGUL ROAD,, NEAR  ARISTRO LKS MAHAL,","Alathur","Tamil Nadu","620001","9965510816","tycvdsales@vstmotors.com"
"VINAYAK COMMERCIAL MOTORS","SURVEY NO. 241/1,  OPP. ICICI BANK AND KOVILABAKKAM,NANMANGALAM V, 23, MEDAVAKKAM MAIN ROAD,TEMBARAM,CHENNAI,KANCHIPURAM DIST","Chengalpattu","Tamil Nadu","600117","044-22681199","gulshan@vinayaktata.com"
"VINAYAK COMMERCIAL MOTORS","PLOT NO. 87, GST ROAD, PULLIPAKKAM, CHENGALPET","Chengalpattu","Tamil Nadu","603002","7401833063",""
"POPULAR MEGA MOTORS (CHENNAI)","SURVEY NO. : 233/1, 1262/1B1A1,  1262/1B1A1A,, GST ROAD, NATHAM B BLOCK,","Chengalpattu","Tamil Nadu","603002","8939881212","chnsr3head@pmmil.ocm"
"VINAYAK COMMERCIAL MOTORS","NO 6, NEW AVADI ROAD, SOUTH HIGH COURT COLONY, THIRU NAGAR,, NEXT TO ICICI BANK, CITY,  VILLIVAKKAM,","Chennai","Tamil Nadu","600030","044-25185472","villivakkam@vinayakauto.com"
"POPULAR MEGA MOTORS (CHENNAI)","NO 16. ANNAI INDIRA NAGAR, VELACHERRY MAIN ROAD,, NR. VELACHERRY RAILWAY STATION, CHENNAI,","Chennai","Tamil Nadu","600042","9884494921","velacherysales@pmmil.com"
"POPULAR MEGA MOTORS (CHENNAI)","NO 15, GST ROAD, A.G. SEKAR, BUILDING, BELOW ASPIRE FITNESS CENTR, IRUMBULIYUR, TAMBARAM, CHENNAI,","Chennai","Tamil Nadu","600045","9884494921",""
"BUS ZONE","CP-49., M.M.D.A. COLONY, RAZACK GARDEN MAIN ROAD,, ARUMBAKKAM, CITY - CHENNAI, DISTRICT - CHENNAI","Chennai","Tamil Nadu","600106","8939569147/044-42176124","sales@buszone.co.in"
"POPULAR MEGA MOTORS (CHENNAI)","(INDIA) LTD,HABIB TOWERS NO 59 FIRST AVENUE, 100 FEET ROAD  ASHOK NAGAR","Chennai","Tamil Nadu","600083","044-24714561","naveenphilip@gmail.com"
"V S T MOTORS LTD.","OLD NO.5, N NO. 9/1, T N ROAD, NEAR TOLL GATE BUS STOP,, NEW WASHERMANPET","Chennai","Tamil Nadu","600081","9940610251","ganesh.ms@vstmotors.in"
"V S T MOTORS LTD.","BYE - PASS ROAD,, POONAMALLEE,","Chennai","Tamil Nadu","600078","",""
"V S T MOTORS LTD.","EMKEYS CENTRE NO. 275/260, MTH ROAD, SIDCO ESTATE,, NEAR TELEPHONE EXCHANGE, CITY AND TALUK AMBATTUR","Chennai","Tamil Nadu","600097","9841830808","r.gopinath@vstmotors.com"
"VINAYAK COMMERCIAL MOTORS","PLOT NO. 183, GNT ROAD,, OPP PUZHAL JAIL,","Chennai","Tamil Nadu","600066","044-26591977","info@vinayaktata.com"
"POPULAR MEGA MOTORS (CHENNAI)","SURVEY NO 28, NEW 2/45, OLD NO 173,, MOUNT POONAMALLEE HIGH ROAD, POONAMALLEE, KATTUPPAKKAM,","Chennai","Tamil Nadu","600056","8939895873/044-26791159","raghavendran@pmmil.com"
"POPULAR MEGA MOTORS (CHENNAI)","DOOR NO 661, THIRUVOTRIYUR HIGH ROAD,, OPP TO AJAX BUS TERMINUS, THIRUVOTRIYUR","Chennai","Tamil Nadu","600019","8939895873","alagappan@pmmil.com"
"ABT INDUSTRIES LTD.","51A PALGHAT MAIN ROAD,, SOUTH UKKADAM","Coimbatore","Tamil Nadu","641001","9500611699","jpchristopherrajasekaran@abtindustries.net"
"LAWRENCE AUTOMOTIVE PVT. LTD","10/1 B, CHERAN NAGAR, METTUPALAYAM ROAD,, MTP ROAD, NEAR LALITHA HOTEL","Coimbatore","Tamil Nadu","641029","9047816111","mtp.lawrenceautomotive@gmail.com"
"V S T MOTORS LTD.","NO. 26, NELLIKUPPAM MAIN ROAD,, SEMMANDALAM,","Cuddalore","Tamil Nadu","607001","9789973652",""
"VETRI MOTORS PRIVATE LIMITED","S F NO. 885/18, MADURAI ROAD,,, PALLAPATTY VILLAGE,","Dindigul","Tamil Nadu","624001","9600633233","arun@vetrimotors.com"
"ABT INDUSTRIES LTD-1001650","DOOR NO. 5/11, SURVERY NO. 13/1-Q, ATTHOOR TALUK, DINDIGUL, PILLAIYARNATHAM, NH-7, MADURAI MAIN ROAD, VELLODHU VILLAGE,","Dindigul","Tamil Nadu","624304","90033392524/9994016680","dgl_workshop@abtindustries.net"
"LAWRENCE AUTOMOTIVE PVT. LTD","60, KARUR BYE PASS ROAD,, SHRI KKM COMPLEX, MOOLAPALAYAM, ANNAMAR PETROL BANK,","Erode","Tamil Nadu","638001","9626450111","erd.lawrenceautomotive@gmail.com"
"LAWRENCE AUTOMOTIVE PVT. LTD","NO. 85, N.H. - 47, NOCHIKUTTAI THOTTAM, SURIYAMPALAYAM, NEAR VASAVI COLLEGE,","Erode","Tamil Nadu","638316","9677721111","md@lawrencegroup.com"
"ABT INDUSTRIES LTD.","VEERAPPANCHATRAM BYE-PASS ROAD, THINDAL (PO)","Erode","Tamil Nadu","638009","0422 4236221","jpchristopherrajasekaran@abtindustries.net"
"V S T MOTORS LTD.","43, KATPADI ROAD,, GANDHI NAGAR,","Gandhinagar","Tamil Nadu","631006","",""
"POPULAR MEGA MOTORS (INDIA) PVT LTD-100A080","NO : 59/4, SIPCOT II, GANDHI NAGAR,, OPP FIVE STAR PETROL BUNK, NH - 7 ROAD,","Hosur","Tamil Nadu","635109","8939895878","alagappan@pmmil.com"
"V S T MOTORS LTD.","50-H/23&24, RAYAKOTTA ROAD","Hosur","Tamil Nadu","635109","04344-222227","hosur@vstmotors.com"
"SUSEE TRUCKS PVT LTD","RAGAVERNDRA PLOT/NO 213, BANGALORE - CHENNAI HIGHWAY,, OPP TO LAKSHMI VILAS BANK, SRIPERAMBUDUR,","Kanchipuram","Tamil Nadu","602105","",""
"ABT INDUSTRIES LTD.","97/2, NORTH SAMBALA THOTTAM, TRICHY ROAD,, KANNAMPALAYAM, OPP MADURA HOTEL","Kannampalayam","Tamil Nadu","641305","0422-2260406","nsivasankar@abtindustries.net"
"SREE KARPAGAMOORTHY AUTOMOBILES","MADURAI MAIN ROAD, KOVILOOR","Karaikudi","Tamil Nadu","630307","04565 653373","karpaga_vinayaga01@yahoo.com"
"BUS ZONE","DOOR NO. 6, V S P NAGAR,, NELLILKUPPAM MAIN ROAD","Kondur","Tamil Nadu","607001","9566003344","manavdeepsingh@gmail.com"
"V S T MOTORS LTD.","KAMRAJ NAGAR, NEAR LIC OFFICE, UTHANGARAI, KRISHNAGIRI","Krishnagiri","Tamil Nadu","635207","",""
"ABI AND ABI MOTORS","MUTHUPILLAI MANDAPLAM,, KARAIKAL MAIN ROAD,","Kumbakonam","Tamil Nadu","612401","",""
"VETRI MOTORS PRIVATE LIMITED","4/108-2, KATTAPULI NAGAR, FOUR LANE  ROAD,, SAMAYANALLUR BYEPASS,  THENUR TALUKA, MADURAI","Madurai","Tamil Nadu","625402","0452-2464220","arun@vetrimotors.com"
"ABT INDUSTRIES LTD-1001650","TUTICORIN,NAGARCOIL & SIVAKASI),VILANGUDI, DINDIGUL MAIN ROAD","Madurai","Tamil Nadu","625018","04522669054","nevilleh@abtindustries.net"
"ABT INDUSTRIES LTD-1001650","VILANGUDI , DINDIGUL MAIN ROAD,, MADURAI","Madurai","Tamil Nadu","625002","0452 2669054","nevilleh@abtindustries.net"
"V S T MOTORS LTD.","OLD NO 14, N NO 5, SAVAIOOR VILLAGE,, TRICHY MAIN ROAD, NERU STUAE, MANAPPARAI,","Manaparai","Tamil Nadu","621306","","ace.mpa@vstmotors.com"
"LRN MOTORS PVT LTD","2/E, NEAR MTC THEATRE, SALEM MAIN ROAD,, METTUR DAM,","Mettur","Tamil Nadu","636401","",""
"V S T MOTORS LTD.","NO 4/1168, MUDICHUR ROAD,, OPP RAVINDRABHARATHI GLOBAL SCHOOOL,","Mudichur","Tamil Nadu","600048","","ganesh.ms@vstmotors.com"
"ABI AND ABI MOTORS","THIRUVARUR MAIN ROAD,, PUTHUR, NAGAPATTINAM","Nagapattinam","Tamil Nadu","611001","04365-225349","abiabitata@gmail.com"
"ABT INDUSTRIES LTD-1001650","48/49,VADASERY,NAGERCOIL,, BALAMORE ROAD (ASAMBU ROAD),NAGERCOIL,KANYAKUMARI,","Nagercoil","Tamil Nadu","629001","9994017725","ngl_workshop@abtindustries.net"
"SUSEE AUTO ZONE PVT LTD","253 H, K .P. ROAD, NEAR JEYASEHARAN HOSPITAL,, CITY - NAGERCOIL, DISTRICT - KANYAKUMARI, STATE - TAMIL NADU","Nagercoil","Tamil Nadu","629003","99949 58100","mdsusee@gmail.com"
"V S T MOTORS LTD.","767 F, PON NAGAR, BUS STOP,, SALEM ROAD, NEAR NMC LODGE,","Namakkal","Tamil Nadu","637003","9566836633","ramanathan@vstmotors.com"
"LRN MOTORS PVT LTD","127, SANKARI MAIN ROAD, PALLIPALAYAM,, AGRAHARAM P O,, ERODE","Pallipalayam","Tamil Nadu","638008","9994094466","lrnsubbu@gmail.com"
"SREE KARPAGAMOORTHY AUTOMOBILES","DOOR NO. 493 / 1,THELICHATHA NALLUR ROAD,, PARAMAKUDI,RAMANATHPURAM,","Paramakudi","Tamil Nadu","623707","","skmakrcl@gmail.com"
"ABI AND ABI MOTORS","NO. 26, KOTTAIKUKLAM,, THANJAVUR MAIN ROAD, PATTUKOTTAI","Pattukkottai","Tamil Nadu","614601","043773-224505","abiabitata@gmail.com"
"ABT INDUSTRIES LTD.","SF NO 36/A, CHINNAMAPALAYAM PANCHAYAT,, OPP. TO MCET- NPTC CAMPUS, UDUMALAI ROAD, POLLACHI,","Pollachi","Tamil Nadu","642003","",""
"LAWRENCE AUTOMOTIVE PVT. LTD","SHOP NO. 1 & 2, NANDHANAR COLONY,, PALLLADAM ROAD,","Pollachi","Tamil Nadu","642001","90471416111","pollachi.lawrenceautomotive@gmail.com"
"VINAYAK COMMERCIAL MOTORS","NO. 5, BYEPASS ROAD, NEAR BUS STOP,, CHENNAI","Poonamallee","Tamil Nadu","600056","04426493644","poonamalle@vinayaktata.com"
"CHELLAM MOTORS PVT LTD","105, MALAIYEEDU ROAD, LANDMARK - RAJAGOPALAPURAM,, CITY AND DISTRICT - PUDUKKOTTAI","Pudukkottai","Tamil Nadu","","7094470909","as10aish29@gmail.com"
"SUSEE AUTO ZONE PVT LTD","115 AND 115A, RADHAPURAM MAIN ROAD,, NEAR RAILWAY CROSSING, CITY - VALLIOOR, DISTRICT - TIRUNELVELI","Radhapuram","Tamil Nadu","627117","",""
"ABT INDUSTRIES LTD-1001650","1007-1008, THIRUVUPATHI AMMAN KOVIL STREET,, MADURAI ROAD,","Rajapalayam","Tamil Nadu","626117","9994041771",""
"SREE KARPAGAMOORTHY AUTOMOBILES","MADURAI NATIONAL HIGHWAY,, OPP. MPDC - AUTONAGAR","Ramanathapuram","Tamil Nadu","623501","",""
"V S T MOTORS LTD.","SURVEY NO 81/6A, VNS COMPLEX, 896/01, GL, SALEM, NARASINGAPURAM, SALEM CUDDALORE MAIN ROAD, ATTUR","Salem","Tamil Nadu","636108","9840018471","vijayagopal@vstmotors.com"
"V S T MOTORS LTD.","NO.3, NARAYANA COMPLEX, BANGALORE HIGHWAY,, NEXT TO SELVI MESS,NEAR RADDISON HOTEL,","Salem","Tamil Nadu","636302","8056090333","k.sivaraja@vstmotors.com"
"LRN MOTORS PVT LTD","NO: 3/131-2, KANDAMPATTY BLOCK - 1, NEAR RTO OFFICE (WEST), KANDAMPATTY BYE-PASS, SALEM","Salem","Tamil Nadu","636005","9994094466","lrntata@lrn.co.in"
"ABT INDUSTRIES LTD.","69/3B, SATHY GOBI MAIN ROAD, ARIYAPALAYAM,, NEAR SPC MAHAL,","Sathyamangalam","Tamil Nadu","638402","9790584222","bbaggiyaraja@abtindustries.net"
"ABI AND ABI MOTORS","NO. 20/1C, CHIDAMBARAM ROAD,, VILANATHISAMUTHIRAM, SIRKALI, NAGAPATTINAM","Sirkali","Tamil Nadu","609111","9943937505","abiabitata@gmail.com"
"SREE KARPAGAMOORTHY AUTOMOBILES","MADURAI MAIN ROAD,  OPP. COLLECTOR'S OFFICE, CITY - SIVAGANGAI, DIST - SIVAGANGA, TAMIL NADU,","Sivaganga","Tamil Nadu","630602","",""
"LAWRENCE AUTOMOTIVE PVT. LTD","AVINASHI RD, ARASUR POST,, SULUR","Sulur","Tamil Nadu","641305","9677721111","md@lawrencegroup.com"
"ABI AND ABI MOTORS","80, ABI AND ABI TOWERS, OPP. MEDICAL COLLEGE FIRST GATE,, MEDICAL COLLEGE ROAD, THNAJAVUR","Thanjavur","Tamil Nadu","613004","9047150000/9585000000","abi.abitata@gmai.com"
"VETRI MOTORS PRIVATE LIMITED","SURVEY NO.2, ANNANJI BYE PASS JUNCTION,, PERIYAKULAM ROAD,","Theni Allinagaram","Tamil Nadu","625531","0452-2464220","arun@vetrimotors.com"
"ABI AND ABI MOTORS","1A/4A1, INDIRANI COMPLEX, NAGAI BYE-PASS ROAD,, OPP. MALLIGA MAHAL, TIRUVARUR,","Thiruvarur","Tamil Nadu","610001","","abiabitata@gmail.com"
"ABT INDUSTRIES LTD.","SF NO. 18/2, METTUPALAYAM ROAD,, METTUPALAYAM ROAD,, THUDIYALUR","Thudiyalur","Tamil Nadu","641034","0422-22260406","nsivsankar@abtindustries.net"
"POPULAR MEGA MOTORS (CHENNAI)","1/1, PANJETTY VILLAGE,, 80' ROAD, OPP JUMBO BAGS,","Tindivanam","Tamil Nadu","604201","4427991125",""
"V S T MOTORS LTD.","283/2, DEVI TOWERS,, SALEM MAIN ROAD","Tiruchengodu","Tamil Nadu","637214","",""
"CHELLAM MOTORS PVT LTD","75 NO 11/2, VIJAYA NAGAR, PANJAPUR, TRICHY MADURAI N. HIGHWAY,, SRIRANGAM TALUK, TRICHY","Tiruchirappalli","Tamil Nadu","620012","0431-65678323","chellammotors2016@gmail.com"
"ABT INDUSTRIES LTD-1001650","S NO 174/2B, KANYAKUMARI, TIRUNELVELI, NH ROAD, GKR. COMPLEX,, OPP IRT POLYTECHNIC, THAKKAMAL PURAM,","Tirunelveli","Tamil Nadu","627002","9994016676","sgovindaraj@abtindustries.net"
"ABT INDUSTRIES LTD-1001650","16/1A1, KEELAVEERARAGAVAPURAM,, NAGERCOIL MAIN ROAD, NH 47, PALAYAMKOTTAI,","Tirunelveli","Tamil Nadu","627007","9842924657","cudaychandran@abtindustries.net"
"SUSEE AUTO ZONE PVT LTD","VANNAPRETTAI, NAGARKOVIL BYE PASS ROAD","Tirunelveli","Tamil Nadu","627003","0462  2500543","mail@susee.org"
"ABT INDUSTRIES LTD.","139, THANEER PANDAL,, ANUPARPALAYAM, AVINASHI ROAD,","Tirupur","Tamil Nadu","641652","0421-2257664","kmylswamy@abtindustries.net"
"BUS ZONE","DP NO. 31, SIDCO INDUSTRIAL ESTATE,, CHENNAI BANGALORE  HIGHWAY,THIRMAZHISAI,CHENNAI","Tiruvallur","Tamil Nadu","600124","8939569147/044-26810034","manavdeepsingh@gmail.com"
"POPULAR MEGA MOTORS (CHENNAI)","SURVEY NO 213/1, 213/2, 213/3A & 213/4A,OLD NO 6,NEW NO 6/1,, CV SALAI,THIRUVALLUR,THIRUVALLUR TOWN,","Tiruvallur","Tamil Nadu","602001","9884494921","raghavendran@pmmil.com"
"SUSEE TRUCKS PVT LTD","THULUNGUMTHANDALAM VILLAGE, BANGALORE - CHENNAI HIGHWAY","Tiruvallur","Tamil Nadu","631502","044-37219184","suseetrucks_kanchee@yahoo.com"
"SUSEE TRUCKS PVT LTD","T.S. NO.2420 / 3 PART, NEAR RELIANCE PETROL PUMP, TINDIVANAM ROAD, THIRUVANAMALAI","Tiruvannamalai","Tamil Nadu","606601","04175- 324084","ss_manivannan@rediffmail.com"
"SUSEE AUTO ZONE PVT LTD","115/9 & 116/4A, MARAVAN MADAM,, TUTICORIN,","Tuticorin","Tamil Nadu","628101","9944958100","hariprathan@susee.co.in"
"ABT INDUSTRIES LTD-1001650","ETTAYAPURAM ROAD","Tuticorin","Tamil Nadu","628003","0452 2669054 / 2669425","nevilleh@abtindustries.net"
"ABT INDUSTRIES LTD.","COONOOR  ROAD","Udagamandalam","Tamil Nadu","643001","0422 4236221","jpchristopherrajasekaran@abtindustries.net"
"VINAYAK COMMERCIAL MOTORS","NO. #245, OPP INDIAN OIL PETROL BUNK, GST ROAD,, URAPAKKAM, CITY CHENNAI DISTRICT KANCHIPURAM,","Urapakkam","Tamil Nadu","","9566047799","gulshan@vinayaktata.com"
"SUSEE TRUCKS PVT LTD","16, CHETPET ROAD,, CITY - VANDAVASI, DIST - VANDAVASI,","Vandavasi","Tamil Nadu","632326","9344721606","suseetrucks@yahoo.com"
"ABT INDUSTRIES LTD.","SF.NO: 332/3, VEERAPANDI VILLAGE,, TIRUPPUR","Veerapandi","Tamil Nadu","641605","0422-2260406","nevilleh@abtindustries.net"
"SUSEE TRUCKS PVT LTD","BANGLORE CHENNAI HIGHWAY, NU","Vellore","Tamil Nadu","632012","0416 3296184","ss_manivannan@rediffmail.com"
"V S T MOTORS LTD.","NO.6 V.S. NAGAR,, TRICHY MAIN ROAD, SALAMENDU,","Villupuram","Tamil Nadu","605401","9842340770","sdeenyrajan@vstmotors.com"
"JASPER INDUSTRIES PRIVATE LIMITED-1004850","PLOT NO. 8,9,10,, DASANPUR VILLAGE","Adilabad","Telangana","504346","",""
"JASPER INDUSTRIES PRIVATE LIMITED-1004850","S.NO 456, RWB ROAD, MIRIYALGUDA, MIRIYALGUDA MANDAI, NALGONDA DISTRICT","Alagadapa","Telangana","508206","9949599120","salesmiryalaguda@jasperindustries.com"
"SRIDHANALAKSHMI AUTO AGENCIES PVT LTD","SURVEY NO.38 & 418,, PLOT NO. A1, INDUSTRIAL ESTATE, - PATANCHERU, SANGAREDDY","Ameenapur","Telangana","502319","08455240688","gmfinance@lakshmiatata.co.in"
"JASPER INDUSTRIES PRIVATE LIMITED-1004850","SHOP NO.  2,3,4 ,G.P NO. 1-5/B,C,D ,PLOT NO.1 TO 5 S.NO. 452/1&2,, BESIDE SRIDEVI HP PETROL BUNK PERKIT VILLAGE, ARMOOR  MANDAL,","Armur","Telangana","503224","9912229481","salesarmoor@jaseprerindustries.com"
"JASPER INDUSTRIES PRIVATE LIMITED-1004850","PLOT 15, HOUSE NO.13-6-439/1/A/95,, NEAR WATER TANK,BALAJI NAGAR,","Attapur","Telangana","","",""
"JASPER INDUSTRIES PRIVATE LIMITED-1004850","SURVEY NO. 287/E, BODHAN ROAD MAIN ROAD,, BANSWADA","Banswada","Telangana","503187","9912349828","salesbanswada@jaseprerindustries.com"
"JASPER INDUSTRIES PRIVATE LIMITED-1004850","1-4-313/10, OPP. A.P.H.B. COLONY,, BHONGIRI TOWN AND MANDAL, YADDRI DISRICT,","Bhongir (m)","Telangana","","9848791831","salesbhongir@jasperindustries.com"
"SRIDHANALAKSHMI AUTO AGENCIES PVT LTD","SURVEY NO.19/1, PLOT NO. 13,, WARD NO. 5, CITY - MONDAL AND VILLAGE - CHEVELLA,","Chevella","Telangana","501503","9704595244","bharat@laxmitata.co.in"
"GEETHA AUTO COMMERCIALS","# 8-1-192, NEAR HDFC BANK, KINNERASANI PROJECT ROAD,, OPP GOWTHAMI SCHOOL, PALVANCHA,","Edulapuram","Telangana","507115","7337441526","geethaautotata@gmail.com"
"GEETHA AUTO COMMERCIALS","12-396/2/A, AKULAVARI GANPURAM,, RENUKA ELLAMMATHALLI TEMPLE,","Eturnagaram","Telangana","","7337441539","geeethaautotata@gmail.com"
"JASPER INDUSTRIES PRIVATE LIMITED-1004850","PLOT NO 6 & 7, SURVEY NO. 786 AND 787,, DOUDERPALLY GRAM PANCHAYAT,","Gadwal","Telangana","509125","90105075425",""
"JASPER INDUSTRIES PRIVATE LIMITED-1004850","S.NO. 593, 596, PLOT NO. 129, GHATSEKAR,, R, GRAM PANCHAYAT, MANDAL,","Ghatkesar","Telangana","501301","9010201542","salesghatkesar@jasperindustries.com"
"JASPER INDUSTRIES PRIVATE LIMITED-1004850","R C PURAM BYPASS ROAD, NU","Hyderabad","Telangana","500032","",""
"JASPER INDUSTRIES PRIVATE LIMITED-1004850","H.NO.16-19-1/3/45, ,G.F  SRI KRUPA MARKET,, MEHABOOB MANSION, MALAKPET,","Hyderabad","Telangana","500036","",""
"JASPER INDUSTRIES PRIVATE LIMITED-1004850","H NO 42-22, GROUND FLOOR- BLOCK C, SUSHILPA HILLS,, SY NOS 357/1, 357/3, 357/4, MOULALI, MALKAGIRI,","Hyderabad","Telangana","500062","9666404547","saleskushaiguda@jasperindustries.com"
"JASPER INDUSTRIES PRIVATE LIMITED-1004850","H NO 6-3-639/640/642 GOLDEN EDIFICE, 1ST FLOOR,, KHAIRATABAD CIRCLE, OPP: VISWESWARAYYA STATUE,","Hyderabad","Telangana","500004","040 66621111","sumanth.badiga@jasperindustries.com"
"JASPER INDUSTRIES PRIVATE LIMITED-1004850","PLOT NO. 85, SURVEY NO. 66/13, RAJEEV GANDHINAGAR,, SAROORNAGAR MANDAL, L B NAGAR MUNICIPALITY, R R DIST, MANSOORABAD","Hyderabad","Telangana","500069","",""
"JASPER INDUSTRIES PRIVATE LIMITED-1004850","H.NO. 94,SHOP NO. 1,2,3&4, OPP. BUS STOP,, TADBUND, BOWENPALLAY,","Hyderabad","Telangana","500033","",""
"JASPER INDUSTRIES PRIVATE LIMITED-1004850","SR.NO - 160, MEDCHAL ROAD, KOMPALLY X ROADS,, KUTBULLAPOOR MANDAL","Hyderabad","Telangana","500014","",""
"JASPER INDUSTRIES PRIVATE LIMITED-1004850","H.NO.4-1-184/1, MEDAK ROAD,, LANDMARK CO-OPERATIVE BANK","Hyderabad","Telangana","501101","",""
"JASPER INDUSTRIES PRIVATE LIMITED-1004850","H.NO 4-46/22/3,, SAINAGAR COLONY, HYDERABAD","Hyderabad","Telangana","502032","9666000160","salesrcpuram@jasperindustries.com"
"JASPER INDUSTRIES PRIVATE LIMITED-1004850","DOOR #2 1-55,  OPP: UPPAL BUS DEPOT, MAIN ROAD, PEERZADIGUDA, GHATSEKAR MANDAL,R R DISTRICT,","Hyderabad","Telangana","500039","9666404547","salesuppal@jasperindustries.com"
"JASPER INDUSTRIES PRIVATE LIMITED-1004850","PLOT NO. 28, 29 AND 30, BLOCK NO. 43, APIIC, AUTO NAGAR,, HAYATHNAGAR ROAD, VIJAYAWAD NATIONAL HIGHWAY","Hyderabad","Telangana","500070","9666085222","dd@jasperindustries.com"
"JASPER INDUSTRIES PRIVATE LIMITED-1004850","DOOR # 7-2-593, RASTRAPTHI ROAD,, OPP: UPPAL BUS DEPOT, SECUNDERABAD - UPPAL, SECUNDERABAD","Hyderabad","Telangana","500003","7799863801","salesuppal@jasperindustries.com"
"JASPER INDUSTRIES PRIVATE LIMITED-1004850","SURVEY NO  98/AA  DOOLAPALLY VILLAGES,, GANDIMAISAMMA, DUNDIGAL TEHSIL,   DISTRICT - MEDCHAL MALKAJGIRI,","Hyderabad","Telangana","500014","9848886192","worksdoolapally@jasperindustries.com"
"JASPER INDUSTRIES PRIVATE LIMITED-1004850","MUNICIPAL NOS. 3-5-25/4, PLOT NO. 17, S NO.53 & 59,, BAGH-E-AMERI VILL, RAJENDRANAGAR TALUK,KUKATPALLY MANDAL","Hyderabad","Telangana","500072","9666093222","SALESKUKATPALLY@JAPERINDUSTRIES.COM"
"SRIDHANALAKSHMI AUTO AGENCIES PVT LTD","SURVEY NO. 379, PLOT NO. 1,, VILLAGE & MONDAL, CITY - IBRAHIMPATNAM,","Ibrahimpatnam (bagath)","Telangana","501506","9505101911","bharat@laxmitata.co.in"
"JASPER INDUSTRIES PRIVATE LIMITED-1004850","1-5-216, B & C,, OPP. ELECTRICITY SUBSTATION, GANESH NAGAR, KARIMNAGAR ROAD","Jagtial","Telangana","505327","9912227591","salesjagityal@jasperindustries.com"
"JASPER INDUSTRIES PRIVATE LIMITED-1004850","S.NO. 112, 143, H.NO 04-05-59/23/01,, HANAMKONDA ROAD,","Jangaon","Telangana","506167","",""
"JASPER INDUSTRIES PRIVATE LIMITED-1004850","PLOT NOS. 46 TO 52, H.NO 5-2-188, OLD  NH-7 ROAD,, KAMAREDDY TOWN AND MANDAL, NIZAMABAD,","Kamareddy (m)","Telangana","","",""
"JASPER INDUSTRIES PRIVATE LIMITED-1004850","HOUSE NO.8-7-232,, RAMPUR ROAD,NEAR M GANDHI STATUE,","Karimnagar","Telangana","505001","",""
"COMBINED AUTOMOTIVES PVT LTD","2-73/3, HYDERABAD ROAD,, ALUGUNUR","Karimnagar","Telangana","505527","8500273777","admin@combinedautomotives.in"
"JASPER INDUSTRIES PRIVATE LIMITED-1004850","R.S NO.74, KHANAPURAMHAVALI PANCHAYATHI, BYPASS ROAD, KHAMMAM,","Khammam","Telangana","507001","9666085222","yj.naidu@jasperindustries.com"
"GEETHA AUTO COMMERCIALS","H NO 5-7-200/A, C/O GANGOTRI NILAYAM,MAMATHA HOSPITAL ROAD,, MAMATHA HOSPITAL,","Khammam","Telangana","507002","7337441504","geetaautotata@gmail.com"
"JASPER INDUSTRIES PRIVATE LIMITED-1004850","RS NO 238/A, DORAKUNTA VILLAGE,, MAIN ROAD,KODAD MANDAL,KODAD","Kodad","Telangana","","9248027259",""aadi@@jasperindustries.com;
shareiff@jasperindust"
"JASPER INDUSTRIES PRIVATE LIMITED-1004850","S.NO 17/60, FLAT NO 12 AND 13,, KOTHAGUDEM","Kothagudem","Telangana","507001","",""
"JASPER INDUSTRIES PRIVATE LIMITED-1004850","H.NO. 1-6-122/10/9 ,NARSAMPET BY PASS ROAD,, NEAR INDIANOIL PUMP, MEHABOOBABAD","Mahabubabad","Telangana","506101","",""
"JASPER INDUSTRIES PRIVATE LIMITED-1004850","H, NO.1-6, GADWAL, HYDERABAD ROAD,, NEAR RAILWAY GATE,","Mahabubnagar","Telangana","509125","9848017755","salesgadwal@jaseprerindustries.com"
"JASPER INDUSTRIES PRIVATE LIMITED-1004850","P.NO.11,PARIGI ROAD, VIDYUTH NAGAR,, SHAD NAGAR, MEHABOOB NAGAR,","Mahbubnagar","Telangana","509216","",""
"JASPER INDUSTRIES PRIVATE LIMITED-1004850","H.NO.7/43/15, MAIN ROAD,, NEAR SBH","Mahbubnagar","Telangana","509001","",""
"JASPER INDUSTRIES PRIVATE LIMITED-1004850","H.NO. 1-219/2 S.NO. 273, BLOCK NO.1,  OLD MANCHERIAL,, MANCHERIAL MANDAL","Mancherial","Telangana","504208","",""
"JASPER INDUSTRIES PRIVATE LIMITED-1004850","H.NO.19-29-1,HYDERABAD ROAD,, NEW BUS STAND","Medak","Telangana","502103","",""
"JASPER INDUSTRIES PRIVATE LIMITED-1004850","H.NO.4-6/15/6,, R C PURAM,H P PETROL PUMP,","Medak","Telangana","502110","",""
"JASPER INDUSTRIES PRIVATE LIMITED-1004850","H. NO. 12-104/4, MAIN ROAD, GAJWEL MANDALS,, GAJWEL","Medak","Telangana","502278","",""
"JASPER INDUSTRIES PRIVATE LIMITED-1004850","1-6-174, OPP GOVT AREA HOSPITAL,, MAIN ROAD,","Nalgonda","Telangana","508116","",""
"JASPER INDUSTRIES PRIVATE LIMITED-1004850","SURVEY NO. 456/E,, BLOCK NO 31, MIRYALAGUDA MANDAL,MIRYALAGUDA","Nalgonda","Telangana","508207","9248022666","yj.naidu@jasperindustries.com"
"JASPER INDUSTRIES PRIVATE LIMITED-1004850","DOOR NO. 1/58 ,, MARRIGUDA VILLAGE","Nalgonda","Telangana","508001","",""
"COMBINED AUTOMOTIVES PVT LTD","H. NO. 1-3/1A, NEAR AYYAPPA TEMPLE,, KADTHAL, NH - 44,","Nirmal","Telangana","504105","9553373666","admin@combinedautomotives.in"
"JASPER INDUSTRIES PRIVATE LIMITED-1004850","SURVEY NO 1216/4 & 1217,, MANCHERAIL ROAD,NIRMAL","Nirmal","Telangana","504106","9246477979","salesnirmal@jasperindustries.com"
"JASPER INDUSTRIES PRIVATE LIMITED-1004850","BORGAON P VILLAGE,, MANCHIPPA ROAD","Nizamabad","Telangana","503001","9912227627","salesnirmal@jasperindustries.com"
"JASPER INDUSTRIES PRIVATE LIMITED-1004850","SURVEY NO 149, POTHI REDDY PALLY VILLAGES,, SANGAREDDY MANDAL","Sangareddy","Telangana","502001","9000124005","salesnirmal@jasperindustries.com"
"JASPER INDUSTRIES PRIVATE LIMITED-1004850","H.NO. 1-69 NO 134,, WARD NO 1","Sathupalle","Telangana","507303","08761-281515","acevij@jasperindustries.com"
"JASPER INDUSTRIES PRIVATE LIMITED-1004850","SURVEY NO. 13 & 14, H NO. 7-62/1, KOMPALLY,, MAIN ROAD, NH 7,","Secunderabad","Telangana","500009","","worksdoolapally@jasperindustries.com"
"JASPER INDUSTRIES PRIVATE LIMITED-1004850","SURVEY NO. 176, PLOT NO. 7 & 8, GROUND FLOOR, PONNALA VILLAGE,, SIDDIPET MANDAL, HYDERABAD ROAD, MEDAK, TELANGANA","Siddipet","Telangana","502103","9912442368","salessiddipet@jasperindustries.com"
"JASPER INDUSTRIES PRIVATE LIMITED-1004850","D NO 1-2-270/87/2/B14,, NH-9 OPP HITECH BUS STAND","Suryapet","Telangana","508212","",""
"GEETHA AUTO COMMERCIALS","# 23-6-71/1, NEW SHYAMPET, HUNTER ROAD, WARANGAL","Warangal","Telangana","506001","7337441516","geethaautotata@gmail.com"
"GEETHA AUTO COMMERCIALS","SURVEY NO. 601/A/2, MAIN ROAD, BESIDES SAKSHI PRESS,, WARANGAL TO HYDERABAD HIGHWAY, RAMPUR VILLAGE, DHARMASAGAR MANDAL","Warangal","Telangana","506151","9100477555, , 7337441520","geethaautotata@gmail.com"
"JASPER INDUSTRIES PRIVATE LIMITED-1004850","H.NO.11-24-423,, POCHAMMA MAIDEN ROAD,RUDRAMAMA DEVI STATUE LANDMARK,","Warangal","Telangana","506002","",""
"JASPER INDUSTRIES PRIVATE LIMITED-1004850","SHOP NO. 2-28 ,S.NO. 74/1, SRI MARKANDEYA PRASANNA,, PADAL SIDRAMAPPA COMPLEX,DATTAGIRI COLONY, ALLIPOOR, MAIN ROAD","Zahirabad","Telangana","502286","",""
"PROGRESSIVE AUTOMOBILES PVT LTD","KHAITAN NO. 4466, NEAR KATIABABA ASRAM,, NAGICHARA, BY PASS ROAD, N H 44, SRINAGAR TEHSIL,","Agartala","Tripura","799010","977062244","agartala@progressive.in.net"
"PROGRESSIVE AUTOMOBILES PVT LTD","KADAMTALA ROAD,, NEAR NAYAPARA AUTO STAND","Dharmanagar","Tripura","799250","8974062060","sales.tata@progressive.in.net"
"PROGRESSIVE AUTOMOBILES PVT LTD","A A ROAD, NEAR TELIAMURA RTO OFFICE,, KHOWAI,","Teliamura","Tripura","799205","9436127224","agartala@progressive.in.net"
"PROGRESSIVE AUTOMOBILES PVT LTD","BRAHMARBARI, N H - 44, BSNL TOWER,, CITY - UDAIPUR AND DISTRICT - GOMATI TRIPURA","Udaipur","Tripura","","8415925384","sales.tata@progresssive.in.net"
"GRS MOTORS PVT LTD","PAHADPURA HOSUE, JALAUN ROAD,, OPP RAMRAJA HOUSE","Orai","Uttar Pradesh","285001","7880918773","grsmotors2008@gmail.com"
"ASHOK AUTO SALES LTD.","NR. TEHSIL, SAIYAN ROAD,, POOLWATI HIGHER SECONDARY SCHOOL, KHERAGARH,","Agra","Uttar Pradesh","283121","","cvdsales@ashokautosales.com"
"ASHOK AUTO SALES LTD.","KISHORE BHAWAN, SECTOR 4,, RTO ROAD, T P NAGAR,","Agra","Uttar Pradesh","282005","",""
"ASHOK AUTO SALES LTD.","NUNHAI.","Agra","Uttar Pradesh","282006","9897599204 / 9897599225",""
"PRAYAG UDYOG PRIVATE LIMITED","PANDA ROAD, NEAR R T O OFFICE,, CITY - AKBARPUR, DIST - AMBEDKAR NAGAR,","Akbarpur","Uttar Pradesh","224146","",""
"KAILASH MOTORS","MATI ROAD, AKBARPUR,, KANPUR DEHAT","Akbarpur","Uttar Pradesh","209101","7080210022","kailash.salesknp@gmail.com"
"COMMERCIAL AUTO SALES P.  LTD","BUILDING NO. 126, ALLAHABAD LUCKNOW ROAD,, NEAR TOLL PLAZA 1, LUCKNOW,  NAWABGANJ,  SORAON","Akbarpur Urf Gangaganj","Uttar Pradesh","229412","9140784283",""
"ASHOK AUTO SALES LTD.","NEAR SOOT MILL, G T ROAD","Aligarh","Uttar Pradesh","202001","9897599204 / 9897599225","aligarhsales@ashokautosales.com"
"ASHOK AUTO SALES LTD.","CHHARA-KASGANJ ROAD,, NR. NATIONAL INSURANCE,","Aligarh","Uttar Pradesh","202123","",""
"COMMERCIAL AUTO SALES P.  LTD","18A,KANPUR ROAD,, ALLAHABAD","Allahabad","Uttar Pradesh","211001","9235531929","service@commercialautosales.com"
"COMMERCIAL AUTO SALES P.  LTD","18, KANPUR ROAD,, NEAR AUTO SALES","Allahabad","Uttar Pradesh","211001","9839050773","commercialauto@hotmail.com"
"MOTOR & GENERAL SALES LTD.","45,MUIR ROAD, RAJAPUR","Allahabad","Uttar Pradesh","211001","0532-2260224","mgsallahabad@rediffmail.com"
"COMMERCIAL AUTO SALES P.  LTD","543/B, TOWN AREA,NEAR RAM BHAWAN CHAURAHA,, SHANKERGARH TOWN, ALLAHABAD","Allahabad","Uttar Pradesh","212108","","sales@commercialautosales.com"
"CNS MOTORS PRIVATE LIMITED","NH - 24, PREM NAGAR,, OPP. GOVIND PUBLIC SCHOOL,, JOYA, AMROHA CITY, DISTRICT - JYOTIBA PHULE NAGAR","Amroha","Uttar Pradesh","244222","7055002625","najibabad.cnsmotors@gmail.com"
"CNS MOTORS PRIVATE LIMITED","VILLAGE NARANGPUR, JOYA,, N H 24","Amroha","Uttar Pradesh","244222","9012311111","cnsmotors@hotmail.com"
"ASHOK AUTO SALES LTD.","GAYATRI NAGAR, BYPASS ROAD,, NH-2, JALAUN CROSSING, NEAR SHANKAR HOTEL,","Auraiya","Uttar Pradesh","206255","9997091135","prabhatattiwari91ashokautoslaes.com"
"M/S. SINGHAL MOTORS","KEDAR PURAM,, HARRA KI CHUNGI, CITY - AZAMGARH, DISTRICT - AZAMGARH,","Azamgarh","Uttar Pradesh","276001","","singhalmotors@rediffmail.com"
"R. A.  MOTORS PVT. LTD.","KHASRA NO 54/530/051,2ND KM MILE STONE, ARIFPUR NAWADA, SALARPUR, BADAUN","Badaun","Uttar Pradesh","243601","9837008737","ramotors@gmail.com"
"KHANNA MOTOR SALES","OPP ST NORBERT SCHOOL,, AMINPUR NAGRUAR, GONDA ROAD","Bahraich","Uttar Pradesh","271801","77033009191","khannamotorsales@gmail.com"
"M/S. PUNEET AUTOMOBILES","RAJDHANI ROAD PHEPHNA BALIA-277001, BALLIA","Ballia","Uttar Pradesh","277001","05498232304","puneetauto.sales@gmail.com"
"PRAYAG UDYOG PRIVATE LIMITED","PHULWARIA,, BYE PASS,NEAR BALRAMPUR SUGAR MILL,","Balrampur","Uttar Pradesh","","",""
"SAHU MOTORS LLP","TINDWARI ROAD,, PRATEEK MARRIAGE HALL,","Banda","Uttar Pradesh","210001","7705000824","banda.sahumotos@gmail.com"
"MGS AUTO FAB PRIVATE LIMITED","NEAR PALHARI FARM,, FAIZABAD - LUCKNOW ROAD,BARABANKI","Barabanki","Uttar Pradesh","225001","9554956812",""
"A K C MOTORS","PARSAKHERA INDUSTRIAL AREA, RAMPUR ROAD,, NEAR FIRE STATION","Bareilly","Uttar Pradesh","243502","9565844448","management@akcworld.co.in"
"VARDAAN TRADELINK PVT LTD","KHASRA NO. 830/837, OPP. POLYTECHNIC COLLEGE,, 7TH KM RAMPUR ROAD, C B GANJ, BAREILLY","Bareilly","Uttar Pradesh","243001","0581-2560666","aayush_grover@yahoo.co.in"
"M B WHEELERS LIMITED","KHAJURIA ROAD,, NEAR OM CHITRA MANDIR,TETRI BAZAR,NEAR RLY. STATION","Basti","Uttar Pradesh","272207","",""
"M/S. PUNEET AUTOMOBILES","BELTHARA ROAD, GORAKHPUR ROAD,, CITY BETHARA ROAD","Belthara Road","Uttar Pradesh","221715","9918902174","puneet.auto@gmail.com"
"ASHOK AUTO SALES LTD.","TEHSIL ROAD, BHIDUNA,","Bidhuna","Uttar Pradesh","206255","",""
"CNS MOTORS PRIVATE LIMITED","328/2, CIVIL LINES II,, OPP EXHIBITION GROUND, BIJNOR, UTTAR PRADESH","Bijnor","Uttar Pradesh","246701","01342-260572/573","cnsmotors@hotmail.com"
"S J S MOTORS","BARUT ROAD, NEAR KARBALA,, BUDHANA CITY, MUZAFFARNAGAR, UTTAR PRADESH - 250 103.","Budhana","Uttar Pradesh","251001","","sjsmotors2004@rediffmail.com"
"R. A.  MOTORS PVT. LTD.","CHANDAUSI MORADABAD ROAD,, NEAR RELIANCE PETROL PUMP,","Chandausi","Uttar Pradesh","","9639009626","manojkumarbareilly@gmail.com"
"SAHU MOTORS LLP","AMAAN BEDI PULIYA,  ALLAHABAD ROAD,, TALUKA - KARWI","Chitrakoot Dham (karwi)","Uttar Pradesh","210205","7705000906","dwidei.gyaneshranjan@gmail.com"
"S J S MOTORS","N.H.58,ROORKEE ROAD,, DAURALA,DISTT. MEERUT","Daurala","Uttar Pradesh","250110","8057847777","sjsmotors2004@rediffmail.com"
"M B WHEELERS LIMITED","BARHAJ,DEORIA,","Deubari","Uttar Pradesh","274001","",""
"CNS MOTORS PRIVATE LIMITED","KALAGARH ROAD STATE HIGHWAY, 74 DHAMPUR,, OPP. SWARAJ TRACTOR AGENCY, DHAMPUR, BIJNOR DISTRICT","Dhampur","Uttar Pradesh","246701","7055501020","dhamplur.cnsmotors@gmail.com"
"R. A.  MOTORS PVT. LTD.","KASGANJ ROAD, AGRA BAREILLY HIGHWAY","Etah","Uttar Pradesh","207001","05742-233997","ramotors@gmail.com"
"ASHOK AUTO SALES LTD.","PLOT NO 75, ETAWAH KANPUR ROAD, PILKHAR NATIONAL HIGHWAY NO 2,","Etawah","Uttar Pradesh","206001","9897599204 / 9897599225","info@ashokautosales.com"
"VICTOR SUPPLIERS PVT LTD","PLOT NO. 81, BHEEKHAPUR,, LUCKNOW GORAKHPUR HIGHWAY, FAIZABAD","Faizabad","Uttar Pradesh","224122","7704073777","vspltata@hotmail.com"
"KAILASH MOTORS","KHASRA NO 111& 112, G.T.ROAD,, AUTO CENTRE, MAKRAND NAGAR, VILLAGE, KUTLUPUR","Farrukhabad","Uttar Pradesh","209726","8953247204","kmkannauj@gmail.com"
"KAILASH MOTORS","SHYAM NAGAR,, AALOO MANDI ROAD,","Farrukhabad-cum-fatehgarh","Uttar Pradesh","","",""
"VISHAL AUTOMOVERS PVT. LTD.","GOPAL NAGAR,NEAR SHANIDEV TEMPLE,, FATEHPUR","Fatehpur","Uttar Pradesh","212601","09415132075","vishal.tata@rediffmail.com"
"KAILASH MOTORS","NR. DELHI DARBAR,, FATEHPUR,","Fatehpur","Uttar Pradesh","212601","",""
"ASHOK AUTO SALES LTD.","KHASRA NO. 249, RASHIDPUR KANAITA, DABRIA,, N H - 2, CITY - FIROZABAD","Firozabad","Uttar Pradesh","283204","",""
"VISHAL AUTOMOVERS PVT. LTD.","PLOT NO. 400, KUSHMANDA NAGAR HAMIRPUR ROAD","Ghatampur","Uttar Pradesh","209217","",""
"ASHOK AUTO VENTURES LLP-1007360","KHASRA NO. 113, MEERUT ROAD,, OPPOSITE AXON HONDA,","Ghaziabad","Uttar Pradesh","201003","8392903759","ashok.ojha@ashoksales.com"
"ASHOK AUTO VENTURES LLP-1007360","B - 2, NH - 24,, UDYOG KUNJ INDUSTRIAL AREAS","Ghaziabad","Uttar Pradesh","201009","9897599254","bbansal.ag-oc.com"
"M/S. PUNEET AUTOMOBILES","REJDEPUR DEHATI,RAUJA,, MAU ROAD, GHAZIPUR,","Ghazipur","Uttar Pradesh","233001","99197903505/0542-23338336","puneet.auto@gmail.com"
"VICTOR SUPPLIERS PVT LTD","PATERGANJ, MGS FORD,, LUCKNOW HIGHWAY, GONDA","Gonda","Uttar Pradesh","271001","998482577","vsplservices@gmail.com"
"PRAYAG UDYOG PRIVATE LIMITED","OPP. MISHRAULLIA POLICE CHOWKIE ,, MARUTI CHAURAHA ,BAHRAICH ROAD","Gonda","Uttar Pradesh","271001","",""
"M B WHEELERS LIMITED","VILL SISWA CHANKAPUR,P O JAGDISHPUR, NH 28 GORAKHPUR KASIA SECTION","Gorakhpur","Uttar Pradesh","273002","18001200256","anish.modi@ho.mbmail.net"
"MOTOR & GENERAL SALES LTD.","M.P BUILDING, ZILLA PARISHAD ROAD","Gorakhpur","Uttar Pradesh","273001","09839011295 / 09415111294",""
"M B WHEELERS LIMITED","MAHARAJGANJ ROAD,, GORAKHPUR,","Gorakhpur","Uttar Pradesh","273301","9936798726",""
"A & A AUTOMOBILES PVT LTD","C-22 SITE C, UPSIDC INDUSTRIAL AREA,, SURAJPUR,","Greater Noida","Uttar Pradesh","201306","9810020295","accounts@aaautomobiles.com"
"SAHU MOTORS LLP","KANPUR ROAD, NEAR RANI LAXMI BHAI CHAURAHA, HAMIRPUR","Hamirpur","Uttar Pradesh","210301","9532934931",""
"MGS AUTO FAB PRIVATE LIMITED","C/O  KUNAL TYRES,, CIRCULAR ROAD, HARDOI,","Hardoi","Uttar Pradesh","241001","9554959117",""
"ASHOK AUTO SALES LTD.","ALIGARH ROAD, NEAR PETROL PUMP,, SIKARA RAO,","Hathras","Uttar Pradesh","","",""
"ASHOK AUTO SALES LTD.","ALIGARH ROAD,, NR.OM CELEBRATIONS,","Iglas","Uttar Pradesh","202124","",""
"R. A.  MOTORS PVT. LTD.","JALESWAR BYE PASS ROAD,, HP ANANYA FILLING STATION,","Jalesar(dehat)","Uttar Pradesh","","8273144175","ramotors@gmail.com"
"R L AUTOMOBILES PVT LTD","ARRAJI NO. 779, MEHARUPUR, ZAFRABAD,, NEAR ZAFRABAD RAILWAY CROSSING, JAUNPUR VARANASI HIGHWAY, SADAR","Jaunpur","Uttar Pradesh","222180","999199997149","pawan@rlmasala.co.in"
"GRS MOTORS PVT LTD","NEAR MARUTI NANDAN SCHOOL, JHANSI SHIVPURI HIGHWAY","Jhansi","Uttar Pradesh","284003","0510-2911262","ashutosh_raj2006@yahoo.co.in"
"SAHU MOTORS LLP","NH-86, KANPUR SAGAR ROAD,, IN FRONT OF GANESH GRANITE","Kabrai","Uttar Pradesh","210427","05281-246671","sandeep_sahu@yahoo.co.in"
"SHUNTY BUNTY AUTOMOBILES PVT LTD","FAZALGANJ, 123/377","Kanpur","Uttar Pradesh","208012","0512-2241660","sbmpl@rediffmail.com"
"VISHAL AUTOMOVERS PVT. LTD.","84 / 35, ADJACENT TO J. K. JUTE MILLS, FAZALGANJ, KALPI ROAD","Kanpur","Uttar Pradesh","","0512-2242546","vishal.tata@rediffmail.com"
"KAILASH MOTORS","84/105, G.T. ROAD,, KANPUR","Kanpur","Uttar Pradesh","208003","9005092525","kailashmotors@rediffmail.com"
"EXCEL VEHICLES","AARAZI NO. 685, CHAKARPUR MANDI SACHENDI KANPUR,, N H 2, CHAKARPUR MANDI","Kanpur","Uttar Pradesh","208001","7054111240","gmsales@excelvehicles.org"
"S J S MOTORS","NEAR BUS STAND, MAIN ROAD,, OPP. T V S SHOWROOM","Khatauli","Uttar Pradesh","251001","9917180022",""
"ASHOK AUTO SALES LTD.","FATEHPUR  SIKRI  ROAD,, KIRAWALI BYE PASS,KIRAWALI ROAD,","Kiraoali","Uttar Pradesh","283122","",""
"UNIQUE AUTOSALES PVT LTD","SHANTI MARKET, OPP. CINEMA HALL,, ALLAHABAD LUCKNOW HIGHWAY,","Kunda","Uttar Pradesh","229406","",""
"M/S. SINGHAL MOTORS","CITY - LALGANJ,, DIST - RAEBARELI","Lalganj","Uttar Pradesh","230131","",""
"GRS MOTORS PVT LTD","JHANSI ROAD,BEHIND ST. MARY SCHOOL,, NEAR RELIANCE PETROL PUMP, LALITPUR","Lalitpur","Uttar Pradesh","284403","",""
"SWIFT TRUCKS LLP","KHASRA NO. 1247/1248, MOHANLALGANJ, MAU,, RAEBAREILLY ROAD,","Lucknow","Uttar Pradesh","226301","7788012345","ACCOUNTS@LUCKNOWDIESELS.COM"
"MGS AUTO FAB PRIVATE LIMITED","C-52, C-52A, C-53, C-53A, SHANKARPURWA, KHURRAM  NAGAR, RING ROAD, SITPUR-FAIZABAD","Lucknow","Uttar Pradesh","226002","0522-6451462","divas1903@gmail.com"
"MOTORFAB SALES LIMITED","PLOT NO. 926, 931, 934, 937, GRAM - BANTHARA SIKANDERPUR, PARGANA  BIJNOR, OPP-BANTHARA POLICE STATION, KANPUR ROAD, LUCKN","Lucknow","Uttar Pradesh","227101","0522-2721458","mgslko@rediffmail.com"
"MOTORFAB SALES LIMITED","GRAM KANTA,, FAIZABAD ROAD,CHINHAT","Lucknow","Uttar Pradesh","227105","9415013581","motorfab@gmail.com"
"MGS AUTO FAB PRIVATE LIMITED","BAZAAR MADHYA, SULTANPUR ROAD, ADJ. IOCL PETROL PUMP","Lucknow","Uttar Pradesh","226001","",""
"SAHU MOTORS LLP","CHARKHARI BYPASS ROAD,, IN FRONT OF TVS SHOWROOM,","Mahoba","Uttar Pradesh","210427","7705000825","tellcallersahumotors@gmail.com"
"ASHOK AUTO SALES LTD.","STATION  ROAD,","Mainpuri","Uttar Pradesh","205001","9897599204 / 9897599225",""
"COMMERCIAL AUTO SALES P.  LTD","SIRATHU ROAD,","Manjhanpur","Uttar Pradesh","212207","",""
"ASHOK AUTO SALES LTD.","BAAD,POST BAAD, NATIONAL HIGHWAY NO 2","Mathura","Uttar Pradesh","281006","9897599204 / 9897599225","baldevsingh953@gmail.com"
"M/S. SINGHAL MOTORS","BAKAWAL,GHAZIPUR ROAD,, N H 29, DUMRAW, MAU","Mau","Uttar Pradesh","275101","9838076731","singhalmotors_azamgarh@rediffmail.com"
"S J S MOTORS","TRANSFORMERS RITHANI DELHI ROAD","Meerut","Uttar Pradesh","250001","9927992696","sjsmotors@gmail.com"
"S J S MOTORS","OPP. AS INTER COLLEGE,, MEERUT ROAD,","Meerut","Uttar Pradesh","250401","",""
"M B WHEELERS LIMITED","PASCHIM TOLA BYE PASS,","Mehdawal","Uttar Pradesh","272171","",""
"DIAMOND WHEELS","HURAWAHA,, MIRZAPUR TO VARANASI ROAD,","Mirzapur","Uttar Pradesh","231001","9450552931","saraswaticars@yahoo.in"
"R. A.  MOTORS PVT. LTD.","NH - 24, ZERO POINT, RAMPUR ROAD","Moradabad","Uttar Pradesh","244001","9837008737","ramotors@gmail.com"
"R. A.  MOTORS PVT. LTD.","KASGANJ,, GAJRAULA ROAD,","Moradabad","Uttar Pradesh","244221","",""
"S J S MOTORS","BHOPA ROAD,, OPP T S MAAN MARKET","Muzaffarnagar","Uttar Pradesh","251001","9917181114","sjsmotors2004@rediffmail.com"
"S J S MOTORS","DASHMESH NAGAR, NEAR BY PASS  BOPA ROAD","Muzaffarnagar","Uttar Pradesh","251001","9837035401","sjsmotors2004@rediffmail.com"
"CNS MOTORS PRIVATE LIMITED","KOTWALI ROAD, OPP TRUCK UNION,, CITY - NAJIBABAD, DISTRICT - BIJNOR","Najibabad","Uttar Pradesh","246762","7055002625","najibabad.cnsmotors@gmail.com"
"ASHOK AUTO VENTURES LLP-1007360","A - 18, SECOTR - 6,, NEAR SANDEEP PAPER MILL,","Noida","Uttar Pradesh","201301","8392903759","ashok.sales@ashokauto.com"
"A & A AUTOMOBILES PVT LTD","E - 7, SECTOR 63,, GAUTAM BOUDH NAGAR,","Noida","Uttar Pradesh","201301","9810020295","accounts@aautomobiles.com"
"M B WHEELERS LIMITED","BELWA MISHRA, PAKADI BUILDING,, N H - 288","Padrauna","Uttar Pradesh","","995624000","info@mbwheelers.com"
"M B WHEELERS LIMITED","MATHURA NAGAR, PHARENDA BYEPASS,, SONALI ROAD, MAHARAJGANJ CITY, UTTAR PRADESH","Pharenda","Uttar Pradesh","273155","9956240000","info@mbwheelers.com"
"VARDAAN TRADELINK PVT LTD","NAUGAWAN CHAURAHA, MANDI ROAD,, NEAR RAILWAY CROSSING,","Pilibhit","Uttar Pradesh","262001","7088012366","edp.vardaan@gmail.com"
"UNIQUE AUTOSALES PVT LTD","180, PURE PITAI,, KOTWALI NAGAR","Pratapgarh","Uttar Pradesh","230001","05342 223259","uniquemotors.sales@gmail.com"
"MGS AUTO FAB PRIVATE LIMITED","UNNAO ROAD,, PURWA,","Purwa","Uttar Pradesh","209825","",""
"MGS AUTO FAB PRIVATE LIMITED","GATA NO.1452, JHAKARASI,, PARGANA, RAI BAREILLY","Rae Bareli","Uttar Pradesh","229127","9554956897",""
"VARDAAN TRADELINK PVT LTD","7TH KM, BILASPUR  ROAD,, NEAR ROADWAYS BUS STAND,","Rampur","Uttar Pradesh","244901","7088012342","edp.vardaan@gmail.com"
"COMMERCIAL AUTO SALES P.  LTD","RAM TIRAHA, MIRZAPUR, CITY - RAMPUR KARCHANA, ALLAHABAD","Rampur","Uttar Pradesh","212301","",""
"ASHOK AUTO SALES LTD.","49A, MALL ROAD,, OPP LAXMI VILAS RESTAURANT, SADAR","Sadarban","Uttar Pradesh","282001","8392903450","cvdsales@ashokautosales.com"
"S J S MOTORS","13/1, AMBALA ROAD,, NEAR BADI NAHAR KA PAUL, SAHARANPUR","Saharanpur","Uttar Pradesh","247002","98374791338","gmsenior@sjsmotors.in"
"S J S MOTORS","KHASRA NO 444, 445, 446, 447, SADAK DUDHLI, DEHRADUN ROAD,DOODHLI,SAHARANPUR","Saharanpur","Uttar Pradesh","247001","9837005400","sjsmotors2004@rediffmail.com"
"S J S MOTORS","SAHARANPUR MUZZAFARNAGAR ROAD,, OPP BUS STAND,","Saharanpur","Uttar Pradesh","247554","",""
"S J S MOTORS","KHASRA NO 1395, MR- COMPLEX, GANGOH BY PASS ROAD,, ENGINEERING COLLEGE CHAURAHA, GANGOH,","Saharanpur","Uttar Pradesh","247001","9568009548","gmsenior@sjsmotors.in"
"M/S. PUNEET AUTOMOBILES","SAIDPUR, NEAR MAHINDRA TRACTOR AGENCY,, SAIDPUR","Saidpur","Uttar Pradesh","233304","7705802372","puneet.auto@gmail.com"
"S J S MOTORS","KARNAL, OPP. RATHI NURSING HOME,, SHAMLI","Shamli","Uttar Pradesh","247776","9837400002","sjsmotors2004@rediffmail.com"
"MGS AUTO FAB PRIVATE LIMITED","GANDHINAGAR, MISHRIK ROAD","Sidhauli","Uttar Pradesh","261303","",""
"ASHOK AUTO SALES LTD.","NH - 2, BYE PASS,, IN FORNT OF GUNJAN FILLING STATION","Sirsaganj","Uttar Pradesh","283151","8392903444","ankit.sharma@ashokauto.com"
"UNIQUE AUTOSALES PVT LTD","NR. NIKKATAM POWAR HOUSE,, KADIPUR,","Sultanpur","Uttar Pradesh","228145","",""
"UNIQUE AUTOSALES PVT LTD","AMAHAT CHAURAHA,, OPP. GAYATRI FILLING STATION,GAURA BARIK,","Sultanpur","Uttar Pradesh","228001","",""
"UNIQUE AUTOSALES PVT LTD","KAKWA ROAD,, NR. RAILWAY CROSSING, AMETHI,","Sultanpur","Uttar Pradesh","227405","",""
"UNIQUE AUTOSALES PVT LTD","BAZARE NAZAF,, GORA BARIQ, AMHAT","Sultanpur","Uttar Pradesh","228001","9918200430","rkshukla87@gmail.com"
"ASHOK AUTO SALES LTD.","ALIGARH PALWAL ROAD,, NEAR HP GAS AGENCY,","Tappal","Uttar Pradesh","202165","7409757112","cvdsaesl@ashokautosales.com"
"S J S MOTORS","KHASRA NO 203, TATARPUR BYE PASS,DELHI LUCKNOW HIGHWAY,, TALUKA - HAPUR, CITY - TATARPUR, DISTRICT GHAZIABAD","Tatarpur","Uttar Pradesh","246101","99279992694","account_head@sjsmotors.in"
"MOTORFAB SALES LIMITED","SHIV NAGAR, NEAR STADIUM, LUCKNOW- UNNAO, BY PASS,","Unnao","Uttar Pradesh","209801","","motorfab@gmail.com"
"M/S. PUNEET AUTOMOBILES","PINDRA MARKET, KOLASLA,, NR. STATE BANK OF INDIA,  PINDRA,","Varanasi","Uttar Pradesh","221204","0542-2338334","puneet.auto@gmail.com"
"M/S. PUNEET AUTOMOBILES","B-4, BADHSHABAGH COLONY,, FATMAN ROAD,MALDHAIYA, CITY - VARANASI ,","Varanasi","Uttar Pradesh","221002","9919790352/9919730356",""
"M/S. PUNEET AUTOMOBILES","MARHIA PARAO, G T ROAD,, MAU","Varanasi Cantt","Uttar Pradesh","221101","05422338335/6","puneetauto.sales@gmail.com"
"OBERAI MOTORS LTD.","RAMPUR CHUNGI, NEAR SABJI MANDI,, ROORKEE","Aamkheri","Uttarakhand","249401","8194002102","oberailtd@gmail.com"
"AMIT AUTO WHEELS PRIVATE LIMITED","BHAGIRATHI BRIDGE, KANDA NR., RTO OFFICE, BAGESHWAR,","Bageshwar","Uttarakhand","263642","960003602","amit.autowheel@gmail.com"
"OBERAI MOTORS LTD.","A-14, TRANSPORT NAGAR, SAHARANPUR DEHRADUN ROAD","Dehradun","Uttarakhand","248171","9639016061","rakeshoberai@gmail.com"
"AMIT AUTO WHEELS PRIVATE LIMITED","KHET NO. 25 /1, 34 & 35, INDUSTRIAL ESTATE TEEN PANI, HALDWANI TEHSIL","Haldwani","Uttarakhand","263139","05946-311589",""
"AMIT AUTO WHEELS PRIVATE LIMITED","JHULAGHAT ROAD, VILLAGE- JAKHANI,","Jakhani Upreti","Uttarakhand","262520","",""
"AMIT AUTO WHEELS PRIVATE LIMITED","OPP STADIUM, RAMNAGAR ROAD,, KASHIPUR DISTT, UDHAM SINGH NAGAR","Kashipur","Uttarakhand","244713","",""
"AMIT AUTO WHEELS PRIVATE LIMITED","TANAKPUR RD.,, OPP.AKASHDEEP MARUTI SHOWROOM, KHATIMA,","Khatima","Uttarakhand","262308","",""
"COMMERCIAL MOTORS (DEHRADUN) PVT. LTD.","VILL SATHI CHOUR PO NIMBOO CHOUR, KOTDWAR , BADRI NATH MARG ,","Kotdwara","Uttarakhand","246149","01382-223507","jkotnala.cmdpl@gmail.com"
"OBERAI MOTORS LTD.","KIRTI NAGAR ROAD NH-58, TEHRI GARWAL","Maletha","Uttarakhand","249161","01370-260008","rakeshoberai@gmail.com"
"OBERAI MOTORS LTD.","OLD RTO OFFICE,, NEAR INDIAN OIL PETROL PUMP, DHALWALA","Rishikesh","Uttarakhand","249201","81944002102","oberailtd@gmail.com"
"DPM TRUCKING (A UNIT OF PATRICIA HOLDING PVT LTD)","DDPM ESTATE, OPP. CORE COLLEGE OF ENGINEERING,, KALIYAR ROAD","Roorkee","Uttarakhand","247667","7302797060","ceo@dpmtrucking.in"
"AMIT AUTO WHEELS PRIVATE LIMITED","FAZALPUR MEHRAULA, BARAD NAGAR, UDHAM SINGH NAGAR,RUDRAPUR,","Rudrapur","Uttarakhand","263153","9837095033","amit.autowheel@gmai.com"
"AMIT AUTO WHEELS PRIVATE LIMITED","SIDCUL ROAD, NR. MAHINDRA TRACTOR,, AGENCY, SITARGANJ,","Sitarganj","Uttarakhand","262405","9756707938","amit_sahni_06@yahoo.co.in"
"LEXUS MOTORS LTD.","KARNANI ESTATE, 209, AJC BOSE ROAD,, CITY - KOLKATA, DISTRICT - KOLKATA","Kolkata","West Bengal","700017","",""
"BHANDARI AUTOMOBILES LTD.","SUKALP BUILDING, 207 SARAT BOSE ROAD","Kolkata","West Bengal","700029","033-24632123","bapl@cal.vsnl.net.in"
"LEXUS MOTORS LTD.","QUILA MORE,, DIAMOND HARBOUR ROAD,NEAR NAGENDRA BAZAR,","Kolkata","West Bengal","743331","9732927724",""
"LEXUS MOTORS LTD.","2, KULPI ROAD, NEAR SHIVALIK PITH","Kolkata","West Bengal","700145","9333781956",""
"FRENCH MOTOR CAR CO. LTD.","234/3A, A. J. C. BOSE ROAD","Kolkata","West Bengal","700020","9830030283","fmcho@ricmail.com"
"BHANDARI AUTOMOBILES LTD.","1154A, B T ROAD, MOUZA SUKHCHAR,, P S KHADAH, KOLKATA","Kolkata","West Bengal","700115","033-64522208","bmpl.accounts@gmail.com"
"LEXUS MOTORS LTD.","NETAJI SUBHSH ROAD,, MARK-DHARAMPORE (NR.KHADINAMORE)","Akna","West Bengal","712101","9007536698","mpaul@lexusmotors.in"
"NORTH BENGAL AUTO DEALER LLP","NEAR RIDHI SIDHI PETROL PUMP,, COOCHBEHAR ALIPURDUAR ROAD,","Alipurduar","West Bengal","736123","9800003405","pawankr.goyal@rediffmail.com"
"LEXUS MOTORS LTD.","JYOTKALYAN, AMITA,, NEAR JYOTKALYAN HIGH SCHOOL,","Amragari","West Bengal","711401","7001535209","dsmscvc@lexusmotors.in"
"GATI MOTORS PVT LTD","DVC MORE, NEAR BLACK MAGIC RESTAURANT,, PASCHIM BURDWAN","Asansol","West Bengal","713321","7872501061","gmpl2008@gmail.com"
"BHANDARI AUTOMOBILES LTD.","MOUZA-BAGNAN, J L NO. 60, KHATINA NO. 2599,, L N DAG NO. 349, R S DAG NO.336. BAGNAN, HOWRAH DISTRICT","Bagnan","West Bengal","711303","9833091654","sanjay@bhandariautomobile.com"
"DURGA AUTOMART-1002500","RAGHUNATHPUR, BELTOLA PARK,, NEAR B M HIGH SCHOOL","Balurghat","West Bengal","733103","9734962558","bldg.durgaauto@gmail.com"
"R H AUTOMOBILES PVT LTD","PURULIA-BARALAR MAIN ROAD,, MUNSIF DANGA,","Bankura","West Bengal","723133","9748761594","suranjan@rgautomobiles.com"
"BHANDARI AUTOMOBILES LTD.","DURGAPUR BYEPASS,, LAL BAZAR , BANKURA","Bankura","West Bengal","722101","9830031655","ritesh@bhandariautomobile.com"
"R H AUTOMOBILES PVT LTD","PLOT/BLDG NO.-906, MOUZA : BIKNA,, DURGAPUR BANKURA ROAD,H. P. PETROL PUMP,","Bankura","West Bengal","722155","9748761594","vinay@rhautomobiles.com"
"R H AUTOMOBILES PVT LTD","PLOT NO 461, JL 193, MOUZA, KANDNASOLE, KHATRA, BANKURA, ADJACENT SIMLAPAL ROAD, KHATRA SIMLAPAL ROAD,","Bankura","West Bengal","722140","9163361270","vinay@rhautomobiles.com"
"FRENCH MOTOR CAR CO. LTD.","PLOT NO 34, KIRSHNANAGR ROAD,, NR, LALI CINEMA, BARASAT,","Barasat","West Bengal","722102","9163323261","suprodityadas@yahoo.com"
"BHANDARI AUTOMOBILES LTD.","G T ROAD., BHANGA KUTHI NR STAR CINEMA","Barddhaman","West Bengal","713101","9830031655","bapl.bdn@rediffmail.com"
"GATI MOTORS PVT LTD","PLOT NO. 462 - 465, FAGUPUR,, G.T. ROAD, NH 2","Barddhaman","West Bengal","713101","07872501159","ppbanerjee1@gmail.com"
"FRENCH MOTOR CAR CO. LTD.","G .T. ROAD., ASANSOL (EAST), USHAGRAM","Bardhaman","West Bengal","713303","","fmcho@ricmail.com"
"GATI MOTORS PVT LTD","NATIONAL HIGHWAY,PANCH GHARA MORE,, NEAR WEST BENGAL FIRE BRIGADE DISTT-BURDWAN","Bardhaman","West Bengal","713130","9832909387",""
"LEXUS MOTORS LTD.","PLOT NO. 277/4, B T ROAD, BESIDES PETROL PUMP, BARAHNAGAR, 24 PARAGANAS (N)","Barnagaria","West Bengal","","9830161874","mpaul@lexusmotors.in"
"BHANDARI AUTOMOBILES LTD.","J L NO. 35, DAG NO. 426, KHATIAN NO. 762 & 763,, OPP. MODERN CLUB, MOUZA : KHASMALLICK, BARUIPUR,","Baruipur","West Bengal","700144","033-24379893","hiranmoy.dutta@bhandariautomobile.com"
"LEXUS MOTORS LTD.","2, MAIN ROAD, MAITRA BAGAN,, BASIRIAT","Basirhat","West Bengal","","9831238712",""
"BHANDARI AUTOMOBILES LTD.","280, G T ROAD,, NEAR MILAN CINEMA, CHINSURAH","Benabharui","West Bengal","712104","8336932290","indrajitchinsurah.ccp@bhandariautomobiles.com"
"VINAYAK AUTOTRADE PVT  LTD -1000791","PS: KHARGRAM,, KHORSA,KANDI,","Berhampore","West Bengal","742137","9903866999","amit.bajoria@gmail.com"
"VINAYAK AUTO TRADE PVT LTD","MOUZA FETEPUR, NEAR RELIANCE PETROL PUMP,, N H 34, PO - TIKIAPARA, BRHAMPORE, MURSHIDABAD","Berhampore","West Bengal","742187","9903866999","amit@vinayakauto.com"
"BHANDARI AUTOMOBILES LTD.","SIKADERPALLY,, NEAR PRIMARY SCHOOL, BONGAON","Bongaon","West Bengal","743235","",""
"LEXUS MOTORS LTD.","523/1, M G ROAD,, OPP BUDGE BUDGE PUBLIC LIBRARY,","Budge Budge","West Bengal","700137","7980225191","dsm.scv@lexusmotors.in"
"VINAYAK AUTOTRADE PVT  LTD -1000791","BANAGRAM ROAD, NEAR CHAKDAH CHOWMATHA","Chakdaha","West Bengal","","9903866999","amit.bajoria@gmail.com"
"PARAJ MOTORS PVT LTD","NH 60, NEAR NUNDY PETROL PUMP,, CITY - C K ROAD, DISTRICT - WEST MIDNAPUR","Chandrakona","West Bengal","721253","8373088442","tapas@parrajmotor.com"
"PARAJ MOTORS PVT LTD","HOLDING NO.512, AT: PADMAPAKURIA, KHARGPUR BYPASS, PO & PS: CONTAI, PURBA MIDNAPUR","Contai","West Bengal","721401","8001000829","parajmotors@gmail.com"
"FRENCH MOTOR CAR CO. LTD.","LANE 4, SWARUP NAGAR,, DANKUNI POLICE STATION,","Dankuni","West Bengal","712311","9830276968","s.patodia@frenchmotor.in"
"BHANDARI AUTOMOBILES LTD.","DIAMOND HARBOUR - KAKDWIP ROAD,, 117 N.H., IBP PETROL PUMP","Diamond Harbour","West Bengal","743331","98736330844","bapl@cal.vsnl.net.in"
"GATI MOTORS PVT LTD","254 BHIRINGI NACHAN ROAD,, DURGAPUR, BURDWAN","Durgapur","West Bengal","713213","9800074039","gati2008@rediffmail.com"
"DURGA AUTOMART-1002500","SUBHASHPALLY,, OPP OF SANDHYA NURSING HOME","Gangarampur","West Bengal","733124","9614173143","durgaautomart@gmail.com"
"PARAJ MOTORS PVT LTD","NH- 116, NEAR KARUNAMOYEE NURSING HOME,, KUSAPATA, GHATAL","Ghatal","West Bengal","721212","8373088442","sujoydoloi2@gmail.com"
"BHANDARI AUTOMOBILES LTD.","PRATAP NAGAR, HABRA BASIRHAT ROAD,, NEAR CHONGDA MORE,","Habra","West Bengal","743263","/335079944","samaddarrahul91@gmail.com"
"LEXUS MOTORS LTD.","PASCHIM HARIPUR,, NR. KALIPUR, PO ARAMBAG,","Hooghly","West Bengal","712601","9830161874","manas.paul@lexusmotors.in"
"BHANDARI AUTOMOBILES LTD.","SULTANPUR, SOUTH RASULPUR,, NEAR MAYAPUR BUS STAND, ARAMBAG","Hooghly","West Bengal","712413","9674467000/033 66221113","siddharth@bhandariautomobile.com"
"LEXUS MOTORS LTD.","WARD NO 7 , VILLAGE & PO BANITABLA ,, NEAR ULUBERIA CHECK POST , NATIONAL HIGHWAY- 6 ,","Howrah","West Bengal","711316","22809460","bkagarwal@lexusmotors.in"
"BHANDARI AUTOMOBILES LTD.","NEAR ALAMPUR BUS STAND, NH 6, MOUZA - ARGORI , J L NO. 27,, PO:- RANIHATI, PS:- SANKRAIL,HOWRAH","Howrah","West Bengal","711302","033-24654474","ritesh@bhandariautomobile.com"
"LEXUS MOTORS LTD.","DAG NO 3343-44,3352-54,, N H 6,CHAMRAIL,LILUAH,HOWRAH","Howrah","West Bengal","711114","9830038471/033-40151108","mrai.chamrail@lexusmotors.in"
"DURGA AUTOMART-1002500","COLLEGE MORE,, OPP. HOTEL HIGHWAY QUEEN, UTTAR DINAJPUR","Islampur","West Bengal","733202","7477790101","durgaautomart@gmail.com"
"OSL AUTOMOTIVES PVT LTD","M G ROAD,, BIRPARA TEA GARDEN,","Jalpaiguri","West Bengal","735221","9800003412","hr@oslauto.in"
"OSL AUTOMOTIVES PVT LTD","BESIDE HIMALAYA HOTEL, BHAGAT PUR, SISU BARI,, GOPAL PUR TEA ESTATE, MADARIHAT, BIRPARA,","Jalpaiguri","West Bengal","","9800003403","oslauto.sales@gmail.com"
"OSL AUTOMOTIVES PVT LTD","JL 1354,  OPP IOCL PETROL PUMP,, VILLAGE - PURBA, CHAKCHAKA, POST:- BAROBISHA, KUMARGARM","Jalpaiguri","West Bengal","736207","9800003403/9800003400",""
"OSL AUTOMOTIVES PVT LTD","UKIL PARA,NEAR IDBI BANK, PO & PS JALPAIGURI,JALPAIGURI","Jalpaiguri","West Bengal","735101","9800003403","oslauto.sales@gmail.com"
"PARAJ MOTORS PVT LTD","COLLEGE ROADS, MADHUBON MORE, JHARGRAM","Jhargram","West Bengal","721507","7407077866","samidh@parrajmotor.com"
"GATI MOTORS PVT LTD","S.T.K.K. ROAD,, KALINAGAR PARA,","Kalna","West Bengal","713409","7872503111","gati2008@rediffmail.com"
"VINAYAK AUTOTRADE PVT  LTD -1000791","JATALAMORE, MAIN ROAD, NEAR KALI MANDIR, KARIMPUR","Karimpur","West Bengal","741152","9903866999","amit.bajoria@gmail.com"
"BHANDARI AUTOMOBILES LTD.","BHANDARI BUILDING, RUPNARAYANPUR, NH-6","Kharagpur","West Bengal","721301","03222-656935","sanjay@bhandariautomobile.com"
"OSL AUTOMOTIVES PVT LTD","WARD NO 1, KALWER PATTI ROAD,, KALWER PATTI MOR, MATHABANGA,","Koch Bihar","West Bengal","736146","","oslauto.sales@gamil.com"
"OSL AUTOMOTIVES PVT LTD","PLOT NO. 167, 168 & 202, JHINAY DANGA, NH-31, ASSAM ROAD","Koch Bihar","West Bengal","736159","9800003418","oslauto@rediffmail.com"
"R H AUTOMOBILES PVT LTD","BISHNUPUR ARAMBAG ROAD,, OPP KOTULPUR GRAMIN HOSPITAL,","Kotulpur","West Bengal","722141","9163361260","hr.admin@rhautomobiles.com"
"VINAYAK AUTOTRADE PVT  LTD -1000791","NH 34, MEETA BAZAR,, PLASSEY, NADIA,","Krishnanagar","West Bengal","741156","8697731606","amit.bajoria@gmail.com"
"VINAYAK AUTOTRADE PVT  LTD -1000791","PLOT NO: 202, MOUZA SENPUR, TOUZI NO:7, NH-34, NEAR FCI GODOWN","Krishnanagar","West Bengal","741102","97332234900","amit@vinayakauto.com"
"BHANDARI AUTOMOBILES LTD.","GOPALPUR,, B. B. TRUNK ROAD, P.O. MAHESHTALA","Maheshtala","West Bengal","","9674467000/033 66221113","siddharth@bhandariautomobile.com"
"OSL AUTOMOTIVES PVT LTD","HOLDING NO. 2/56, WARD NO. 3,, CALTEX MORE, MALBAZAR","Mal","West Bengal","735221","8016000919","siliguri@oslauto.in"
"DURGA AUTOMART-1002500","MOUZA - RASILADAHA, JL NO.- 107,DAG NO. 20,21,22  KHATIAN NO.1592, NH-34, NALDUBI, MANGALBARI,","Malda","West Bengal","732142","9434053557","durgaautomart@gmailc.om"
"VIKRAMSHILA AUTOMOBILES PVT LTD","KATORIA ROAD,, NEAR MAHENDRA HOTEL,","Medinipur","West Bengal","721201","",""
"PARAJ MOTORS PVT LTD","PO MATKATPUR NH 60, NU","Medinipur","West Bengal","721305","9933004430","ameet_tulsian@yahoo.com"
"VINAYAK AUTOTRADE PVT  LTD -1000791","MANGALJIAN, NH-34,, PS:RAGHUNATHGUNJ,","Murshidabad","West Bengal","742229","9903866999","amit.bajoria@gmail.com"
"LEXUS MOTORS LTD.","RAJENDRAPUR, OPP BORA SPORTING CLUB,, NAIHATI","Naihati","West Bengal","743166","9230556347","dsmscvc@lexusmotors.in"
"BHANDARI AUTOMOBILES LTD.","G.T.ROAD, GOHAT MORE,, PANDUA, HOOGHLY","Pandua","West Bengal","712149","9836330844","bapl@cal.vsnl.net.in"
"R H AUTOMOBILES PVT LTD","NH 32 (RANCHI ROAD)NH 32 (RANCHI RO, LAGDA RANCHI ROAD, CITY - PURULIA,","Puruliya","West Bengal","723149","9748666555","vinay.bajoria@gmail.com"
"DURGA AUTOMART-1002500","WARD NO. 2, BALURGHAT ROAD,, SUDARSHANPUR, NEAR SILIGURI MORE,","Raiganj","West Bengal","733134","7477790129","durgaautomart@gmail.com"
"BHANDARI AUTOMOBILES LTD.","MOUZA KUTUBPUR, J L NO 51, - P S RAMPURHAT,, NEAR SAKKH RICE MILL, MALLARPUR","Rampurhat","West Bengal","731224","9732012561","tapan@bhandariautomobiles.com"
"GATI MOTORS PVT LTD","NEAR MANSUBA MORE, N H - 60,, P O & P S RAMPURHAT,","Rampurhat","West Bengal","731224","7602087399","gmpl2008@gmail.com"
"BHANDARI AUTOMOBILES LTD.","PLOT NO 520, JL-22,, NR. PETROL PUMP, MANGALPUR,RANIGUNJ","Raniganj","West Bengal","713347","9830096306","sanjay@bhandariautomobile.com"
"FRENCH MOTOR CAR CO. LTD.","KATYAN N0.1721, N.H. 6, P O VILLAGE KANDUAH,, RANIHATI, VIA ANDUL MOURI","Sankrail","West Bengal","711302","9830263193","mkdugar@frenchmotorcar.in"
"OSL AUTOMOTIVES PVT LTD","PCM BUS TERMINUS, SEVOKE ROAD","Siliguri","West Bengal","734008","0353-2544983","oslauto@rediffmail.com"
"LEXUS MOTORS LTD.","GHANSHYAMPUR MORE, DURGAPUR EXPRESS HIGHWAY,, P.O. PALTAGARH, GHANSHYAMPUR, HOOGHLY","Singur","West Bengal","712409","9830038471/0312-268993","mrai.chamrail@lexusmotors.in"
"BHANDARI AUTOMOBILES LTD.","1A,SATISCHANDRA GHOSH LANE,, SHRIRAMPUR.","Srirampur","West Bengal","712203","033-55695157","baplauto@cal2.vanl.net.in"
"GATI MOTORS PVT LTD","BHURKUNA, SURI","Suri","West Bengal","731102","8016084523","gmpl2008@gmail.com"
"PARAJ MOTORS PVT LTD","PLOT NO. 415, MECHEDA HALDIA ROAD, BARPADUMBASAN, P O TAMLUK ,PURBA MEDINIPUR","Tamluk","West Bengal","721636","7872100315","parrajmotors@gmail.com"
"BHANDARI AUTOMOBILES LTD.","VILLAGE BELGRAM, P O - SINGTI SHIBPUR,, PS -UDAYANARANPUR, NEAR LIC OFFICE, BELGRAM","Udaynarayanpur","West Bengal","711226","9674316159","bapan.saha@bhandariautomobile.com"
"BHANDARI AUTOMOBILES LTD.","UDAYNARAYANPUR- AMTA ROAD, NR. LIC OFFICE,, UDAYNARAYANPUR, HOWRAH","Udaynarayanpur","West Bengal","711226","9836330844","bapl@cal.vsnl.net.in"
