Dealer Name,Address,City,State,Contact,Email
Aryodaya Honda,"PLOT NO-34/1, 35/1, CITY SURVEY NO-25, KACHIMET,",Nagpur,Maharashtra,"919766522223, 919890510613","gmsales@aryodayahonda.com,gmservice@aryodayahonda.com"
ERAI HONDA,"Erai Honda, Survey Number 59B, Besides MDR Mall, Near ND Hotel, Bapatnagar, Nagpur Road, Chandrapur, Maharashtra 442401",Chandrapur,Maharashtra,"7447411117, 9112236881","sales@eraihonda.com,service@eraihonda.com"
Sky Honda,"Sky Tower, NH-547, Nagpur Road, chhindwara (M.P) 480001",Chhindwara,Madhya Pradesh,"08226006880, 08226006875","sales@skyhonda.com, service@skyhonda.com"
Girnar Honda,"18/5, RAHATGAON, NEXT TO SAMARTH RAMDAS SWAMI MANDIR, NAGPUR ROAD",Amravati,Maharashtra,"07212970213, 7767816171 07212970313, 7767816181",sales@girnarhonda.com
Girnar Honda,"Survey No. 60/4, Next to Bharatiya Compund Mouza: Ridhora, Balapur, NH6, Akola Maharashtra 444003",Akola,Maharashtra,"7767816172, 9373411777","sales@girnarhonda.com,service@girnarhonda.com"
Shubh Honda,"Beside Mansukhal Petrol Pump,Rajnandgaon,Chattisgarh-491441",Rajnandgaon,Chhattisgarh,7024152827,salesmanager.bhilai@shubhhonda.com
Pride Honda,"Sree Krishna Automotives Hyd.Pvt Ltd. Sy.No- 743,744, Bhardipur Village Dichpally Mandal",Nizamabad,Telangana,"9553808000, 9553983332",bmnzb@pridehonda.in
Kaizen Honda,"Shops No.1 to 4 G.R. Tapdiya Complex, Hingoli Naka Road, Gandhi Nagar Maharana Pratap Chowk, Nanded.431602 . Maharashtra.",Nanded,Maharashtra,"8669993358, 7720090653, 8669993360 , 7720090650","carsalesnanded@kaizenhonda.com, carservicenanded@kaizenhonda.com"
Shubh Honda,"Durg-Rajnandgaon Bye Pass Road, Near Toll Plaza, Bhilai, Dist. - Durg, Chattisgarh",Bhilai,Chhattisgarh,,
Green Honda,"Sy.No.783,784,785&787 Rampur, Karimnagar, Telangana State, Pin- 505001",Karimnagar,Telangana,"9100032923, 7799019424",sm_karimnagar@greenhonda.in
Shubh Honda,"RING ROAD NO. 1,",Raipur,Chhattisgarh,7714072072,shubhhonda@rediffmail.com
Splendid Honda,"Katangi Bypass Crossing, ",Jabalpur,Madhya Pradesh,"07614056121, 07614056122, 9039022011, 9039022036",info@splendidhonda.com
Geekay Honda,"Geekay House, Telibandha, G. E. Road, Raipur, Chhattishgarh - 492001",Raipur,Chhattisgarh,"18002702929, 07716678855, 9575053000, 07716678833, 9575303000","sales.raipur@geekayhonda.com,"
Green Honda,"Plot No:-38, Srinivas Colony, Opp:Govt Polytechnic College, Warangal-506 002",Warangal,Telangana,"7799701912, 7799979956, 7799914029, 8886999113, 7799979960, 08702557077","sm_warangal@greenhonda.in, teamleader.warangal@gmail.com, crm_warangal@greenhona.in, servicemanager_greenhonda.in, crm.service_warangal@greenhonda.in"
SMARTCITY HONDA,"NH12, HOSHANGABAD ROAD, BHOPAL, Madhya Pradesh",Bhopal,Madhya Pradesh,"07554069999, 7375004970","sales@smartcityhonda.com, service@smartcityhonda.com"
Abhikaran Honda,"A3, A4, JANKI NAGAR, KOLAR MAIN ROAD, CHUNA BHATTI, BHOPAL -462042",Bhopal,Madhya Pradesh,8719090303,kolar@abhikaranhonda.com
Abhikaran Honda,"PLOT NO 7&8,SECTOR-E,J.K. ROAD,GOVINDPURA INDUSTRIAL AREA.",Bhopal,Madhya Pradesh,"9893060888, 07554265644, 07556455950",abhikaran.bhopal@gmail.com 
Aditya Honda,"Plot No. 26/1/2A, Ajanta Square, Ajanta Road, Jalgaon. 425 001 (Showroom)",Jalgaon,Maharashtra,2572210508,info@adityahonda.com
Metro Honda,"Showroom & Workshop- Sy. No. -33 Medchal Highway NH-7, Bowenpally, Near Checkpost, RR District,Secunderabad",Hyderabad,Telangana,"04027952021, 04027952029, 919581456001, 919581456747",info@metrohonda.in
Sundaram Honda,"67, M.G. ROAD, RANIGUNJ<br>",Secunderabad,Telangana,"04027525222, 04027525223, 04027525236, 04027525237, 04027525238, 9849027816","sechonda@sundarammotors.com,sm_sechonda@sundarammotors.com "
Pride Honda,"1S -Primise No. - 5-2/222/IPA, Sy No. - 222, Madinaguda, Serilingampally Mandal, Hyderabad - 500050",Khanna,Punjab,,
Pride Honda,"#8-2-699/2, Road No. - 12, Banjara Hills, Hyderabad - 500034",Hyderabad,Telangana,"9505201007, 9505021315 ","bmbh12@pridehonda.in, salesbh@pridehonda.in"
Green Honda,"16-2-741/C/7/2, Moosarambagh X Road, Opp SBH, Malakpet Near Tv Tower, Hyderabad, PinCode-500036.",Hyderabad,Telangana,7799991163,sm_Malakpet@greenhonda.in
Sundaram Honda,"1S - West World, Municipal No - 8-1-301, 302 & 303, Shaikpet, Hyderabad, Telangana",Hyderabad,Telangana,,
Deccan Honda,"MBC TOWERS, MAHAVIR CHOWK, ADALAT ROAD, AURANGABAD- 431001",Aurangabad,Maharashtra,"9373539666, 9373344303","sqmsalesabad@deccanhonda.com, crmaurangabad@deccanhonda.com"
Shubh Honda,"NH 200,  Hirri Mines,  (Chhattisgarh)",Bilaspur,Chhattisgarh,7752217943,"salesbilaspur@shubhhonda.com,servicebilaspur@shubhhonda.com"
Splendid Honda,"Besides Central Hero, Golden Gym Building, Makronia, Sagar 470004",Makronia,Madhya Pradesh,9109969822,sales.sagar@splendidhonda.com
Kaizen Honda,"Plot No:P-49, MIDC Industrial Area, Barshi Road, Near Ekmat Office, Latur 413512",Latur,Maharashtra,"02382222244, 02382220130",carsaleslatur@kaizenhonda.com
Deccan Honda,"GUT NO.143, VALLANDGAON NEAR WALUJ, AURANGABAD.431136",Aurangabad,Maharashtra,"2402321144, 2402321155, 2402321166","sqmsalesabad@deccanhonda.com,crmaurangabad@deccanhonda.com"
Green Honda,"2-4-135, Snehapuri Colony, Opp IOC Petrol Bunk, Nagole, Hyderabad – 500035",Hyderabad,Telangana,4024033340,service@greenhonda.in
Pride Honda,"PLOT NO.9, SECTOR-1,<br>HUDA TECHNO ENCLAVE,BESIDE RATNADEEP SUPER MARKET",Hyderabad,Telangana,"9505199966, 9505299966","salesatpridehonda@gmail.com,headsales@pridehonda.com,showroom@pridehonda.com"
Geekay Honda,"m/s G.K. Cars pvt ltd. Khasra No 111/1, kisan rice mill cmpus, jagdalpur 494001 (C.G.)",Jagdalpur,Chhattisgarh,,
Star Honda,"STAR AUTOMOBILES LTD , KAMLA NAGAR , BURHAR ROAD  , SAHDOL, PIN CODE 484002",Shahdol,Madhya Pradesh,"8889998243, 8889998243",starhondasahdol@gmail.com
AKSHAY HONDA,"P-21, Additional Dhule Industrial Area Malegaon Road, Avdhan Dhule - 424006",Dhule,Maharashtra,"07770039039, 07770049049, 02562281991",
Abhikaran Honda,"409-416 SANT NAGAR, (PART-I),SCHEME NO. 114,A.B. ROAD",Indore,Madhya Pradesh,"9893041888, 07314002200",abhikaranhonda@rediffmail.com
Landmark Honda,"UG-I, A-D, Onam Plaza, 18 A.B. Road, Old Palasia, Indore - 452001.",Indore,Madhya Pradesh,"07316628300, 7225060821",sales.indore@landmarkindia.net
Green Honda,"PLOT NO 11, NEAR SRI SRI CENTER, OPP PETROL BUNK, ROTARY NAGAR,BYPASS ROAD, KHAMMAM, TELANGANA - 507 002",Khammam,Telangana,"7680888913, 7680888914, 9100034103, 7331151553",branchhead_khammam@greenhonda.co.in
Pride Honda,"SY no 107, Marriguda Village, Opp Manasa Vihar, Hyderabad Road, Nalgonda 508001.",Nalgonda,Telangana,"9848532368, 9553808000",sm.nlg@pridehonda.com
Abhikaran Honda,"Abhikaran Honda,8,Ram Nagar,Ward No.36,Main A.B.Road,Dewas   (M.P.)  -455001",Dewas,Madhya Pradesh,7314002200,smsalesindore@abhikaranhonda.com
Shubh Honda,"Plot No. 99, Near Indian Coffee House, Transport Nagar, Korba, Pin No. 495677 (C.G.) ",Korba,Chhattisgarh,,
Star Honda,"Virat Nagar, Pateri, Panna Road, Satna",Satna,Madhya Pradesh,"07672230553, 07672230554, 07672230550",
Bharat Honda,"D1,D2, Kapnnor Industrial Area,1st Stage, Gate No. 1, Ring Road, Gulbarga Karnataka",Gulbarga,Karnataka,84722590555,
Green Honda,"M/s kapil motors pvt ltd municipal no 5-84/3,6/a & 6b, 155/1 & 155/2, yenugonda, mahabubnagar, telangana- 509001",Mahabubnagar,Telangana,8897588155,greenhonda.mahabubnagar@gmail.com
Greenway Honda,"C/O: Perfect Tyres, Kinetic Chowk , Pune Noad , Ahmednagar -414001.",Ahmednagar,Maharashtra,8530020555,"salesmanager@cornerstonecars.in, servicemanager@cornerstonecars.in"
AVANTIKA HONDA,"SURVEY NO 17/1/2/1 VILL CHANDESRI,OPP AMUL FACTORY,UJJAIN-DEWAS STATE HIGHWAY.UJJAIN",Ujjain,Madhya Pradesh,"7400581000, 7400582000, 7400086000, 7400084000","sales@avantikahonda.com,service@avantikahonda.com"
Star Honda,"STAR HONDA , (STAR AUTOMOBILES LTD) , PADRA ,NH - 7 , STANA ROAD ,  REWA  ,(M.P.), PIN CODE -  486001",Rewa,Madhya Pradesh,8889998236,starhondarewa@gmail.com
Kaizen Honda,SY No. 73B/8/6 Opposite Dhoodh Pandhari Pune Solapur Highway,Solapur,Maharashtra,"7720044000, 7720041206, 7720041205, 7722033201","carsales@kaizenhonda.com,carservice@kaizenhonda.com"
Central Honda,"D-2/9, Bareipalli Industrial Estate, Ainthapalli, Sambalpur - 768006, Odisha",Sambalpur,Orissa,"06636550120, 06636550121",salessbp@centralhonda.in
Rushabh Honda,"294,MUMBAI -AGRA ROAD , PATHARDI PHATA , NASHIK -422010- MAHARASHTRA",Nashik,Maharashtra,"02536643333, 02536643336","salesmgr@rushabhhonda.com, service@rushabhhonda.com"
Crystal Honda,"Kothari Auto Link Pvt Ltd, S.NO. 1325/1, Pune- Nagar Highway,Wagholi, Opp sai Maruti Showroom,Tal Haveli Dist Pune- 412207",Pune,Maharashtra,9158882245,"Salesmanager.wagholi@crystalhonda.com,servicemanager.wagholi@crystalhonda.com,crm.wagholi@crystalhonda.com"
Crystal Honda,"workshop No. 4 & 5,Giga Space- Vimannagar,Pune ",Pune,Maharashtra,020 67254000,sales@crystalhonda.com
Castle Honda,"741, DIGARA, KANPUR ROAD, JHANSI - 284128",Jhansi,Uttar Pradesh,"7052801555, 7052802555","sales.castlehonda@gmail.com,service.castlehondajhansi@gmail.com"
Deccan Honda,"SR.No. 1721, Near Bharat Petrol Pump Pune, Nasik Highway, Chakan, Pune - 410501.",Pune,Maharashtra,"2040772348, 2040772300","saleschakan@deccanhonda.com, servicepcmc@deccanhonda.com"
Premium Honda,"Plot No. - 322/b, Opposite TGV Petrol Pump,NH - 44, Santos Nager, Kurnool Pin - 518005",Kurnool,Andhra Pradesh,"8518257589, 8518257588",Sales_knl@PremiumHonda.com
Deccan Honda,"Survey No. 28, Shop No.42/43,<br>Connaught Place Building, <br>Bund Garden Road, ",Pune,Maharashtra,"02041043126, 02041043100, 02041043103",salesleads@deccanhonda.com
Garve Honda,"Survey No 15A, Final Plot no 30, Bhale Estate Appartment, CTS no 14E, Mauje, Shivaji Nagar Pune 411003",Pune,Maharashtra,"9545512300, 8956000419","sales@garvehonda.com, service@garvehonda.com"
Elite Honda,"NH-16 ROAD, NEAR SPINNING MILL, LALACHERUVU		",Rajahmundry,Andhra Pradesh,"08832488555, 08832488666, 08832488777","sales@elitehonda.co.in, service@elitehonda.co.in"
AVANTIKA HONDA,"M/s Nahata Motors pvt ltd. 31/4, Jaora Road, Near Pehelwan Baba Ki Dargah, Ratlam – 457001 (m.p.)",Ratlam,Madhya Pradesh,"7400583000, 7400587000",salesratlam@avantikahonda.com
Shubh Honda,"M/s karan City Automobiles pvt. Ltd. Adjoining Cement Pipe Factory Dhanshree & Company, Vill. - Bhagwanpur, Manedragarh Road, Ambikapur, Dist. - Surguja, Chhatisgarh – 497001",Ambikapur,Chhattisgarh,,
Deccan Honda,"15,  PUNE SATARA ROAD, <br>OPP. SHANKAR MAHARAJ  MATH, DHANKAWADI",Pune,Maharashtra,"02024371400, 02024371500, 02024371600",salesleads@deccanhonda.com
Deccan Honda,"(workshop) Next to Finolex Cables, Opposite PCMC Building  off, Old Mumbai,",Pune,Maharashtra,"02027441000, 02040772355",salesleads@deccanhonda.com
Crystal Honda,"S. Number 268,  Mantri Alpine,Katraj Dehu Road Bypass,Near Chandni Chowk",Pune,Maharashtra,"02067908222, 02067908200, 02067908000",sales@crystalhonda.com
Sundaram Honda,"11. MAHATMA GANDHI ROAD, LABBIPET",Vijaywada,Andhra Pradesh,"08662494282, 08662494283, 08662494284, 08662494285, 08666531425","vijhonda@sundarammotors.com,vijhondaser@sundrammotors.com,vijhondabh@sundarammotors.com"
Trident Honda,"Sarai Inayat,  Allahabad-Varanasi G.T Road - NH2",Allahabad,Uttar Pradesh,"9628370021, 9628370025, 9628370001, 9628373443","sales@tridenthonda.in,service@tridenthonda.in"
Express Honda,"Plot No – 556, Auto Nagar, Guntur – Andhra Pradesh - 522001",Guntur,Andhra Pradesh,"08632323452, 7675981222, 7680909743","smgnt@expresshonda.com, servicehead@expresshonda.com"
Radiant Honda,"Gat No - 168, Plot No - 2, Bhigwan Road, Baramati, Maharashtra - 413102",Baramati,Maharashtra,"02112244777, 9623111144",sales@radianthonda.com
Autokam Honda,"G - 15/16 I.PI.A, AUTOMOBILE ZONE,NEAR DHAKNIA STATION,",Kota,Rajasthan,"8955513757, 8955144171, 9001056030","saleskota@autokamhonda.com, servicekota@autokamhonda.com"
Express Honda,"S.N NO : 399, Throvagunta Center NH -16 , Ongole Mandal,Prakasam DT, Andhra Pradesh - 523262",Prakasam,Andhra Pradesh,"7680909731, 8523070089","smong@expresshonda.com, serviceong@expresshona.in"
Sundaram Honda,"MACHAKONDA GARDENS, <br>NH-5, OPP. DISTRICT INDUSTRIES CENTRE,<br>VISHAKAPATNAM",Visakhapatnam(vizag),Andhra Pradesh,"08912558397, 08912550882","vizaghonda@sundarammotors.com,vizaghondaserv@sundarammotors.com,vizaghondabh@sundarammotors.com"
Sundaram Honda,"Sundaram Honda, RS .No 238, Mini bypass road , Vatluru Village, Eluru West godavari Dist, Andhra pradesh, 534007.",Eluru,Andhra Pradesh,"6302613232, 8688118257, 7702331555, 9440501587, 9704267788","honpartsmgr_elu@sundarammotors.com, honsalmgr_elu@sundarammotors.com, crm_vja@sundarammotors.com, honsermgr_elu@sundarammotors.com, crm_vij@sundarammotors.com"
Central Honda,"DR. CHALLA CHAMBERS, SECTOR 4, MVP COLONY, SUKATHOTA JUNCTION, BESIDE SWAGRUHA FOODS, VISAKHAPATNAM - 530017",Visakhapatnam,Andhra Pradesh,"08912521123, 08912781123, 7799962223",sales@centralhonda.co.in
Sumedha Honda,"ear Chirwai Naka, Shivpuri Link Road Gwalior 474009 (M.P.)",Gwalior,Madhya Pradesh,"07512439300, 07512439301, 07512439302",sales@sumedhahonda.com
Dream Honda,"Survey No – 14/1/1, Besides Reliance Petrol Pump, Athal, Silvassa – 396230",Silvassa,Gujarat,"02606452201, 02606452201, 9099911404, 9328866664, 9879100422","sales.silvassa@dreamhonda.in, service.silvassa@dreamhonda.in"
Regent Honda,"Alliance Heritage, Unit 4 Ground Floor At Kongaon, Near Reliance Petrol Pump, Kongaon, Maharashtra- 421311",Thane,Maharashtra,2522680000,fieldsales_kalyan@regenthonda.co.in
Dream Honda,"Ganga Complex, Opp- Empress Mall, At Post-Salvav,NH-8",Vapi,Gujarat,2602437211,salesmngrvapi.dreamhonda@gmail.com
Riverside Honda,"Plot no- F-3A,B, Debonair House Vishrambag",Sangli,Maharashtra,9922227699,riversidesangli@yahoo.com
Krishna Honda,"Plot no BL/8, Revenue Plot 494, Kalunga Industrial Estate,Beldhi, District, Rourkela, Sundergarh District, Odisha",Rourkela,Orissa,"7852941758, 07852941115",krishnahonda12@gmail.com
Hallmark Honda,"Plot NO.100,Panvel Industrial Co-op,Estate Limited,Opp. Panvel Flyover, Old Mumbai Pune Highway,Taluka-Panvel , Dist:-Raigad Pin 410206",Mumbai,Maharashtra,"02271205000, 7506791125, 7506791120","sales@hallmarkhonda.com,service@hallmarkhonda.com"
Hallmark Honda,"R D Ashar Compound,Main Road (Survey No. 412),Wagle Industrial Estate,Road No. 27",Thane,Maharashtra,"02225819300, 9004385090, 9004385096, 9004255000, 9004145000",salesmgr_thane@hallmarkhonda.com
Regent Honda,"Plot No 1, Mohan Mill Compound, Ghodbunder Road, Next to R- Mall, Thane West. Maharashtra-400607",Thane,Maharashtra,"02225974580, 02225841551",
Pushp Honda,"246-247 G.T. Road Chakeri, Near Chakeri Airport Kanpur (U.P.) 208008",Kanpur,Uttar Pradesh,7080406110,servicechakeri@pushphonda.com
Aspen Honda ,"Opp. LPG Pump, Dahod- Godhra Highway, Vavdi, Godhra - 389001",Godhra,Gujarat,9825050691,kuren.amin@aspenhonda.com
Hallmark Honda,"D 43/2, TTC INDUSTRIAL AREA, MIDC, SHIRAVANE (NEAR NERUL BRIDGE),MUMBAI - PUNE ROAD",Navi Mumbai,Maharashtra,2227675000,"sales@hallmarkhonda.com,service@hallmarkhonda.com"
Arya Honda,"99/100,  L.B.S Marg,  Near St. Xaviers High School (showroom & workshop)",Mumbai,Maharashtra,2267747777,"hondasales.bhandup@teamshaman.com,hondaservice.bhandup@teamshaman.com"
Central Honda,"M/s City Motors pvt ltd. Plot no 2899, pS- Nalconagar, PO- Kulad, NH – 55, Main Road, Angul 759145, Odisha",Angul,Orissa,,
Pushp Honda,"4B-3 ,SMART CAR LANE , <br>DADA NAGAR CO-OPERATIVE<br>INDUSTRIAL ESTATE<br>ALSO AT 9/2 ALLENGANJ .<br><br><br>ALSO AT <br>9/2 ALLENGANJ , <br>KANPUR",Kanpur,Uttar Pradesh,"917897554545, 919198605454","sales@pushphonda.com,akash@pushphonda.com"
Solitaire Honda,"Gala No G 8 Shalimar Morya Park Premises Co op Society Ltd B 2 CTS No 617, New Link Road,  Oshiwara Andheri West Mumbai 400053",Mumbai,Maharashtra,"02261516151, 02261777777","crm.andheri@solitairehonda.com, servicemanager.andheri@solitairehonda.com"
Solitaire Honda,"C/o Shakti Insulated Wires, Shakti Industrial & Commercial Business Centre, Dattapada road, Rajendra Nagar, ",Mumbai,Maharashtra,"02267385555, 02267385566, 02267385588, 02267385599",milind.shah@solitairehonda.com
Crystal Honda,S.No-15/18-B,Satara,Maharashtra,9158882206,nileshkalbhor88@yahoo.co.in
Hans Honda,"Sipah Chowraha,Azamgarh Road (OPP. Gahna Kothi),Jaunpur",Jaunpur,Uttar Pradesh,7704002651,bmjnp@hanshonda.com
Riverside Honda,"RS No. 52/14, 15, 16, 13<br>Bhumapan, No. ES 2<br>Mouje Uchagaon<br>Taluka Karveer (Opp. Shiroli Octroi Check Post)",Kolhapur,Maharashtra,2316634000,"rasikamotors@yahoo.com,sushant_rasikamotors@yahoo.com"
Elite Honda,"M/S Sri Dhanalakshmi Automobiles pvt ltd 5-271, Mahadevapatnam Cross, Undi Road, Peda Amiram Bhimavaram W-G.DT, AP pin – 534204",Bhimavaram,Andhra Pradesh,, 
Premium Honda,"P M Cars Pvt. Ltd. NH7, Rajiv Nagar Opp-ISKON Temple",Ananthapur,Andhra Pradesh,"9908147999, 9866801777","prasadmallu@yahoo.com, prasad@premiumhonda.com, salesmanager@premiumhonda.com, sales@premiumhonda.com"
Viva Honda,"Ground floor, Vikas Centre, S.V.Road, Near Milan Mall, Santacruz (West). Mumbai- 400054",Mumbai,Maharashtra,"02243777777, 7710040003","teamsales@vivahonda.in,teamservice@vivahonda.in"
Arya Honda,"Madhu Kunj,Sayani Road, Prabhadevi",Mumbai,Maharashtra,"24228686, 24228787","managerhondasales@teamshaman.com,manager.hondafort@teamshaman.com "
Hans Honda,"PAMA complex, DLW-Lahartara road",Varanasi,Uttar Pradesh,"917705800131, 917705800141",gmsales@hanshonda.com
Gopinathji Honda,"79, GIDC Makarpura, Near Vadsar Bridge, Vadodara, Gujarat - 390010",Vadodara,Gujarat,"7575002405, 7575002404",
Dream Honda,"Opp. TAN GIDC Road, Bardoli-Kadodara Highway Road, Bardoli - 394601",Bardoli,Gujarat,"9328866663, 9328866663","sales.bardoli@dreamhonda.in,service.bardoli@dreamhonda.in"
Gopinathji Honda,"GF- 57,58,59,60, Hexone Archade, Near Jayaben Mody Hospital, Valia Road, Ankleshwar, District. Bharuch",Ankleshwar,Gujarat,8758765656,salesankleshwar@gopinathjihonda.in
Araceli Honda,"Fortune Towers, 10 Rana Pratap Marg, Lucknow",Lucknow,Uttar Pradesh,9554166668,
Stallion Honda,"A-16, Indiranagar, Lucknow- 226016",Lucknow,Uttar Pradesh,8009890033,
Stallion Honda,"Village Anaura, After Indira Canal, Faizabad Road,",Lucknow,Uttar Pradesh,"05223291237, 05223290143, 05223291244, 8009777000, 8009090093, 8009090094, 8009090095","sales@stallionhonda.com, service@stallionhonda.com"
Pushp Honda,"Pukka Bagh,Infront of Bhatia Petrol Pump,Etawah - 206001",Etawah,Uttar Pradesh,7518100184,sales@pushphonda.com
Dream Honda,"NH - 8, Ganesh-Sisodara Road, Navsari, Gujarat - 396463",Navsari,Gujarat,,"sales.navsari@dreamhonda.in,service.navsari@dreamhonda.in"
Rajshree Honda,Jagarnath sarai near saidwara market rani ki sarai varanasi road azamgarh UP 276207,Azamgarh,Uttar Pradesh,"7311186364, 7311186350","sales@rajshreehonda.com, service@rajshreehonda.com"
Standard Honda,"56 Bithauli Khurd, Bakshi Ka Talab, NH 24, Sitapur Road Lucknow 226021",Lucknow,Uttar Pradesh,"9918023023, 9918024024, 9918026026, 9918029029",sales@standardhonda.com
Gopinathji Honda,"NH-8, Near Atithi Resort",Bharuch,Gujarat,9879618805,salesmanager@gopinathjihonda.in
Dream Honda,"Dream Honda,Jivanjyot Theatre Compound,Main Udhna Road,Surat",Surat,Gujarat,"09662526250, 02614060406, 02614060401",jivanjyothonda@gmail.com
Araceli Honda,"PLOT NO. - 362 Kha, HAZIPUR SINGHPUR,TAHSIL SAHAWAL, DISTT. AYODHYA - 224001",Faizabad,Uttar Pradesh," 9554166668, 05224069494, 7311100963","gmsales@aracelihonda.co.in, gmservice@aracelihonda.co.in"
Aspen Honda ,"Block no.501, Old N.H-8, Opp: GSFC main gate, Dashrath",Vadodara,Gujarat,"9825600700, 9099101000, 02652243991, 02652243992",aspenhonda@gmail.com
Dream Honda,"""Dream Honda, Ground Floor, Skyview Business Horizon, Survey No – 19/20, Block No – 21/B,  Surat – Kamrej Highway, A&P – Sarthana, Surat, Gujarat - 395006""",Surat,Gujarat,"02616116600, 9737566665",sales.varachha@dreamhonda.in
Aspen Honda ,"Sankalp Building,Old Padra Road,Opp.McDonalds",Vadodara,Gujarat,"9825600700, 9099101000, 02652358172",bishanyadav55@gmail.com
Landmark Honda,"Shop No. 4/5, Sapphire Business Hub, Opp. Green Arcase, Nr. Madhuvan Circle, Off L.P. SaVani Road, Adajan, Surat - 395009",Surat,Gujarat,7878773000,sales_surat@landmarkindia.net
Landmark Honda,"Signature,68/3, FP : 36,Near Iskon Mall,Dumas Road,Surat",Surat,Gujarat,2616713700,"lalit@landmarkindia.net,sales_surat@landmarkindia.net,sm_surat@landmarkindia.net"
Premium Honda,"DNO: 36/323-F1,OLD BYPASS CIRCLE,NEAR ADITYA KALYANA MANDAPAM, CHINNA CHOWK,KADAPA-516002- ANDHRA PRADESH",Kadapa,Andhra Pradesh,"9100102999, 9100772189","managersales@premiumhonda.com,worksmanager@premiumhonda.com"
Highway Honda,"C/B-14, CANTONMENT ROAD, CUTTACK-753001(Showroom).",Cuttack,Orissa,7873999977,cuttack.sales@highwayhonda.com
Lakeview Honda,"PLOT NO. 11, 12, 13, & 14, <br>OPPOSITE UNKAL LAKE, <br>UNKAL VILLAGE <br>",Hubli,Karnataka,"9731596555, 08362278837, 08366577647, 9731596205","suhasjavali@hotmail.com,sales@lakeviewhonda.com,service@lakeviewhonda.com"
Highway Honda,"PLOT NO: 377, NH-5, RUDRAPUR, PAHAL, BHUBANESWAR-752101 (Showroom). PLOT NO: 377, NH-5, RUDRAPUR, PAHAL, BHUBANESWAR-752101 (Workshop)",Bhubaneswar,Orissa,"06747112222, 7873999819, 7873999617","sales@highwayhonda.com,service@highwayhonda.com"
Highway Honda,"PLOT NO-457/1952/2545,Near CEB College , Patia, Bhubaneswar,Dist-Khordha ,Odisha,India,751024",Bhubaneswar,Orissa,"7873999425, 7873999601","patiasales@highwayhonda.com, service@highwayhonda.com"
Central Honda,"City Center Plot-A-5/1 Unit-9 Sachivalaya Marg,Bhuvaneswar-751022",Bhubaneswar,Orissa,"8599005858, 9583105555, 9078000333",sales@centralhonda.in
Highway Honda,"PLOT NO: 191, 204, 205 & 206, MAA GOURI COMPLEX, LEWIS ROAD, BHUBANESWAR-751014(Showroom).",Bhubaneswar,Orissa,7873999881,lewisroad@highwayhonda.com
Express Honda,"Rajesh Pamulapati, Sy. No. 83,  Kakutur Village, Venkatchalam Mandal,  Nellore,  Andhra Pradesh",Nellore,Andhra Pradesh,"08612383968, 08612383969, 7702366699","sales@expresshonda.com, service@expresshonda.com"
Alpha Honda,"M/s. GCD Motor Pvt Ltd, 17, Devrajya, Camp, Belagavi – 590001",Belagavi (belgaum),Karnataka,"08312406200, 08312406222",sales@alphahonda.com
Lotus Honda,"Plot No. 79-81, opp, Mahindra Showroom Ajmer Road Bhilwara ,311001 (Raj)ph..01482297581,,297582",Bhilwara,Rajasthan,"9116631761, 9116631762, 9116631770, 9116631768","gm@lotushonda.com,servicemanager@lotushonda.com"
Destination Honda,"Opp GMM,  Anand Sojitra Highway, Karamsad",Anand,Gujarat,"02692222424, 02692223434, 9825017714",destinationhonda@gmail.com
Autokam Honda,"E-93, MADRI, MEWAR INDUSTRIAL AREA, N.H.8",Udaipur,Rajasthan,"02942491641, 02946453145",Sales@autokamhonda.com
Heritage Honda,"OPP. SIKANDRA INDL. AREA, MATHURA ROAD, N.H.-2<br>",Agra,Uttar Pradesh,"8937095610, 8937095645 ","sales@heritagehonda.in,amitagarwal@heritagehonda.in"
Cartec Honda,"M/s cartec motors pvt ltd. Opp. AMCO Bank, Jawahar Chowk Cross Road, Maninagar, Ahmedabad – 380008",Ahmedabad,Gujarat,7573008910,sales2@cartechonda.com
Cartec Honda,"3, HITENDRANAGAR SAHKARI AUDHYOGIK VASAHAT LTD, OPP. DIAMOND PARK, NR NARODA RAILWAY CROSSING , NARODA, AHMEDABAD : 382340",Ahmedabad,Gujarat,"07940607080, 7573000700, 07940607070, 7573000707",sales@cartechonda.com
Emerald Honda,"YSL Avenue, Polytechnic Road,Opp.Ketav Petrol Pump",Ahmedabad,Gujarat,"40228000, 26309171, 26309181",sales@emeraldhonda.com
Emerald Honda,"6, Sind Model Society, Old Vadaj Ashram Road, Ahmedabad - 380013",Ahmedabad,Gujarat,,
Riverside Honda,"Plot No. A/34, Mirjole MIDC, Ratnagiri, 415639",Ratnagiri,Maharashtra,"9922947599, 9922946799","rtgsales@riversidehonda.in, rtgservice@riversidehonda.in"
Emerald Honda,"AT- PIPLODI, POST- HAJIPUR, N.H.8, HIMMATNAGAR-383001",Himmatnagar,Gujarat,"9714508884, 9714006574","sales.himmatnagar@emeraldhonda.com, service.himmatnagar@emeraldhonda.com"
Pinkcity Honda,"NEAR HPC PETROL PUMP, DEEG ROAD , BHARATPUR (RAJ.)",Bharatpur,Rajasthan,"7340021601, 7340021606","salesbharatpur@pinkcityhonda.com, servicebharatpur@pinkcityhonda.com"
Emerald Honda,"Plot No. 17/A,Sector 30,GTS Road",Gandhinagar,Gujarat,"07923249001, 07923249004, 07923249007","Sales_gandhinagar@emeraldhonda.com, sales1_gandhinagar@emeraldhonda.com,corporatesales@emeraldhonda.com"
Landmark Honda,"THALTEJ CROSS ROAD, <br>SARKHEJ-GANDHI NAGAR HIGHWAY  <br>",Ahmedabad,Gujarat,7966064545,"landmark@landmarkindia.net,sales_ahd@landmarkindia.net"
Heritage Honda,"Navada,  Mathura - Delhi Road, NH-2",Mathura,Uttar Pradesh,"8937095715, 8937095730","sales.mathura@heritagehonda.in, service.mathura@heritagehonda.in"
Victory Honda,"Plot No.56A ,PISKA MORE ,RATU ROAD, Ranchi - 834005, Jharkhand",Ranchi,Jharkand,"7781018105, 9297880136 ","sales@victoryhonda.co.in, service@victoryhonda.co.in"
Highway Honda,"PLOT NO:209, NH-5, MIRZAPUR, PANIKOILI, JAJPUR-755043(Showroom),PLOT NO:209, NH-5, MIRZAPUR, PANIKOILI, JAJPUR-755043(WorkShop).",Jajpur,Orissa,"7873999614, 7873999226, 7873999951","jajpursales@highwayhonda.com, jajpurservice@highwayhonda.com"
Vivan Honda,"Plot No. 35 - 36, Near Nagar Nigam Fire Station, NH-8, Sendriya, Ajmer ",Ajmer,Rajasthan,"7414012350, 7414012355, 7414012370, 7414012374","sales@vivanhonda.com, service@vivanhonda.com"
Vivan Honda,"260 / 4 Neeti Marg , Jaipur Road , Ajmer 305001 ",Ajmer,Rajasthan,7414012351,salesmanager@vivanhonda.com
 landmark Honda ,"Survey No. - 335-P, Mouje Nagalpur, National Highway, Mehsana - 384002",Mehsana,Gujarat,"02762664545, 9825232213","sales_mehsana@landmarkindia.net,mehsana@landmarkindia.net"
Paradise Honda,"PLOT No. - 623, GULHARIYA.MEDICAL COLLEGE RAOD,",Gorakhpur,Uttar Pradesh,"8127422222, 8127522222","sales@paradisehonda.com,  service@paradisehonda.com"
Vibrant Honda,6th Milestone; Vill- Bhikampur; Delhi GT Road; Aligarh,Aligarh,Uttar Pradesh,"7088110052, 7088110053",sales@vibranthonda.co
Sunshine Honda,"G-153-154,  Behind Infosys, Sitapura Industrial Area, Nearest Landmark - Infosys (Workshop & Service Facility)",Jaipur,Rajasthan,"01412770450, 01412770451","sales@sunshinehonda.net,gmservice@sunshinehonda.net"
Coastal Honda,"Coastal Honda Guirim, House No.417/2, Guirim NH-17 Panjim- Mapusa Road, Bardez, Goa- 403519",Goa,Goa,"8411972017, 7767815751, 9764445253","sales@coastalhonda.net, service@coastalhonda.net"
Narbheram Honda,"M-4, Phase-VI, Adityapur Industrial Area, P.O. Gamaria, Dist Seraikella-Kharswan-832108",Jamshedpur,Jharkand,"9204069853, 9297800090, 9031011042, 9031011038, 9798303148, 9204069852, 9204069844","gracehonda.gmsales@narbheram.com, gracehonda.parts@narbheram.com, gracehonda.sm@narbheram.com, gracehonda.sqm@narbheram.com, gracehonda.service@narbheram.com"
Pinkcity Honda,"C-9, Road no. 1 (Workshop & Service)",Jaipur,Rajasthan,"01415114933, 01414100200",service@pinkcityhonda.com
Brigade Honda,"Ward No - 01, Venkatala Village, Khata No - 1129/23/4A/23/3, Yelahanka Habli, Bangalore, Karnataka - 560064",Bangalore,Karnataka,"7899771190, 08069558888",sales@brigadehonda.com
Narbheram Honda,"H.No.140, Sakchi New Planning Area, P.O.Sakchi, Besides Agrasen Bhawan, Jamshedpur-831001, East Singhbhum",Jamshedpur,Jharkand,"9204069853, 9297800090, 9031011042, 9031011038, 9798303148, 9204069852, 9204069844","gracehonda.gmsales@narbheram.com, gracehonda.parts@narbheram.com, gracehonda.sm@narbheram.com, gracehonda.sqm@narbheram.com, gracehonda.service@narbheram.com"
Express Honda,"11-21 / B2, Renigunta Road, Tirupati - 517 501 Chittoor Dist. Andhra Pradesh",Tirupati,Andhra Pradesh,"08772237709, 9959900130",smtpt@expresshonda.com
Sunshine Honda,"A-7, Hawa Sadak,Near Civil Lines",Jaipur,Rajasthan,"01412213251, 01412213252, 01412213253, 9214443359, 9351063955","sales@sunshinehonda.net,gmservice@sunshinehonda.net"
Tristar Honda,"BHAGWATI BHAWAN, GOVT. HOSTEL CIRCLE, M I ROAD, JAIPUR",Jaipur,Rajasthan,"01414666666, 9116040036, 9116040037, 9116040038",yashsharma@plmotors.com
Coastal Honda,"CACULO ENCLAVE, OPP. FIRE SERVICE STATION HEAD QUARTER, ST. INEZ, PANAJI",Goa,Goa,"08326649933, 7767815751",sudeshdhargalkar@coastalhonda.net
Pinkcity Honda,"KR Plaza, Queens Road, Vaishali Nagar, Jaipur-302021",Jaipur,Rajasthan,9928041293,"salesvaishali@pinkcityhonda.com, service@pinkcityhonda.com"
Coastal Honda,"NH - 17, VERNA PLATEAU, SALCETE",Goa,Goa,"7066040130, 08326693333",ameyacharya@coastalhonda.net
Magnum Honda,"No.6, Flat No. 18, SY. No. 2, Achaiah Shetty Layout",Bangalore,Karnataka,"08043534444, 9900029164",salesmanager_rmv@magnumhonda.com
Pinkcity Honda,"Beyond Railway Overbridge, Tonk Road,",Jaipur,Rajasthan,"01414100200, 01414100100","sales@pinkcityhonda.com,customer_relations@pinkcityhonda.com"
Brigade Honda,"#714 5th, Cross, 1st Block, HRBR Layout, Kalyan Nagar, Bangalore - 560043",Bangalore,Karnataka,7899771180,branchmanager@brigadehonda.com
Dakshin Honda,"No. 40, Prestige Tudor Court, Lavelle Road, Bangalore",Bangalore,Karnataka,"9731278383, 08049399888",crm.sales1@dakshinhonda.com
Global Honda,"Door No.163/1, Yeragunte, P.B. Road, Davangere-577004, Next to Vani Honda Showroom, Opp. Sai International Hotel.",Davangere,Karnataka,"08182298133, 7349257699","saleshead@globalhonda.com, salesmanager@globalhonda.com, director@globalhonda.com,"
Whitefield Honda,"Whitefield Motors Pvt. Ltd. | 116-1 , B Narayanpura, Doorvaninagar,Near K R Puram rly station,White Field Road, Bangalore, Pincode - 560016",Bangalore,Karnataka,"9845008060, 08030760000, 08030760100","sales@whitefieldhonda.com,corp.sales@whitefieldhonda.com,service@whitefieldhonda.com"
Emerald Honda,"Plot No 3/A Wadhwan Industrial Estate, GIDC, Opp Mangal Bhuvan, Wadhwan Road, Surendranagar - - 363002",Surendranagar,Gujarat,"9714500084, 9714501009",sales.surendranagar@emeraldhonda.com
Magnum Honda,"No. - 850/1, Elecon House, Opp. Metro Pillar  No - 50, 100ft Road, Indranagar, Near MTR, Bangalore - 569038",Bangalore,Karnataka,8049080669,salesmanager_inr@magnumhonda.com
Dakshin Honda,"Survey #: 18/1B, 18/1C, 3rd Block Patrapalya Nayandahalli Village Near Rajarajeshwari Nagar ARCH Bangalore - 5600399",Bangalore,Karnataka,"9731265103, 9731265103, 9900054413, 9900545250, 7090716415","crm@tridentautohonda.com, darshan@tridentautohonda.com, crm.sales1@dakshinhonda.com, vp.sales@elite-group.in"
Pace Honda,"Bharat Colony, Opp Omaxe City, Main Mathura Road Palwal, Haryana- 121102 ",Palwal,Haryana,"7056000033, 8130392100 ",sales.palwal@pacehonda.com
Dakshin Honda,"97/1A, Singasandra Village, Hosur Road, Bangalore",Bangalore,Karnataka,"9513733407, 08040805600","sales@dakshinhonda.com,crm.sales@dakshinhonda.com"
Saphire Honda,"NO 17/1,GROUND FLOOR THE ADDRESS BUILDING OUTER RING ROAD (OPPOSITE TO PRESTIGE CESSNA BUSINESS PARK) KADUBEESANAHALLI ,BANGALORE:560087",Bangalore,Karnataka,"80888651651, 8088652652","asm@saphirehonda.in, crmservice@saphirehonda.in"
Emerald Honda,"Plot No - 301/4, 301/5, Vertej Industrial Estate, Bhavnagar Rajkot Highway, Bhavnagar - 364004",Bhavnagar,Gujarat,"9328008008 ,7622008800","sm.bhavnagar@emeraldhonda.com,shailesh.joshi@emeraldhonda.com"
Pinkcity Honda,"2 Km from telco chowk, Before Gajuka,NadiPulia		",Alwar,Rajasthan,"9166706701, 01443010200, 01443010210","Salesalwar@pinkcityhonda.com, servicealwar@pinkcityhonda.com"
Yash Honda,"Opp. Gayatri Temple, Near OLD RTO Office, N.H.No:27, Palanpur, Dist: Banaskantha. Pin Code: 385001",Palanpur,Gujarat,"9909721888, 9099009709",sales@yashhonda.in
Magnum Honda,"M/s Akshara Motors Pvt Ltd, no 27/2,Kanakapura Main Road, Raghuvanahalli Uttarahalli Hobli, Next To KSIT College, Bangalore 560062",Bangalore,Karnataka,"9972303622 , 08026322271, 08026322274",sales@magnumhonda.com
Aastha Honda,"Aastha Honda (A Unit Of Kumar Distributors Pvt. Ltd.), Bailey Road, Near Saguna More(Opp. DAV School), Patna- 801503 (Bihar)",Patna,Bihar,"6209014503, 6209014504, 6209015812","sales@aasthahonda.com,service@aasthahonda.com"
Pinkcity Honda,"Near Sheikh Bagh-E-Iram, Jaipur - Agra Bye Pass Road, Tiraha, Dausa - 303303, Rajasthan",Dausa,Rajasthan,9887575899,sales@pinkcityhonda.com
Olympia Honda,"Plot No. 21, Industrial Estate,Ambattur",Chennai,Tamil Nadu,9841422650,mis@olympiahonda.co.in
Olympia Honda,"E-99, 3rd Avenue, Near HP Petrol Bunk,",Chennai,Tamil Nadu,9841734361,seniorsalesmanager@olympiahonda.co.in
Olympia Honda,"M/S Khivraj Vahan Pvt Ltd plot no 397, TNHB, Chennai – Tirutani Highway, Tiruvaliur, Tamil Nadu 602001",Tiruvallur,Tamil Nadu,7299888668,enquiry@olympiahonda.co.in
Maansarovar Honda,"NO 145, J.N.Salai, ( 100 Feet Road ), Vadapalani, Arumbakkam Post, Chennai - 600106",Chennai,Tamil Nadu,9225800700,gm@maansarovarhonda.in
Solutions Honda,"Near Gaya College, Rampur, PS - Rampur , Jail Road, Gaya - 823001",Gaya,Bihar,"06312220528, 06312220950","sales@solutionshonda.in, crm@solutionshonda.in"
Vaishali Honda,"Opposite A.N College, ",Patna,Bihar,"06123213211, 9798005500",sales@vaishalihonda.com
Sundaram Honda,"180, ANNA ROAD",Chennai,Tamil Nadu,"04428579404, 04428579405, 04428579406, 04428579407, 04428579408","shondachn@sundarammotors.com,hondachn@sundarammotors.com,crm_shondachn@sundarammotors.com"
Maansarovar Honda,"No.15, Arcot Road, Porur Chennai-600116. Tami Nadu",Chennai,Tamil Nadu,8939828008,gm@maansarovarhonda.in
Sundaram Honda,"Plot No 4, New Door No 782, Opp. To YMCA Gate, Anna Salai, Nandanam, Chennai. TAMILNADU. Pin code : 600 035.",Chennai,Tamil Nadu,"04424345020, 04424345010",honsalmgr_ndm@sundarammotors.com
Grand Honda,"#715/3B, PERANDAPALLI VILLAGE & POST, HOSUR TALUK, KRISHNAGIRI DISTRICT - 635109, TAMILNADU INDIA",Hosur,Tamil Nadu,"04344311211, 8940086611, 04344311221, 8940086633","salesmanager@grandhonda.in,servicemanager@grandhonda.in"
Eternal Honda,RAMPUR ROAD ADJACENT JAUHARPUR RAILWAY CROSSING C.B. GANJ BAREILLY UTTAR PRADESH 243502,Bareilly,Uttar Pradesh,"7457000505, 7457000510, 05812560777, 05812560666, 05812560888",sales@eternalhonda.com
Balaji Honda,"#99/4 b1, Perumugai Village, Vellore-632009",Vellore,Tamil Nadu,41646777777,sales@balajihonda.in
Infinity Honda,"01A, Ground Floor, Sohna Road, Vipul Trade Centre, Sector - 48, Gurgaon, Haryana - 122002",Gurgaon,Haryana,"7290023171, 7290023172, 7290023173, 7290023174, 7290023175",servicehead@frontiervehicles.com
Capital Honda,"18, G.S.T ROAD, OPP. AIRPORT CARGO COMPLEX ,MEENAMBAKKAM,",Chennai,Tamil Nadu,"9940126651, 9940460001, 04443216000",sales@capitalhonda.in
Pinkcity Honda,"Pink City Honda Alwar-Bhiwadi byepass road, Sector 27, Khijuriwas, Bhiwadi, Rajasthan 301019 Landmark opp Nimai Greens",Bhiwadi,Rajasthan,"7023004544 ,7023004547, 917014292543, 91919116111388, 7023004549",salesbhiwadi@pinkcityhonda.com
Capital Honda,"Plot No - 13, Mailai Balaji Nagar,  Velachery Main Road, Pallikarani, Chennai - 600100",Chennai,Tamil Nadu,"9940639232, 9940166611",sales.velachery@capitalhonda.in
Capital Honda,"4/579, Rajiv Gandhi salai, Kottivakkam, chennai 600 041 (Workshop)",Chennai,Tamil Nadu,"04433906000, 09940639236",sales.omr@capitalhonda.in
Global Honda,PLOT NO.1800 SHIVAMOGGA - BHADRAVATHI BYPASS ROAD URAGADUR SHIVAMOGGA 577203,Shimoga,Karnataka,"08182298133, 08182298155, 7349257681, 08182298166, 7349257682","salesmanager@globalhonda.com, servicemanager@globalhonda.com"
Balaji Honda,"Balaji Honda (Balaji Auto care Pvt Ltd) No 693, GST Road,  Urapakkam, Chennai - 603210",Chennai,Tamil Nadu,"9043017928, 9043007624, 938401166","sales.cpt@balajihonda.in, service.cpt@balajihonda.in"
Balaji Honda,"near Meenakshi Medical College, chetiarpettai, Enathur post, kancheepuram, Tamilnadu -631561",Kanchipuram,Tamil Nadu,,
Axon Honda,"A-27, Mohan Cooperative Industrial Estate, Mathura Road, New Delhi - 110044",Delhi,Delhi,"7428496151, 7428499903, 7428499902, 7428499906, 011-40726500","salesdelhi@axonhonda.com, sqmdelhi@axonhonda.com, servicedelhi@axonhonda.com, crmdelhi@axonhonda.com, sparesdelhi@axonhonda.com"
Ace Honda,"G-25, SECTOR - 11, NOIDA - 201301, INDIA",Noida,Uttar Pradesh,1204000400,"service@acehonda.in,sales@acehonda.in     "
Courtesy Honda,"D-11, Industrial Area Phase - I, Okhla",Delhi,Delhi," 011-40710000, 9711042928","crmsalesokhla@lallyautomobiles.net, crmserokhla@lallyautomobiles.net"
Prime Honda,"Plot No. 1, Patparganj Industrial Complex, (Opp. Mother Dairy) Delhi - 110092",Delhi,Delhi," 7290055380, 7375004990, 01140888888"," crmsalesppg@primehonda.com,crmserviceppg@primehonda.com,mail@primehonda.com   "
Samara Honda,"B-35, Lajpat Nagar – 2,New Delhi 110024",Delhi,Delhi,"01146555111, 8826143300",sm@samarahonda.com
Crown Honda,"H-5, Sector – 63, NOIDA",Noida,Uttar Pradesh," 01204700000, 8527995500, 01204700000, 8527995555","sales@crownhonda.in,service@crownhonda.in"
Libra Honda,"At : Ratanpur, P.O. & P.S. - Govindpur, Dist. – Dhanbad, Jharkhand – 828 109",Dhanbad,Jharkand,"7360072555, 9031017010",
Classic Honda,"14/1, MATHURA ROAD, FARIDABAD, HARYANA - 121003<br>",Faridabad,Haryana,1294097007,sales@classichonda.co.in
Prashant Honda,"Khata No . 131, Khesra No . 240, Lenin Chowk Kalambagh Road, Muzaffarpur, Bihar -842001 ",Muzaffarpur,Bihar,,
Pace Honda,"khewat No. 21,Khataoni No. 37-38,Kila No.1/1(0/7),Village Phideri",Rewari,Haryana,"01274251600, 08222991313",service@pacehonda.com
Prime Honda,"19A & 19C, Main G.T. Road, Dilshad Garden Industrial Area, Delhi - 110095",Delhi,Delhi,"9717491157, 9717491139","navendu.mishra@primehonda.com, rakesh.gupta@primehonda.com"
Samara Honda,"4 Bhikaji Cama Place, New Delhi 110066",Delhi,Delhi,"9717093302, 01149777888",sm.bcp@samarahonda.com
Ring Road Honda,A-2 Udyog Nagar Indl. Area<br>Rohtak Road<br>,Delhi,Delhi,1143080000,sqm_cp@rrhonda.com
Prime Honda," Ansal Plaza, Main Link Road (Opp. Dabur Factory), Vaishali, Ghaziabad, UP - 201012",Ghaziabad,Uttar Pradesh,"7290055379, 7375004989, 01204184200","crmsalesvaishali@primehonda.com,customercare@primehonda.com,mail@primehonda.com  "
Prashant Honda,"NH - 77, VILL. - Po - Sakri Saraiya, Ps - Kundhani, Distt - Muzaffarpur, Bihar - 844127",Muzaffarpur,Bihar,9431239171,
Sunshine Honda,Circuit House near ST MARY SCHOOL Sikar Pin 32001,Sikar ,Rajasthan,"01572245401, 01572245410, 01572245411, 7073111022, 7073111021",
Planet Honda,"Karan Ashok Auto Pvt. Ltd., Delhi Road, Opp. Radha Krishna Mandir",Moradabad,Uttar Pradesh,"7055123456 , 7055504930",
Landmark Honda,"Gondal Road, Gondal - Ahmedabad Bypass Circle, NH - 8/B, Vavdi, Rajkot - 360004",Rajkot,Gujarat,"02816692000, 02816692020",rajkot@landmarkindia.net
Golden Honda,"Sri Driviya Complex, Near Rajasthan Petrol Pump, Bikaner Road, Nagaur - 341001",Nagaur,Rajasthan,"07672230553, 07672230554, 07672230550",sales@goldenhonda.com
Samara Honda,"C-110, Mayapuri- 2, New Delhi",Delhi,Delhi,"9717556161, 01145656565",sm.myp@samarahonda.com
Ring Road Honda,21-A Najafgarh Road,Delhi,Delhi,"01145049335, 01145049336",tmkg_mn@rrhonda.com
Aan Honda,"Aan Motors Pvt. Ltd., Near Reliance Mall, Opp. HP Petrol Pump, Nr. Nana Mava Circle,  150 feet Ring Road, Rajkot-360005",Rajkot,Gujarat,"8511135111, 02812330033","salesmgr@aanhonda.com,servicemgr@aanhonda.com"
Axon Honda,"A -8 Plot No 1 & 2 Sector 22 Meerut Road Industrial Area ,Ghaziabad-201003",Ghaziabad,Uttar Pradesh,"01202784002, 9599293870, 01202784001, 9599293855","sales@axonhonda.com,service@axonhonda.com"
Ring Road Honda,"Plot no- 229, Sector-9, Dwarka",Delhi,Delhi,1141990000,sqm_dwk@rrhonda.com
Ring Road Honda,"A-2 Udyog Nagar Indl. Area, Rohtak Road",Delhi,Delhi,"01145520000, 01145540000",telemktg@rrhonda.com
Cherish Honda,"G-1, Jackson Crown Heights, Twin District Centre, Rohini, Sector - 10, Delhi - 110 085",Delhi,Delhi,8255008008,sales@cherishhonda.com
Ring Road Honda,A-2 Udyog Nagar Indl. Area<br>Rohtak Road<br>,Gurgaon,Haryana,1244688000,sqmggn@rrhonda.com
Ring Road Honda,A-2 Udyog Nagar Indl. Area<br>Rohtak Road<br>,Gurgaon,Haryana,1244609400,tmkg_ggn@rrhonda.com
Cherish Honda,"Plot No. 66, IDC, Mehrauli Road, Gurgaon, 122001",Gurgaon,Haryana,"7557434343, 7557323232","sales@gbmcherishhonda.com, service@gbmcherishhonda.com"
Planet Honda,Kichha Bypass Road Teenapni Rudrapur Uttarakhand 263153,Rudrapur,Uttrakhand,7500240039,sales.rudrapur@planethonda.co.in
Platinum Honda,"NEAR SABLI CROSSING, DELHI ROAD, HAPUR-245101(UP.)",Hapur,Uttar Pradesh,"01222314201, 01222314202, 09756799970, 01222314203, 01222314204, 07088002910","sales.hapur@platinumhonda.com,service.hapur@platinumhonda.com"
Aan Honda,"Aan Motors Pvt Ltd  Morbi Virapar,Before virat hotel near Bani vadi Morbi, Gujarat. pincode-363641",Rajkot,Gujarat,"7211153452, 7211153467, 8511135111, 7211153366, 7211153500","sales@aanhonda.com, service@aanhonda.com"
Platinum Honda,"Delhi Road,",Meerut,Uttar Pradesh,"9756799902, 9897777736","udaiveer1@gmail.com,rajveer431@hotmail.com"
Paras Honda,"B-32, Near Alcobex Metals, Heavy Industrial Area, Jodhpur, Rajasthan, 342003",Jodhpur,Rajasthan,"9694055525, 02912745252",
Planet Honda,"GORAPARAO, BAREILLY ROAD",Haldwani,Uttrakhand,"05946232222, 7500575005","info@myplanethonda.com, sales@planethonda.co.in, service@planethonda.co.in, spares@planethonda.co.in"
Pinnacle Honda,"Plot no. 634,635,636 and 637 Mouza Bogra, on NH2, P.S. Jhamuria, Asansol, District Burdwan,",Asansol,West Bengal,"9163338395, 9474119425","salesmanager.asansol@pinnaclehonda.com,servicemanager.asansol@pinnaclehonda.com"
Inspire Honda,"1715/16, 3rd Cross, Anikethana Road, Kuvempunagar, Mysore - 570023",Mysore,Karnataka,9742297469,sales@inspirehonda.com
Inspire Honda,"# 101(P), Hootagalli Industrial Area",Mysore,Karnataka,"08214009400, 08214009425, 08214009450","sales@inspirehonda.com, service@inspirehonda.com"
Malwa Honda,"Waka Rakba Mauja - Livaspur, Bahalgarh, Dist Sonipat Haryana 131001",Sonipat,Haryana,"01304092250, 01304092251, 01304092252, 013080803, 013080804, 9467800903, 9467800904","gmservice@malwahonda.in, gmsales@malwahonda.in"
Prashant Honda,"NH 31 Papraur, Begusarai, Bihar 851210",Begusarai,Bihar,"8407001930, 7544008753","sales@prashanthonda.com, service@prashanthonda.com"
Sunshine Honda,"G 1/10, RIICO Indl Area , Jhunjhunu , Rajasthan",Jhunjhunu,Rajasthan,,ankitmittal@sunshinehonda.com
Inspire Honda,"B M Road, Doddamandigana Halli, (D.M.Halli) Hassan- 573217",Hassan,Karnataka,9742297444,management@inspirehonda.com
Merit Honda,"SPL Motors Pvt Ltd, Rohtak Road, Bhiwani-127021",Bhiwani,Haryana,822990100,
 landmark Honda ,"Survey No. 422, Rajkot Jamnagar Highway, Hapa, Jamnagar - 361120",Jamnagar,Gujarat,7567883018,sale_jamnagar@landmarkindia.net
Shaurya Honda,"RS NO 26/5, ANJAR GANDHIDHAM HIGHWAY, NR GALPADAR VILLAGE, GANDHIDHAM - 370201 - GUJARAT",Gandhidham,Gujarat,"9879728177, 9825222377, 9998959359","sales@shauryahonda.com, service@shauryahonda.com"
Aan Honda,"Aan Motors Pvt Ltd  Junagadh Plot No. 80 & 93, Survey No. 423/3,Beside Star Marble,GIDC - 1, Dolatpara, Junagadh, Gujarat. pincode-362037",Junagadh,Gujarat,"8511135111, 7211153452, 7211153366,  7211153500","sales@aanhonda.com, service@annhonda.com"
Courtesy Honda,"708/798, Opp DAV Police Public School Vill. - Siwah, G.T. Road, Panipat - 132108 Haryana",Panipat,Haryana,1806517771,
Platinum Honda,"Bhopa Road , Muzaffernagar (U.P)",Muzaffarnagar,Bihar,"9756799902, 9756799901","mail@platinumhonda.com, service@platinumhonda.com"
Sundaram Honda,"4, Omalur Main Road, Salem ",Salem,Tamil Nadu,"04272352169, 04272351785",hondasales.smslm@sundarammotors.com
Capital Honda,"No:43,Cuddalore Main Road,Ariyankuppam,Pondicherry - 605007",Puducherry,Puducherry,"9940313725, 9840076920","sm.pondy@capitalhonda.in, sqm.pondy@capitalhonda.in"
Capital Honda,"3/A,Imperial road,Pacchan kuppam, Cuddalore -607005.",Cuddalore,Tamil Nadu,"9789888040, 9003211411",charlesmichael.j@capitalhonda.in
Legend Honda,"Near New Anaj Mandi, Rohtak Road, Jind - 126102",Jind,Haryana,"9728178621, 8813030360",salesjind@legendhonda.in
Shama Honda,"3-58E, NH-66, Ambagilu, Udupi-576105",Udupi,Karnataka,"08202581999, 9740368811, 9740242211, 08202581111, 9880294466, 9611599233,","sales@shamahonda.com,service@shamahonda.com"
Platinum Honda,"Nazibabad Road, Near Central Ware House , Distt. Bijnor (U.P) Pin – 246701",Bijnor,Uttar Pradesh,"9756799966, 9756799902",mail@platinumhonda.com
Eastern Honda,"NH6,Salap II, Munshidanga, Jublimath, Howrah - 711403 (Salap More/Lal Bari Bus Stop)",Howrah,West Bengal,"03366086608, 03366086608, 9007990079","howrah@easternhonda.in, sm.servicehwh@easternhonda.in"
Courtesy Honda,"117/8 K.M. Milestone, G.T. Road, Madhuban",Karnal,Haryana,1843067777,saleskrl@lallyautomobiles.net
Shaurya Honda,"PLOT NO 20, NR, BANK OF BARODA, BHUJ MIRZAPAR HIGHWAY BHUJ-KUTCH",Bhuj,Gujarat,"9825222377, 9825182077",shaurya honda @ gmail.com
Joy Honda,"Plot No-2, Near Jeet Dharam Kanta, OP Jindal Marg",Hissar,Haryana,"01662223015, 01662223017","saleshisar@joyhonda.in, servicehisar@joyhonda.in"
Eastern Honda,"226/1, Acharya Jagdish Chandra Bose Road,Trinity Towers, Near Minto Park Kolkata – 700 020.",Kolkata,West Bengal," 03366046604, 9903999039","sales@easternhonda.in, service@easternhonda.in"
Eastern Honda,"9/1, Syed Amir Ali Avenue, (Near Quest mall) Kolkata - 700017",Kolkata,West Bengal,"03366186618, 9903599035","agm.sales@easternhonda.in, crm@easternhonda.in"
Eastern Honda,"GOPALPUR, BUDGE BUDGE TRUNK ROAD, P.O.-SARKARPOOL, P.S.-MAHESHTALA(3S-Showroom & Workshop)",Kolkata,West Bengal,"03366096609, 8420184201","sales@easternhonda.in, service@easternhonda.in"
Pinnacle Honda,"Ullhas More, NH2, Bypass. Near Charnock Hotel. Village Alisha. P.o. Joteram. Purba Burdwan 713101",Bardhaman,West Bengal,"7375002788, 7375002788","sales.burdwan@pinnaclehonda.com, service.burdwan@pinnaclehonda.com"
Shree Honda,"Auto Hub IID/9, Aakankha More, Major Arterial Road, Rajarhat Main Road, Kolkata 700157",Kolkata,West Bengal,"8335045000, 9830963006",
Pinnacle Honda,"CHANDRANI TOWERS, 739 ANANDAPUR, <br>E.M. BYEPASS, NEAR RUBY HOSPITAL, Besid Calcutta International School<br>",Kolkata,West Bengal,3340404444,sales@pinnaclehonda.com
Divine Honda,"7 KM milestone,Roorkee Haridwar Highway,Village Belda, Roorkee(District Haridwar, Uttarakhand)",Roorkee,Uttrakhand,"911332278100, 911332278104",sales@divinehonda.in
Shree Honda,"SAILAJA APARTMENT, NH-34 NOA PARA, KRISHNAGAR ROAD, BARASAT - 700124",Barasat,West Bengal,"9830281818, 9051052000",barasat@shreehonda.com
Swati Honda,"6.5 Km, milestone, Opp Rainbow School, Delhi Road Saharanpur",Saharanpur,Uttar Pradesh,"9927700213, 9927700216",sales@swatihonda.com
Shree Honda,"DN - 51, Merlin Infinity, Sector 5, salt Lake, Kolkata, WB",Kolkata,West Bengal,3366166166,saltlake@shreehonda.com
Sundaram Honda,"191/1, Perundurai road, Palaya Palayam, Surampatti village, Erode-638011, Tamilnadu",Erode,Tamil Nadu,"04242271048, 04242271047",
Elegant Honda,"Near Umri Chowk, NH-1, G.T. Road, Kurukshetra, Haryana - 131136",Kurukshetra,Haryana,"9992221986, 01744278088, 01744278089, 8222889961, 01744278090",saleskkr@kmpl.net.in
Supreme Honda,"Opposite Engineering College,Sabour Road,N.H-80,Bhagalpur-813210",Bhagalpur,Bihar,"7375004966, 7633995235","sales.bgp@supremehonda.com, service.bgp@supremehonda.com"
Divine Honda,"OLD INDUSTRAIL AREA BILKESHWAR ROAD NEAR HANUMAN MANDIR, HARIDWAR PINCODE-249401",Haridwar,Uttrakhand,9639016132,saleshrd@divinehonda.com
Vision Honda,"VISION MOTORS PVT LTD,Kakkavayal (PO)Kakkavayal,Kalpetta,Wayanad-673122",Kalpetta,Kerala,"8606986720, 8606986718","salesmgrclt@visionhonda.com, servicemgrclt@visionhonda.com"
Sundaram Honda,"OPPOSITE TO VALLUVAR ARANGAM, NEW MADURAI BY-PASS ROAD, KARUR - 639002.",Karur,Tamil Nadu,"9789079013, 9384835375","honsalmgr_erd@sundarammotors.com, honsermgr_erd@sundarammotors.com"
Legend Honda,"Opulent Automobiles (P) Ltd. 4th Mile Stone, Ambala Road, Kaithal",Kaithal,Haryana,"8813030321, 8813030327",
Divine Honda,MOHABEDWALA INDUSTRIAL AREA<br>SAHARANPUR ROAD,Dehradun,Uttrakhand,"01352645001, 01352645006",sales@divinehonda.com
ADMIRE HONDA,"42 EC Road, Opp Hillgrange School , Dwarka Store , Dehradun, Uttarakhand 248001",Dehradun,Uttrakhand,7088007001,sales@admirehonda.com
Sundaram Honda,"CIBI Avenue,  TKTMill Bus Stop, Palladam Road, Tirupur - 641 605",Tiruppur,Tamil Nadu,"04212218125, 9600354477, 04212216512, 9677761628","honsalmgr_tpr@sundarammotors.com, honsermgr_tpr@sundarammotors.com"
Elegant Honda,"9 K.M Stone, Village Khuddi,Ambala Jagadhri Road, Ambala Cantt, Haryana ",Ambala,Haryana,"9992221962, 9992221957, 01712891081, 01712891082","hondasalesamb@kmpl.net.in, hondaseramb@kmpl.net.in"
Golden Honda,"Sri Ganga Nagar, Jaipur Bypass, Nagasar, Bikaner - 335001",Bikaner,Rajasthan,"7,02,30,03,70,17,02,30,00,000",sales@goldenhonda.co.in
Capital Honda,"NO 20 ASOOR BY PASS ROAD (NH 45 C), KUMBAKONAM ,612002",Kumbakonam,Tamil Nadu,"9840243745, 9840061793","sm.thanjavur@capitalhonda.in, srm.thanjavur@capitalhonda.in"
Joy Honda,"Near Maharaja Palace, Dabwali Road Sirsa, PIN - 125055",Sirsa,Haryana,"01666242002, 8222033023, 01666242003, 8816055561",smsirsa@joyhonda.in
Prestige Honda,"Village Khurana,Near Golden Earth Global Public School, Patiala Road,Sangrur.148001",Sangrur,Punjab,9876150834,salessgr@lallymotors.net
ADMIRE HONDA,"3S - Opposite Doon Distilleries, Haridwar Road, Kuanwala Dehradun - 248001",Dehradun,Uttrakhand,"01352712028, 01352712029, 7088070880, 7088007001, 7088007012","sales@admirehonda.com, crmsales@admirehonda.com"
Apco Honda,"Swalath Nagar, Melmuri P.O. Malappuram 676517",Malapuram,Kerala,"04832901111, 8111888332, 04832901000, 8111888333","salesmpm@apcohonda.com, servicempm@apcohonda.com"
Signature Honda,"CENTRIUM,KANNOTHUMCHAL,P.O.CHOVVA",Kannur,Kerala,4972717171,"signaturehonda@thebusinesshouse.org, shamsheer@thebusinesshouse.org"
Apco Honda,"rayans building building no 697/1,2&3, perinthalmanna Malapuram",Perinthalmanna,Kerala,,
Signature Honda,"49/143/A, Saras Building Court Road, Thalassery, Kerala 670101",Kannur,Kerala,9400025002,sm_hondaknr@thebusinesshouse.org
Signature Honda,"SANTHOSH NAGAR,P.O ALAMPADY,KASARGOD PIN-671123 , KERALA",Kasargod,Kerala,9745002288,signaturehondaksd@thebusinesshouse.org
Courtesy Honda,"Courtesy Honda, 10-11 Royal Estate, Ambala Road, Ph- 07087031801, 7087031811 ",Zirakpur,Punjab,"07087031801, 7087031811","saleszpr@lallyautomobiles.net,servicezpr@lallyautomobiles.net"
Manchester Honda,"1305, Avinashi Road, Peelamedu",Coimbatore,Tamil Nadu,9500944414,sales@manchesterhonda.co.in
Harmony Honda,"Plot No. 389,Industrial Area Phase 1",Panchkula,Haryana,1725066666,"sales.pkl@harmonyhonda.in, ceo@harmonyhonda.in, info.pkl@harmonyhonda.in"
Capital Honda,"D.No. 2/1 & 2/2, Chennai Bye Pass Road,Varaganeri",Trichy,Tamil Nadu,"04312200490, 04312200491, 04312200492, 09840076920",sales.trichy@capitalhonda.in
Harmony Honda,"PLOT NO. 67, INDUSTRIAL AREA, PHASE II, Pin Code : 160 002",Chandigarh,Chandigarh,1725022222,"sales@harmonyhonda.in,ceo@harmonyhonda.in,joshihonda@gmail.com,info@harmonyhonda.in"
Sundaram Honda,"No 368 369 Mettupalayam Road,Pincode- 641043",Coimbatore,Tamil Nadu,4222449303,hondasales.smcbe@sundarammotors.com
Courtesy Honda,"Plot No. 6., Indl. Area Phase - I",Chandigarh,Chandigarh,1723067777,"saleschd@lallyautomobiles.net,salesheadchd@lallyautomobiles.net"
Apco Honda,"27/1442 A& B, Mini Bye Pass Road,PO Puthiyara(Showroom),",Calicut,Kerala,8111888411,Smsalesclt@apcohonda.com
Vision Honda,"Building No 39/53 A&B, Post West Hill, Chungam, Calicut-673005",Calicut,Kerala,"04952384499, 04952386699, 8606689111, 04952386655, 04952386788, 8606165111, 8606165222",salesclt@visionhonda.com
Apco Honda,"Koroal building, nuts street vadakara kerala 673104",Vatakara,Kerala,,
Prestige Honda,"Rajpura Patiala Road, Bhadurgarh",Patiala,Punjab,1753067777,"salesptl@lallymotors.net,ripu@lallymotors.net"
Harmony Honda,"C-107, Industrial Area Phase 7",Mohali,Punjab,"01725044044, 919915762165, 919876544721","sales.mohali@harmonyhonda.in, info.mohali@harmonyhonda.in , joshihonda@gmail.com"
Capital Honda,"202/7B, TRICHY EXPRESS WAY(BY PASS ROAD), NANJIKOTTAI VILLAGE,THANJAVUR 613007(Showroom & Workshop)",Thanjavur,Tamil Nadu,"04362256000, 9244994000, 04362256602",sales.thanjavur@capitalhonda.in
Supreme Honda,"Ward No. 8, NH-31, At & Post Maranga, Purnia, Bihar, 854301",Purnia,Bihar,"9570222244, 9570222211","care@supremehonda.com, service@supremehonda.com"
Prestige Honda,"3S - Vill. - Alour, G. T. Road, Near Presine Mall, Khanna, Punjab - 141401",Khanna,Punjab,"8146610600, 01628509777",
Prestige Honda,"10A, Model Town, Phagwara.Pin - 144632",Phagwara,Punjab,8968440022,salesjal@lallymotors.net
MANCHESTER HONDA,"Survey No: 129/A-1, Sangampalayam Village, Coimbatore- Pollachi Main Road ,Pollachi Town",Pollachi,Tamil Nadu,9047861155,"sales.pollachi@manchesterhonda.co.in,service.pollachi@manchesterhonda.co.in"
Deep Honda,"600 METER FROM ITI FLYOVER MANSA ROAD,BATHINDA",Bathinda,Punjab,"01646999990, 01646999991",sales@deephonda.com
Prestige Honda,"VPO Rangilpur, Ropar-CHD Road, Ropar-140108",Rupnagar,Punjab,"8727872848, 01881-501777, 9779166006, 9878797788, 8264429679, 9878797788","smropar@lallymotors.net, salesropar@lallymotors.net, crm@lallymotors.net"
Apco Honda,"Moochikel Bus Stop, Tirur Kadalundi Road, Moochikel, Tirur, Malappuram District, Kerala State - PIN -676109",Malapuram,Kerala,"8111888345, 8111888322","tirur@apcohonda.com, tirur@apcohonda.com"
Courtesy Honda,"Courtesy Honda, Lally Automobiles (India) Private Limited, Mauza Khalli, Pargana Bharoli Kalan, Kumarhatti-Barog-Solan Road, MDR-9, Kumarhatti, Solan (H.P) - 173229",Solan,Himachal Pradesh,"01792651792, 918894718001",salessolan@lallyautomobiles.net
INDEL HONDA,"NH - 47, Kadamkode, (Near Cosmopolitan Club), Chandranagar, Palakkad - 678007",Palakkad,Kerala,"04912507200, 9744722222, 04912507206, 9744133333 ","sm.sales@indelhonda.com, sm.service@indelhonda.com"
Capital Honda,"No:102, Thirumayam Main Road,Malaiyeedu,Pudukottai -622003",Pudukkottai,Tamil Nadu,"9500005863, 9940056644","sm.trichy@capitalhonda.in, srm.trichy@capitalhonda.in"
Prestige Honda,"DHANDARI KALAN, G.T. ROAD,",Ludhiana,Punjab,1613067777,"salesldh@lallymotors.net,ripu@lallymotors.net"
Sundaram Honda,"211, South Veli Street, Madurai ",Madurai,Tamil Nadu,9952333835,hondasales.smmdu@sundarammotors.com
Vidhata Honda,"Ferozepur Road, Near Kothari Resorts, V.P.O. Gahaur",Ludhiana,Punjab,"911615105100, 8558844400, 8558836601, 8558836602",info@VidhataHonda.com
Deep Honda,"Sartaj Palace,mansa road bathing.Near mahindra cars, Bhatinda",Muktsar,Punjab,"8725009654, 8725037113",
Sheetal Honda,"Vill. - 3ML, Hanumangarh - Suratgarh Bye Pass Road, SriGanganagar, Rajasthan - 3355001",Sri Ganganagar,Rajasthan,"8696901241, 9829211525","sales@sheetalhonda.com,service@sheetalhonda.com"
Courtesy Honda,"Courtesy Honda, Lally Automobiles (India) Private Limited, Kanlog Bye-Pass, Khalini, Shimla (H.P) - 171001",Shimla,Himachal Pradesh,"01772674900, 918894717700",salesshimla@lallyautomobiles.net
Vision Honda,"VISION MOTORS PVT LTD, NH BYPASS, MANNUTHY, OLLUKKARA P O, THRISSUR - 680655",Thrissur,Kerala,"9656925555, 8606934262, 04872372008, 9656925555","salesmgrtsr@visionhonda.com, rsmnorth@visionhonda.com"
JOHNS HONDA,"1/204-01,NEAR VIYYUR CHURCH,SHORNUR ROAD,VIYYUR,THRISSUR.PIN:680010.",Thrissur,Kerala,"04872700700, 9946511111, 04872700707","salesinfo@johnshondacars.in, serviceinfo@johnshondacars.in"
Prakash Honda,"Amb Road, Tehsil and Distt Una -174303",Una,Himachal Pradesh,"9875954017, 9875954010 ","sales.una@prakashhonda.com, service.una@prakashhonda.com"
Impression Honda,"ML ACROPOLIS, OPP. ANANDLOK HOSPITAL, SEVOKE ROAD, SILIGURI-734001",Siliguri,West Bengal,8170005300,sales@impressionmotors.in
Vidhata Honda,"AKC Motors Pvt Ltd. Vidhata Honda Adjoining Police Station, VPO Mehna, GT Road, Moga - 142011",Moga,Punjab,"8354812345, 8354912345","sales.moga@vidhatahonda.com, Service.moga@vidhatahonda.com"
Prestige Honda,"Pragpur,G.T.Road",Jalandhar,Punjab,1813067777,"salesjal@lallymotors.net,ripu@lallymotors.net"
Galaxy Honda,"M/s GS Autoworld pvt ltd. Amritsar Bypass Road, Near Guru Gobind Singh Avenue, Jalandhar City – 144001 Punjab",Jalandhar,Punjab,,sales@galaxyhonda.in
Galaxy Honda,"Near ITI ,Jalandhar Road ,Hoshiarpur-146001",Hoshiarpur,Punjab,"8558844994, 8558844950, 8558844969, 8558844968, 8558844993, 9781097810","sales.hsp@galaxyhonda.in, sqm@galaxyhonda.in, service@galaxyhonda.in, crm@galaxyhonda.in"
Perfect Honda,"M/s Pothen Vehicles & services pvt ltd. Door No 15/272C, SY No. - 69/1-3, Perumbavoor Village, Dist. - Cochin, Kerala",Perumbavoor,Kerala,,
Perfect Honda,"Door No 14/302-303 nh 47,near scms cochin,Muttam , Ernakulam-683106 ",Ernakulam,Kerala,"04843003777, 8111912345, 8111923456, 04843003737, 81119991991, 8111988888",salescochin@perfecthonda.in
Vision Honda,"34/574, NH BYPASS, PALARIVATTOM, ERNAKULAM, KERALA-682025",Kochi (cochin),Kerala,"04844102222, 9567520005, 9567877544","sales@visonhonda.com,creekmservice@visionhonda.com"
Himalayan Honda,"VILL.CHAKKAR P.O. GUTKAR TEH BALH CHALAH,  MANDI, HIMACHAL PRADESH - 175021",Mandi,Himachal Pradesh,"7876909001, 7876909099","sales@himalayanhonda.com, service@himalayanhonda.com"
Peninsular Honda,"NH-47, <br>VYTILLA-AROOR, <br>BY-PASS ROAD, <br>MARADU",Kochi (cochin),Kerala,"04842705547, 04842705548, 9895199000","rajeev@peninsularhonda.com,gigipeter@peninsularhonda.com"
Vision Honda,"Door no-61/1343,Vilanassery Building,Perumanoor p.o,Thevara Jn,Kochi-682015",Kochi (cochin),Kerala,9567864839,salesmgrekm@visionhonda.com
Vision Honda,"Door No: 9/46A, Near RPS, Mekkadampu P.O, Muvattupuzha, Ernakulam - 682316",Muvatupuzha,Kerala,"9567926977, 9895354545, 9072581846","asmmvp@visionhonda.com, servicemgrmvp@visionhonda.com"
Peninsular Honda,"PATEL CARS PVTLTD, PENINSULAR HONDA  MANGATTUKAVALA BY PASS, NEAR UTHRAM RESIDENCY ,THODUPUZHA , KERALA 685584",Thodupuzha,Kerala," 9895712555, 9037020088","sales@peninsularhonda.com, service@peninsularhonda.com"
Prestige Honda,"G.T ROAD, SULTANWIND",Amritsar,Punjab,1833067777,"salesamr@lallymotors.net,ripu@lallymotors.net"
Southern Honda,"4E/30C, Ettayapuram Road, Opp. Swamy Petrol Bulk, Tuticorin - 628002,",Tuticorin,Tamil Nadu,7708065545,salesmgr@southernhonda.in
Prakash Honda,"GT Road, Kachhiari, Tehsil nad Distt Kangra-176001",Kangra,Himachal Pradesh,"9875954001, 9875954011 ","sm.kangra@prakashhonda.com, service.kangra@prakashhonda.com"
Deep Honda,"Opp. Khanna Papers Mill, Near Matro Wholesale, Fategarh Churian, Road Byepass, Amritsar",Amritsar,Punjab,"01836999993, 01836999913",salessr@deephonda.com
Premier Honda,"MEENACHIL P O KUTTILLAM , P P ROAD, KOTTAYAM DIST,KERALA, PIN - 686577",Kottayam,Kerala," 9207722522, 9526991155","sales@premierhonda.in, service@premierhonda.in"
Impression Honda,"Land mart Building,Near Entel Motors Pvt. Ltd, 6th Mile Tadong Gangtok, East Sikkim- 737102",Gangtok,Sikkim,"8170005319, 8170005303, 8170005303",salesgtk@impressionmotors.in
Peninsular Honda,Peninsular Honda Near Matha School | Thumpoly Jn | Alappuzha |Kerala|India – 688 007,Allepay,Kerala,"914773067777, 919072665506, 9895399000",alp.sales@peninsularhonda.com
Prakash Honda,"Batala Road, Improvement Trust Colony, Gurdaspur",Gurdaspur,Punjab,"8725054001, 8725054014","gurdaspur@prakashhonda.com, services@prakashhonda.com"
Southern Honda,"7/146 A, NAGERCOIL ROAD, TAKKARAMMALPURAM",Tirunelveli,Tamil Nadu,"04622006111, 09629194291, 04622006222, 07708045530",sales@southernhonda.in
Premier Honda,"Crystal Cars pvt ltd, Adichira, M.C Road, Thellakam Post, Kottayam -686016 ",Kottayam,Kerala,"9207722522, 9207722535","sales@premierhonda.in, service@premierhonda.in"
Vision Honda,"Building No. XI / 243, Survey No. 434/3, 434/4, Peekay Complex, Vill. Nattakom,After Hotel Windsor Castle, MC Road,Kottayam",Kottayam,Kerala,"04812361149, 04812361150, 04812361151, 04812361152","salesmgr@visionhonda.com,businesshead@visionhonda.com"
Prakash Honda,Batala Road Gurdaspur Pin code-143521,Gurdaspur,Punjab,"8725054001, 8725054011, 01862225759","sm@prakashhonda.com, wm@prakashhonda.com"
Vision Honda,"Vision Motors Private Limited, Kumbazha - Konni Road, Thenghumkavu, Mallassery, PO - Pathnamthita - 689646 Kerala",Pathnamthitta,Kerala,"04682323660, 04682323650, 918606986692",salesmgrpta@visionhonda.com
Vision Honda,"Vision Motors Pvt. Ltd, 13/82-2, Thirumoolapuram P.O, Thiruvalla, Pathanamthitta-689115",Thiruvalla,Kerala,9747212260,salesmgrktm@visionhonda.com
Palace Honda,"Evoor South, Kerrkikad (PO), Rampuram, Kayamkulam, Alleppy, Kerala - 690508",Allepay,Kerala," 04792475715, 04792475716",sales@palacehonda.in
Palace Honda,"Building no. 82(1), Ward no. 14, Near Buddha Railway Station Road, Mavelikara, Alapuzzha - 690101",Mavelikara,Kerala,"9539012045, 9539012045, 9207733762","salesmvk@palacehonda.in,servicemvk@palacehonda.in"
Muthoot Honda,"Opposite SRV UP SCHOOL, CHANGANKULANGARA, OACHIRA, KARUNAGAPPALLY, PIN-690526",Karunagappally,Kerala,"04762692959, 9656700992",karunagappalli@muthoothonda.com
Peninsular Honda,"PENINSULAR HONDA, NH MAIN ROAD, CHATHANPARA, THOTTAKKAD P.O, ATTINGAL - 695605",Attingal,Kerala,9895110666,tvm.sales@peninsularhonda.com
Southern Honda,"681/9B1, Karuppacodu Junction, Villukuri Road, Kalkulam Taluka, Kanyakumari District, Tamil Nadu - 629807",Nagercoil,Tamil Nadu,"7338872171, 7338872170",salesmgrngl@southernhonda.in
Muthoot Honda,"KP VII/822, 823 & 824, Gilgal building, Royal nagar,pulamon, Kottarkara, kerala",Kottarakkara,Kerala,,
Muthoot Honda,"RAK Building,JR Manjil,Nilamel PO,Nilamel,Anjal-691535",Kollam,Kerala,"7034991077, 04742434477",agmsales@muthoothonda.com
Muthoot Honda,"NEAR TOWN LIMIT, NH-208, KOLLAM-SENKOTTA ROAD,KADAPAKKADA, KOLLAM-8		",Kollam,Kerala,4743013333,rajesh.nair@muthoothonda.com
Perfect Honda,"Building No. - Tc 14/202(1), Tc 14/202(2) & Tc 14/202(3), Paruthippara, Trivandrum",Thiruvananthapuram(trivandrum),Kerala,"811188123, 04716580003, 04716580005",
Peninsular Honda,"KOLLAM , NH-47 HIGHWAY, KAZHAKUTTAM, <br>OPP. KARIYAVATTOM UNIVERSITY,<br>",Thiruvananthapuram(trivandrum),Kerala,"04712416777, 04712418777, 9895299000","gigipeter@peninsularhonda.com,nayaz@peninsularhonda.com"
Hillview Honda,"BC Road, Amphala, Jammu - 180015",Jammu,Jammu & Kashmir,"01912565091, 9796299920",sales@hillviewhonda.com
Hillview Honda,"NH 1, BYE PASS ROAD, SIDHRA",Jammu,Jammu & Kashmir,"01912662731, 01912662736, 01912662739, 01912662742 ","sales@hillviewhonda.com,service@hillviewhonda.com,sanjay_shan_13@yahoo.co.in"
Perfect Honda,"Building no. 52/524(1) & 52/524(2), Opp govt. Womens Polytechnic, Niramankara, Kaimanam PO, Trivandrum - 695040",Thiruvananthapuram(trivandrum),Kerala," 8111889080, 8111870123",sales1skaramana@perfecthonda.in
Perfect Honda,"TC No-79/ 169(2) .Near Toll Booth, NH By Pass Road, Oruvathilkottah, Anayara PO",Thiruvananthapuram(trivandrum),Kerala,"04716622777, 8111891234, 7558922777, 9656822277",sales@perfecthonda.in
PARAMOUNT HONDA,"A.T. Road, Opp. Railway Gate No-1, Maligaon, Guwahati-781011, Assam",Guwahati,Assam,"7086054601, 7086054602, 7086054603, 7086054604",sales.head@paramounthonda.in
Shuhul Honda,"NH-44 Sempora, Pantha Chowk, Bypass Srinagar, Pin Code - 191101, Kashmir, J&K.",Srinagar,Jammu & Kashmir,"919797776861,01933222914, 01933222912, 9797773501","sales@shuhulhonda.com, sqm@shuhulhonda.com, service@shuhulhonda.com, crm@shuhulhonda.com"
Spectrum Honda,"National Highway 37,",Guwahati,Assam,"03612236525, 03612236565",ghoshbros@spectrumhonda.in
North East Honda,"Haleswar, Dekargaon, Dist: Sonitpur, PIN Code: 784501, State: Assam",Tezpur,Assam,"8399990869, 8399995795, 8399988730","sales.nehonda@gmail.com, service.nehonda@gmail.com"
GLORY HONDA,"Tarajan, A.T Road  Jorhat 785001 (assam)",Jorhat,Assam,7086055513,"sale@glorhonda.in, service@glorhonda.in"
Ayida Honda,"Ayida Honda, Opposite Vijaya Bank, Naharbadi Dimapur, Nagaland - 797112",Dimapur,Nagaland,,
Spectrum Honda,"T.R Phokan Road, Chiring chapori",Dibrugarh,Assam,"03732325423, 03732322223","salesdibrugarh@spectrumhonda.in, servicedibrugarh@spectrumhonda.in"
SANGAI HONDA,"GHARI, AIRPORT ROAD, IMPHAL, MANIPUR - 795001",Imphal,Manipur,7375006586,salesmanager@sangaihonda.in
