"Dealer Name","Address","City","State","Pincode","Contact"
"Harsha Toyota","Survey No. 112-10 B1, Beside Bhaskara Fertilizes, Gooty Road, NH 44, Loluru Cross(V), Gooty Road, NH 44, Loluru Cross(V),","Anantapur","Andhra Pradesh","515731","+91 40443 74437;+91 40399 94999"
"Leela Krishna Toyota","21-5-27/5, Opposite Venkateswaraswamy Temple, Narasimhapuram - Undi Road","Bhimavaram","Andhra Pradesh","534203","+91 1800 3000 3984"
"Radha Madhav Toyota","Radha Madhav Automobiles Pvt. Ltd, Sy. No. 647/A/B, NH 5, Ankireddypalem, Lal Puram, Ankireddypalem, Lal Puram","Guntur","Andhra Pradesh","522005","+91 90102 50008"
"Harsha Toyota","Harsha Auto Agencies Pvt Ltd, Door No: 38/173, Revenue Ward No:38, Madras Road, Kadapa","Kadapa","Andhra Pradesh","516002","+91 40399 97999"
"Leela Krishna Toyota","Sy. No. 33/P, Besides Chitra Marbles, Rayudupalem, Rayudupalem","Kakinada","Andhra Pradesh","533005","+91 90107 80006;1800 3000 3984"
"Harsha Toyota","Harsha Auto Enterprises Pvt. Ltd., Survey No. 233/1C, Besides Jubilee Petrol Pump, Besides Jubilee Petrol Pump,","Kurnool","Andhra Pradesh","518003","+91 40443 74437;+91 40399 97999"
"Radha Madhav Toyota","EKGDVA Building, Shop No. 4, Tagore Road, Tagore Road,","Machilipatnam","Andhra Pradesh","521001","+91 99 63 552517"
"Harsha Toyota","Harsha Automotive Pvt. Ltd., Survey No. 83, NH 5, Kakaturu Village, Venkatachalam(MD),","Nellore","Andhra Pradesh","524320","+91 40443 74437;+91 40399 97999"
"Radha Madhav Toyota","North Bye Pass Road Junction, Opp Mangamma College, NH 5, Prakasham District,","Ongole","Andhra Pradesh","523002","+91 1800 3000 3984;+91 90103 50008"
"Leela Krishna Toyota","Leela Krishna Automobiles Pvt. Ltd, Sy. No. 560/2B, NH 5, Palacherla Village  Opp. Auto Nagar, NH 5, Palacherla Village  Opp. Auto Nagar","Rajamundry","Andhra Pradesh","533103","+91 90107 80006;1800 3000 3984"
"Leela Krishna Toyota","Shop No. 3, Padmavathi Kalyanmandapam, Peddapadu Road","Srikakulum","Andhra Pradesh","532001","+91 1800 3000 3984;+91 99591 11426"
"Harsha Toyota","Harsha Auto Agencies Pvt. Ltd., Door No. 8-103, Renigunta - Chittoor Bypass Road, Renigunta - Chittoor Bypass Road,","Tirupati","Andhra Pradesh","517520","+91 40443 74437;+91 40399 97999"
"Radha Madhav Toyota","No 4-151, NH-5, Prasadampadu","Vijayawada","Andhra Pradesh","521108","+91 90101 50008;1800 3000 3984"
"Leela Krishna Toyota","D No. 164/1, Paradesipalem, Madhurawada","Visakhapatnam","Andhra Pradesh","530041","+91 99591 11426"
"Leela Krishna Toyota","54-10-9, Maddilapalem, Isukathota","Visakhapatnam","Andhra Pradesh","530022","+91 1800 3000 3984;+91 99591 11426"
"Camdir Toyota","Camdir's Motors LLP, Lekhi Village, Near Nigla Nissan, NH415, Naharlagun,","Naharlagun","Arunachal Pradesh","791110","+91 81318 20945"
"Gargya Toyota","Village- Simlajhar, PO - Moutupuri, Dist. Baksa,","Barpeta Road","Assam","781316","+91 96780 73205"
"Borah Toyota","Borah Motors Pvt. Ltd., NH 37, Kumaranichiga, New Tekela Gaon,","Dibrugarh","Assam","786008","+91 94 35 745226;+91 373 237 0051"
"Gargya Toyota","Gargya Autocity Pvt. Ltd., Opp. DTO Kamrup (M), NH 37 (Guwahati Bypass), Betkuchi,","Guwahati","Assam","781040","+91 99541 98900"
"Gargya Toyota","Gargya Autocity Pvt. Ltd., Old NH 37, Near SBI Khutikotia Branch, Near SBI Khutikotia Branch,","Nagon","Assam","782002","+91 94355 52168"
"Podder Toyota","Chirukandi Road , Ramnagar,","Silchar","Assam","788003","+91 3842 268 780"
"Budha Toyota","Khata No. 221, Plot No. 980, Village Matihani, PS Magadh University, Bodhgaya, Bodhgaya,","Gaya","Bihar","824232","+91 92636 39632"
"Rudra Toyota","Rudra Automotives Private Limited, Mauje Bhikhanpur Dih, P.S. Sadar, District Muzaffarpur, District Muzaffarpur,","Muzaffarpur","Bihar","842001","+91 76339 95800;+91 70330 41111"
"Budha Toyota","Simli Murarpur, Near Didarganj Checkpost, P S Didarganj, Nh 30, Nh 30,","Patna","Bihar","800008","+91 92636 39639;+91 92636 39632"
"Budha Toyota","145, B.R House, PATLIPUTRA COLONY OPPOSITE SBI BRANCH , PATNA, Patliputra Colony, Patliputra Colony,","Patna","Bihar","800013","+91 92636 39632"
"Globe Toyota","B-51, Phase VI, Industrial Area, Mohali,","Chandigarh","Chandigarh","160009","1800 200 3150;+91 96460 49108"
"Pioneer Toyota","No. 177, H & I , Industrial Area, Phase I,","Chandigarh","Chandigarh","160002","1800 137 4567"
"JD Toyota","NH-06, Village Sikola, Near D Mart, Durg","Bhilai","Chhattisgarh","490020","+91 62620 33701"
"JD Toyota","Near Reliance Petrol Pump, NH 130, Bilaspur Raipur Highway, Village Parsada,","Bilaspur","Chhattisgarh","495001","+91 91110 21001;+91 80581 33330"
"Kaizen Toyota","Kaizen Motoventures Pvt. Ltd., Ring Road No. 1, Sarona, Sarona,","Raipur","Chhattisgarh","492001","+91 77147 44400"
"Espirit Toyota","Spirited Auto Cars (I) Ltd., Plot No. F-7, Blockb-1, Mohan Cooperative Industrial Estate, Mohan Cooperative Industrial Estate,","Delhi","Delhi","110044","+91 11662 74000;+91 11662 74001;+91 72900 95001"
"Galaxy Toyota","Galaxy Toyota Showroom, G1, Station Box, Chattarpur Metro Station, Chattarpur,","Delhi","Delhi","110074","+91 1166 763666;+91 99104 87955"
"Galaxy Toyota","Sales, Plot No. 23, Sector 20,Near Sector 9, Metro Station, Dwarka,","Delhi","Delhi","110075","+91 11 4347 7777;+91 78 38 193193"
"Galaxy Toyota","Sales & Service, 69/1A, Naja fgarh Road, Moti Nagar Crossing,","Delhi","Delhi","110015","+91 78 38 195195;+91 11418 77777"
"Galaxy Toyota","Sales, 9A-Ring Road, Lajpat Nagar - IV, Opposite Moolchand Medicity., Opposite Moolchand Medicity.","Delhi","Delhi","110024","+91 11465 77777"
"Galaxy Toyota","Sales, A - Block, Plot - II,Shalimar District Centre, Shalimar Place, Shalimar Place,","Delhi","Delhi","110088","+91 11 4001 1111;+91 95829 40297"
"Uttam Toyota","No. 95, F I E, Patparganj, Industrial Area,","Delhi","Delhi","110092","+91 98716 37000"
"Sharayu Toyota","Survey No. 16/1, Colvale Industrial Estate , Colvale,","Bardez","Goa","403513","+91 97637 18485;+91 77740 33842"
"Sharayu Toyota","NH 17, Survey No. 116/3, Near Kesarval Garden Retreat Hotel , Kesarwal,","Cortalim","Goa","403710","+91 98504 69055"
"Sharayu Toyota","Shop No. 1, 2, 3 & 4, Sapna Seamist Kerant, Caranzalem,","Panjim / Panaji","Goa","403002","+91 98221 02446"
"Infinium Toyota","842, Sarkhej Gandhinagar Highway, Near YMCA Club,","Ahmedabad","Gujarat","380051","+91 79 6604 1400"
"Infinium Toyota","Infinium Motors Pvt. Limited, Opp. Ruby Rushi Coach Body Builder, National Highway No.8, National Highway No.8,","Ahmedabad","Gujarat","382330","+91 79 6604 1400"
"Narmada Toyota","Sy. No. 272 & 275, Between Samarkha & Ravlapura , B/S Spice Gas Station , B/S Spice Gas Station ,","Anand","Gujarat","387310","+91 90 99 916631;+91 90 99 916632"
"Nanavati Toyota","Plot No. A/1, Survey No. 51, Near Nandida Chokdi, Kadodara Bardoli Highway, Kadodara Bardoli Highway","Bardoli","Gujarat","394602","+91 76988 88880;+91 99250 18245"
"Nanavati Toyota","Hotel Shree Plaza Building, Opp. Bharuch Railway Station, Near Golden Bridge,","Bharuch","Gujarat","392002","+91 76988 88880;+91 99250 18245"
"Jai Ganesh Toyota","Jai Ganesh Autocorp Pvt. Ltd., Plot No. 3/8, Opp. Akhlol Octroi Naka, Near Nari Chowkdi, Near Nari Chowkdi,","Bhavnagar","Gujarat","364004","+91 27824 44444"
"Infinium Toyota","Infinium Motors Pvt. Ltd., Survey No.12, Near PSL Industries Ltd., Near PSL Industries Ltd.,","Gandhidham","Gujarat","370240","+91 79 6604 1400"
"Infinium Toyota","Near Sabar Dairy, Himatnagar - Ahmedabad Highway,","Himatnagar","Gujarat","383006","+91 79 6604 1400"
"Jai Ganesh Toyota","Jai Ganesh Auto Corp. Pvt. Ltd., Shree Ram Estate, Plot No. 18/A, Opp. Taluka Police Station, Sabalpur Village, Opp. Taluka Police Station, Sabalpur Village,","Junagadh","Gujarat","362037","+91 81559 99917"
"Infinium Toyota","Old Himalaya Mall, Opp. Wide Angle, Mehsana-Ahmedabad Road,","Mehsana","Gujarat","384001","+91 79 6604 1400"
"Rathod Toyota","Block no. 1064 , Navsari,","Navsari","Gujarat","396463","+91 89058 88999"
"Infinium Toyota","Infinium Motors (Guj) Pvt Ltd., Sr. No. 64, AT & PO. Kangasiyali, Opp. Vikram Steel, Lodhika,","Rajkot","Gujarat","360004","+91 79 6604 1400"
"Nanavati Toyota","Nanavati Motors, 220+328, GIDC, Bhatpore, Opp. ONGC, Opp. ONGC,","Surat","Gujarat","394510","+91 76988 88880;+91 99250 18245"
"Nanavati Toyota","B-1, Deepkamal Complex, Near Sarthana Zoo, Sarthana Jakat Naka, Sarthana Jakat Naka,","Surat","Gujarat","395006","+91 99250 18245;+91 76988 88880"
"Nanavati Toyota","FP-58, TP-32, Beside Hariom Petrol Pump, L.P Savani Road, Adajan,","Surat","Gujarat","395009","+91 76988 88880"
"Infinium Toyota","Opp. GSFC, NH No. 8, PO Dashrath,","Vadodara","Gujarat","391740","+91 79 6604 1400"
"Narmada Toyota","Narmada Cars Pvt. Ltd. , 987 / 10 GIDC. , Makarpura,","Vadodara","Gujarat","390010","+91 90999 16641;+91 90999 16642;+91 99798 80800"
"Rathod Toyota","Survey No. 315/1, NH No. 48 , Balitha,","Vapi","Gujarat","396191","+91 89058 88999"
"Globe Toyota","Globe Automobiles Pvt. Ltd., Opp. Sppring Field School, NH 22, V.P.O - Sadopur,","Ambala","Haryana","134003","1800 200 3150;+91 97295 49126"
"Thirty Six Toyota","Thirty Six Automobiles Pvt. Ltd., 14/7 Milestone, Main Mathura Road,","Faridabad","Haryana","121003","+91 129 429 3636"
"Malik Toyota","Adjacent Maniram & Brothers Petrol Pump, HPCL, Fatehbad - Sirsa road,","Fatehbad","Haryana","121003","+91 99 96 788821"
"MGF Toyota","Silverton Tower, 1-03, Ground Floor, Sector-50, Golf Course Extn. Road,","Gurgaon","Haryana","122002","+91 124 441 5566"
"MGF Toyota","36 Ground Floor, MGF Megacity Mall, MG Road,","Gurgaon","Haryana","122002","+91 12448 33555"
"Uttam Toyota","39 Mile Stone, Delhi - Jaipur National Highway, NH - 8, SEC - 35","Gurgaon","Haryana","122004","+91 98716 37000"
"Malik Toyota","Malik Automotives Pvt. Ltd., 14.5 Mile Stone, NH 65, Chandigarh Road,","Hissar","Haryana","125001","+91 166 232 2888;+91 99 96 788880;+91 99 96 788881"
"Satyam Toyota","A-54, MIE, Part-B, Delhi-Rohtak Road, Opp Metro Pillar No. 780, Opp Metro Pillar No. 780","Jhajjar","Haryana","124507","+91 12762 24100"
"Globe Toyota","Safidon Road, Auto Market, Near Sarvodya Hospital,Jind, Haryana","Jind","Haryana","126102","1800 200 3150;+91 90508 88071"
"Globe Toyota","Plot No. 200 to 204 A, Kaithal - Ambala Road, Near New Bypass (3 Km Mile Stone),","Kaithal","Haryana","136027","1800 200 3150;+91 99966 49102"
"Globe Toyota","Opp. PTC Madhuban, GT Road, Karnal","Karnal","Haryana","132001","1800 200 3150;+91 98960 49112"
"Thirty Six Toyota","Next to Omaxe City NH 2, Delhi Mathura Road,","Palwal","Haryana","121102","+91 129 429 3636"
"Pioneer Toyota","Em Pee Motors Ltd., Plot No. 71 , Industrial Area, Phase -1,","Panchkula","Haryana","134113","1800 137 4567"
"Globe Toyota","Village Karhans Tehsil, Samalkha, Dist. Panipat, Dist. Panipat","Panipat","Haryana","132101","1800 200 3150;+91 83960 88878"
"Uttam Toyota","Plot No.  511, Near Sector -3, South City Bypass Road","Rewari","Haryana","123401","+91 98716 37000"
"Satyam Toyota","Satyam Autoserve Pvt. Ltd. , Hissar Road, Near Old Bangur Cinema Flyover,","Rohtak","Haryana","124001","+91 12622 43400;+91 88130 88123"
"Malik Toyota","Khewat No. 21, Khautni No. 35, Dabwali Road, Village Shamsabad, Tehsil Sirsa","Sirsa","Haryana","125055","+91 85728 88801"
"Globe Toyota","Globe Automobiles Pvt. Ltd., NH 73 (New NH 7), Village Mauja Kail, Village Mauja Kail,","Yamunanagar","Haryana","135003","1800 200 3150;+91 83980 00311"
"Sant Toyota","Sant Autowings Pvt. Ltd., Village Parel, Near SBI Sultanpur, Tehsil & District Chamba,","Chamba","Himachal Pradesh","176314","+91 18922 60399"
"Anand Toyota","Village Chattar, Opp. View Automobiles (Hyundai Service Station), PO Bhira,","Hamirpur","Himachal Pradesh","177001","+91 80912 11111;+91 92183 18317"
"Sant Toyota","Sant Autowings Pvt. Ltd., Matour Palampur Road, Kachiyari","Kangra","Himachal Pradesh","176001","+91 78077 79201;+91 80910 03755"
"Anand Toyota","Village Luna Pani (Near Nagchala), Mandi Sadar, Mandi (H.P.)","Mandi","Himachal Pradesh","175021","+91 80912 11111;+91 92183 18317"
"Anand Toyota","NH-22, Near Top Gear, Tara Devi,","Shimla","Himachal Pradesh","171010","+91 80912 11111;+91 92183 18317"
"Anand Toyota","Anand Autocare Pvt. Ltd., NH 22 Barog Bypass, Village Anji,","Solan","Himachal Pradesh","173211","+91 80912 11111;+91 92183 18317"
"Shree Toyota","0 Kms Milestone, Narwal, Opp. Transport Nagar, Narwal,","Jammu","Jammu & Kashmir","180011","+91 19124 90490;+91 19124 90492"
"Ansari Toyota","M/S Lands End Automotive Pvt. Ltd., Parimpora Bypass Near Shalteng Crossing, NH 1,","Srinagar","Jammu & Kashmir","190010","+91 194 249 4848"
"Dhanbad Toyota","Near Nero More, Bagsuma, Govindpur,","Dhanbad","Jharkhand","828109","+91 75494 67777"
"Bebbco Toyota","6th Phase, Adityapur Industrial Area, Main Road, Gamharia,","Jamshedpur","Jharkhand","831013","+91 92 34 001111;+91 657 668 8000"
"Bebbco Toyota","Near Womens College, Bistupur,","Jamshedpur","Jharkhand","831001","+91 92040 52473;+91 70792 45555"
"Heritage Toyota","Heritage Landmarks Autoworld Pvt. Ltd., Near Kamre Ashram, Ratu Road, P.O. Kamre","Ranchi","Jharkhand","835222","1800 102 1028"
"Heritage Toyota","Heritage Landmarks Autoworld Pvt. Ltd., Regent Tower, Opp. Adivasi Hostel, Old Jail Road","Ranchi","Jharkhand","834001","1800 102 1028"
"Nandi Toyota","Motor World Ltd., Sy 6/1, 6/1,Thalaghattapura, Kanakpura Main Road,","Bangalore","Karnataka","560062","+91 80 4043 1111"
"Nandi Toyota","Motor World Ltd., 46/3A, Kudlu Gate, Hosur Road, , Hosur Road,","Bangalore","Karnataka","560068","+91 80 4043 1111"
"Ravindu Toyota","No. 25, Chord Road, Rajajinagar Industrial Suburb, Opp. Iskon Temple,","Bangalore","Karnataka","560022","+91 80582 45555"
"Ravindu Toyota","Vaswani Victoria , No. 30 , Victoria Road,","Bangalore","Karnataka","560025","+91 80582 45555"
"Ravindu Toyota","Ravindu Motors Pvt. Ltd., No. 80/3, Bellandhur Village - Post. , Varthur Hobli , Varthur Hobli ,","Bangalore","Karnataka","560037","+91 80582 45555"
"Ravindu Toyota","Ravindu Motors Pvt Ltd., No. 3/1, Avalahalli Village -  Virgonagar - Post ., Bidarahalli Hobli , Bidarahalli Hobli ,","Bangalore","Karnataka","560049","+91 80582 45555"
"Viva Toyota","No. 30, Pride Quadra, Bellary Main Road, Hebbal,","Bangalore","Karnataka","560024","+91 80 67 031000"
"Viva Toyota","Viva Magna Wheelers Pvt. Ltd., Survey No. 171/1, Hunasamaranahalli Village, Jala Hobli, Bangalore North Taluk,","Bangalore","Karnataka","562157","+91 80 67 031000"
"Viva Toyota","# 234, Pantharapalaya, Mysore Road, Opp to BHEL,","Bangalore","Karnataka","560039","+91 80670 31000"
"Shodha Toyota","Poona-Bangalore Road, Opp. Suvarna Soudha, Bastawad Village, Near Halga,","Belgaum","Karnataka","590003","+91 83623 07777"
"Shodha Toyota","Shodha Motors Pvt. Ltd., Shop No 003 Ground floor Shri Balaji Arcade, Mahatma Phule Road, Shahapur,","Belgaum","Karnataka","590003","+91 08312 53320"
"Shodha Toyota","# 867, Beside Pooja International Hotel, Old Pune-Bangalore Road,","Davangere","Karnataka","580002","+91 81922 33333"
"Karuna Toyota","Karuna Motors Gulbarga Pvt. Ltd. , Opp. KHB Shopping Mall, Bilgundi Garden,","Gulbarga","Karnataka","585105","+91 78299 90022;+91 78299 90001"
"BJS Toyota","BJS Motors Pvt. Ltd., #457/A1 Sai Baba Temple Road, Rajeev Nagar,","Hospet","Karnataka","583203","+91 8394 294 400"
"Shodha Toyota","Opp. K S F C, Hubli Dharwad Road (NH 4), Rayapur,","Hubli","Karnataka","580009","+91 83623 07777"
"Palace Toyota","Balaji Auto Enterprises (Mysore) Pvt. Ltd., Survey No. 29 , C.V Shankar Road(Hill Rd). , C.V Shankar Road(Hill Rd). ,","Madikeri","Karnataka","571201","+91 70226 71919"
"Palace Toyota","Katha no 100/146, Bangalore-Mysore Road, Kothathi hobli Guttulu Grama, Kothathi hobli Guttulu Grama,","Mandya","Karnataka","571401","+91 82142 48222"
"United Toyota","United Cars  Pvt. Ltd., NH 75, Near Padil Junction, Padil,","Mangalore","Karnataka","575007","+91 824 227 6639"
"Palace Toyota","Balaji Auto Enterprises (Mysore) Pvt. Ltd., Sy. No. 33A, Site No. 70/1, 70/2 & 170 , Coorgalli Village , Coorgalli Village ,","Mysore","Karnataka","570018","+91 821 424 8222"
"Palace Toyota","Balaji Auto Enterprises Mysore Pvt Ltd, No. 1216, Ground Floor, Kantharaj Urs Road, Krishnamurthy Puram,","Mysore","Karnataka","570004","+91 82142 48222"
"Karuna Toyota","Karuna Motors, Near Yermers Camp Cross, Hyderabad Road,","Raichur","Karnataka","584101","+91 7829 990021"
"Shakti Toyota","#125/2, Khata No. 1302, Bypass Road , Urgadoor Extn.,","Shivamogga","Karnataka","577201","+91 81822 41666;+91 81822 41166"
"Ravindu Toyota","No. 14/3, Melekote Outer Ring Road , Sadashivanagara,","Tumkur","Karnataka","572105","+91 80220 43888;+91 80582 45555"
"United Toyota","D No. 2-18D, On NH 66, Udyavara, Udyavara,","Udupi","Karnataka","574118","+91 820 253 2377"
"Amana Toyota","VPK Motors Pvt. Ltd., NH 17,  Cheruvannur, Kolathara PO,","Calicut (Kozhikode)","Kerala","673655","+91 98957 61121;+91 81292 78484"
"Amana Toyota","VPK Motors Pvt. Ltd., 1/118 A&B, Chungham, West Hill","Calicut (Kozhikode)","Kerala","673005","+91 49566 00888"
"Nippon Toyota","Nippon Motor Corporation Pvt. Ltd., IX/461 A.B, Panampilly College Jn , NH 47, Potta, Chalakudy, Thrissur,","Chalakudy","Kerala","680722","+91 4802 704666"
"Nippon Toyota","Nippon Motor Corporation Pvt. Ltd., X / 314 K , NH 47 Byepass , NH 47 Byepass ,","Cochin","Kerala","682304","+91 48429 30000"
"Nippon Toyota","Nippon Motor Corporation Pvt. Ltd., X1X/9C, Nippon Towers , NH 47, HMT Junction , NH 47, HMT Junction ,","Cochin","Kerala","683104","+91 4842 930000"
"Nippon Toyota","Nippon Motor Corporation Pvt. Ltd., Sy. No. 666/666/3,685/1,2 , Konathukunnu P.O., Vellangaloor , Konathukunnu P.O., Vellangaloor ,","Irinjalkuda","Kerala","680123","+91 48429 30000"
"Amana Toyota","VPK Motors Pvt. Ltd., Thottada PO,","Kannur","Kerala","670007","+91 98957 61121;+91 81292 78484"
"Amana Toyota","Building No. 470/B&C, NH 17,","Kasaragod","Kerala","671316","+91 98957 61121;+91 81292 78484"
"Nippon Toyota","Nippon Motor Corporation Pvt. Ltd., NH 47 , Ramapuram, Pathiyoor , Ramapuram, Pathiyoor ,","Kayamkullam","Kerala","690508","+91 48429 30000"
"Nippon Toyota","Nippon Motor Corporation Pvt. Ltd., Parakkulam  Jn , Kottiyam P.O.,","Kollam","Kerala","691571","+91 48429 30000"
"Nippon Toyota","Nippon Motor Corporation  Pvt. Ltd., MC Road (Kottarakara-Trivandrum Road) , Pulamon P.O., Eyyamkunu Kizhakkekara,","Kottarakara","Kerala","691531","+91 48429 30000"
"Nippon Toyota","Nippon Motor Corporation Pvt. Ltd., Nattakom PO. , MC Road,","Kottayam","Kerala","686013","+91 48429 30000"
"Nippon Toyota","No - 12/284 , Alenchery Building Thellakom (PO),","Kottayam","Kerala","686016","+91 48127 92381"
"Amana Toyota","VPK Motors Pvt. Ltd., NH 213, PO.  Ramapuram, Panangangara,","Mallapuram","Kerala","679350","+91 98957 61121;+91 81292 78484"
"Amana Toyota","XV/233-A Tanur Road,Moochikkal, Tirur,","Mallapuram","Kerala","676307","+91 98957 61121;+91 81292 78484"
"Nippon Toyota","Nippon Motor Corporation Pvt. Ltd., Mekkadampu PO. , Valakom,","Muvattupuzha","Kerala","682316","+91 48429 30000"
"Amana Toyota","VPK Motors Pvt. Ltd., 7/749, NH 213, Poriyani,  Mundur PO,","Palakkad (Palghat)","Kerala","678592","+91 98957 61121;+91 81292 78484"
"Nippon Toyota","Nippon Motor Corporation Pvt. Ltd., 317/9, Kozanchery Road , Churulikkodu P. O.,","Pathanamthitta","Kerala","689645","+91 48429 30000"
"Nippon Toyota","Nippon Motor Corporation Pvt. Ltd., MC Road , Thukalassery,","Thiruvalla","Kerala","689101","+91 48429 30000"
"Nippon Toyota","Nippon Motor Corporation Pvt. Ltd., XXXVII/175B,B1 , Vengallor P.O. , Vengallor P.O. ,","Thodupuzha","Kerala","685608","+91 48429 30000"
"Nippon Toyota","Nippon Motor Corporation Pvt. Ltd., 14/672/6, Guruvayoor Road , Puzhakkal , Puzhakkal ,","Thrissur","Kerala","680003","+91 48429 30000"
"Nippon Toyota","Nippon Motor Corporation Pvt. Ltd., Sy. No. 1595/A.3.1 , Vallakadavu P.O. , Vallakadavu P.O. ,","Trivandrum","Kerala","695008","+91 48429 30000"
"Nippon Toyota","Survey No 236/16,Nippon Motor Corporation Pvt. Ltd., NH 47, Bye Pass, Attinkuzhi, Near Technopark , Attipra,Kazhakoottam P.O. Thiruvananthapuram,","Trivandrum","Kerala","695582","+91 48429 30000"
"Amana Toyota","VPK Motors Pvt. Ltd., NH 17, Karimbanapalam","Vadakara","Kerala","673101","+91 98957 61121;+91 81292 78484"
"Amana Toyota","NH 212, PO: Muttil North, Variyad, Variyad,","Wayanad","Kerala","673122","+91 98957 61121;+91 81292 78484"
"Rajpal Toyota","Rajpal Abhikaran (Bhopal) Pvt. Ltd., Opp. Hotel 'The Mark' , Hoshangabad Road,","Bhopal","Madhya Pradesh","462026","+91 89896 84216;+91 75566 40000;+91 75566 40001"
"Satkar Toyota","Chhindwara-Nagpur N.H. 26B, Near Tulsidham Mandir , Village-Shikarpur,","Chhindwara","Madhya Pradesh","480001","+91 93 01 234543"
"Anant Toyota","Near Hotal Sara, AB Road, Guna","Guna","Madhya Pradesh","473001","+91 91091 14918;+91 95845 43888;+91 75124 24584"
"Anant Toyota","M/S Shree Tulja Bhavani Automobiles Pvt. Ltd., Plot No. 109/1/3, Village Naugaon, Village Naugaon,","Gwalior","Madhya Pradesh","474001","+91 91091 14939"
"Anant Toyota","Talawali Chanda,A.B. Road, Dewas Naka,","Indore","Madhya Pradesh","453771","+91 95160 03003"
"Sanghi Toyota","6, Manoramaganj, Near Palasia Square  A.B Road, Indore:452001","Indore","Madhya Pradesh","452001","+91 73140 03133;+91 73140 03134;+91 79700 01234"
"Commercial Toyota","Mauza Ghana, Nagpur Road, Ghana,","Jabalpur","Madhya Pradesh","482001","+91 84610 22225;+91 98939 15432"
"Automotive Toyota","NH-75, Rewa Road, Kripalpur, Satna,","Satna","Madhya Pradesh","485113","+91 76722 51148"
"Wasan Toyota","Plot no 85, 86 Survey no 71 to 75, Kedgaon Industrial Estate, Kedgaon, Nagar-Pune road,","Ahmednagar","Maharashtra","414005","+91 96040 38234"
"Grace Toyota","Cosmic Grace auto India Pvt Ltd., S.No. 59/1, Mauja Rahatgaon","Amravati","Maharashtra","444603","+91 72121 90030"
"Sharayu Toyota","Sharayu Autolinks Pvt. Ltd., Survey No. 154, Waladgaon , Beside Reliance LPG Station, Opposite Crompton Greaves , Beside Reliance LPG Station, Opposite Crompton Greaves ,","Aurangabad","Maharashtra","431136","+91 20 4076 4046"
"Sharayu Toyota","Survey No. 122/123, At Post Medad , Morgaon Road , Tal. Baramati , Tal. Baramati ,","Baramati","Maharashtra","413102","+91 20 4076 4046"
"Grace Toyota","Khasra No. 23/2, Plot No. 12, Opp. Saini Petrol Pump, Opp. Saini Petrol Pump,","Chandrapur","Maharashtra","442005","+91 7172 287 303"
"Chaudhari Toyota","Gat No.15 (Old Gat No. 204), NH 3, Lading Shivar, Near Awdhan MIDC & Toll Plaza,","Dhule","Maharashtra","424311","+91 2562 261 399;+91 257 302 7777"
"Chaudhari Toyota","Gat No. 16 & 18, NH 06 A/P- Manyarkheda,","Jalgaon","Maharashtra","425001","+91 25766 97799;+91 25766 97700"
"Sharayu Toyota","New Indrayani Complex, Chandanzira , Jalna-Aurangabad Road,","Jalna","Maharashtra","431203","+91 20 4076 4046"
"Sonak Toyota","Sonak Automobiles Pvt. Ltd., Plot No. 1071, Mumbai-Goa Highway,Opposite Neelams Countryside, At. Post. Janawali, Tal - Kankavali,Dist:Sindhudurg","Kankavali","Maharashtra","416602","+91 96079 63023"
"Sonak Toyota","Gat No-334 & 338, A/P Mouje Sambhapur, Taluka - Hatkanangale","Kolhapur","Maharashtra","416122","+91 23024 65511"
"Rajyog Toyota","Rajyog Auto Pvt. Ltd. , Maharana Pratap, Nanded Road,","Latur","Maharashtra","413512","+91 23822 79279"
"Lakozy Toyota","1, Mahal Industrial Estate, Mahakali Caves Road, Andheri (E),","Mumbai","Maharashtra","400093","+91 22619 27777"
"Lakozy Toyota","504, Link Road, Chicholi Bunder, Malad (West),","Mumbai","Maharashtra","400064","+91 22 6192 7777"
"Madhuban Toyota","16, LBS Marg, Kurla West,","Mumbai","Maharashtra","400070","+91 22 4243 1999"
"Madhuban Toyota","Fortune Classic,  C.Dhurandhar Road, Off 15th Road, Khar (West ),","Mumbai","Maharashtra","400052","+91 22 4243 1999"
"Madhuban Toyota","Unit No. 2&3, Prathmesh Complex, Raghuvanshi Mills Compound, Senapati Bapat Marg, Lower Parel","Mumbai","Maharashtra","400013","+91 22661 31500"
"Madhuban Toyota","CR2 Mall, Barister Rajni Patel Marg, Unit No. 32 and 101, Unit No. 32 and 101,","Mumbai","Maharashtra","400021","+91 22667 01500"
"Millennium Toyota","Cosmos, CTS No. 399 ,  S.V. Road, Near Golden Tobacco, Vile Parle (West).","Mumbai","Maharashtra","400056","+91 82912 80580"
"Wasan Toyota","Wasan Brothers Pvt. Ltd., Plot 162, CST Rd, Sindhi Society, Chembur,","Mumbai","Maharashtra","400071","+91 22685 41234;+91 97029 14446"
"Grace Toyota","National Highway No 7, Opp. All India Radio, Kamptee Road,","Nagpur","Maharashtra","441002","+91 712 666 9999;+91 88885 02222;+91 88885 12222"
"Grace Toyota","222, Vishnu Vaibhav Complex, Palm Road,Civil Lines, Nagpur","Nagpur","Maharashtra","440001","+91 7126 604665;+91 7122 529889;+91 7126 669999"
"Patni Toyota","Patni Auto Services LLP, D3 MIDC, Hingna, Nagpur","Nagpur","Maharashtra","440028","+91 71046 74000"
"Rajyog Toyota","Bhagat Singh Chowk , Asarjan Road,","Nanded","Maharashtra","431605","+91 77570 30989;+91 91683 22322"
"Chaudhari Toyota","Chaudhari Cars Pvt. Ltd., Gat No. 90/2A, Shahada Prakasha Road, Opp. Poha Factory, Opp. Poha Factory,","Nandurbar","Maharashtra","425412","+91 2564 202 198;+91 257 302 7777"
"Wasan Toyota","Kundanlal Wasan Nagar, Off Mumbai - Agra Road,","Nasik","Maharashtra","422009","+91 22 6653 9999"
"Wasan Toyota","Wasan Brothers Pvt. Ltd., No. 16 & 17, Prithvi Park, Sector 30, Sector 30,","Navi Mumbai","Maharashtra","400703","+91 22 6653 9999"
"Wasan Toyota","Near Palasphe Phata, Old Mumbai-Pune Highway,","Panvel","Maharashtra","410206","+91 21432 20999;+91 21432 20123;+91 21432 20555"
"K Kothari Toyota","Pinnacle Square, S No 51/1A, Near Chandani Chowk, Mumbai Highway, Bavdhan.","Pune","Maharashtra","411021","+91 20485 39600;+91 70309 69696"
"Sharayu Toyota","YM Motors Pvt. Ltd., Plot No. T27 , Bhosari Industrial Estate , Bhosari Industrial Estate ,","Pune","Maharashtra","411026","+91 20 4076 4046"
"Shaw Toyota","ICC Trade Tower SN 12/13/14, Ground Floor, ICC Trade Tower, Senapati Bapat Road, Senapati Bapat Road,","Pune","Maharashtra","411016","+91 20674 99555"
"Rajyog Toyota","Sur. No. 485/2/1/3 , Old Poona Naka, Sambhaji Chowk,","Solapur","Maharashtra","413002","+91 96079 44438"
"Lakozy Toyota","Behind Indian Oil Petrol Pump, Near Kashimira Signal, Western Express Highway, Mira Road.","Thane","Maharashtra","401104","+91 22619 27777"
"Lakozy Toyota","Apex Industries, Ground Floor, Western Express Highway, Waliv, Vasai","Thane","Maharashtra","401202","+91 22619 27777"
"Millennium Toyota","Plot No. B-27, Opp. Wagle Telephone Exchange, Main Road, Wagle Industrial Estate,","Thane","Maharashtra","400604","+91 82912 80580"
"Millennium Toyota","Survey Number - 57, Hissa No. 1 Near Khidkali, Shil Phata Road, Shil Phata Road,","Thane","Maharashtra","421204","+91 82912 80580"
"Grace Toyota","Opposite Udyog Bhavan, Near Maharashtra Motors,Dharwa road,","Yavatmal","Maharashtra","445001","+91 7232 240 402"
"Punya Toyota","Ghari, Airport Road, Imphal West, Manipur-795001.","Imphal","Manipur","795001","+91 85750 37255"
"Highland Toyota","Mawiong-Rim, G.S. Road, East Khasi Hills,","Shillong","Meghalaya","793016","+91 364 291 0315"
"Okusa Toyota","Okusa Automobiles Pvt. Ltd., Near Don Bosco Statue , Walford,","Dimapur","Nagaland","797112","+91 3862 224 756"
"Espirit Toyota","Maharani Market Complex, At.Post - Turanga, In front of FCI Godown,","Angul","Orissa","759123","+91 78730 44152"
"Espirit Toyota","Jaydev Vihar - Nandan Kanan Road, Patia, Khurda Dist,","Bhubaneshwar","Orissa","751024","+91 78730 44152"
"Espirit Toyota","2514, NH 5, Telengapentha, Cuttack,","Cuttack","Orissa","754001","+91 78730 44152"
"Espirit Toyota","Field Motor Pvt. Ltd., Plot No.  B 12 & B 13, Kalunga Industrial Estate, Kalunga Industrial Estate,","Rourkela","Orissa","770031","+91 78730 45546"
"Espirit Toyota","AT/PO - Bareipali, Sambalpur Town, P.S - Ainthapali,","Sambalpur","Orissa","769006","+91 78730 45546"
"Castle Toyota","218/219, GT Road Sultanwind, Daburji,","Amritsar","Punjab","143001","+91 183 306 7317;+91 87 25 003605;+91 98 76 002115"
"Pioneer Toyota","Dabwali Road , Near Focal Point,","Bathinda","Punjab","151001","1800 137 4567"
"Castle Toyota","Village Chak Gujran, PO. Niara, Opp. Reliance Petrol Pump, Jalandhar Road,","Hoshiarpur","Punjab","144401","+91 18822 60405;+91 18822 60406"
"Castle Toyota","GT Road, Paragpur,","Jalandhar","Punjab","144005","+91 18130 70000;+91 18130 70001;+91 18130 70002"
"Castle Toyota","ANR Motors Pvt. Ltd., Near Jalndhar Kunj, Kapurthala Road,","Jalandhar","Punjab","144002","+91 82838 28318"
"Globe Toyota","Globe Automobiles Pvt. Ltd., GT Road, Jugiana,","Ludhiana","Punjab","141020","1800 200 3150;+91 98880 63713"
"IJM Toyota","IJM Motors Private Limited, Village Bhanohar, Ferozpur Road,","Ludhiana","Punjab","141102","+91 82890 37374"
"Castle Toyota","Opp. Adarsh Colony, Near St. George School, Jalandhar Road,","Nakodar","Punjab","144005","+91 98760 02103"
"Castle Toyota","Village Langorya, Chandigarh Road,","Nawanshahr","Punjab","144516","1800 137 0702"
"Pioneer Toyota","Plot No. C 154-156, Focal Point , Industrial Area,","Patiala","Punjab","147001","1800 137 4567"
"Globe Toyota","Globe Automobiles Pvt. Ltd., Patiala Road, Bhindra,","Sangrur","Punjab","148001","1800 200 3150;+91 75270 41011"
"Castle Toyota","ANR Motors Pvt. Ltd., Village Piddi, Harike Road,","Tarn Taran","Punjab","143401","+91 98 76 001806"
"Om Toyota","Om Metals Auto Pvt. Ltd., Plot No. A-1 , Nareli Road , Nareli Road ,","Ajmer","Rajasthan","305023","+91 1800 103 5616"
"Aravali Toyota","Plot No. 3, Keshav Nagar, Jai Marg","Alwar","Rajasthan","301001","+91 77 27 044441"
"Rishi Toyota","NH 15 By Pass, Opp. Thar Hospital , Chhohta Choraya Road,","Barmer","Rajasthan","344001","+91 1800 180 1899"
"Rajendra Toyota","Goenka Auto Sales Pvt. Ltd., Near Essar Petrol Pump, Biliya,","Bhilwara","Rajasthan","311001","+91 77069 21332;+91 77069 21333"
"Rishi Toyota","Chandraudai Automobiles Pvt. Ltd., NH 89, Jaipur - Jodhpur Bypass , Naino Ka Baas,","Bikaner","Rajasthan","334022","+91 1800 180 1899"
"Sonak Toyota","Opp. Mini Secratariat, In Front Of SP Office, Civil Lines,","Hanumangarh","Rajasthan","335512","+91 96 72 078614;+91 96 72 078618"
"Om Toyota","F 99, Road No. 7 , VKI Area , VKI Area ,","Jaipur","Rajasthan","302013","+91 1800 103 5616"
"Om Toyota","Shop No. 1-5, Om Towers, Block-A , MI. Road,","Jaipur","Rajasthan","302001","+91 1800 103 5616"
"Rajesh Toyota","Rajesh Motors (cars) Pvt. Ltd., Unique Destination Building, Near Nehru Garden, Tonk Road,","Jaipur","Rajasthan","302015","+91 14130 27911;+91 14130 27922"
"Rishi Toyota","NH 62, Main Pali Road , Kudi Bhagtasni,","Jodhpur","Rajasthan","342005","+91 291 272 9999"
"Om Toyota","Om Metals Auto Pvt. Ltd., Special 1 & 1-A,IPIA , Jhalawar Road , Jhalawar Road ,","Kota","Rajasthan","324005","+91 91161 33154"
"Rishi Toyota","Krishna Vihar Colony , Didwana Road,","Kuchaman City ","Rajasthan","341508","+91 1800 180 1899"
"Rishi Toyota","Sufi Market , Moondwa Road,","Nagaur","Rajasthan","341001","+91 1800 180 1899"
"Om Toyota","Near Gokulpura Bus Stand, NH 11 , Jaipur – Sikar highway,","Sikar","Rajasthan","332001","+91 1800 103 5616"
"Sonak Toyota","3M L, Hanumangarh Bypass,","Sri Ganganagar","Rajasthan","335001","+91 96 72 078613"
"Rajendra Toyota","Goenka Auto Sales Pvt. Ltd., A-82, Madri Industrial Area , RIICO,","Udaipur","Rajasthan","313003","+91 73111 48501"
"Topsel Toyota","Near M.P. Golai, Tadong,","Gangtok","Sikkim","737102","+91 33 4050 6070"
"Harsha Toyota","Harsha Automobiles Pvt. Ltd., No.65A, 1st Floor, Cauvery Tower, Anna Salai, Guindy, Anna Salai, Guindy,","Chennai","Tamil Nadu","600032","+91 44399 97999;+91 95000 96573;+91 80560 01234"
"Harsha Toyota","Harsha Automobiles Pvt. Ltd., No. 142-A, Poonamallee High Road, NH 4, VELAPPANCHAVADI, VELAPPANCHAVADI,","Chennai","Tamil Nadu","600077","+91 44 3999 7999;+91 80560 01234"
"Lanson Toyota","Lanson Motors Pvt. Ltd., No. 611, East Coast Road, Neelankarai, Neelankarai,","Chennai","Tamil Nadu","600041","+91 95512 85070;+91 95512 85082;+91 44400 08000"
"Lanson Toyota","Lanson Motors Pvt. Ltd., 34, Ponnamallee High Road, Koyambedu, Koyambedu,","Chennai","Tamil Nadu","600107","+91 44400 08000"
"Lanson Toyota","Lanson Motors Pvt. Ltd, No. 10, Radial Road, Pallikaranai, Pallikaranai,","Chennai","Tamil Nadu","600100","+91 44400 08000"
"Lanson Toyota","Lanson Motors Pvt. Ltd., No. 5, Cenotaph Road, Teynampett, Teynampett,","Chennai","Tamil Nadu","600018","+91 44400 08000"
"Anaamalais Toyota","300, Mettupalayam Road, Bypass Road,","Coimbatore","Tamil Nadu","641043","+91 422 442 9999"
"Anaamalais Toyota","S.F.No: 642/43, Near Anjali Roundna, Opposite to Velu Mahal, Trichy Bypass Road,","Dindigul","Tamil Nadu","624001","+91 98658 96400"
"Anaamalais Toyota","Door No. 138, A Perundarai Road, Thindal PO,","Erode","Tamil Nadu","638012","+91 422 243 0010"
"Lanson Toyota","Lanson Motors Pvt. Ltd., 37/3D, Chennai - Bangalore National Highway, Thimmasamuthiram Village And Post, Thimmasamuthiram Village And Post,","Kanchipuram","Tamil Nadu","631502","+91 99 76 730303;+91 4430 005000"
"Anaamalais Toyota","No. 159/2, Koviloor Road, Sivagangai District,","Karaikudi","Tamil Nadu","630001","+91 422 442 9999"
"Anaamalais Toyota","SF No ; 1911/1-B , Near Periyar Arch , Andankovil East , Madurai New Byepass Road, Madurai New Byepass Road","Karur","Tamil Nadu","639002","+91 95781 37600"
"Anaamalais Toyota","SF No. 166/5, Chennai Main Road, Koranattukarupur Post,","Kumbakonam","Tamil Nadu","612501","+91 422 442 9999"
"Anaamalais Toyota","Anaamalais Agencies Madhurai Pvt. Ltd., H18, H19, H20 Sidco Industrial Area, Kappalur,","Madurai","Tamil Nadu","625008","+91 422 442 9999"
"Anaamalais Toyota","2-86, Tirunelveli Main Road, Ozhuginasery, Nagercoil, Kanyakumari","Nagercoil","Tamil Nadu","629001","+91 46522 25300"
"Lanson Toyota","Lanson Motors Pvt. Ltd, No. 18, Ellapillai Chavadi Main Road, Ellapillai Chavadi, Near Rajiv Gandhi Statue, Ellapillai Chavadi, Near Rajiv Gandhi Statue,","Puducherry","Tamil Nadu","605009","+91 44400 08000"
"Anaamalais Toyota","248 (2/83), Meyyannoor Main Road, Meyyannoor,","Salem","Tamil Nadu","636004","+91 422 442 9999"
"Anaamalais Toyota","RS No. 128-A, Sundaram Nagar, Pudukottai Road,","Thanjavur","Tamil Nadu","613005","+91 422 442 9999"
"Anaamalais Toyota","Ward No. 3, Cumbum Main Road, Nearby Water Purification Centre, Nearby Water Purification Centre,","Theni","Tamil Nadu","626531","+91 422 442 9999"
"Harsha Toyota","No. 5/6, CV Naidu Salai,","Thiruvallur","Tamil Nadu","602001","+91 44 3999 7999;+91 80560 01234"
"Lanson Toyota","Lanson Motors Pvt. Ltd., No. 55 Anna Salai, Tindivanam Road,","Thiruvannamalai","Tamil Nadu","606601","+91 9698 330303;+91 44400 08000"
"Anaamalais Toyota","Anaamalais Agencies Madurai Pvt. Ltd., S/227/2, Thakkarammal Puram, Thakkarammal Puram,","Tirunelveli","Tamil Nadu","627007","+91 422 442 9999"
"Anaamalais Toyota","SF No. 296/C, 296/2S, Palladam - Tirupur Main Road, Kungamampalayam Pirivu, Kungamampalayam Pirivu,","Tirupur","Tamil Nadu","641664","+91 422 442 9999"
"Anaamalais Toyota","Coimbatore Anamallais Agencies Pvt. Ltd., TS 100, Bypass Road, Thimmaraya Samuthiram, Near New Cauvery Bridge, Thiruvanaikoil,","Trichy","Tamil Nadu","620005","+91 422 442 9999"
"Lanson Toyota","Lanson Motors Pvt. Ltd., 51/D Katpadi Thiruvalam Road, Staffs Qutres, Katpadi, Staffs Qutres, Katpadi,","Vellore","Tamil Nadu","632014","+91 44400 08000"
"Harsha Toyota","D No. 2-40/5, Old Bombay Highway, Kothaguda,","Hyderabad","Telangana","500084","+91 40443 74437;+91 40399 97999"
"Harsha Toyota","D.No. 5-5-1095, Malleshwari Complex, Chinalkunta, LB Nagar,","Hyderabad","Telangana","500074","+91 40 2411 4122;+91 40443 74437;+91 40399 97999"
"Radha Krishna Toyota","Radha Krishna Automobiles Pvt. Ltd, D. No. 7-2-A5 Main Road, Sanath Nagar","Hyderabad","Telangana","500033","+91 90106 70002;1800 3000 3984"
"Yashoda Krishna Toyota","Yashoda krishna Automobiles Pvt. Ltd, Survey No.102-103, 2-4-1, NH 202, NH 202","Hyderabad","Telangana","500039","+91 90106 70005;1800 3000 3984"
"Yashoda Krishna Toyota","No. 3-6-289, Main Road, Hyderguda","Hyderabad","Telangana","500029","+91 90103 70006"
"Kakatiya Toyota","H.No. 8-5-1/B/1, Godavarikhani Bypass Road,","Karimnagar","Telangana","505001","+91 79979 89651;+91 79979 89688"
"Radha Madhav Toyota","Radha Madhav Automobiles Pvt. Ltd., Plot No. 21 & 22, Survey No. 82., Palabanda Bazar,","Khammam","Telangana","507002","+91 1800 3000 3984;+91 90104 70003"
"Kakatiya Toyota","D No. 19-3-159/1/C, Khammam Bypass Road, Urus, Kareemabad,","Warangal","Telangana","506002","+91 70322 00007;+91 70327 77044"
"Podder Toyota","Durjay Nagar , Airport Road,","Agartala","Tripura","799009","+91 381 234 1057"
"Sunny Toyota","Plot No. 632, Agra-Mathura Road, Artoni,","Agra","Uttar Pradesh","282007","+91 56230 53555"
"Mascot Toyota","Mascot Estate, 5th km Stone, Delhi-GT Road","Aligarh","Uttar Pradesh","202001","+91 89797 22233"
"Rajendra Toyota","Goenka Motors Pvt. Ltd., Andhwa(Jhushi) , Varanasi Allahabad Road,","Allahabad","Uttar Pradesh","211015","+91 72348 01618;+91 98391 83191"
"Rajendra Toyota","SBS Towers, Opp. Sanyog Filling Station , Narauli District,","Azamgargh","Uttar Pradesh","276001","+91 98391 83191"
"Commercial Toyota","4th KM, Rampur Road,","Bareilly","Uttar Pradesh","243003","+91 99270 25894;+91 95680 09810"
"Sunny Toyota","ITI Chauraha, Next to Mahindra Construction Equipment, Agra Road, Agra Road,","Etawah","Uttar Pradesh","206001","+91 56230 53555"
"Sunny Toyota","Plot No. 258, Faizabad - Lucknow Highway, Village Banveerpur Pergana Mengalsi, Village Banveerpur Pergana Mengalsi,","Faizabad","Uttar Pradesh","224001","+91 52233 01333"
"Uttam Toyota","A 11, Meerut Road Industrial Area,","Ghaziabad","Uttar Pradesh","201003","+91 98716 37000"
"Rajendra Toyota","Goenka Motors Pvt. Ltd., Plot No. C 3 , Sector 11 , Sector 11 ,","Gorakhpur","Uttar Pradesh","271010","+91 93072 02032;+91 98391 83191"
"JMK Toyota","Opp. MP Guest House, Gwalior Road,","Jhansi","Uttar Pradesh","284003","+91 84 19 855555"
"Sunny Toyota","NH 2, Rooma Industrial Area, Allahbad Road,","Kanpur","Uttar Pradesh","208001","+91 512 301 7600"
"Sunny Toyota","No. 63/3 Mall Road,","Kanpur","Uttar Pradesh","208005","+91 512 233 2746;+91 512 233 2748"
"Sunny Toyota","Near Amuasi Airport, Kanpur Road,","Lucknow","Uttar Pradesh","226005","+91 52233 01500"
"Sunny Toyota","Opp. R K B K Petrol Pump, Chinhat, Faizabad Road,","Lucknow","Uttar Pradesh","226019","+91 52233 01333"
"Sunny Toyota","Sunny Motors Pvt. Ltd., 3. Shahnajaf Road,","Lucknow","Uttar Pradesh","226001","+91 522 405 0600"
"Grand Toyota","Uttranchal Automobiles Pvt. Ltd.,698, Partapur, Baral Delhi By-pass Road.","Meerut","Uttar Pradesh","250103","+91 96900 16065;+91 96909 04448;+91 12124 40555"
"Espirit Toyota","Plot No D -11, Sector 8,","Noida","Uttar Pradesh","201301","+91 120 488 4000;+91 72900 95001"
"Espirit Toyota","D-37 & 38, Industrial Area, Site-IV, Surajpur, Kasna, Greater Noida, Kasna, Greater Noida,","Noida","Uttar Pradesh","201306","+91 120 497 3000;+91 72900 95001"
"Uttam Toyota","The Standard Type Foundry Pvt. Ltd., H-3 , Sector - 63,","Noida","Uttar Pradesh","201301","+91 98716 37000"
"Rajendra Toyota","Canal Banglow Road , Sonebhadra,","Robertsganj","Uttar Pradesh","231216","+91 98391 83191"
"Sunny Toyota","Khasra No. 106, Village Payagipur,","Sultanpur","Uttar Pradesh","228001","+91 52240 33999"
"Rajendra Toyota","Goenka Motors Pvt. Ltd., Hardattpur , Hardattpur ,","Varanasi","Uttar Pradesh","221314","+91 98391 83191;+91 73797 44447"
"Trust Toyota","Trotting Wheels Pvt. Ltd., Chakrata Road, Near Ashirwad Petrol Pump, Ballupur Chowk,","Dehradun","Uttaranchal","248001","+91 72539 99610;+91 72539 99613"
"Trust Toyota","Khata 147, Khasra No. 255, Mauza Kuanwala, Pragana Parwadoon, Dehradun","Dehradun","Uttaranchal","248160","+91 72539 99606"
"Commercial Toyota","Commercial Motors Sales Pvt. Ltd., Post Box No. 19, Bareilly Road,","Haldwani","Uttaranchal","263139","+91 5946 245 490"
"Commercial Toyota","Randhawa Complex, Adj. to ICICI Bank, Nainital Road","Rudrapur","Uttaranchal","263153","+91 89370 01255"
"Topsel Toyota","Taltala Khagrabari Post, PS – Kotwali,","Coochbehar","West Bengal","736101","+91 97330 01905"
"Saini Toyota","Gurmaan Automobiles Pvt. Ltd., NH -6 Bombay Road, Mohiary Chandni Bagan , Near Saraswati Bridge , Near Saraswati Bridge ,","Howrah","West Bengal","711302","+91 33610 19335"
"Saini Toyota","Gurmaan Automobiles Pvt. Ltd, PS Srijan Corp. Park. Plot No-G2. , Block-GP. Tower-1, Sector-V, Near RDB Cinema,","Kolkata","West Bengal","700091","+91 33610 19335"
"Topsel Toyota","No. 522/524, Budge Budge Trunk Road, Maheshtala,","Kolkata","West Bengal","700141","+91 33 4050 6070"
"Topsel Toyota","Topsel Pvt. Ltd., No. 719 Anandapur Kasba, EM Bypass, EM Bypass,","Kolkata","West Bengal","700107","+91 33 4050 6070"
"Topsel Toyota","Topsel Pvt. Ltd., No. 37/39  Park Street,","Kolkata","West Bengal","700016","+91 33 4050 6070"
"Topsel Toyota","NH 31, Paribahan Nagar, Matigara,","Siliguri","West Bengal","734010","+91 33 4050 6070;+91 35325 71107"
