Dealer Name,Type,Address,City,State,Pincode,Contact,Email
Prince Bajaj,Dealer,"Middle Point, ",Portblair,Andamans,744101,9564789222,d10849@baldealer.com
Smp Bajaj,Dealer,"Ashok Nagar, Bye Pass Road",Amalapuram,Andhra Pradesh,533201,9395512888,d11498@baldealer.com
Rithvikaa Bajaj,Dealer,"Shop No.16 Lakshmi Towers, Opp. Triveni Complex",Anantapur,Andhra Pradesh,515005,9912755774,d10279@baldealer.com
Varun Bajaj,Dealer,"Backside IOC Petrol Pump, Undi Road, West Godavari Dist",Bhimavaram,Andhra Pradesh,534002,8297040888,d11548@baldealer.com
Varun Motors,Branch,"Beside Chaitanyua Techno School, Main  Road, Tanuku, West Godavari",Bhimavaram,Andhra Pradesh,534211,8142511888,d11548@bajajauto.co.in
Varun Motors,Branch,"Bhimavaram Road,, Tallamudunurupadu, Dist : West Godawari, Tadepalligudem",Bhimavaram,Andhra Pradesh,534101,9160572111,d11548@bajajauto.co.in
Varun Motors,Branch,"Opp: Sub-station, Kavur Road,, Dist : West Godawari, Devarapalle",Bhimavaram,Andhra Pradesh,534313,9396604455,d11548@bajajauto.co.in
Tirumala Bajaj,Dealer,"Near RTA Office,, Bye Pass Road",Chirala,Andhra Pradesh,523155,6309601833,d12302@baldealer.com
Bhagyalakshmi Bajaj,Dealer,"2-2311 Kattamanchi, Tirupati Road, Opp.Devi Theatre,",Chittoor,Andhra Pradesh,517001,9908990537,d10468@baldealer.com
Mohana Sai Bajaj,Dealer,"25528, Beside Over Bridge, N R Peta",Eluru,Andhra Pradesh,534002,7799771997,d11838@baldealer.com
Varun Bajaj,Dealer,"D No.124, Panchvati Colony,, New Bye Pass Road",Gudivada,Andhra Pradesh,521301,9885180311,d10529@baldealer.com
Varun Motors,Branch,"NH-16, Allapuram, , Dist : Krishna, Gannavaram",Gudivada,Andhra Pradesh,521101,9640266366,d10529@bajajauto.co.in
Varun Motors,Branch,"Opp: Police Ground Complex,, Lakshmi Talkies Centre,, Machilipatnam, Krishna",Gudivada,Andhra Pradesh,521001,9885110333,d10529@bajajauto.co.in
Srivinayaka Bajaj,Dealer,"D.No.11-194, Opp Cine Square Theater, Amaravathi Road",Guntur,Andhra Pradesh,522034,9100961204,d12172@baldealer.com
Sri Siddhivinayaka Automobile,Branch,"#8-28-204, Plot No. 300A, Phase 1 & 2, Beside SBH Bank, Auto Nagar, Guntur",Guntur,Andhra Pradesh,522001,9100961201,d12172@bajajauto.co.in
Sri Siddhivinayaka Automobile,Branch,"Door No. 24-45, Beside SBI Bank, , Main Road, Koritipadu, Guntur",Guntur,Andhra Pradesh,522007,9100961209,d12172@bajajauto.co.in
Sri Siddhivinayaka Automobile,Branch,"Beside Managomour, Main Road, , Dachepalli, Guntur",Guntur,Andhra Pradesh,522001,9100992655,d12172@bajajauto.co.in
Sri Siddhivinayaka Automobile,Branch,"D. No. 13.1.12, Old Bank Road, Kothapeta, Guntur",Guntur,Andhra Pradesh,522001,9100551152,d12172@bajajauto.co.in
Sri Siddhivinayaka Automobile,Branch,"Next to SBI ATM, , Palnadu Road, Narsaraopet, Dist : Guntur",Guntur,Andhra Pradesh,522601,9908650833,d12172@bajajauto.co.in
Sri Siddhininayaka Automobile,Branch,"Auto Nagar, , Guntur Road,, Mangallagiri, Guntur",Guntur,Andhra Pradesh,522503,9100961208,d12172@bajajauto.co.in
Sri Siddhininayaka Automobile,Branch,"Near Sitara Restaurant, Behind Market Yard, Pidiguralla, Guntur (Dist)",Guntur,Andhra Pradesh,522413,9100961207,d12172@bajajauto.co.in
Sri Siddhi Vinayaka Bajaj,Dealer,"Survey No. 766, 767, 768, D. No. 12-25-99, Beside Leela Mahal, Kothapet",Guntur,Andhra Pradesh,522001,9100551152,d13107@baldealer.com
Rithvikaa Bajaj,Dealer,"RTGT Colony Road, Near APSRTC Bus Stand,, Penugonda Road",Hindupur,Andhra Pradesh,515201,9948666410,d11419@baldealer.com
Vinayaka Bajaj,Dealer,"Plot No. 1-11-12, Survey No. 397-1A,, Penukonda Road, Dist  Anantapur",Hindupur,Andhra Pradesh,515201,,d13052@baldealer.com
Haroon Bajaj,Dealer,"No. 8194 ,Almaspet, Trunk Road",Kadapa,Andhra Pradesh,516001,9951476133,d10649@baldealer.com
Smp Bajaj,Dealer,"Ungaralavari Street, Near Kalpana Centre, Opp Congress Office",Kakinada,Andhra Pradesh,533001,9391611999,d11031@baldealer.com
Sai Motor Plaza,Branch,"D. No. 70-1-17, Opp: Spencers Plaza, Pitapuram Road, Near Sarpavaram Junction, Sarpavaram, Kakinada",Kakinada,Andhra Pradesh,533005,988439999,d11031@bajajauto.co.in
Sai Motor Plaza,Branch,"Kakinada Road, Near RTC Complex, Opp: Petrol Bunk, Dist : East Godavari, Ramachandrapuram",Kakinada,Andhra Pradesh,533255,9346819811,d11031@bajajauto.co.in
Sai Motor Plaza,Branch,"D. No. 7-62/10, Main Road, , East Godavari, Tatipaka",Kakinada,Andhra Pradesh,533249,(8862) 248489,d11031@bajajauto.co.in
Bharath Bajaj,Dealer,"Door No. 40301, M R S Road, Bangarpeta",Kurnool,Andhra Pradesh,518003,9985388088,d11514@baldealer.com
Mgb Bajaj,Dealer,"7109, M.G.Chowrastha,, Near S.A.P. Camp,",Kurnool,Andhra Pradesh,518003,8886003047,d10467@baldealer.com
Nandi Bajaj,Dealer,"D.No.2428-300-3A, Balaji Complex, Bye Pass Road",Nandyal,Andhra Pradesh,518501,9948636340,d10914@baldealer.com
Nandi Bajaj,Branch,"Opp: PR Talkies,, Main Road, Koilakuntla, Kurnool",Nandyal,Andhra Pradesh,518134,9642440020,d10914@bajajauto.co.in
Nandi Bajaj,Branch,"D. No. 7-6-10/1, Ward No. 7,, Jandhar Manthar Street, Dist : Kurnool, Allagadda",Nandyal,Andhra Pradesh,518543,994863641,d10914@bajajauto.co.in
Mgb Bajaj,Dealer,"Plot No. 11, Ritwik Enclave, G N T Road",Nellore,Andhra Pradesh,524003,9299999987,d10219@baldealer.com
M.G.Brothers Automobiles Ltd.,Branch,"Next to Axis Bank, Shar Main Road, Dist : Nellore, Sullurpeta",Nellore,Andhra Pradesh,524121,9100992655,d10219@bajajauto.co.in
M.G.Brothers Automobiles Ltd.,Branch,"Next to HP Petrol Bunk, Nellore-Palem Road,, Dist : Nellore, Atmakur",Nellore,Andhra Pradesh,524322,8019738534,d10219@bajajauto.co.in
M.G.Brothers Automobiles Ltd.,Branch,"D. No. 3-2-93/3, Tirupathi Road,, , Dist : Nellore, Naidupet",Nellore,Andhra Pradesh,524126,9246777142,d10219@bajajauto.co.in
Mgb Bajaj,Dealer,"Near Bharat Petrol Pump,, Vanamthopu Centre, Mini Bye-Pass Road,",Nellore,Andhra Pradesh,524004,9246777250,d13041@baldealer.com
Tirumala Bajaj,Dealer,"Kurnool Road, Chimakurthi Eye Hospital Complex",Ongole,Andhra Pradesh,523001,6309601833,d12303@baldealer.com
Tirumala Automotives,Branch,"D. No. 6-210, Singarayakonda Mandal, , Dist : Prakasham, Singarayakonda",Ongole,Andhra Pradesh,523101,7036573578,d12303@bajajauto.co.in
Tirumala Automotives,Branch,"D. No. 2-22-106-96-A8, Yerragondapalem Village, Yerragondapalem Mandal, Dist : Prakasham, Yerragondapalem",Ongole,Andhra Pradesh,523316,7989889049,d12303@bajajauto.co.in
Tirumala Automotives,Branch,"D. No. 3-83, Puttavaripalle, Santhamagaluru, Dist : Prakasham, Adda Road",Ongole,Andhra Pradesh,523205,7013054455,d12303@bajajauto.co.in
Haroon Bajaj,Dealer,"10-22-1, Lakshmi Nagar, Mydukur Road",Proddatur,Andhra Pradesh,516360,9948060786,d11865@baldealer.com
Mcv Bajaj,Dealer,"D.No. 77-8-7,, RTC Complex Road",Rajahmundry,Andhra Pradesh,533103,7995135555,d12624@baldealer.com
MCV Motocorp Private Limited,Branch,"RS-208/1, NH-16 Road, , Sundar Nagar, Ravulapadu, Ravulapalem",Rajahmundry,Andhra Pradesh,533238,9177399188,d12624@bajajauto.co.in
MCV Motocorp Private Limited,Branch,"D. No. 11-323,, Opp: Corporation Bank, Yaeleswaram Road, Jaggampeta",Rajahmundry,Andhra Pradesh,533435,9177342288,d12624@bajajauto.co.in
MCV Motocorp Private Limited,Branch,"D. No. 17-01-02-2B, Opp: Ayyappa Swamy Temple, Alamuru Road,, Mandapeta",Rajahmundry,Andhra Pradesh,533308,9177343366,d12624@bajajauto.co.in
MCV Motocorp Private Limited,Branch,"PO # 3-1448-1, Kapanalur, Beside HP Bank, Dist : Rajhmundry, Korukonda",Rajahmundry,Andhra Pradesh,533289,9640695058,d12624@bajajauto.co.in
MCV Motocorp Private Limited,Branch,"D. No. 6-16-10, T-Nagar, , Dist : Rajahmundry, Near Kotipally Bus-Stand",Rajahmundry,Andhra Pradesh,533101,8688400767,d12624@bajajauto.co.in
MCV Motocorp Private Limited,Branch,"D. No. 8029, Main Road,, , Dist : Rajahmundry, Gokavaram",Rajahmundry,Andhra Pradesh,533286,8688400782,d12624@bajajauto.co.in
Saigayatri Bajaj,Dealer,"2914, Bajaj Show Room, Peddapandu Road,",Srikakulam,Andhra Pradesh,532001,8309400682,d10490@baldealer.com
Sai Gayatri Automotive Pvt. Ltd.,Branch,"Opp: APSRTC Depot, , Dist : Srikakulam, Tekkali",Srikakulam,Andhra Pradesh,532201,7658978348,d10490@bajajauto.co.in
Varahi Bajaj,Dealer,"73023, Motumarri Vari Street, Gangammapet",Tenali,Andhra Pradesh,522201,9959234569,d12532@baldealer.com
Varahi Motors,Branch,"D. No. 5-9-52, 2nd Line,, Ramkotipet, Opp: Krishna Threater Road, Railpet, Repalle, Dist : Guntur",Tenali,Andhra Pradesh,522265,8712418610,d12532@bajajauto.co.in
Mgb Bajaj,Dealer,"Plot No. 170, New Balaji Colony, A I R Bus Road",Tirupati,Andhra Pradesh,517501,9247012777,d11683@baldealer.com
Sriram Bajaj,Dealer,"19-3-1K Renigunta Road, ",Tirupati,Andhra Pradesh,517501,9441891526,d10326@baldealer.com
Varun Bajaj,Dealer,"D No.40-1-126 (Vasant Plaza) Varun Towers, Benz Circle, M.G. Road",Vijayawada,Andhra Pradesh,520010,9885180286,d10416@baldealer.com
Varun Motors,Branch,"Near Police Station,, Tirruru Road,, Dist : Krishna, Gampalagudem",Vijayawada,Andhra Pradesh,521403,(08673) 274655,d10416@bajajauto.co.in
Varun Motors,Branch,"Rythu Pet,, Opp: Petrol Pump, Nandigama, Krishna",Vijayawada,Andhra Pradesh,521115,9885180284,d10416@bajajauto.co.in
Varun Motors,Branch,"D. No. 7-317, , Konnamgunta Road, Nuzvidu, Krishna",Vijayawada,Andhra Pradesh,521201,9885180296,d10416@bajajauto.co.in
Varun Motors,Branch,"Near IOC Petrol Bunk, Bhadrachalam Road,, Dist : Krishna, Mylavaram",Vijayawada,Andhra Pradesh,521230,(08659) 222996,d10416@bajajauto.co.in
Varun Motors,Branch,"NH-214, PP Road,, Atapaka, Dist : Krishna, Kaikaluru",Vijayawada,Andhra Pradesh,521333,(8677) 224234,d10416@bajajauto.co.in
Varun Motors,Branch,"Bank Centre, Beside Shivani Transport, Near Swathi Threater, Dist : Krishna, Bhavanipuram",Vijayawada,Andhra Pradesh,520012,9885180307,d10416@bajajauto.co.in
Varun Motors,Branch,"Opp: Ayyappa Swamy Temple, Bye Pass Road, Dist : Krishna, Tiruvuru",Vijayawada,Andhra Pradesh,521235,(08673) 252679,d10416@bajajauto.co.in
Varun Bajaj,Dealer,"P.B.No.380, D No.10-50-221, Siripuram Junction",Vishakhapatnam,Andhra Pradesh,530003,9885229944,d10408@baldealer.com
Varun Motors,Branch,"6-129/4, Main Road, , Dist : Vishakhapatnam, Pendurthi",Vishakhapatnam,Andhra Pradesh,531173,(891) 2745586,d10408@bajajauto.co.in
Varun Motors,Branch,"D. No. 58-1-279, NAD 'X' Road,, Opp: PML Complex, NAD (Naval Armed Depot), Visakhapatnam",Vishakhapatnam,Andhra Pradesh,530009,9885188772,d10408@bajajauto.co.in
Varun Motors,Branch,"D. No. 1-1-100/1/2,, Beside ICICI Bank, Isukathota, Visakhapatnam",Vishakhapatnam,Andhra Pradesh,530007,9885188772,d10408@bajajauto.co.in
Varun Motors,Branch,"Door No. 43-29-54., Narona Road, Dondaparthi Junction, Dondaparthi, Visakhapatnam",Vishakhapatnam,Andhra Pradesh,530016,9885188772,d10408@bajajauto.co.in
Varun Motors,Branch,"15-20, Opp: Durga Theater, Chandrampalem, Dist : Vishakhapatnam, Madhurawada",Vishakhapatnam,Andhra Pradesh,540041,(891) 2728081,d10408@bajajauto.co.in
Varun Motors,Branch,"Anakapally Road, Left side of Jio Office, Dist : Vishakhapatnam, Sabbavaram",Vishakhapatnam,Andhra Pradesh,531035,9885706193,d10408@bajajauto.co.in
Varun Motors,Branch,"3-78, Gajuwaka Road,, Mosayyapeta, Dist : Vishakhapatnam, Atchutapuram",Vishakhapatnam,Andhra Pradesh,530037,(8924) 253666,d10408@bajajauto.co.in
Varun Bajaj,Dealer,"8-11-27, Old Gajuwaka, NH-5,",Vishakhapatnam,Andhra Pradesh,530026,9885297788,d11651@baldealer.com
Varun Motors,Branch,"Near Sub-Collector Bungalow, , Narsipatnam, Visakhapatnam",Vishakhapatnam,Andhra Pradesh,531116,9885188772,d11651@bajajauto.co.in
Varun Motors,Branch,"D. No. 19-11-3, Beside Ganta Srinivasarao Office Kothuru Junction, Main Road, Chodavaram, Visakhapatnam",Vishakhapatnam,Andhra Pradesh,531036,9885188772,d11651@bajajauto.co.in
Varun Motors,Branch,"D. No. 12-4-70, Pudi Madaka Road,, , Anakapalli, Visakhapatnam",Vishakhapatnam,Andhra Pradesh,531001,9885188772,d11651@bajajauto.co.in
Varun Motors,Branch,"2-23-1/1, Dayal Nagar, Gajuwaka, Dist : Vishakhapatnam, B C Road",Vishakhapatnam,Andhra Pradesh,530044,(897) 2706196,d11651@bajajauto.co.in
Srikrishna Bajaj,Dealer,"Bajaj Centre, Near Kothapeta Weater Tank, Phoolbaugh Road",Vizianagaram,Andhra Pradesh,535002,9703813399,d10367@baldealer.com
K Square Bajaj,Dealer,"A-Sector, Opp. Hormin Hospital",Naharlagun,Arunachal Pradesh,791110,8416004466,d12506@baldealer.com
Aie Ben Bajaj,Dealer,"2, Mile Pasighat, Opp Indian Oil Petrol Pump,, Dist East Siang",Pasighat,Arunachal Pradesh,791102,9774477040,d12913@baldealer.com
Autowheeler Bajaj,Dealer,"A.T Road, Near NRL Petrol Pump, Laipuli",Tinsukia,Assam,786183,9476732601,d10066@baldealer.com
Anirbaan Bajaj,Dealer,"Main Road, District Barpeta",Barpeta,Assam,781315,9365122047,d10812@baldealer.com
Champak Bajaj,Dealer,"M.G.Road,Near D C Office, Bongaigaon",Bongaigaon,Assam,783380,8724025572,d11021@baldealer.com
Chambak Automobiles,Branch,"Dr. Zakur Hussain Road,, Ward No. 9, , ",Bongaigaon,Assam,783301,03662 231016 / 231017,d11021@bajajauto.co.in
Champak Automobiles,Branch,"Ward No. 4, Chapaguri Road,, PO : Chapaguri, Chirang, Chapaguri",Bongaigaon,Assam,783380,7086146366,d11021@bajajauto.co.in
Nandan Bajaj,Dealer,"Convey Road, Chowki Dinghee",Dibrugarh,Assam,786001,7002987007,d12867@baldealer.com
Shyam Bajaj,Dealer,"G F Road, Bengenakhowa,, Near Railway Crossing",Golaghat,Assam,785702,9127077001,d13062@baldealer.com
Shriauto Bajaj,Dealer,"Paltan Bazar, ",Guwahati,Assam,781008,9365368867,d10364@baldealer.com
Unnati Bajaj,Dealer,"D N Tower , N.H. 37 , Beltola, District Kamrup",Guwahati,Assam,781029,8811080012,d11772@baldealer.com
Unnati Motors,Branch,"Near Mochi Showroom,, GS Road,, , Guwahati",Guwahati,Assam,781005,,d11772@bajajauto.co.in
Unnati Motors,Branch,"Bhetapara Road, Beltola, Opp: Pankaj Nagar, Guwahati, Bhetapara",Guwahati,Assam,781029,6900194022,d11772@bajajauto.co.in
Metal Bikes Bajaj,Dealer,"A.T. Road, Adabari, North Jalukbari",Guwahati,Assam,781012,6900108002,d12822@baldealer.com
Metal Bikes,Branch,"Dhekena Bari, Dist : Kamrup Rural, Chhaygaon, Assam",Guwahati,Assam,781124,(03623) 261010,d12822@bajajauto.co.in
Metal Bikes,Branch,"BG Baruah Road,, Ambikagiri Nagar, Zoo Road, Guwahati",Guwahati,Assam,781024,6900108004,d12822@bajajauto.co.in
S K Bajaj,Dealer,"Nilbagan, ",Hojai,Assam,782445,6003367070,d13029@baldealer.com
Akaash Bajaj,Dealer,"Seuni-Ali, AT Road",Jorhat,Assam,785001,9706073243,d11587@baldealer.com
Highway Bajaj,Dealer,"A.T. Road, Tarajan, Dist. Jorhat",Jorhat,Assam,785001,7578009227,d11942@baldealer.com
Highway Bajaj,Branch,"Bengenakhowa Chariali,, Arengapai Road,, Golaghat, Golaghat",Jorhat,Assam,785621,9127064215/9706701031,d11942@bajajauto.co.in
Bothra Bajaj,Dealer,"Mankachar Tiniali,  Near H.P. Petrol Pump, Main Road, South Salmara",Mankachar,Assam,783131,9954855808,d13018@baldealer.com
Unnati Bajaj,Dealer,"DN Tower , N.H. 37, Beltola",Morigaon,Assam,781029,6901263944,d13014@baldealer.com
Sk Bajaj,Dealer,"Senchowa,, A.T. Road,",Nagaon,Assam,782002,8811080843,d12782@baldealer.com
Anowara Bajaj,Dealer,"NH-31, Haripur-Barkura, Near BPCL Petrol Pump",Nalbari,Assam,781335,8011866087,d12955@baldealer.com
Anowara Auto Agency,Branch,"Village+PO : Mushalpur, PS Mushalpur, Dist : Baska, Mushalpur",Nalbari,Assam,781372,7002577534,d12955@bajajauto.co.in
Ah Bajaj,Dealer,"N.T.Road Ward No.7, North Lakhimpur",North Lakhimpur,Assam,787001,9127312685,d11517@baldealer.com
AH Auto World,Branch,"NH-15, Bharalichuk, Ward No. 5,, Dist : Dhemaji, Dhemaji Town",North Lakhimpur,Assam,787057,8724062413,d11517@bajajauto.co.in
Classic Bajaj,Dealer,"Sonai Road, Cachar",Silchar,Assam,788006,6900623999,d10076@baldealer.com
Akaash Bajaj,Dealer,"B.G. Road, Opp ONGC DBG Gate",Sivasagar,Assam,785640,9706076243,d12989@baldealer.com
Sk Bajaj,Dealer,"Garwanpatty, District- Sonitpur",Tezpur,Assam,784001,9101757436,d10310@baldealer.com
SK Automobiles,Branch,"Senchowa,, AT Road,, Nagaon, Dist : Sonitpur",Tezpur,Assam,782002,03672 222284,d10310@bajajauto.co.in
Preet Bajaj,Dealer,"Ward NO. 2, Begamukh Darang",Mangaldai,Assam,784125,6901223411,d12964@baldealer.com
Shree Bajaj,Dealer,"Donar Road, Opp. Holy Cross School",Darbhanga,Bihar,846004,7544880033,d10769@baldealer.com
Prakash Bajaj,Dealer,"Ward No. 1, Raniganj Road",Forbesganj,Bihar,854318,9534741111,d12724@baldealer.com
Shakti Bajaj,Dealer,"South Church Road, Below Gharana Hotel",Gaya,Bihar,823001,,d10940@baldealer.com
Utkarsha Bajaj,Dealer,"Plot No.112, Khata-39, Dhania Bagicha,, Bakri Delha",Gaya,Bihar,823002,7766902552,d12929@baldealer.com
Shree Mundrika Bajaj,Dealer,"NH-28, Hazipur Chowk, Near Power House",Gopalganj,Bihar,841428,6200503386,d11533@baldealer.com
Vaishali Bajaj,Dealer,"Dighikala, In Front Of Jail,, NH 77, Hajipur Muzaffarpur Highway , Dist Vaishali",Hajipur,Bihar,844101,9065439702,d11881@baldealer.com
Vaishali Auto Enterprises Private Limited,Branch,"Hajipur, , Daak Bangla Road, Vaishali",Hajipur,Bihar,844101,7904884814,d11881@bajajauto.co.in
Vishnu Bajaj,Dealer,"Station Road, Khairma, PO & PS  Jamui",Jamui,Bihar,811307,9304934066,d13061@baldealer.com
Jaibajrang Bajaj,Dealer,"Circuit House Road, Pakri",Arrah,Bihar,802301,8102929267,d10734@baldealer.com
Jai Bajrang Bajaj,Branch,"Arrah-Buxar Main Road,, Naya Bhojpur, Dumraon, Dist : Buxar",Arrah,Bihar,802133,8102929268,d10734@bajajauto.co.in
Jai Bajrang Bajaj,Branch,"Arrah-Sasaram Main Road, Piro, PO & PS : Piro, Piro, Dist : Bhojpur",Arrah,Bihar,802207,9431600021,d10734@bajajauto.co.in
Jai Bajrang Bajaj,Branch,"At : Near Powerhouse, Raja Bazar, Bihiya, Bhojpur",Arrah,Bihar,802152,9263959364,d10734@bajajauto.co.in
Abhishek Bajaj,Dealer,"Malti Complex, In Front Of Gate School, Old G T Road",Aurangabad,Bihar,824101,9133139955,d11417@baldealer.com
Abhishek Auto,Branch,"Bhakharua More, PO & PS Daudnagar, Daudnagar, Aurangabad",Aurangabad,Bihar,824143,(06328) 228080,d11417@bajajauto.co.in
Shri Vinayaka Bajaj,Dealer,"NH-31, Sushil Nagar, Ground Floor",Begusarai,Bihar,851134,,d12579@baldealer.com
Shashi Bajaj,Dealer,"Rajgarhia Cold Store Campus,, Station Road,",Bettiah,Bihar,845438,7370934666,d12674@baldealer.com
B S Bajaj,Dealer,"Mansha Tola, Dist  West Champaran",Bettiah,Bihar,845438,7519633333,d13104@baldealer.com
Ashok Bajaj,Dealer,"Radha Rani Sinha Road,Near Telephone Exchange, Ghantaghar",Bhagalpur,Bihar,812001,7360019331,d12881@baldealer.com
Sai Bajaj,Dealer,"NH-31, Near Mangala Sthan, Ground Floor",Bihar Sharif,Bihar,803101,7360016706,d12580@baldealer.com
Kailash Bajaj,Dealer,"Bajaj Building, Syndicate",Buxar,Bihar,802101,9162091021,d12904@baldealer.com
Shiv Bhawani Bajaj,Dealer,"Ramlila Mathia, Bhagwan Bazar",Chapra,Bihar,841301,9102999355,d12722@baldealer.com
Krishved Bajaj,Dealer,"Kanaudi - NH-83, Near Reliance Petrol Pump",Jehanabad,Bihar,804417,9708306845,d12915@baldealer.com
M.S. Bajaj,Dealer,"Katihar Purnia Main Road, Mirchaibari",Katihar,Bihar,854105,,d11578@baldealer.com
Jubilee Bajaj,Dealer,"M.G. Road, Near Hanuman Temple, Baluahi, ",Khagaria,Bihar,851204,9473464799,d11691@baldealer.com
Durgeshwari Bajaj,Dealer,"Paschimpally, Imligola",Kishanganj,Bihar,855107,,d11362@baldealer.com
Sps Bajaj,Dealer,"Opp Keshav Kanya Vidyalaya, NH-107",Madhepura,Bihar,852113,,d12766@baldealer.com
Mithilanchal Bajaj,Dealer,"Opp.Suri High School, ",Madhubani,Bihar,847211,6200718060,d10489@baldealer.com
Jagat Bajaj,Dealer,"Banjaria, Pandal Chowk, Distt. East Champaran",Motihari,Bihar,845401,,d10923@baldealer.com
Jagat Automobiles,Branch,"Laxmipur Road, , Raxaul, Dist :East Champaran ",Motihari,Bihar,845304,,d10923@bajajauto.co.in
Shiv Ganga Bajaj,Dealer,"Choti Mirzapur,, Jamalpur Road,",Munger,Bihar,811201,,d12741@baldealer.com
Cp Bajaj,Dealer,"NH-31, Subhash Nagar, Polytecnic Chowk",Purnea,Bihar,854301,,d12313@baldealer.com
Paradise Bajaj,Dealer,"Hatiyagachi, Purab Bazar, NH-107",Saharsa,Bihar,852201,,d11341@baldealer.com
Ananta Bajaj,Dealer,"Mohanpur Road,, ",Samastipur,Bihar,848101,,d11136@baldealer.com
Baba Bajaj,Dealer,"Near SP Jain College More, G.T. Road,, Dist  Rohtas",Sasaram,Bihar,821115,9801149500,d11749@baldealer.com
Baba Bajaj,Branch,"G. T. Road, , Dist : Kaimur, Mohania",Sasaram,Bihar,821110,6206432585,d11749@bajajauto.co.in
Shree Ram Bajaj,Dealer,"Dumra Road, Nahar Chowk",Sitamarhi,Bihar,843302,,d11351@baldealer.com
Mission Bajaj,Dealer,"Mahadeva, Mission Compound, ",Siwan,Bihar,841226,8877966665,d10062@baldealer.com
Bhavya Bajaj,Dealer,"Sitamarhi Road, Zero Mile Chowk",Muzaffarpur,Bihar,842004,7070190501,d12553@baldealer.com
Bhavya Automobiles,Branch,"Muzaffarpur-Pusa Road, , Kanauli-Pusa Road (Rahua), Muzaffarpur",Muzaffarpur,Bihar,842002,7070190502,d12553@bajajauto.co.in
Tirhut Bajaj,Dealer,"Near Power House Chowk, Maripur",Muzaffarpur,Bihar,842001,9308855528,d10370@baldealer.com
Tirhut Automobiles.,Branch,"Khemaipatti, Block+Post+PS : Minapur, Dist : Muzaffarpur, Minapur",Muzaffarpur,Bihar,843128,7544008610,d10370@bajajauto.co.in
Saarthi Bajaj,Dealer,"Kendua, Near ITI",Nawada,Bihar,805123,9471218168,d12965@baldealer.com
Akarsh Bajaj,Dealer,"Mahmadpur Complex, Anisabad Bye Pass Road",Patna,Bihar,800002,9304196810,d11912@baldealer.com
Akarsh Auto Pvt Ltd,Branch,"Beside of Union Bank, Near Old Anand Talkies, Belwarganj, Patna City, Patna",Patna,Bihar,800007,7979033103,d11912@bajajauto.co.in
Excel Bajaj,Dealer,"IAS Colony, Near Atlantis Hospital, Near Overbridge, Bailey Road, Rupaspur",Patna,Bihar,800014,8651039516,d11518@baldealer.com
Excel Auto,Branch,"Opp: Kumhrar Park, Kumhrar, , ",Patna,Bihar,800014,,d11518@bajajauto.co.in
Youva Bajaj,Dealer,"D-188, P P Colony, Patliputra",Patna,Bihar,800013,9523605877,d12963@baldealer.com
Ndm Bajaj,Dealer,"Plot No. 18, Industrial Area Phase-1",Chandigarh,Chandigarh,160002,9875900911,d12919@baldealer.com
Tirupati Bajaj,Dealer,"Main Road, PO Korba",Korba,Chattisgarh,495678,6232103042,d10377@baldealer.com
Bhawani Bajaj,Dealer,"Opp.LIC Building, Raipur Road",Mahasamund,Chattisgarh,493445,,d11009@baldealer.com
Bhawani Auto,Branch,"Main Road,, Beside New Mandi, Saraipali, Mahasamund",Mahasamund,Chattisgarh,493558,9425505146,d11009@bajajauto.co.in
Jindal Bajaj,Dealer,"Jagatpur, Dhimrapur Road, Raigarh, Jagatpur, Dhimrapur Road, Raigarh",Raigarh,Chattisgarh,496001,9589905646,d10584@baldealer.com
Jindal Automobiles,Branch,"Near Shanti Bhawan, , , Dist : Jashpur, Jashpur Nagar",Raigarh,Chattisgarh,496331,7777884529,d10584@bajajauto.co.in
Jindal Automobiles,Branch,"Near Santoshi Mata Mandir, , Dist : Raigarh, Sarangarh Road",Raigarh,Chattisgarh,496001,07762-232741,d10584@bajajauto.co.in
Vandana Bajaj,Dealer,"Vandana House, Ramkund, G.E.Road",Raipur,Chattisgarh,492001,,d10401@baldealer.com
Vandana Auto,Branch,"Telibandha, , , Raipur",Raipur,Chattisgarh,492001,9685526420,d10401@bajajauto.co.in
Ss Bajaj,Dealer,"Beside Mowa Overbridge, Lodhipona Chowk, Capa Pandri",Raipur,Chattisgarh,492001,9301113311,d12750@baldealer.com
Car Planet Enterprises Pvt Ltd,Branch,"In front of High School, , Near Stambh Chowk, Bhatapara, Dist : Raipur",Raipur,Chattisgarh,493118,9827164392,d12750@bajajauto.co.in
Kakkad Bajaj,Dealer,"Besides Nagpur Naka, G.E. Road",Rajnandgaon,Chattisgarh,491441,9301111111,d10202@baldealer.com
Laxmi Bajaj,Dealer,"Banaras Chowk, MG Road",Ambikapur,Chattisgarh,497001,9074816511,d10194@baldealer.com
Korea Bajaj,Dealer,"NH-43, Main Road,, Dist Korea",Baikunthpur,Chattisgarh,497335,7089904408,d12811@baldealer.com
Avn Bajaj,Dealer,"Near Corporation Bank, Power House, Supera Road",Bhilai,Chattisgarh,490011,,d12768@baldealer.com
Khandelwal Bajaj,Dealer,"Sipat Road, Near Sarkhanda",Bilaspur,Chattisgarh,495006,,d11664@baldealer.com
Tirpur Bajaj,Dealer,"Jaraha Bhata, Near Railway Crossing, Raipur Road",Bilaspur,Chattisgarh,495001,,d10590@baldealer.com
Tripur Auto,Branch,"Near Old Bus Stand, , , Bilaspur",Bilaspur,Chattisgarh,419001,9826144199,d10590@bajajauto.co.in
Tirupati Bajaj,Dealer,"Bhakara Road, Arjuni Dhamtari",Dhamtari,Chattisgarh,493773,,d12958@baldealer.com
Tirupati Auto Agency,Branch,"Main Road,, , , Kanker",Dhamtari,Chattisgarh,494334,7771852418,d12958@bajajauto.co.in
Venkatesh Bajaj,Dealer,"Opp. Polytechnic College, Hostel Nr. Malviya Nagar Chowk G.E. Road, G E Road",Durg,Chattisgarh,491001,,d11510@baldealer.com
Tm Bajaj,Dealer,"Subhash Ward, Dalpat Sagar Road, District Bastar",Jagdalpur,Chattisgarh,494001,9977293466,d12953@baldealer.com
Shree Salasar Bajaj,Dealer,"Champa Road, ",Janjgir,Chattisgarh,495668,7241112031,d11446@baldealer.com
Shree Salasar Automobiles,Branch,"Korba Road, , , Dist : Janjgir, Champa",Janjgir,Chattisgarh,495671,9827754460,d11446@bajajauto.co.in
Chandrayan Bajaj,Dealer,"Raipur Road, Bypass Chowk, Dist-Kabirdham",Kawardha,Chattisgarh,491995,9993988333,d12734@baldealer.com
Chandrayan Motors,Branch,"Main Road, , Pandatarai, Dist : Kabirdham",Kawardha,Chattisgarh,491559,7470991444,d12734@bajajauto.co.in
Baggalink Bajaj,Dealer,"Link Road, Karol Bagh",New Delhi,Delhi,110005,9910399106,d10047@baldealer.com
Bagga Link Service Ltd.,Branch,"S-15-16, New Roshanpura, Najafgarh, , New Delhi",New Delhi,Delhi,110043,7890053866,d10047@bajajauto.co.in
Bagga Link Service Ltd.,Branch,"Bhagawan Singh Market, Krishna Vihar, Budh Vihar (Rohini), New Delhi",New Delhi,Delhi,110085,9910399108,d10047@bajajauto.co.in
Bagga Link Service Ltd.,Branch,"A-25, GT Karnal Road, , Near Gujrawala Town, GT Karnal Road, Delhi",New Delhi,Delhi,110033,(011) 27110011 / 9910399172,d10047@bajajauto.co.in
Bagga Link Service Ltd.,Branch,"Plot KH No. 327/324/2, 1st Floor, Block A, NH-4 Rangpuri (Ext), Mahipalpur, New Delhi",New Delhi,Delhi,110037,9910399111,d10047@bajajauto.co.in
Bagga Link Service Ltd.,Branch,"B-288, Saraswati Vihar (Outer Ring Road), , Pitampura, New Delhi",New Delhi,Delhi,110034,(011) 27011011,d10047@bajajauto.co.in
Dewan Bajaj,Dealer,"B-23, Ground Floor,, Lajpat Nagar-II",New Delhi,Delhi,110024,46648000,d10099@baldealer.com
Dewan Auto,Branch,"630/631, 100 Foot Road,, Chattarpur Hills, , Chhattarpur, New Delhi",New Delhi,Delhi,110074,9810031219,d10099@bajajauto.co.in
Dewan Bajaj,Dealer,"F 11, Mahavir Enclave, Palam Dabri Road, Dwarka",New Delhi,Delhi,110045,9313382111,d10639@baldealer.com
Dewan Motors,Branch,"C-6, Kiran Garden, , Uttam Nagar, New Delhi",New Delhi,Delhi,110059,9313382555,d10639@bajajauto.co.in
Global Bajaj,Dealer,"A-28, South Ganesh Nagar, Opp Mother Dairy",New Delhi,Delhi,110092,9319421555,d12983@baldealer.com
Js Bajaj,Dealer,"429, Safiabad Road,, Narela,",New Delhi,Delhi,110040,9711998152,d10549@baldealer.com
JS Automobiles,Branch,"Plot No. 3, Inder Enclave, Rohtak Road,, Paschim Vihar, New Delhi",New Delhi,Delhi,110087,7110187088,d10549@bajajauto.co.in
JS Automobiles,Branch,"8972/2, Main Road,, Sant Nagar, Burari, New Delhi",New Delhi,Delhi,110084,(11) 27611394,d10549@bajajauto.co.in
Rajivraj Bajaj,Dealer,"A-6 North Chhajjpur, Durgapuri Chowk, 100 Ft.Main Raod,Shahdara",New Delhi,Delhi,110094,9818880088,d10274@baldealer.com
Swadeshi Bajaj,Dealer,"14, Raja Garden, Near Ring Road Crossing",New Delhi,Delhi,110015,9210600907,d10349@baldealer.com
Swadeshi Auto Pvt.Ltd.,Branch,"3/8, Amar Park, Rampura, Zakhira, New Delhi",New Delhi,Delhi,110035,(011) 25937250,d10349@bajajauto.co.in
Swadeshi Auto Pvt.Ltd.,Branch,"1, DSIDC,, Wazirpur Industrial Area, Wazirpur, New Delhi",New Delhi,Delhi,110052,(011) 43304444,d10349@bajajauto.co.in
Tcs Bajaj,Dealer,"S-8, Okhla Industrial Area, Phase II,",New Delhi,Delhi,110020,8285119020,d11545@baldealer.com
Sitara Bajaj,Dealer,"Margaon Navelim Highway, Colmarod, Navelim",Margao,Goa,403707,7774018461,d10328@baldealer.com
Sitara Bajaj,Dealer,"Block A, Kamat Arcarde, Tamdi Mathi, St Inez",Panjim,Goa,403001,9370661050,d11396@baldealer.com
Mahalaxmi Bajaj,Dealer,"Opp P.G.Garden, Grid Road, Kabilpore",Navasari,Gujarat,396424,9727732999,d11057@baldealer.com
Mahesh Bajaj,Dealer,"Deesa Highway,, ",Palanpur,Gujarat,385001,9879320011,d10858@baldealer.com
Mahesh Sales Corporation,Branch,"Bhoyan Service Road,, Deesa-Palanpur Highway, Dist : Banaskantha, Deesa",Palanpur,Gujarat,385001,9979863914,d10858@bajajauto.co.in
Mahesh Sales Corporation,Branch,"Mitha Road, , Highway Char Rasta, Dist : Palanpur, Tharad",Palanpur,Gujarat,385565,9825067136,d10858@bajajauto.co.in
Shivam Bajaj,Dealer,"Deesa Highway Road,, Near Gokul Nagar Society, Near T.B.Cross Roads",Patan,Gujarat,384265,,d10503@baldealer.com
Shivam Auto Agency,Branch,"Near GEB, Madhav Nagar, Palanpur Highway, Siddhupur, Patan",Patan,Gujarat,384151,9157573345,d10503@bajajauto.co.in
Yug Bajaj,Dealer,"Near Rokadiya Hanuman Mandir, By Pass Road, Gandhi Park, Khapat",Porbandar,Gujarat,360575,9601433331,d11479@baldealer.com
Shivam Bajaj,Dealer,"Plot No. 1-4 & 44-45, GIDC Corner,, Dist  Patan",Radhanpur,Gujarat,385340,9825533060,d12978@baldealer.com
Rajarshi Bajaj,Dealer,"Gondal Road, Near Malaviya College",Rajkot,Gujarat,360004,9427209538,d10277@baldealer.com
Rajarshi Auto Deals Pvt. Ltd.,Branch,"Near Bileshwar Mahadev, Before Umiya Marble, Near Raiya Chowkdi, 150 ft. Ring Road,, Raiya Road,, Rajkot",Rajkot,Gujarat,360007,9426251381,d10277@bajajauto.co.in
Surat Bajaj,Dealer,"Opera House, Near Deepa Complex,, Opp-Sanghvi Tower, Adajan Road ,",Surat,Gujarat,395009,9909005492,d10971@baldealer.com
Gujarat Motors Pvt.Ltd.,Branch,"G7, Vasudev Arcade, , Near Rupali Nahar, Bhatar, Surat",Surat,Gujarat,395007,9909914233,d10971@bajajauto.co.in
Shivam Bajaj,Dealer,"FF-1, Mansarover Heights, Opp Bhaktidham Mandir, Above ICICI Bank, Pune-Khumbhariya Road, Puna Patiya, Magob",Surat,Gujarat,395010,8980023399,d11920@baldealer.com
Shivam Bike,Branch,"At & Post Ten, Opp: GEB, Surat-Bardoli Road,, Bardoli, ",Surat,Gujarat,394602,,d11920@bajajauto.co.in
Shivam Bike,Branch,"27/D, Plot-1, Prabhu Nagar, Opp: BRC Gate, Near Reliance Petrol Pump,, Udhna Main Road,, Udhna",Surat,Gujarat,394210,0261 2897077,d11920@bajajauto.co.in
Maheshwari Bajaj,Dealer,"Near Mangal Bhuvan, Gidc, Wadhwan",Surendranagar,Gujarat,363030,7698078000,d10860@baldealer.com
Asm Bajaj,Dealer,"Vinobha Bhave Road, Vimalkunj, Salatwada",Vadodara,Gujarat,390001,9998222548,d10002@baldealer.com
AS Motors,Branch,"Near Roses Garden, Old Chhani Road, , Chhani, Baroda",Vadodara,Gujarat,390002,9998333556,d10002@bajajauto.co.in
Shisa Bajaj,Dealer,"Shisa Square, Opp Bhavnas School, Makarpura Road",Vadodara,Gujarat,390011,8511153592,d11638@baldealer.com
Shisa Auto,Branch,"F-1/2, Radhia Apartment,, Op: Jain Mandir, Subhanpura, Vadodara",Vadodara,Gujarat,390023,9913796969,d11638@bajajauto.co.in
Aakar Bajaj,Dealer,"CM-817, Opp.Ashadham School, N.H - 8, GIDC,",Vapi,Gujarat,396195,6356070707,d10106@baldealer.com
Bharat Bajaj,Dealer,"Opp PWD Guest House,, Railway Station Char Rasta, Silvasa Road",Vapi,Gujarat,396191,8866000522,d12529@baldealer.com
Western Bajaj,Dealer,"Junagad Highway, Near Hindustan Petrol Pump",Veraval,Gujarat,362265,8401404238,d10692@baldealer.com
Santram Bajaj,Dealer,"9L Squate Complex, Opp D Mart, Uttarsanda Road, Nadiad - Dist Kheda",Nadiad,Gujarat,387001,9904708739,d12874@baldealer.com
Aditya Bajaj,Dealer,"Satva Shakti Apt, Opp Apsara Cinema, Mani Nagar, Near Au Small Finance Bank",Ahmedabad,Gujarat,380008,6356024242,d12925@baldealer.com
Aditya Auto,Branch,"Opp: Kaka Bhaji Pav, Rajendra Park, Odhav, Dist : Ahmedabad",Ahmedabad,Gujarat,382415,6356024243,d12925@bajajauto.co.in
Aditya Auto,Branch,"GF/1, Sarvopari Mall,, Near Bhuyangdev Char Rasta, Naranpura, Ahmedabad",Ahmedabad,Gujarat,380013,9824200024,d12925@bajajauto.co.in
Aditya Auto,Branch,"India Colony, Near D-Mart, Darshan Estate, Bapunagar, Ahmedabad",Ahmedabad,Gujarat,382315,(79) 22802055,d12925@bajajauto.co.in
Aditya Auto,Branch,"Near ST Workshop, Opp: SBI Bank, Naroda Patiya, Naroda, Ahmedabad",Ahmedabad,Gujarat,382325,6356024244,d12925@bajajauto.co.in
Aditya Bajaj,Dealer,"Opp Riddhi Siddhi Bunglows, Sakhraj Sanand Highway- Sanand",Ahmedabad,Gujarat,382110,9375073137,d11332@baldealer.com
Amin Bajaj,Dealer,"Nehru Bridge Road, Lal Darwaja, Near Rupali Cinema",Ahmedabad,Gujarat,380001,9879203364,d10000@baldealer.com
Apco Bajaj,Dealer,"1 To 5 Silver Square, Opp Dipak School, Vrundavan Party Plot, Nikol",Ahmedabad,Gujarat,382350,7567888893,d11849@baldealer.com
Gallops Bajaj,Dealer,"4, Trade Square, Opp Power House,  Sabarmati",Ahmedabad,Gujarat,380005,9327650055,d11867@baldealer.com
Gallops Automobiles Pvt Ltd,Branch,"Abhinav Colony, Opp: Rajvi Tower,, Drive-in Gurukul,, Main Road, Ahmedabad",Ahmedabad,Gujarat,380052,,d11867@bajajauto.co.in
Gallops Automobiles Pvt Ltd,Branch,"601, A. N. G. Tower, Astron Plazz C. H. S., Opp: ISCON Temple, ISCON Char Rasta, Dist : Ahmedabad, SG Highway",Ahmedabad,Gujarat,380015,9978928322,d11867@bajajauto.co.in
Gallops Automobiles Pvt Ltd,Branch,"Ramvadi, Beside Vyashwadi, Akhbernagar, Nava Vadaj, Ahmedabad",Ahmedabad,Gujarat,380013,,d11867@bajajauto.co.in
Orange Bajaj,Dealer,"GIDC, Plot No. 69,, Opp Sonalika Tractor",Amreli,Gujarat,365601,9099079973,d12736@baldealer.com
Orange Automotive Pvt ltd,Branch,"Una-Bhavnagar Road, Opp: Modheshwary Motor (Hero Showroom), Yajpur, Una, Gir Somnath",Amreli,Gujarat,362560,7573990333,d12736@bajajauto.co.in
Amin Bajaj,Dealer,"Opp Water Tank, Anand Sojitara Road",Anand,Gujarat,388001,8734010115,d10017@baldealer.com
Amin Auto Agencies,Branch,"Om Sharanam Complex, Chokdi to Borsad Road, Talq: Aklav, Dist : Anand, Asodar",Anand,Gujarat,388307,9924342823,d10017@bajajauto.co.in
Kena Bajaj,Dealer,"Opp GIDC Bus Stand, Old Nh 8, Near Decent Hotel, Dist Bharuch",Ankleshwar,Gujarat,393002,8758244222,d11433@baldealer.com
Kena Bajaj,Dealer,"Beside Sai Shraddha Multi Speciality Hospital,, Near Chamunda Mata Temple,Zadeshwar Road",Bharuch,Gujarat,392011,7574820001,d12236@baldealer.com
Aroma Bajaj,Dealer,"67 Chitra GIDC, Opp Press Quarter,, Near Maruti Showroom",Bhavnagar,Gujarat,364001,8511118605,d11826@baldealer.com
Gk Bajaj,Dealer,"Plot No.10, Opp Commerce College, Bhuj Mirzapur Highway, Kutch",Bhuj,Gujarat,370001,9825612077,d11086@baldealer.com
Shivam Bajaj,Dealer,"10, Kalyan Commercial Complex,, Vegha Chokadi, Tal Dabhoi, Dist Baroda",Dabhoi,Gujarat,391110,,d11151@baldealer.com
Shivam Bajaj,Branch,"Samrajya Nagar, , Vemadri Road, Karjan, Vadodara",Dabhoi,Gujarat,391244,9909942758,d11151@bajajauto.co.in
Shivam Bajaj,Branch,"Beside of Karan Petrol Pump,, Halol Road, Alipura, Bodeli, Vadodara",Dabhoi,Gujarat,391135,9727745124,d11151@bajajauto.co.in
Aditya Bajaj,Dealer,"Old Indore Road, ",Dahod,Gujarat,389151,9879333125,d10427@baldealer.com
Gk Bajaj,Dealer,"Plot No.144, Old Court Road, Sector 1A",Gandhidham,Gujarat,370201,9825225720,d11465@baldealer.com
Bansari Bajaj,Dealer,"Plot No.28  C, G.T.S.Road, Sector No. 30",Gandhinagar,Gujarat,382030,9429023456,d12152@baldealer.com
Rajendra Bajaj,Dealer,"Opp Moonlight Cinema, Dohad Road,, Vavdi",Godhra,Gujarat,389001,9724314728,d10290@baldealer.com
Sakal Bajaj,Dealer,"Near College, N.H.No.8, Shamalji Highway Road, Motipura",Himatnagar,Gujarat,383001,9099056163,d11004@baldealer.com
Sakal Auto,Branch,"Ganesh Pura,, Tran Rasta, Hajira Vistar, , Modasa, Dist : Aravali",Himatnagar,Gujarat,383315,8980550684,d11004@bajajauto.co.in
Bansidhar Bajaj,Dealer,"GIDC, Salaya Road, Near Railway Crossing",Jamkhambaliya,Gujarat,361305,9909942111,d11464@baldealer.com
Madhusudan Bajaj,Dealer,"Saru Section Road, ",Jamnagar,Gujarat,361002,7777996266,d11658@baldealer.com
Orange Bajaj,Dealer,"Beside GIDC Gate 2, Dolatpura, Junagadh Rajkot Highway",Junagadh,Gujarat,362001,9586365111,
Parth Bajaj,Dealer,"Parth Avenue, Near Max Machinery,, Opp.Reliance Petrol Pump, Kadi Chhatral Road",Kadi,Gujarat,382715,9409421001,d11549@baldealer.com
Parth Bajaj,Dealer,"Opp Wide Angle Cinema, Near Khari River Bridge, Nagalpur Highway",Mehsana,Gujarat,384001,7046670466,d12804@baldealer.com
Maheshwari Bajaj,Dealer,"Sky Tower, Near Umiya Circle, Sanala Road",Morbi,Gujarat,363641,9924811000,d10674@baldealer.com
Baba Bajaj,Dealer,"New Najaf Garh Road, Near Bus Stand",Bahadurgarh,Haryana,124507,9215455501,d11458@baldealer.com
Bansal Bajaj,Dealer,"Rohtak Road, ",Jind,Haryana,126102,9138215480,d10771@baldealer.com
Shikha Bajaj,Dealer,"Opposite Hindu Girl's Highschool, Ambala Road, ",Kaithal,Haryana,136027,9812397111,d12758@baldealer.com
Ekta Bajaj,Dealer,"G.T.Road, Karnal Road",Karnal,Haryana,132001,9812047779,d10120@baldealer.com
Shreekrisha Bajaj,Dealer,"K.D.B.Road, Near New Anaj Mandi",Kurukshetra,Haryana,136118,9812001800,d10629@baldealer.com
R R Bajaj,Dealer,"Mohinder Garh Road, Opp. Panchayat Bhawan",Narnaul,Haryana,123001,9466320249,d11836@baldealer.com
Prestige Bajaj,Dealer,"Ward - 6 Delhi Alwa Road, Near Old Bus Stand",Nuh,Haryana,122107,7027605655,d12661@baldealer.com
Vidya Bajaj,Dealer,"Bye Pass Road, Bus Stand Chowk",Palwal,Haryana,121102,9416636037,d12999@baldealer.com
Panchkula Bajaj,Dealer,"Plot No. 145, Ground Floor, Industrial Area Phase-2, Devi Nagar",Panchkula,Haryana,134113,9115520031,d12869@baldealer.com
Suvidha Bajaj,Dealer,"G.T.Road, Panipat",Panipat,Haryana,132103,9812058111,d10368@baldealer.com
Suvidha Traders,Branch,"Khadi Ashram, G T Ropad, Khadi Ashram, Panipat",Panipat,Haryana,132103,9812050222,d10368@bajajauto.co.in
Rajindera Bajaj,Dealer,"Kaithal Road, Opp Manchanda Petrol Pump",Pehowa,Haryana,136128,9416153720,d11459@baldealer.com
Harsh Bajaj,Dealer,"Dharuhera Chowk,, Delhi Road",Rewari,Haryana,123401,9991617476,d10148@baldealer.com
Ansh Bajaj,Dealer,"Sheela Bye Pass, Delhi Circular Road",Rohtak,Haryana,124001,9254211102,d10829@baldealer.com
Ansh Bajaj,Branch,"Near Civil Hospital, Talao Road, Dist : Rohtak, Jhajjar, Haryana",Rohtak,Haryana,124103,7015152566,d10829@bajajauto.co.in
Raja Bajaj,Dealer,"Raja House ( Opp IDBI Bank ), Near Astha Hospita , Dabwali Road",Sirsa,Haryana,125055,9996027379,d10145@baldealer.com
Om Bajaj,Dealer,"Gohana Road, ",Sonepat,Haryana,131001,7298981134,d10238@baldealer.com
Arora Bajaj,Dealer,"214, Mathura Main Road, Opp Pnb Bank, Dist Faridabad",Ballabgarh,Haryana,121004,7503000974,d11513@baldealer.com
Shreeshyam Bajaj,Dealer,"Opp.Public Health Office, Meham Road",Bhiwani,Haryana,127021,9518801045,d10853@baldealer.com
Tulsi Bajaj,Dealer,"Loharu Road,, ",Charkhi Dadri,Haryana,127306,9215650603,d12067@baldealer.com
Green Bajaj,Dealer,"20-21 A, Railway Road, Fruit Garden, NH-5",Faridabad,Haryana,121001,9891020209,d13055@baldealer.com
Tcs Bajaj,Dealer,"Plot No.63, Neelam Bata Road, Nh-1, N.I.T",Faridabad,Haryana,121001,8376900007,d10925@baldealer.com
Fatehabad Bajaj,Dealer,"Near Manju Niwas, Sirsa Road",Fatehabad,Haryana,125050,9017688012,d10738@baldealer.com
Mahadev Bajaj,Dealer,"Rohtak Road, ",Gohana,Haryana,131301,8222949401,d12663@baldealer.com
Krishna Bajaj,Dealer,"3061, Lajpat Nagar,New Railway Road,Gurgaon, M 33 Old Dlf Colony, Gurgaon",Gurgaon,Haryana,122001,9810535531,d10192@baldealer.com
Krishna Auto Sales,Branch,"M33, Old DLF Colony, , Gurgaon, Sector-14",Gurgaon,Haryana,122001,(0124) 4081709,d10192@bajajauto.co.in
Gsm Bajaj,Dealer,"Plot No. 632, 2Nd Floor, Laxmi Garden,, Opp Dav Sr. Sec School, Khandsa Road",Gurugram,Haryana,122001,7838774485,d13006@baldealer.com
Goyal Bajaj,Dealer,"G.T.Road, Near Milk Plant",Ambala City,Haryana,134007,8059401801,d10138@baldealer.com
Goyal Automobiles,Branch,"Jagadhri Road, Tingri Bridge, Near Gagan Banquet, Ambala Cantt, Dist : Ambala",Ambala City,Haryana,133001,9053016406,d10138@bajajauto.co.in
Balhara Bajaj,Dealer,"Opp Anaj Mandi, Karnal Road",Assandh,Haryana,132039,8059940115,d12094@baldealer.com
Balahara Bajaj,Dealer,"Near Ambedkar Chowk, G T Road",Hansi,Haryana,125033,9468244300,d12733@baldealer.com
Autocar Bajaj,Dealer,"471-72 Automobiles Market, Barwala Road",Hisar,Haryana,125001,9896056528,d10005@baldealer.com
Krishna Bajaj,Dealer,"Near Goel Hospital, Yamuna Nagar Road",Jagadhri,Haryana,135003,9812580711,d10203@baldealer.com
Krishna Automobiles,Branch,"Camp Radaur Road, Dist Yamunanagar, Camp Radaur Road, , Jagadhri",Jagadhri,Haryana,135001,9813445102,d10203@bajajauto.co.in
Malhotra Bajaj,Dealer,"N.H - 21, V.P.O.Gutkar, ",Mandi,Himachal Pradesh,175021,,d10224@baldealer.com
Mahesh Bajaj,Dealer,"Pinjore Road, Dist Solan",Nalagarh,Himachal Pradesh,174101,,d10237@baldealer.com
Sangam Bajaj,Dealer,"Thakurdwara, ",Palampur,Himachal Pradesh,176102,9218439238,d10331@baldealer.com
Sangam Auto Sales,Branch,"UPO : Kacheri, , Dist : Kangra, Kangra",Palampur,Himachal Pradesh,176208,9218464172,d10331@bajajauto.co.in
Sangam Auto Sales,Branch,"Vill : Bodh, The : Nurpur, Dist : Kangra, Bodh",Palampur,Himachal Pradesh,176201,9418218448,d10331@bajajauto.co.in
Meera Bajaj,Dealer,"Arya Nagar,, Amb Road",Una,Himachal Pradesh,174303,,d12831@baldealer.com
Jammu Bajaj,Dealer,"B.C.Road, Rehari Chowk",Jammu,Jammu,180005,9906040049,d10168@baldealer.com
Jammu Motors Pvt. Ltd.,Branch,"Near JP World School, , Narwal, Jammu",Jammu,Jammu,180006,(0191) 7889961506,d10168@bajajauto.co.in
Nsf Bajaj,Dealer,"Ashok Nagar, Industrial Estate,Satwari",Jammu,Jammu,180003,,d10225@baldealer.com
Ranju Bajaj,Dealer,"Western Avenue, Nayamore, Near State Bank Of India",Bokaro,Jharkhand,827001,6202072601,d10275@baldealer.com
Ranju Automobiles,Branch,"Bye-Pass Road, , Adjacent to Shree Hyundai, Chas, Bokaro",Bokaro,Jharkhand,827013,8405903778,d10275@bajajauto.co.in
Royal Bajaj,Dealer,"Sadar Bazar,, Singhbhum West",Chaibasa,Jharkhand,833201,,d11524@baldealer.com
J P S Bajaj,Dealer,"Ranchi Road, Redma, Dist Palamu",Daltonganj,Jharkhand,822101,7282000609,d13105@baldealer.com
Vinayak Bajaj,Dealer,"Court Road, VIP Chowk",Deoghar,Jharkhand,814112,9263570795,d12073@baldealer.com
Nkd Bajaj,Dealer,"Hirak Road, Near Kamal Katesaria School, Bhelatand, Barwadda",Dhanbad,Jharkhand,826004,7033099006,d12967@baldealer.com
Metro Bajaj,Dealer,"Metro Plaza , Katras Road, Matkuria",Dhanbad,Jharkhand,828101,9798824524,d12083@baldealer.com
Shreyansh Bajaj,Dealer,"Gaushala Road, In Front Of National Highschool, Dudhani",Dumka,Jharkhand,814101,9304319670,d12721@baldealer.com
Baidyanath Bajaj,Dealer,"Pachambha Road, Boro",Giridih,Jharkhand,815301,6203613822,d13048@baldealer.com
Prayag Bajaj,Dealer,"Sarawgi Sadan, ",Giridih,Jharkhand,815301,79032890600,d10264@baldealer.com
Pakur Bajaj,Dealer,"DAV School Road, Gokulpur",Pakur,Jharkhand,816107,7903359340,d12914@baldealer.com
Volkan Bajaj,Dealer,"NH-33, Near Ramgarh College, College Road",Ramgarh Cantt,Jharkhand,829122,8406904807,d12616@baldealer.com
Raunaq Bajaj,Dealer,"Raunaq Automobiles Compound, Near Kokar Chowk, NH33, Old H.B.Road",Ranchi,Jharkhand,834001,,d12696@baldealer.com
Cosmic  Bajaj,Dealer,"Astha Regency, Plot NO. 39 & 40, Vill - Helal, Piska More, Ratu Road",Ranchi,Jharkhand,834005,,d12081@baldealer.com
"Cosmic Mobikes 
( a unit of J G Enterprises Pvt ltd)",Branch,"Poornima House,, Argora Bye Pass Road, Argora Chowk, Ranchi",Ranchi,Jharkhand,834002,8210009464,d12081@bajajauto.co.in
Torrent Bajaj,Dealer,"Opp ICICI Bank, Bagroy Market, Main Road",Ranchi,Jharkhand,834001,,d10928@baldealer.com
Shankar Motors,Dealer,"Barharwa, (Pakur Road)",Sahibganj,Jharkhand,816101,6201585196,d12927@baldealer.com
Vasundhara Bajaj,Dealer,"Bye Pass Road, Jhumri Telaiya",Koderma,Jharkhand,825409,7759829490,d12815@baldealer.com
Abj Bajaj,Dealer,"Hatiya Chowk, Pirpanti Road, Guljarbagh",Godda,Jharkhand,814133,7766914151,d11586@baldealer.com
Atiksh Bajaj,Dealer,"At Jhinjharia Pool,, Near St. Columbus College",Hazaribagh,Jharkhand,825301,9334330882,d13036@baldealer.com
Swastik Bajaj,Dealer,"28, Shailaja Apt, New Kashidih Layout, Bardwari, Sakchi",Jamshedpur,Jharkhand,831001,2226006,d11736@baldealer.com
Bhalotia Bajaj,Dealer,"VII Phase , Industrial Area, Adityapur",Jamshedpur,Jharkhand,832108,6203750381,d12868@baldealer.com
Jamtara Bajaj,Dealer,"Dumkar Road, Near HP Petrol Pump, Dhandra",Jamtara,Jharkhand,815351,8207442016,d12924@baldealer.com
Bijjargi Bajaj,Dealer,"S No. 202B, Kasat Layout, Bagalkot Vidyagiri Road, Near Cement Factory Gate",Bagalkot,Karnataka,587101,9148448325,d12761@baldealer.com
Bijjargi Bikes,Branch,"Opp: ICICI Bank,, Ranna Circle, Dist : Bagalkot, Mudhol",Bagalkot,Karnataka,587313,08350-283231,d12761@bajajauto.co.in
Jagajampi Bajaj,Dealer,"48302, Opp.Civil Hospital, Dr.Ambedkar Road",Belgaum,Karnataka,590001,9449820555,d10811@baldealer.com
Jagashree Bajaj,Dealer,"CTS No. 9109111617, RPD Corner, Tilakwadi",Belgaum,Karnataka,590006,7337757145,d12829@baldealer.com
Sai Bajaj,Dealer,"158F, Hospet Road, Contonment,, Opp. St.Philomena's Convent,",Bellary,Karnataka,583104,7338667310,d10327@baldealer.com
Amba Bajaj,Dealer,"No.40, Srinidhi Building, G.B.Palya, Hosur Main Road",Bengaluru,Karnataka,560068,9535411100,d10677@baldealer.com
Amba Auto Sales & Services Pvt Ltd,Branch,"#1-B, BTM 1st Stage, 100 Ft Road (Opp: Citi Bank ATM), Near Udupi Garden Signal, BTM Layout, Bangalore",Bengaluru,Karnataka,560068,(080) 41508305,d10677@bajajauto.co.in
Amba Auto Sales & Services Pvt Ltd,Branch,"No. 79, Maruthi Arcade, Outer Ring Road, Dist : Bangalore, Sarjapur/Bellandur",Bengaluru,Karnataka,560103,080-41716129,d10677@bajajauto.co.in
Amba Auto Sales & Services Pvt Ltd,Branch,"Survey No. 60/6, Konappana Agrahara Village,, Begur Hobli,, Electronic City, Bangalore",Bengaluru,Karnataka,5600068,(080) 41620555,d10677@bajajauto.co.in
Amba Auto Sales & Services Pvt Ltd,Branch,"No. 40, Srinidhi Building, Opp: SRS Travels, Madiwala, Bengaluru",Bengaluru,Karnataka,560068,(080) 42195491,d10677@bajajauto.co.in
Anant Bajaj,Dealer,"No.161, Ward No.104, Magadi Main Rd,, Opp Kamakshipalaya Police Station, Kamakshipalya",Bengaluru,Karnataka,560079,7338245111,d12846@baldealer.com
Anant Bajaj,Branch,"No. 27/28, Kempegowda Layout,, Laggere Ring Road,, Laggere, Bangalore",Bengaluru,Karnataka,560058,9900000911,d12846@bajajauto.co.in
Kalyani Bajaj,Dealer,"No.7, Achaiah Shetty Layout, RMV Extension, Hebbal Road",Bengaluru,Karnataka,560080,9902014491,d10670@baldealer.com
Kalyani Motors,Branch,"Janaki Complex, Old # 366/319, New # 366/4, 399/4,, Near Santhe Circle Bus Stand, Bangalore-Bellary Road, Yelahanka Old Town, ",Bengaluru,Karnataka,560064,080 42281166 / 42181166,d10670@bajajauto.co.in
Kalyani Motors,Branch,"No. 9/15, 11th Main Road, Gokul, 1st stage, 1st phase, Mathikere Main Road, ",Bengaluru,Karnataka,560054,080 40951166 / 23573307,d10670@bajajauto.co.in
Kalyani Motors,Branch,"48/C, MAM Complex, Opp: Mini Vidhana Soudha, Dist : Bangalore, Devanahalli",Bengaluru,Karnataka,562110,(080) 27681369,d10670@bajajauto.co.in
Kalyani Motors,Branch,"Near Chemmannur Jwellers, BB Road, , Dist : Bangalore, Chikkaballapur",Bengaluru,Karnataka,562101,8884413594,d10670@bajajauto.co.in
Khivraj Bajaj,Dealer,"102 Kasturba Road, ",Bengaluru,Karnataka,560001,9035010630,d10173@baldealer.com
Khivraj Motors,Branch,"No. 16, 8th Mile, Nagasandra Post,, Tumkur Road,, Hessarghata, Bangalore",Bengaluru,Karnataka,560073,9483634509,d10173@bajajauto.co.in
Khivraj Motors,Branch,"No. 118, 119, 130, 131, Outer Ring Road, Hormavu Signal, Banaswadi, Bangalore",Bengaluru,Karnataka,560043,(080) 41687037,d10173@bajajauto.co.in
Khivraj Motors,Branch,"Gowsari Arcade, Ring Road,, Opp: Jeevika Hospital, Marthahalli, Bangalore",Bengaluru,Karnataka,560037,(080) 65555809,d10173@bajajauto.co.in
Khivraj Motors,Branch,"2 & 11, HAL 2nd Stage,, 100 Feet Road, Indiranagar, Bangalore",Bengaluru,Karnataka,560038,(080) 65959785,d10173@bajajauto.co.in
Khivraj Motors,Branch,"AIR Extension NO. 1/2, , GSI Eye Hospital, Old Madras Road, , Hoskote Town, Bangalore",Bengaluru,Karnataka,562114,9035005075,d10173@bajajauto.co.in
Khivraj Motors,Branch,"# 49, Biozen, Hennur Cross, Begalur Road, Kothannur, Near Gubbi Cross, Hennur, Bangalore",Bengaluru,Karnataka,560077,9742155225,d10173@bajajauto.co.in
Khivraj Bajaj,Dealer,"No.1741-C, ITPL Main Road, White Field Road",Bengaluru,Karnataka,560048,8618840097,d11401@baldealer.com
Popular Bajaj,Dealer,"431B, DRC Post, Opp.Sagar Hospital, Bannerghatta Road",Bengaluru,Karnataka,560029,9945143890,d10479@baldealer.com
Popular Motor Corporation,Branch,"# 123/107, 2nd Main, 7th Block,, Jaya Nagar, , Bangalore",Bengaluru,Karnataka,560082,080 26650267 / 26650025,d10479@bajajauto.co.in
Popular Motor Corporation,Branch,"#98/1, Kalena Agrahara, , Ashoka Industries Compound, Begur-Hobli Natiuonal Park Road, Gottigere, Bangalore",Bengaluru,Karnataka,560076,080 26431819,d10479@bajajauto.co.in
Popular Motor Corporation,Branch,"# 515, 20th Main, 8th Block,, Koramangala, , Bangalore",Bengaluru,Karnataka,560095,080 25701298,d10479@bajajauto.co.in
Popular Motor Corporation,Branch,"# 1293, 100-Feet Road,, Banashankari 3rd Stage, 4th Phase, 7th block,, Banashankari, Bengalore",Bengaluru,Karnataka,560070,080 26795059,d10479@bajajauto.co.in
Popular Motor Corporation,Branch,"#1530, 1553, Nizami Chowk,, Court Road,, Channapatna, ",Bengaluru,Karnataka,562180,080 27251222,d10479@bajajauto.co.in
Popular Motor Corporation,Branch,"Opp: BGS Rotary Hospital, Bangalore-Mysore Road,, Ramanagara, ",Bengaluru,Karnataka,562159,080 27271056,d10479@bajajauto.co.in
Rv Bajaj,Dealer,"No.237, Mysore Road, Near BHEL",Bengaluru,Karnataka,560039,7259186162,d10665@baldealer.com
Raghavendra Motors Pvt.Ltd,Branch,"Ground Floor, No. 561,, 1st Main Road, Bangalore, Kengeri",Bengaluru,Karnataka,560060,8453484545,d10665@bajajauto.co.in
Raghavendra Motors Pvt Ltd,Branch,"#20/21, 17th Cross, Magadi Chord Road,, Near Maruti Mandir, Vijayanagar, Bengaluru",Bengaluru,Karnataka,560040,(080) 41139307,d10665@bajajauto.co.in
Raghavendra Motors Pvt Ltd,Branch,"No. 237, Mysore Road, Oil Mill Building, Near SBI, Nagarabhavi Main Road,, Moodulapalya, Bengaluru",Bengaluru,Karnataka,560072,(080) 60660602,d10665@bajajauto.co.in
Sindol Bajaj,Dealer,"NO. 9-10-615, Opp B.V.B. College, Manhalli Road",Bidar,Karnataka,585401,8482235655,d12757@baldealer.com
Bijjargi Bajaj,Dealer,"31E 'Gani Towers, Opp. B.L.D.E.A Hospital, Ashram Road",Bijapur,Karnataka,586103,9900075181,d11857@baldealer.com
Bijjaragi Bajaj,Branch,"Pujya Shri Chanaveer Swamiji Complex, Vidya Nagar, Basaweshwar Circle, , Sindagi",Bijapur,Karnataka,586128,08488-221009,d11857@bajajauto.co.in
Patel Bajaj,Dealer,"Double Road, Opp JSS College",Chamarajanagar,Karnataka,571313,8722067560,d12900@baldealer.com
Supreme Bajaj,Dealer,"Rathnagiri Road, ",Chikmagalur,Karnataka,577101,,d12885@baldealer.com
Jagajampi Bajaj,Dealer,"S No.168-170, B K College Road, Ankali Road",Chikodi,Karnataka,591201,8095907255,d11430@baldealer.com
Btv Bajaj,Dealer,"No.3 & 4, S.R.Layout, Turuvanur Road",Chitradurga,Karnataka,577501,8194231655,d12461@baldealer.com
Aspire Auto,Branch,"Near Talluk Office, Main Road,, Hiriyur, Chitradurga",Chitradurga,Karnataka,577598,9980300344,d12461@bajajauto.co.in
Aspire Auto,Branch,"Opp: Challakeramma Temple, , Bellary Road,, Challekere, Chitradurga",Chitradurga,Karnataka,577522,(8195) 222255,d12461@bajajauto.co.in
Jain Bajaj,Dealer,"868  N 3 - N 7 Shankar Vihar Extn., P.B. Road",Davangere,Karnataka,577006,9844144403,d10936@baldealer.com
Jain Motors,Branch,"Near APMC, S. H. Road, Harihara, Dist : Davangere",Davangere,Karnataka,577601,9632300444,d10936@bajajauto.co.in
Channamma Bajaj,Dealer,"Keshar Plaza, Mulgund Naka,, Hubli Road",Gadag,Karnataka,582101,7406674019,d11437@baldealer.com
Jagajampi Bajaj,Dealer,"RS No. 1063C, APMC Main Road, ",Gokak,Karnataka,591307,9164478610,d11427@baldealer.com
Vkg Bajaj,Dealer,"Opp STBT,, Darga Road",Gulbarga,Karnataka,585101,8472235555,d11046@baldealer.com
VKG Bajaj,Branch,"Neare LIC Office, , Hyderabad Road,, Yadgir, Dist : Yadgir",Gulbarga,Karnataka,585201,8722182492,d11046@bajajauto.co.in
Arpita Bajaj,Dealer,"No.667, B.M.Road, Opp. Warehouse",Hassan,Karnataka,573201,8095350688,d10118@baldealer.com
Channamma Bajaj,Dealer,"P.B.Road, Vidyanagar",Hubli,Karnataka,580021,9620614106,d10862@baldealer.com
Channamma Motors,Branch,"Opp: Aman Hall, Arvind Nagar, Karwar Road, Hubli",Hubli,Karnataka,580024,8884771881 / 8884771882,d10862@bajajauto.co.in
Channamma Motors,Branch,"Near Lakmapur Bus Stop, P. B. Road,, Haveri, Karnataka",Hubli,Karnataka,581110,8151884422 / 8151885511,d10862@bajajauto.co.in
Channamma Motors,Branch,"13/291, East Street,, Trichy Road,  , Dist : Tiruchirapally, Manapparai",Hubli,Karnataka,621306,9489465068,d10862@bajajauto.co.in
Shree Kamakshi Bajaj,Dealer,"No. 701, M B Road, Sulthan Thipsandra, Bypass",Kolar,Karnataka,563101,,d11703@baldealer.com
Shree Kamakshi Bajaj,Branch,"Beside Bharat Polytechnic College,, KFG Main Road, Dist : Kolar, Bangarpet, Karnataka",Kolar,Karnataka,563114,8073711273,d11703@bajajauto.co.in
Shree Kamakshi Bajaj,Branch,"Opp: Civil Court, Robertson Pet, KGF, Kolar  ",Kolar,Karnataka,563122,8904204486 / 9980240200,d11703@bajajauto.co.in
Shree Kamakshi Bajaj,Branch,"Someshwar Palya Circle, Bye Pass Road, Mulbagal, Kolar",Kolar,Karnataka,563101,8147147188 / 9036369688,d11703@bajajauto.co.in
Shree Kamakshi Bajaj,Branch,"Balaji Theater Circle, Kolar Road, Malur, Kolar",Kolar,Karnataka,563130,8147446919 / 8147039009,d11703@bajajauto.co.in
Ia  Bajaj,Dealer,"Kotbal Complex, Kustagi Road, Near Railway Track",Koppal,Karnataka,583231,7019264804,d12938@baldealer.com
Popular Bajaj,Dealer,"B.M. Road, ",Mandya,Karnataka,571401,7760967802,d12896@baldealer.com
Supreme Bajaj,Dealer,"Shalom Shopping Complex, Valcencia",Mangalore,Karnataka,575002,8929824105,d10337@baldealer.com
Supreme Auto Dealers Pvt. Ltd.,Branch,"Seetha Plaza, Mooda Village, NH-48, Bantwal, Dist : Mangalore, BC Road",Mangalore,Karnataka,574219,08255-231704,d10337@bajajauto.co.in
Supreme Auto Dealers Pvt. Ltd.,Branch,"Maya Deepa Building, Near Pandit House, Permannur Village, Dist : Mangalore, Thokottu",Mangalore,Karnataka,575017,0824-2467377,d10337@bajajauto.co.in
Supreme Bajaj,Dealer,"DSK Complex, NH 66,, Kottara Chowki",Mangalore,Karnataka,575008,8929824104,d11453@baldealer.com
Popular Bajaj,Dealer,"Vishwamanva Double Road, Saraswathipuram",Mysore,Karnataka,570009,7760967801,d11262@baldealer.com
Star Bajaj,Dealer,"Show Room No.27061, Temple Road, V V Mohalla",Mysore,Karnataka,570002,9886959722,d11263@baldealer.com
Star Automobiles,Branch,"BM Bypass Road, , , Hunsur",Mysore,Karnataka,571105,08222-25122,d11263@bajajauto.co.in
Star Automobiles,Branch,"Mysore-Ooty Road,, , , Nanjangud",Mysore,Karnataka,571301,08221-226222,d11263@bajajauto.co.in
Star Automobiles,Branch,"No. 4576, L-15,, Ganesh Temple Road,, , NR Mohalla",Mysore,Karnataka,570007,0821-4007222,d11263@bajajauto.co.in
Sai Bajaj,Dealer,"Opp Agriculture Engg Colliege, Lingasugar Road",Raichur,Karnataka,584102,9916591501,d11042@baldealer.com
Supreme Bajaj,Dealer,"Jog Road, ",Sagar,Karnataka,577401,9008339799,d11416@baldealer.com
Supreme Bajaj,Dealer,"Shankarmath Road, ",Shimoga,Karnataka,577201,8105000999,d10351@baldealer.com
Channamma Bajaj,Dealer,"248 B, Hosa Pete Road, ",Sirsi,Karnataka,581401,8884645609,d11914@baldealer.com
Channamma Motors,Branch,"Maimun Complex,, Mulla Stop, Kajubhag, Dist : Uttar Kannada, Karwar",Sirsi,Karnataka,581301,9448223577,d11914@bajajauto.co.in
Akshaya Bajaj,Dealer,"Post Box No.18, Sira Road",Tumkur,Karnataka,572106,,d10031@baldealer.com
Akshaya Auto Service,Branch,"Tumkur Gate, Madhugiri Main Road,, Madhugiri, Tumkur",Tumkur,Karnataka,572132,7259040254,d10031@bajajauto.co.in
Akshaya Auto Service,Branch,"Opp: Indian Oil Petrol Bunk, Hassan Circle, Tiptur, Tumkur",Tumkur,Karnataka,572201,9663384235,d10031@bajajauto.co.in
Saanvi Bajaj,Dealer,"Kalsanka,  Ambagilu Main Road,, Gundibail",Udupi,Karnataka,576102,8861135225,d12950@baldealer.com
Paris Bajaj,Dealer,"216, M.A.Link Road, Munawarabad",Srinagar,Kashmir,190001,,d10280@baldealer.com
Popular Bajaj,Dealer,"VI5A (VIII211) NH47, Punnapra North Po",Alappuzha,Kerala,688014,9995809271,d10816@baldealer.com
Popular Motor Corporation,Branch,"Bldg. No. IV/351-ABCDE,, Near Rainbow Building, Kottukulangara, Dist : Alappuzha, Kayamkulam",Alappuzha,Kerala,690504,8129601637,d10816@bajajauto.co.in
Popular Motor Corporation,Branch,"CMC 15/172, 172A, 173, NH-47, X-ray junction,, Dist : Alappuzha, Cherthala",Alappuzha,Kerala,688524,8129601636,d10816@bajajauto.co.in
Popular Motor Corporation,Branch,"3/170E, G.M. Building, Thattarambalam, Dist : Alappuzha, Mavelikkara",Alappuzha,Kerala,690103,8129899432,d10816@bajajauto.co.in
Popular Motor Corporation,Branch,"785, 786, CCSB Road, Near Krishnas, Iron Bridge, Dist : Alappuzha, Alappuzha Town",Alappuzha,Kerala,688001,9746470660,d10816@bajajauto.co.in
Popular Motor Corporation,Branch,"No. KD-3/136-G, NH-47,, North of Narakathara Jn, Danapady, Dist : Alappuzha, Haripad",Alappuzha,Kerala,690548,8137986125,d10816@bajajauto.co.in
Popular Motor Corporation,Branch,"19/413, 414, M.C. Road,, Mundankavu, Dist : Alappuzha, Chengannur",Alappuzha,Kerala,689121,9746470665,d10816@bajajauto.co.in
Kallingal Bajaj,Dealer,"Kallingal Building, VSSC Road, Kallingal Jn, (Distt. Thiruvananthapuram)",Nedumangad,Kerala,695541,9961714441,d11491@baldealer.com
Kallingal Bajaj,Branch,"Harisree Building, TC No. 429 (5), Near Police Station, Mannanthala, Thiruvananthapuram",Nedumangad,Kerala,695015,(0471) 2802274,d11491@bajajauto.co.in
Kvr Bajaj,Dealer,"KVR Tower,  Kannur Road, Chakkorathkulam, Westhill",Kozhikode,Kerala,673005,,d10196@baldealer.com
Jkb Bajaj,Dealer,"Building No.XVII - 27 & 28, Pulinchode",Aluva,Kerala,683101,9544501199,d11322@baldealer.com
JKB Motors,Branch,"Kanaka Building, Peruvaram, North Paravoor, Ernakulam",Aluva,Kerala,683513,9544806333,d11322@bajajauto.co.in
JKB Motors,Branch,"VIII/330, 331, 332, Dist : Ernakulam, Perumbavoor, Kerala",Aluva,Kerala,683542,9544409666,d11322@bajajauto.co.in
Kvr Bajaj,Dealer,"KVR Building,, Opp. Sadhu Kalyana Mandapam",Kannur,Kerala,670012,7558805533,d10569@baldealer.com
KVR Vehicles,Branch,"Sahara Centre, , AVK Nair Road,, Thalasserry, Kannur",Kannur,Kerala,670102,(0490) 2341730,d10569@bajajauto.co.in
KVR Vehicles,Branch,"Near Muthedath High School, Main Road,, Thaliparamba, Kannur",Kannur,Kerala,670141,(04602) 209950,d10569@bajajauto.co.in
KVR Vehicles,Branch,"KVR Building, Kandoth PO, Perumba, Payyannur, Kannur",Kannur,Kerala,670307,(4985) 229568,d10569@bajajauto.co.in
Zain Bajaj,Dealer,"Ground Floor, Zain Arcade, Near Chandragiri Bridge",Kasargod,Kerala,671121,9074214695,d10502@baldealer.com
Popular Bajaj,Dealer,"402808A Padivattom, NH Bye Pass",Kochi,Kerala,682024,9895090605,d10480@baldealer.com
Popular Motor Corporation,Branch,"Emmy's Sqiare, , S A Road,, Elamkulam (Kadavanthra), Ernakulam",Kochi,Kerala,682020,9995802269,d10480@bajajauto.co.in
Popular Motor Corporation,Branch,"D. No. XI/20-A, Ambadi Complex, Velloorkunnam Market PO, Dist : Ernakulam, Muvattupuzha",Kochi,Kerala,686673,8129270439,d10480@bajajauto.co.in
Popular Motor Corporation,Branch,"D. No. XII/924-C, MS & S Chambers, Opp: Jama-Ath Res. Public School, Padamugal, Dist : Ernakulam, Kakkanad",Kochi,Kerala,682030,8129270440,d10480@bajajauto.co.in
Royal Bajaj,Dealer,"Container Road, Signal Junction, Cheranalloor PO",Kochi,Kerala,682034,9745781555,d13020@baldealer.com
Sarathy Bajaj,Dealer,"Pallimukku Po, ",Kollam,Kerala,691010,,d11207@baldealer.com
Sarathy Motors,Branch,"Puthen Theruvu, KS Puram PO, Dist : Kollam, Karunagappally",Kollam,Kerala,690544,0476-2642888,d11207@bajajauto.co.in
Sarathy Motors,Branch,"Pulamon PO, , Dist : Kollam, Kottarakkara",Kollam,Kerala,691531,0474-2452707,d11207@bajajauto.co.in
Royal Bajaj,Dealer,"Royal Tower, Nattakam PO",Kottayam,Kerala,686013,9447712855,d10594@baldealer.com
Royal Motors,Branch,"Ettumanoor-Pala Road,, Puliyannoor PO, Mutholi, Dist : Kottayam, Pala",Kottayam,Kerala,686573,8592926111,d10594@bajajauto.co.in
Royal Motors,Branch,"MC Road, Layikkad,, Perunna PO, Dist : Kottayam, Changanachery",Kottayam,Kerala,686101,9745224747,d10594@bajajauto.co.in
Grand Bajaj,Dealer,"13426, Opp Parvathy Mandapam, Star City, Kalmandapam",Palakkad,Kerala,678007,,d11208@baldealer.com
Grand Motors,Branch,"10/307-1,2,3, Near Vasantham Petrol Pump, Kanniyampuram, Dist : Palakkad, Ottapalam",Palakkad,Kerala,679101,(0466)2244233,d11208@bajajauto.co.in
Kainikkara Bajaj,Dealer,"Kainikkara Mall, TK Road, Kumbazha PO",Pathanamthitta,Kerala,689653,9744367000,d12968@baldealer.com
Kvr Bajaj,Dealer,"Calicut Road, Angadippuram, Dist  Mallapuram",Perinthalmanna,Kerala,679321,9961849722,d11972@baldealer.com
KVR Automobiles Pvt Ltd,Branch,"CH Byepass Road, , Manjeri, Malappuram",Perinthalmanna,Kerala,676123,(4933) 225977,d11972@bajajauto.co.in
KVR Automobiles Pvt Ltd,Branch,"Varangode, PO Down Hill, , Malappuram, Dist : Malappuram",Perinthalmanna,Kerala,676519,9961849727,d11972@bajajauto.co.in
KVR Automobiles Pvt Ltd,Branch,"Ambili Arcade, CNG Road, Jyothippadi, Dist : Malappuram, Nilambur",Perinthalmanna,Kerala,679329,9961849736,d11972@bajajauto.co.in
Kaduvettoor Bajaj,Dealer,"Kaduvettoor Building, M.C. Road, Muthoor PO, Dist Pathanamthitta",Thiruvalla,Kerala,689107,8281127944,d12873@baldealer.com
Deedi Bajaj,Dealer,"TC 551563, Kairmanam Junction, Pappanamcode",Thiruvananthapuram,Kerala,695040,9447049393,d10092@baldealer.com
Deedi Automobiles,Branch,"TC/3/142(3), Kunnirickal Building, Opp: 11 KV sunb-station, Paruthipara, Muttada PO, Nalanchira (Pattom Hub), Thiruvananthapuram",Thiruvananthapuram,Kerala,695035,(0470) 2533904,d10092@bajajauto.co.in
Pioneer Bajaj,Dealer,"T.C.141727-8, Ganapathi Kovil Road, Vazhuthacaud",Thiruvananthapuram,Kerala,695014,9567266644,d11482@baldealer.com
Pioneer Motors,Branch,"Near KSRTC Bus-stand, , Kaniyapuram, Thiruvananthapuram",Thiruvananthapuram,Kerala,695301,(471) 2339111,d11482@bajajauto.co.in
Pioneer Motors,Branch,"TC 84/384 (2), Bye-Pass Road,, Chakkal PO, Dist : Trivandrum, Eanchakkal",Thiruvananthapuram,Kerala,695008,9567960266,d11482@bajajauto.co.in
Royal Bajaj,Dealer,"Vengalloor, Muvattupuzha Road, Idukki Distt",Thodupuzha,Kerala,685584,9446491337,d10839@baldealer.com
Grand Bajaj,Dealer,"Near Thiruvankkavu Temple, NH Bye Pass , Mannuthy",Thrissur,Kerala,680655,,d12068@baldealer.com
Grand Motors,Branch,"Calicut Road, Parempadam, Kunnamkulam, Thrissur",Thrissur,Kerala,680503,(0488) 9562708229,d12068@bajajauto.co.in
Grand Motors,Branch,"Bismillah Tower, Guruvayur Road,, Puzhakkal (Punkunnam), Thrissur",Thrissur,Kerala,680002,9207086661,d12068@bajajauto.co.in
Kvr Bajaj,Dealer,"Thazhepalam,, Naduvilangadi",Tirur,Kerala,676107,9605003406,d11971@baldealer.com
KVR Bikes ( A Unit under KVR Automobiles Pvt ltd ),Branch,"Parambilangadi, , Kottakkal, Malappuram",Tirur,Kerala,676501,(4933) 225977,d11971@bajajauto.co.in
KVR Bikes ( A Unit under KVR Automobiles Pvt ltd ),Branch,"Al Quassimi Complex,, Thrissur Road,, Dist : Malappuram, Edappal",Tirur,Kerala,679576,9605001588,d11971@bajajauto.co.in
Sahil Bajaj,Dealer,"Guna Road, ",Ashok Nagar,Madhya Pradesh,473331,,d12847@baldealer.com
Sai Bajaj,Dealer,"Wno. 32 Moti Talab Raod, Narmda Nagar",Balaghat,Madhya Pradesh,481001,9425822517,d11726@baldealer.com
Satkar Bajaj,Dealer,"In Front Of Deepak Dal Mill, Mandi Road",Narsinghpur,Madhya Pradesh,487001,,d11959@baldealer.com
Satkar Automobiles,Branch,"Alka Cinema Compound, , Dist : Narsinghpur, Gadarwara",Narsinghpur,Madhya Pradesh,487551,(7791) 254989,d11959@bajajauto.co.in
Bhachawat Bajaj,Dealer,"Sanjeet Road, ",Mandsaur,Madhya Pradesh,458001,,d10102@baldealer.com
Biyani  Bajaj,Dealer,"129 Opp. Chakkiwala Mahadev Mandir, Near Railway Station",Mhow,Madhya Pradesh,453441,7440444425,d12817@baldealer.com
Kamadgiri Bajaj,Dealer,"In Front Of  Galla Mandi Gate, Nainagarh Road",Morena,Madhya Pradesh,476001,9329399165,d12805@baldealer.com
Bhachawat Bajaj,Dealer,"Radha Krishan Market Road, ",Neemuch,Madhya Pradesh,458441,9826322062,d10854@baldealer.com
Tirupati Bajaj,Dealer,"66, Tansen Road, P.O.Birla Nagar",Gwalior,Madhya Pradesh,474004,,d10373@baldealer.com
Gupta Bajaj,Dealer,"4 Laxmibai Colony, Station Road",Gwalior,Madhya Pradesh,474002,,d10126@baldealer.com
Ishaan Bajaj,Dealer,"Handia Road, ",Harda,Madhya Pradesh,461331,9926003904,d12452@baldealer.com
Yug Bajaj,Dealer,"B-2, HIG, Near LIG Square, Main Road",Indore,Madhya Pradesh,452001,8871888818,d12936@baldealer.com
Sojatiya Bajaj,Dealer,"6, Sneh Nagar Main Road, Sapna Sangeeta Road",Indore,Madhya Pradesh,452001,8889899943,d10374@baldealer.com
Mangalam Bajaj,Dealer,"9 Kalani Nagar, Ground Floor, Airport Road",Indore,Madhya Pradesh,452005,7611113222,d12826@baldealer.com
Mangalam Bajaj - A Division of Scube Auto Wheels Pvt. Ltd.,Branch,"L, Friends Colony, Raw Housing Soceity, Ring Road,, Dist : Indore, Bangali Square",Indore,Madhya Pradesh,452016,9752522777,d12826@bajajauto.co.in
Mangalam Bajaj - A Division of Scube Auto Wheels Pvt. Ltd.,Branch,"2, Revenue Nagar, , Annapurna Road,, Indore",Indore,Madhya Pradesh,452009,7611115001,d12826@bajajauto.co.in
Smh Bajaj,Dealer,"Near Overbridge, Beturl Road, Old Itarsi",Itarsi,Madhya Pradesh,461111,,d11336@baldealer.com
Frontier Bajaj,Dealer,"913, Gol Bazar, Wright Town",Jabalpur,Madhya Pradesh,482002,,d11408@baldealer.com
Frontier Motors,Branch,"Plot No. 47/1, 48/2, , Binjhaya Katra Road, , Mandla",Jabalpur,Madhya Pradesh,481661,9300100132,d11408@bajajauto.co.in
Frontier Motors,Branch,"Plot No. 198, Manmohan Nagar, Deendayal Upadhyaya Ward, Damoh Naka, Jabalpur",Jabalpur,Madhya Pradesh,482001,(0761) 4011102,d11408@bajajauto.co.in
Frontier Motors,Branch,"Near Reliance Petrol Pump, Jagmohan Ward No. 10, Lamti Main Road,, Dist : Jabalpur, Panagar",Jabalpur,Madhya Pradesh,483220,8839141838,d11408@bajajauto.co.in
Frontier Motors,Branch,"Halka No. 24/2, Mauza Gorakhpur, NH-17, Nagpur Road, Mahanadda, Madan Mahal-Mahanadda, Jabalpur",Jabalpur,Madhya Pradesh,482001,9300100132,d11408@bajajauto.co.in
Frontier Bajaj,Dealer,"855, North Civil Lines, Nagrath Crossing",Jabalpur,Madhya Pradesh,482001,,d10690@baldealer.com
Chhajed Bajaj,Dealer,"26 Sardar Patel Marg, Rajghar Naka",Jhabua,Madhya Pradesh,457661,9098930166,d11486@baldealer.com
Tara Bajaj,Dealer,"Chaturvedi Complex, Near Sagar Pul",Katni,Madhya Pradesh,483501,9111407700,d12926@baldealer.com
Precious Bajaj,Dealer,"10, Radhavallabh Market, ",Khargone,Madhya Pradesh,451001,7024707666,d12669@baldealer.com
Moti Bajaj,Dealer,"Sagar Road,, ",Raisen,Madhya Pradesh,464551,9926140050,d12742@baldealer.com
Central Bajaj,Dealer,"154, Hotel Central,, Do Batti",Ratlam,Madhya Pradesh,457001,,d12732@baldealer.com
Uppal Bajaj,Dealer,"NH 7, Allahabad Road, ",Rewa,Madhya Pradesh,486001,,d12093@baldealer.com
Shashank Bajaj,Dealer,"Near Radheshyam Bhawan, Bhagwan Ganj, Bhopal Road",Sagar,Madhya Pradesh,470002,,d10720@baldealer.com
Shrinathji Bajaj,Dealer,"11, Khargone Road, ",Sanawad,Madhya Pradesh,451111,9826942082,d12945@baldealer.com
Fouzadar Bajaj,Dealer,"Panna Naka, Civil Lines",Satna,Madhya Pradesh,485001,,d10123@baldealer.com
A.A. Bajaj,Dealer,"Yadav Complex,, Ghehra Nala, Rewa Road",Satna,Madhya Pradesh,485001,9111194151,d13093@baldealer.com
Sudarshan Bajaj,Dealer,"Indore-Bhopal Road, ",Sehore,Madhya Pradesh,466001,,d10835@baldealer.com
Frontier As Bajaj,Dealer,"Jabalpur Road, ",Seoni,Madhya Pradesh,480661,9302893612,d11268@baldealer.com
Frontier As Bajaj,Branch,"In front of Govt. Hospital, Main Road, Dist : Seoni, Ghansore",Seoni,Madhya Pradesh,580997,8999080032,d11268@bajajauto.co.in
Jayshree Bajaj,Dealer,"Opp.Christian Hospital,, Burhar Road",Shahdol,Madhya Pradesh,484001,,d10449@baldealer.com
Kk Bajaj,Dealer,"AB Road, Haji Sannu Baksh Market",Shivpuri,Madhya Pradesh,473551,,d10654@baldealer.com
Nema Bajaj,Dealer,"Opp Ram Mandir, Lohiya Marg, Shujalpur Mandi",Shujalpur,Madhya Pradesh,465333,,d12905@baldealer.com
Mainashree Bajaj,Dealer,"77, Dewas Road, ",Ujjain,Madhya Pradesh,456001,9893625022,d12628@baldealer.com
Shriram Bajaj,Dealer,"Sanchi Road, ",Vidisha,Madhya Pradesh,464001,8109820438,d10430@baldealer.com
Jaiswal Bajaj,Dealer,"Main Road, Bilaunji. Dist Sangroli",Waidhan,Madhya Pradesh,486886,7354131415,d11415@baldealer.com
Kissan Bajaj,Dealer,"Anjad Road,, Shegaon Fata",Barwani,Madhya Pradesh,451551,8120993333,d11500@baldealer.com
Ashmit Sachin Bajaj,Dealer,"Bhagat Singh Ward,, BJP Bhavan Road, Ganj",Betul,Madhya Pradesh,460001,,d12430@baldealer.com
Shankar Bajaj,Dealer,"Saraswati Nagar,S A F Ke Samane, Etawah Road",Bhind,Madhya Pradesh,477001,8717894211,d12937@baldealer.com
Gurukripa Bajaj,Dealer,"Plot No.3 Firdos Nagar, Berasia Road",Bhopal,Madhya Pradesh,462038,,d12451@baldealer.com
Sanghi Bajaj,Dealer,"2, 3, 4, B.D.A. Koh-E-Fiza, Bhopal Indore Road",Bhopal,Madhya Pradesh,462001,,d10342@baldealer.com
Sanghi Automobiles,Branch,"Plot No. 244, Kings Shopping Complex, Near Hotel Arch Manor,  Opp: D. B. City Mall, MP Nagar, Zone-1, Bhopal",Bhopal,Madhya Pradesh,462023,(0755) 4218046,d10342@bajajauto.co.in
Surjeet Bajaj,Dealer,"4-5, Lala Lajpat Rai Nagar, Opp.Apsara Cinema, Raisen Road, Govindpura",Bhopal,Madhya Pradesh,462023,,d10285@baldealer.com
Yadav Motors,Dealer,"Suthaliya Byepass Road, ",Biaora,Madhya Pradesh,465674,7987592880,d12767@baldealer.com
Madhsudan Bajaj,Dealer,"Near Tapti Bridge Amravati Road, Burhanpur",Burhanpur,Madhya Pradesh,450331,9406689146,d10625@baldealer.com
Tikarya Bajaj,Dealer,"Jhansi Road, ",Chattarpur,Madhya Pradesh,471001,,d10422@baldealer.com
Tikarya Motors,Branch,"Mau Chungi,, Besides Reliance Petrol Pump, , Tikamgarh",Chattarpur,Madhya Pradesh,472001,9425141348,d10422@bajajauto.co.in
Sunil Bajaj,Dealer,"Navsingpur Road, College Road, Lalbag",Chindwara,Madhya Pradesh,480001,,d10309@baldealer.com
Maa Laxmi Bajaj,Dealer,"Opp Central School, Balacot Road",Damoh,Madhya Pradesh,470661,8109061441,d12991@baldealer.com
Mainashree Bajaj,Dealer,"110, A.B.Road,, ",Dewas,Madhya Pradesh,455001,9752542422,d12640@baldealer.com
Rajpurohit Bajaj,Dealer,"Trimurti Nagar Chauraha, Indore Road",Dhar,Madhya Pradesh,454001,7415286916,d10653@baldealer.com
Kk Bajaj,Dealer,"A.B.Road,, Opp.Vandana Convent School",Guna,Madhya Pradesh,473001,,d10185@baldealer.com
Shreeguru Bajaj,Dealer,"Ubale Nagar, Near Hotel Maple, Pune Nagar Road, Wagholi",Pune,Maharashtra,412207,8055990044,d12562@baldealer.com
Krishna Rama Bajaj,Dealer,"Shop No. 5, Onkar Building, Near Canara Bank,, Pune-Satara Road, Dhankawadi",Pune,Maharashtra,411043,7796666774,d13009@baldealer.com
Saiservice Bajaj,Dealer,"Veer Savarkar Udyog Bhavan, Near Balgandharva Rang Mandir, Shivaji Nagar",Pune,Maharashtra,411005,9923208082,d10369@baldealer.com
Saiservice Bajaj,Dealer,"Kedar Empire, Near Dashbhuja, Ganpati Mandir, Opp Flyover, Karve Road , Kothrud",Pune,Maharashtra,411038,9923208090,d10935@baldealer.com
Saiservice Bajaj,Dealer,"S.No.4702 Ep 4695-B, Next To Sandvik, Phugewadi",Pune,Maharashtra,411012,9923208060,d10347@baldealer.com
Shourya Bajaj,Dealer,"S.No.527, Near Tapasvi Plaza, Mumbai-Pune Road, Akurdi",Pune,Maharashtra,411035,7774808808,d12895@baldealer.com
Shourya Bajaj,Branch,"Pune-Nashik Highway, Nanekarwadi, Dist : Pune, Chakan",Pune,Maharashtra,410501,8669955008,d12895@bajajauto.co.in
Garve Bajaj,Dealer,"Sr. No. 2714, Shedage Wasti,, Aundh Road, Wakad",Pune,Maharashtra,411057,9158339300,d12752@baldealer.com
Garve Automobiles Pvt Ltd,Branch,"S. No. 86/1/2, Springs, Kashid Park, Jawalkar Nagar, Beside Dominos Pizza, Opp: Kalpataru Estate, Pimple Gurav, Pune",Pune,Maharashtra,411027,7507999607,d12752@bajajauto.co.in
Gems Bajaj,Dealer,"Plot No.59, Indraprastha Society, Next To All India Radio, Sholapur Road, Hadapsar",Pune,Maharashtra,411028,,d10632@baldealer.com
Malpani Bajaj,Dealer,"Opp Market Yard, Nashik Pune Highway",Sangamner,Maharashtra,422605,225031,d11411@baldealer.com
Wasan Bajaj,Dealer,"Guru Nanak House, New Agra Road, Mumbai Naka",Nashik,Maharashtra,422002,2590823,d10432@baldealer.com
Wasan & Sons,Branch,"CIDCO Branch, Suyash Chambers, Ambad Link Road, Pawannagar, CIDCO, Nashik",Nashik,Maharashtra,422008,253 2375123,d10432@bajajauto.co.in
Wasan Bajaj,Dealer,"Jachak Nagar, Opp Tuljabhavani Mandir, Jaibhavani Road, Nashik Road",Nashik,Maharashtra,422101,2456900,d11543@baldealer.com
Chhatrapati Bajaj,Dealer,"S.No.5212, Plot No.1, Nagar Pune Road",Ahmednagar,Maharashtra,414001,8087203855,d10694@baldealer.com
Chhatrapati Motors Pvt Ltd,Branch,"Plot No. 107/2, Mittal Tower,, Nagar-Manmad Road, Savedi, Ahmednagar",Ahmednagar,Maharashtra,414001,8087203861,d10694@bajajauto.co.in
Tirupati Bajaj,Dealer,"Ground Floor, Dakshata Nagar Complex, Sindhi Camp Square",Akola,Maharashtra,444001,9767774488,d12540@baldealer.com
Iride Bajaj,Dealer,"Shegaon Naka, ",Amravati,Maharashtra,444601,7447428884,d12548@baldealer.com
Kushal Bajaj,Dealer,"Badnera Road, ",Amravati,Maharashtra,444605,9175779878,d10177@baldealer.com
Pagariya Bajaj,Dealer,"Pagariya Tower, Opp Dist Court,, Near Manmandir Travels, Adalat Road,",Aurangabad,Maharashtra,431001,2406659937,d10268@baldealer.com
Pagariya Auto Centre,Branch,"Plot No. 6, Sector C-5,, N-11, CIDCO, Near SBO School, Jalgaon Road, Harsool, Aurangabad",Aurangabad,Maharashtra,431008,8237063549,d10268@bajajauto.co.in
Pagariya Auto Centre,Branch,"Motiwala Complex,, Seven Hills,, Jalna Road, Aurangabad",Aurangabad,Maharashtra,431001,(0240) 2339696,d10268@bajajauto.co.in
Pagariya Auto Centre,Branch,"Opp: MIT College,, , Dist : Aurangabad, Beed Bye Pass",Aurangabad,Maharashtra,431001,9823050499,d10268@bajajauto.co.in
Kamal Bajaj,Dealer,"Near MSEB Guest House, Bhigwan Road, Tal Baramati",Baramati,Maharashtra,413102,9673005507,d11888@baldealer.com
Swastik Bajaj,Dealer,"Sathe Chowk, Jaina Road",Beed,Maharashtra,431122,,d10947@baldealer.com
Swastik Bajaj,Branch,"In front of Dube Petrol Pump, Ambajogai Road, Talq: Parli, Parli (V)",Beed,Maharashtra,431515,(02446) 228977,d10947@bajajauto.co.in
Aaryan Bajaj,Dealer,"Rasana Lodge Building, Near S.T. Bus Stand",Bhandara,Maharashtra,441904,9404311104,d11612@baldealer.com
Salasar Bajaj,Dealer,"Shop No.1-3, Siddhivinayak Complex, Tem Ghar, Kalyan Bhiwandi Rd, Dist Thane",Bhiwandi,Maharashtra,421302,8793637272,d11863@baldealer.com
Autoindia Bajaj,Dealer,"Sangli Madhavnagar Road, ",Sangli,Maharashtra,416416,9326390901,d10008@baldealer.com
Siddhi Bajaj,Dealer,"Sudarshan Colony, Malegaon Road, Near Anand Oil Mill, Dist  Nashik",Satana,Maharashtra,423301,9823220028,d13056@baldealer.com
Nirmal Bajaj,Dealer,"Godoli, ",Satara,Maharashtra,415001,9049870007,d12886@baldealer.com
Shirode Bajaj,Dealer,"Samgamner Road, Shrirampur Dist",Shrirampur,Maharashtra,413709,225989,d11493@baldealer.com
Ashok Bajaj,Dealer,"Plot No.71, Bhokardan Road, ",Sillod,Maharashtra,431112,8380025706,d11048@baldealer.com
Ashok Agro Inputs Pvt Ltd,Branch,"Plot No. X-3, Five Star Shendra MIDC, Near Lokmat, Shendra, Dist : Aurangabad",Sillod,Maharashtra,431154,(0240) 2622227,d11048@bajajauto.co.in
Aherkar Bajaj,Dealer,"91, Murarji Peth, Station Road, Near Super Market",Solapur,Maharashtra,413001,9922449838,d10902@baldealer.com
Aherkar Automobiles,Branch,"Bhosale Chowk,, Latur Road, Dist : Solapur, Barshi",Solapur,Maharashtra,413401,02184-226007,d10902@bajajauto.co.in
Holeydays Bajaj,Dealer,"Shop No. 15,16, 17, Shantai City Centre, Near Bank Of India",Talegaon Dabhade,Maharashtra,410507,,d11793@baldealer.com
Kanchan Bajaj,Dealer,"Unit NO. 6,7,8 & 9, Gr Floor,, Ganatra Industrial Estate, Cadbury Junction, Kopat",Thane (West),Maharashtra,400602,,d12176@baldealer.com
Kanchan Bajaj,Dealer,"34, Vinayak Apt, Kalyan Ambarnath Road, Shanti Nagar,",Ulhasnagar,Maharashtra,421003,,d11272@baldealer.com
Kanchan Auto Pvt Ltd,Branch,"Shop No. 7, Sion-Trombay Road,, Opp: Bezula Complex, Suman Nagar, , ",Ulhasnagar,Maharashtra,400071,,d11272@bajajauto.co.in
Raj Bajaj,Dealer,"Ground Floor, A-2-639 To 642, Sector-21, MAFCO Road, Opp. Nanumal Bhojraj, Turbhe",Navi Mumbai,Maharashtra,400703,9967485131,d12477@baldealer.com
Shourya Bajaj,Dealer,"Plot No.1, Gat No. 241B2 And 242A2, Opp. Govt. Guest House, Nashik Aurangabad Road",Niphad,Maharashtra,423303,9860304561,d12029@baldealer.com
Shourya Bajaj,Branch,"Opp: Bank of Baroda, , Talq. Niphad, Dist : Nashik, Lasalgaon",Niphad,Maharashtra,422306,(02550) 266600,d12029@bajajauto.co.in
Shourya Bajaj,Branch,"Near Vani Chauphule, , Chanwad Service Road,, Pimpalgaon (Baswant), ",Niphad,Maharashtra,422209,2550 252021,d12029@bajajauto.co.in
Raghuveer Bajaj,Dealer,"S No.125, Bharate Complex, Barshi Road",Osmanabad,Maharashtra,413501,7249729374,
Rajyog Bajaj,Dealer,"Bhanu Nagar,, Main Road",Osmanabad,Maharashtra,413501,2472221325,d11507@baldealer.com
Pandurang Bajaj,Dealer,"Plot No. 5, , S No.233, Near Dudh Pandhari Isabvi",Pandharpur,Maharashtra,413304,8600024807,d11267@baldealer.com
C G Bajaj,Dealer,"Pot No. 55, Panvel Industrial Estate, Sect-15, Mumbai-Pune Highway, CNG Pump",Panvel,Maharashtra,410206,7506303131,d13004@baldealer.com
Mutha Bajaj,Dealer,"Jintur Road, ",Parbhani,Maharashtra,431401,9545108124,d10187@baldealer.com
Kamal Bajaj,Dealer,"Shinganapur Road, Near Prithvi Chowk",Phaltan,Maharashtra,415522,9673005504,d11887@baldealer.com
Suryoday Bajaj,Dealer,"Vishant Regency Gokhiware, Fatherwadi, Vasai East",Vasai,Maharashtra,401208,,d10473@baldealer.com
Suryoday Motors Pvt Ltd,Branch,"J-147, MIDC,, MIDC Road,, Boisar, ",Vasai,Maharashtra,401501,2525661199,d10473@bajajauto.co.in
Suryoday Motors Pvt. Ltd.,Branch,"4,5, Goregaon Samruddhi Bldg. No. 9, Near Cinemax Theatre,, SV Road,, Goregaon (W)",Vasai,Maharashtra,400104,8698963361,d10473@bajajauto.co.in
Ujwal Bajaj,Dealer,"Janki Nagar, Hanuman Gadh, Kaman Airport Road",Nanded,Maharashtra,431605,7770018779,d10396@baldealer.com
Gangotri Bajaj,Dealer,"Plot No. 165, 180, Chatrapti Chowk, Near Essar Petrol Pump, Waman Nagar",Nanded,Maharashtra,431605,9767619212,d13070@baldealer.com
Rushi Bajaj,Dealer,"34, Radhakrushna Nagar, Opp Jijamata College",Nandurbar,Maharashtra,425412,9420322905,d11690@baldealer.com
Rushi Automobiles,Branch,"Opp: Bhusan Hotel, Near Reliance Petrol Pump, Dondaicha Road, , Shahada, Shahada",Nandurbar,Maharashtra,425409,9420171621,d11690@bajajauto.co.in
Rajyog Bajaj,Dealer,"3, West Gajanan Hsg Soc,, Railway Station Road",Karad,Maharashtra,415110,,d11266@baldealer.com
Shirode Bajaj,Dealer,"112A, Ashirwad, Nagar Manmand Highway",Kopergaon,Maharashtra,423601,221974,d10375@baldealer.com
Sirode Automobiles Pvt Ltd,Branch,"Near Hotel Bhagyashri Garden, Nagar-Manmad Road, Rahuri, Ahmednagar (Dist)",Kopergaon,Maharashtra,413705,(02426) 235357,d10375@bajajauto.co.in
Futuristic Bajaj,Dealer,"AP Sangirdewadi, BKG Road, NH-17, Dist Sindhudurg",Kudal,Maharashtra,416520,,d10725@baldealer.com
Rajyog Bajaj,Dealer,"Near Midc Corner, Barshi Road",Latur,Maharashtra,413531,2382223601,d10287@baldealer.com
Rajyog Bajaj,Branch,"Nanded Road,, Near Udaygiri College, Dist : Latur, Udgir",Latur,Maharashtra,413517,9561400013,d10287@bajajauto.co.in
Raj Bajaj,Dealer,"NH-17, Opp Dr Ambedkar College, ",Mahad,Maharashtra,402301,9552519934,d12884@baldealer.com
Mayur Bajaj,Dealer,"Panchganga, Old Agra Road, Moti Baug Naka,",Malegaon,Maharashtra,423203,238713,d11216@baldealer.com
Suryoday Bajaj,Dealer,"Mahesh Indl Estate, Opp Silver Park, Mira Bhyandar Road, Thane",Miraroad (E),Maharashtra,401107,8459614958,d10852@baldealer.com
Autoden Bajaj,Dealer,"Mehtab Building, Plot No. 739, Savarkar Marg, Mahim Dargah- Mahim W",Mumbai,Maharashtra,400016,,d12626@baldealer.com
Saiservice Bajaj,Dealer,"Gala No.1, Ground Floor, Blue Rose Industrail Estate,, Opp Magathane Bus Depot, Datta Pada Road, Western Express Highway, Borivali ( E )",Mumbai,Maharashtra,400066,9594952190,d10474@baldealer.com
Saiservice Bajaj,Dealer,"Diagonally Opp.Gold Spot Factory, Western Express Highway, Andheri (E)",Mumbai,Maharashtra,400069,8879330011,d10316@baldealer.com
Arun Bajaj,Dealer,"Patni Plaza, Khamla, Orange City Hospital Square, Ring Road",Nagpur,Maharashtra,440025,9823276166,d10001@baldealer.com
Iride Bajaj,Dealer,"55, Middle Ring Road, East Wardhman Nagar",Nagpur,Maharashtra,440008,7888019200,d11480@baldealer.com
Patni Bajaj,Dealer,"Kamptee Road, ",Nagpur,Maharashtra,440001,8888822350,d11214@baldealer.com
Sarbani Bajaj,Dealer,"Near Hotel Kundan Plaza, Nagpur Road",Chandrapur,Maharashtra,442401,9372923009,d11008@baldealer.com
Laxmi Bajaj,Dealer,"Plot No.104, Near Mahakali Mandir, Babupeth Road",Chandrapur,Maharashtra,442403,9422175668,d11911@baldealer.com
Ashwini Bajaj,Dealer,"143, Karad Road, ",Chiplun,Maharashtra,415605,9822909857,d10760@baldealer.com
Royal Bajaj,Dealer,"Plot No.13 & 14, Near Gurudawara,, Malegaon Road",Dhule,Maharashtra,422001,9552547990,d11206@baldealer.com
Sarbani Bajaj,Dealer,"Chandrapur Road,, ",Gadchiroli,Maharashtra,442605,9372923003,d11616@baldealer.com
Ramani Bajaj,Dealer,"Near Ashirwad Colony,, Fulchur Peth,",Gondia,Maharashtra,441601,9325718424,d10447@baldealer.com
Sai Sham Bajaj,Dealer,"Plot No. 20, Akola Road",Hingoli,Maharashtra,431513,8766819162,d12801@baldealer.com
Badshah Bajaj,Dealer,"Near Badshah Pertolium ,, Sangli Road",Ichalkaranji,Maharashtra,416115,8605882200,d11794@baldealer.com
Badshah Bajaj,Branch,"Near Amar Khadda, Hira Hotel Chowk, Shivaji Road, ",Ichalkaranji,Maharashtra,416410,02332 222299,d11794@bajajauto.co.in
Badshah Bajaj,Branch,"Gat No. 1833/2, Opp: Raghavendra Talkies, Narsinhwadi Road, Kurundwad, Kolhapur",Ichalkaranji,Maharashtra,416106,(0230) 2431600,d11794@bajajauto.co.in
Sonai Bajaj,Dealer,"Pune Solapur Highway, Near Akluj Chowk",Indapur,Maharashtra,413106,9623534444,d11421@baldealer.com
Pagariya Bajaj,Dealer,"Nehru Chowk, Station Road",Jalgaon,Maharashtra,425001,,d10257@baldealer.com
Pagariya Auto Centre,Branch,"Ayodya Nagar, , Jalgaon Road,, Bhusawal, Jalgaon",Jalgaon,Maharashtra,425201,(02582) 223206,d10257@bajajauto.co.in
Ambrish Bajaj,Dealer,"Next To Jalna Municipality,, Mastagad,",Jalna,Maharashtra,431203,9860644555,d10495@baldealer.com
Navale Bajaj,Dealer,"Nagar Beed Road, ",Jamkhed,Maharashtra,413201,9823903122,d12954@baldealer.com
Shivratna Bajaj,Dealer,"Gat No. 162A, District Solapur",Jeur,Maharashtra,413202,9922044676,d12990@baldealer.com
Ashok Bajaj,Dealer,"Near ARD Cinemall, Malkapur Road",Buldhana,Maharashtra,443001,8380026225,d11381@baldealer.com
Patni Bajaj,Dealer,"Wardha Road, ",Butibori,Maharashtra,441108,9881200367,d11215@baldealer.com
Herammba Bajaj,Dealer,"Plot No.33, Gat No.32,3,4, Bhadgaon Road, Takali Para Cha",Chalisgaon,Maharashtra,424101,7588477033,d11431@baldealer.com
Shriniwas Bajaj,Dealer,"Dwarkanath, Main Road",Wardha,Maharashtra,442001,9881369339,d10389@baldealer.com
Tirupati Bajaj,Dealer,"Near Swagat Lawn, Mannasingh Chowk, Pusad Naka Road",Washim,Maharashtra,444505,9850396458,d11718@baldealer.com
Himalaya Bajaj,Dealer,"Near Himalay Ice Factory, Arni Road",Yavatmal,Maharashtra,445001,8888827106,d10753@baldealer.com
Kk Bajaj,Dealer,"Plot No 2, Sno.16 (3)C, Opp To Radhakrishna Lawns, Vinchoor Road, At & Post Yeola, Dist. Nashik",Yeola,Maharashtra,423401,9130088872,d12163@baldealer.com
Manipur Bajaj,Dealer,"Mantripukhri, N.H.Road",Imphal,Manipur,795002,7630835802,d10209@baldealer.com
Goenka Bajaj,Dealer,"Keating Road, ",Shillong,Meghalaya,793001,7308111125,d10125@baldealer.com
Ms Bajaj,Dealer,"Dawrpui, Vengthar Tukawal, Vaivakawan Road",Aizawl,Mizoram,796001,9774044895,d12655@baldealer.com
Sk Bajaj,Dealer,"Circular Road, City Tower",Dimapur,Nagaland,797112,8416097881,d11541@baldealer.com
Gurunanak Bajaj,Dealer,"F-92B, Jawahar Park, Devli, Khanpur",New Delhi,New Delhi,110062,9654561373,d13106@baldealer.com
Jamuna Bajaj,Dealer,"Shankar Cinema Road, ",Angul,Odisha,759122,7682899351,d10164@baldealer.com
Bharat Bajaj,Dealer,"Plot No.299629, 1St Floor, OT Road, Near SBI Touch, Padhuana Pada",Balasore,Odisha,756001,8599011642,d12621@baldealer.com
Bharat Bajaj,Dealer,"Main Road, In Front Of LIC Office,, Po Balugaon - Dist Khurda",Balugaon,Odisha,752030,7381099441,d11608@baldealer.com
Chandan Bajaj,Dealer,"Zeera Bridge, Bhatli Chowk, Ground Floor, Opp. Sai Temple",Bargarh,Odisha,768028,7381415555,d12582@baldealer.com
Bala Bajaj,Dealer,"Baghra Road, Near Darogadahigolai",Baripada,Odisha,757001,8093400805,d12066@baldealer.com
Sisirabha Bajaj,Dealer,"Aska Road, ",Berhampur,Odisha,760001,9238311111,d12686@baldealer.com
Bajapayee Bajaj,Dealer,"Hold No. 19320, Near Octroi Gate,, Ward 26, Khodasing, Dist Ganjam",Berhampur,Odisha,760010,9938449988,d11364@baldealer.com
Shankar Bajaj,Dealer,"N.H-5, Charampa",Bhadrak,Odisha,756101,9778310777,d10675@baldealer.com
Kalinga Bajaj,Dealer,"Kesinga Road, Distt. Kalhandi",Bhawanipatna,Odisha,766001,8895088261,d12536@baldealer.com
Bharat Bajaj,Dealer,"Plot No.730, Opp Nabard, NH-5,, Nayapalli",Bhubaneshwar,Odisha,751012,7064406722,d12237@baldealer.com
Bharat Automobiles,Branch,"Plot No. 516/1679, Kiran Complex, , ",Bhubaneshwar,Odisha,751024,0674 2726368,d12237@bajajauto.co.in
Vinayak Bajaj,Dealer,"Plot No. 392, BJB Nagar, Lewis Road, P.S Baragada, Khurda Dist",Bhubaneshwar,Odisha,751014,7381088720,d11719@baldealer.com
Urbasi Bajaj,Dealer,"Sambalpur Road, Gandhi Nagar Para",Bolangir,Odisha,767001,7381052046,d11530@baldealer.com
Tarini Bajaj,Dealer,"PO - Sunguda, District Jajpur, ",Chandikhol,Odisha,755044,9937310800,d12864@baldealer.com
Sonthalia Bajaj,Dealer,"Suraj Bajaj, Ground Floor, Sandhya Celebaration,, Kathjodi Road, Badambadi",Cuttack,Odisha,753012,8093066601,d11371@baldealer.com
Shivam Bajaj,Dealer,"Near Law College,, Station Bazar",Dhenkanal,Odisha,759013,7873922722,d11499@baldealer.com
Parida  Bajaj,Dealer,"Natapada Village Road,Opp S.B.I, Jajpur Road, Dist Jajpur",Jajpur Road,Odisha,755019,7381012602,d11640@baldealer.com
Kalinga Bajaj,Dealer,"NH-43, Near Govt Bus Stand, ",Jeypore,Odisha,764001,7752014014,d11426@baldealer.com
Ujjwal Bajaj,Dealer,"NH-200, Opp.Biju Nagar,, Beheramal, Near Bombay Chowk",Jharsuguda,Odisha,768203,7205535008,d10881@baldealer.com
Jr Bajaj,Dealer,"NH - 49, Dhangarpada, Keonjhar - 758002, ",Keonjhar,Odisha,758002,9439008692,d11781@baldealer.com
Msb Bajaj,Dealer,"Plot No- 18153880, Main Road",Nayagarh,Odisha,752069,7873925390,d12711@baldealer.com
MSB Automotive Pvt Ltd,Branch,"Main Road,, Mahavir Market, Dist : Khurda, Rajsunakhala",Nayagarh,Odisha,752065,9668820967,d12711@bajajauto.co.in
Grand Bajaj,Dealer,"Opp District Hospital, Grand Road",Puri,Odisha,752001,9438421344,d10655@baldealer.com
Maitree Bajaj,Dealer,"Main Road, Distr Jagatsinghpur",Rahama,Odisha,754140,9668801781,d12715@baldealer.com
Sitarama Bajaj,Dealer,"J K Road,, ",Rayagada,Odisha,765001,7205631185,d12786@baldealer.com
Rm Bajaj,Dealer,"G M Mall , Plot No. 31, Udit Nagar",Rourkela,Odisha,769012,9078083803,d12226@baldealer.com
Ujjwal Bajaj,Dealer,"Jharsuguda Road, Pardhiapali",Sambalpur,Odisha,768006,9853155550,d10863@baldealer.com
Ujjwal Govind Auto,Branch,"Near PWD Office, San Jhinki,, Bolangir Road, Dist : Subarnapur, Sonepur",Sambalpur,Odisha,767017,9178013205,d10863@bajajauto.co.in
Aakash Bajaj,Dealer,"No.63, Ambalathadayar, Madam Street",Pondicherry,Pondicherry,605001,9842332525,d10836@baldealer.com
Raja Bajaj,Dealer,"Hanumangarh Road, S No. 7 & 8, Sunder Nagari",Abohar,Punjab,152116,9653122236,d10827@baldealer.com
Doaba Bajaj,Dealer,"Court Road, ",Amritsar,Punjab,143001,9915011854,d10089@baldealer.com
Doaba Automobiles,Branch,"Near India Gate, Naraingarh-Chheharta, , ",Amritsar,Punjab,,0183 2224748,d10089@bajajauto.co.in
Doaba Automobiles,Branch,"Gali No. 05, Opp: Pillar No. 05, , Batala Road, Dist : Amritsar",Amritsar,Punjab,143502,9814111851,d10089@bajajauto.co.in
Narain Bajaj,Dealer,"3A, Court Road, ",Amritsar,Punjab,143001,9041055987,d10659@baldealer.com
Narain Auto Agency,Branch,"Patiala Road, Opp: 66 KV Grid, Sunam, Sangrur, Punjab",Amritsar,Punjab,148028,9855204334,d10659@bajajauto.co.in
Goyal Bajaj,Dealer,"Near Bus Stand,, Near Bus Stand,",Barnala,Punjab,148101,9780888958,d12086@baldealer.com
Goyal Bajaj,Dealer,"Near Bus-Stand, 0",Barnala,Punjab,148101,9780888958,d13074@baldealer.com
Baba Bajaj,Dealer,"Jullundur Road, Umarpura, Bye Pass Chowk",Batala,Punjab,143505,8194876161,d10103@baldealer.com
Raja Bajaj,Dealer,"Raja House,, Goniana Road",Bhatinda,Punjab,151001,,d10289@baldealer.com
Raja Motors,Branch,"Near Petrol Pump, Link Road, Mansa, Bathinda",Bhatinda,Punjab,151505,(0162) 230117,d10289@bajajauto.co.in
Raja Motors,Branch,"Opp: Dhillon Gym, , Dist: Bhatinda, Bibiwala",Bhatinda,Punjab,151001,7009978872,d10289@bajajauto.co.in
Rishab Bajaj,Dealer,"Old Bus Stand, ",Faridkot,Punjab,151203,9041203939,d10417@baldealer.com
Scooter Aid Centre,Branch,"Near Govt. College,, Kotkapura Road, Muktsar, Sri Muktsar Sahib",Faridkot,Punjab,152026,(01639) 250278,d10417@bajajauto.co.in
Scooter Aid Centre,Branch,"Faridkot Road, Opp: HDFC Bank, Dist : Faridkot, Kotkapura",Faridkot,Punjab,151204,9888900504,d10417@bajajauto.co.in
Baba Bajaj,Dealer,"Moga Road, Ferozpur Cantt",Ferozpur,Punjab,152001,8559075968,d10956@baldealer.com
Ravi Dutt Bajaj,Dealer,"Mall Road,, Near Railway Bridge",Ferozpur,Punjab,152002,9357322555,d11605@baldealer.com
Madaan Bajaj,Dealer,"4, Improvement Trust Colony, Batala Road",Gurdaspur,Punjab,143521,8437667788,d11601@baldealer.com
Bhakra Bajaj,Dealer,"Nangal Chd Road, Nangal Dam, Near Octroi Post No. 1",Nangal,Punjab,140124,9872849252,d10052@baldealer.com
Rampa Bajaj,Dealer,"Bus Stand Road, ",Hoshiarpur,Punjab,146001,9915716399,d12271@baldealer.com
Rampa Motor,Branch,"G T Road,, Near Dashmesh Arts College, Dist : Hoshiarpur, Mukerian",Hoshiarpur,Punjab,144211,(01883) 244301,d12271@bajajauto.co.in
Pankaj Bajaj,Dealer,"Opp.Lal Palace Cinema,, G.T. Road",Jagraon,Punjab,142026,9517545258,d11721@baldealer.com
Dada Bajaj,Dealer,"BMC Chowk, G.T.Road",Jalandhar,Punjab,144001,9876039068,d10098@baldealer.com
Dada Motors,Branch,"Opp: Focal Point, , Near Sarab Multiplex, Pathankot Road, Jalandhar",Jalandhar,Punjab,144012,9876039040,d10098@bajajauto.co.in
Lovely Bajaj,Dealer,"Lovely Chamber, Dr.Ambedkar Chowk",Jalandhar,Punjab,144003,9915028630,d10206@baldealer.com
Lovely Autos,Branch,"Nadala Road, , Begowal, Dist : Kapurthala",Jalandhar,Punjab,144621,9815046570,d10206@bajajauto.co.in
Lovely Bajaj,Dealer,"Circular Road,, Near Railway Station",Kapurthala,Punjab,144601,9876010003,d10574@baldealer.com
Dada Bajaj,Dealer,"Near U.K.Palace, G.T.Road",Khanna,Punjab,141401,9876039045,d10113@baldealer.com
Dada Bajaj,Dealer,"Dholewal Chowk, Savitri 3 Complex, G.T.Road,",Ludhiana,Punjab,141003,9876039012,d10086@baldealer.com
Dada Motors,Branch,"1132, New Shakti Nagar (Rahon Road), , , Ludhiana",Ludhiana,Punjab,141007,9876039053,d10086@bajajauto.co.in
Dada Motors,Branch,"Jiwan Nagar,, Near Veer Palace, Chandigard Road,, Ludhiana",Ludhiana,Punjab,141015,9876082182,d10086@bajajauto.co.in
Impact Bajaj,Dealer,"Sherpur Chowk, G.T.Road By-Pass",Ludhiana,Punjab,141003,9814530701,d10155@baldealer.com
Impact Agencies Pvt.Ltd.,Branch,"B-20, 3364, Gurudev Nagar, Opp: Kaka Marriage Palace, Ferozepur Road, Ludhiana",Ludhiana,Punjab,141001,9814023248,d10155@bajajauto.co.in
Impact Agencies Pvt.Ltd.,Branch,"Hari Singh Nalwa Chowk,, , Dist : Ludhiana, Raikot",Ludhiana,Punjab,141109,(0162) 4268349,d10155@bajajauto.co.in
Goyal Bajaj,Dealer,"Dhuri Road,, Dist. Sangrur",Malerkotla,Punjab,148023,9780808800,d12085@baldealer.com
Goyal Bajaj,Dealer,"Opp Police Station-D, Dhuri Road",Malerkotla,Punjab,148023,9780808800,d13073@baldealer.com
Pankaj Bajaj,Dealer,"Pankaj House, G.T.Road",Moga,Punjab,142001,,d11722@baldealer.com
Mohali Bajaj,Dealer,"C-38, Industrial Area, Phase-2, S A S Nagar",Mohali,Punjab,160055,988808887,d12832@baldealer.com
Rampa Bajaj,Dealer,"Opp Cargo Motors, Garhshankar Road",Nawanshahr,Punjab,144514,9915716397,d12191@baldealer.com
Goyal Bajaj,Dealer,"Rajpura Road,, Near Bus Stand",Patiala,Punjab,147001,,d11997@baldealer.com
V S Bajaj,Dealer,"Sirhind Road, Opp Bye-Pass,, Near IOCL Petrol Pump,",Patiala,Punjab,147001,,d12743@baldealer.com
Goyal Auto Enterprises,Branch,"Patran Road, NH-52,, Near Deep Hospital, Dirba, Sangrur",Patiala,Punjab,148035,(1676) 244236,d12743@bajajauto.co.in
Lovely Bajaj,Dealer,"G.T.Road, Near Bus Stand",Phagwara,Punjab,144401,9915020540,d10208@baldealer.com
Raaj Bajaj,Dealer,"NH 64, Near Mukut Public School, Patiala District",Rajpura,Punjab,140401,9336042000,d10993@baldealer.com
Bhakra Bajaj,Dealer,"Ropar Kurali Road, Dist. Ropar",Ropar,Punjab,140001,9815907052,d10599@baldealer.com
Bhakra Service Station Pvt. Ltd.,Branch,"Bharatgarh-Ropar Road NH-21, Near Sarai Hotel, Dist : Ropar, Bharatgarh",Ropar,Punjab,140114,8146672107,d10599@bajajauto.co.in
Goyal Bajaj,Dealer,"Patiala Road (Out Of Octroi), Village Mangwal",Sangrur,Punjab,148001,9780888941,d12084@baldealer.com
Sangrur Autos ,Branch,"Patiala Road, District : Sangrur, , ",Sangrur,Punjab,148028,9780801100,d12084@bajajauto.co.in
Goyal Bajaj,Dealer,"Opp Verka Milk Plant, Patiala Road",Sangrur,Punjab,148001,9780888990,d13072@baldealer.com
Baba Bajaj,Dealer,"Near Bus Stand,, ",Taran Taran,Punjab,143401,9914131888,d10624@baldealer.com
Anjita Bajaj,Dealer,"Meersha Ali Jaipur Road, Opp.Sofia College",Ajmer,Rajasthan,305001,7597988881,d10024@baldealer.com
Charbhuja Bajaj,Dealer,"51615, Srinagar Road, ",Ajmer,Rajasthan,305001,9649820087,d11296@baldealer.com
Surbhi Bajaj,Dealer,"9 NEB, Subhash Nagar, Agresen Circle",Alwar,Rajasthan,301001,9694093174,d12910@baldealer.com
Bharat Bajaj,Dealer,"Dahod Road, Old Chungi Naka",Banswara,Rajasthan,327001,6375193653,d11759@baldealer.com
Agarwal Bajaj,Dealer,"Adarsh Nagar, Kota Road",Baran,Rajasthan,325205,9982642571,d10727@baldealer.com
M L Bajaj,Dealer,"MS-1, Opp Road No. 3, Sikar Road,",Jaipur,Rajasthan,302039,9057097777,d13047@baldealer.com
Nidhikamal Bajaj,Dealer,"B-4,Govind Marg, Sethi Colony Market,",Jaipur,Rajasthan,302004,9828111156,d10231@baldealer.com
Pl Bajaj,Dealer,"Purani Chungi, Mahla House, Ajmer Road,, 21, Vivek Vihar, New Sangner Road,",Jaipur,Rajasthan,302006,1412354226,d12645@baldealer.com
Mpr Bajaj,Dealer,"3, Durga Vihar Colony,, Opp Kamani Farm, Tonk Road",Jaipur,Rajasthan,302018,,d13057@baldealer.com
Rajmandir Bajaj,Dealer,"Paras Chourah, New Meera Kala Mandir, Sector 11",Udaipur,Rajasthan,313001,9950513281,d11655@baldealer.com
Shree Amba Bajaj,Dealer,"100 Ft Road,, Shobhagpura",Udaipur,Rajasthan,313001,9414097082,d12643@baldealer.com
S N Bajaj,Dealer,"100 Feet Road Corner, Nathdwara Road, Kankroli",Rajsamand,Rajasthan,313324,9116160519,d12714@baldealer.com
Khandelwal Bajaj,Dealer,"Alanpur Link Road, ",Sawaimadhopur,Rajasthan,322001,9462449232,d10589@baldealer.com
Jm Bajaj,Dealer,"Fatehpur Road, Opp.Shiv Mandir Cinema",Sikar,Rajasthan,332001,9829219003,d10162@baldealer.com
Shree Amba Bajaj,Dealer,"Hanumangarh Road, Near Chahal Chowk",Sriganganagar,Rajasthan,335001,9413385023,d10912@baldealer.com
Omsai Bajaj,Dealer,"Pali Road, ",Sumerpur,Rajasthan,306902,9314653000,d10693@baldealer.com
Emn Bajaj,Dealer,"Captain Colony, Chawani, Jaipur Road",Tonk,Rajasthan,247574,1432247574,d12849@baldealer.com
Barmer Bajaj,Dealer,"Opp Custom Quarters, Baldev Nagar",Barmer,Rajasthan,344001,9782129900,d12625@baldealer.com
Shree Ganpati Bajaj,Dealer,"1-10, Kalyan Colony,, Udaipur Road",Beawar,Rajasthan,305901,8696888888,d11631@baldealer.com
Vijay Bajaj,Dealer,"E-3A, RIICO Industrial Area, Alwar Road",Behror,Rajasthan,301701,9694091840,d12659@baldealer.com
Bharat Bajaj,Dealer,"Numayas Road, ",Bharatpur,Rajasthan,321001,7062675676,d10042@baldealer.com
Sandeep Bajaj,Dealer,"Gangapur Road, Gandhi Nagar",Bhilwara,Rajasthan,311001,9413314425,d10761@baldealer.com
Sun Bajaj,Dealer,"A-96 J, Industrial Area, ",Bhiwadi,Rajasthan,301019,7023003331,d12107@baldealer.com
Bharat Bajaj,Dealer,"Near Rail Dada Bari, Po Ganga Shahar",Bikaner,Rajasthan,334401,9414005770,d10117@baldealer.com
Bharat Tractors Pvt Ltd,Branch,"Opp: Subhash Petrol Pump, Jaipur Road, , Bikaner",Bikaner,Rajasthan,334001,(0151) 2223770 / 2222770,d10117@bajajauto.co.in
Prashant Bajaj,Dealer,"NH 12, Bye Pass Road, ",Bundi,Rajasthan,323001,8094922777,d11521@baldealer.com
Surendra Bajaj,Dealer,"Aashirwad Opp. Senior Higher Secondary School, Bhilwara Road",Chittorgarh,Rajasthan,312001,1472241832,d10388@baldealer.com
Laxmi Bajaj,Dealer,"Morija Road,, Near New Anaj Mandi",Chomu,Rajasthan,303702,9829210417,d12820@baldealer.com
Samrat Bajaj,Dealer,"Plot No. A-46, Sector-1, Sainik Basti, Bhaleri Road",Churu,Rajasthan,331001,9461236566,d12939@baldealer.com
Dhonkaria Bajaj,Dealer,"Near Railway Crossing, Jaipur-Agra Road,",Dausa,Rajasthan,303303,9414035435,d10509@baldealer.com
Narayan Bajaj,Dealer,"GT Road, Near Naraya Dhaba",Dhaulpur,Rajasthan,328001,9116013405,d11432@baldealer.com
Rajmandir Bajaj,Dealer,"Udaipur Road, ",Dungarpur,Rajasthan,314001,9413529926,d10740@baldealer.com
Ganapati Bajaj,Dealer,"Bhagwan Mahavir Marg, Opp. Hanuman Mandir",Hanumangarh,Rajasthan,335513,9462207055,d10729@baldealer.com
Himmat Bajaj,Dealer,"Bagoda Road, ",Jalore,Rajasthan,343001,9460716090,d11435@baldealer.com
Kaushal Bajaj,Dealer,"Jhalawar Road, ",Jhalarapatan,Rajasthan,326023,9214050430,d10804@baldealer.com
Jm Bajaj,Dealer,"Golai Mod,, Road No. 3",Jhunjhunu,Rajasthan,333001,9785538377,d11468@baldealer.com
Lmj Bajaj,Dealer,"Hanumant Kripa, E-169, Dharamnarayanji Ka Hatha, Paota, Mandore Road",Jodhpur,Rajasthan,342001,7412096046,d12676@baldealer.com
Raja Bajaj,Dealer,"78-A Pratap Nagar, Near Aakhalya Chouraha",Jodhpur,Rajasthan,342005,9928548000,d10296@baldealer.com
Pawansut Bajaj,Dealer,"15-16, Prem Vihar Colony, Khoda Ganeshji Road, Madanganj",Kishangarh,Rajasthan,305801,9829046068,d12575@baldealer.com
Kamalauto Bajaj,Dealer,"11, Jhalawar Road, Near Aerodrome Circle, Opp.Airport",Kota,Rajasthan,324007,9929388846,d10170@baldealer.com
Yadav Bajaj,Dealer,"Plot No. 146147, Sector-A, Shrinathpuram",Kota,Rajasthan,324010,9358600261,d13071@baldealer.com
Sanu Bajaj,Dealer,"NH 8, Near RTM Hotel, ",Kotputli,Rajasthan,303108,9929357100,d11792@baldealer.com
Sheikh  Bajaj,Dealer,"Opp Sargam Cinema, Mangalana Road",Makrana,Rajasthan,341505,9785459038,d11644@baldealer.com
Rathi Bajaj,Dealer,"Ajmer Road, ",Nagaur,Rajasthan,341001,9414118589,d10278@baldealer.com
Omsai Bajaj,Dealer,"Near Paanch Muauka Puliya, Station Road",Pali,Rajasthan,306401,9413371172,d11506@baldealer.com
Shree Krishna Bajaj,Dealer,"Near BPCL Petrol Pump, M.G. Road",Pratapgarh,Rajasthan,312605,9251248002,d12821@baldealer.com
Khivraj Bajaj,Dealer,"617, Anna Salai, Bharat Kumar Bhavan",Chennai,Tamil Nadu,600006,9043014526,d11562@baldealer.com
Kln Bajaj,Dealer,"T 98 , 3RD Avenue, Annanagar West",Chennai,Tamil Nadu,600102,9094047268,d10200@baldealer.com
KLN Automobiles Pvt. Ltd.,Branch,"No. 7, MTH Road,, Opp: Stedford Hospital, Ambattur, Chennai",Chennai,Tamil Nadu,600053,(044) 26583683,d10200@bajajauto.co.in
KLN Automobiles Pvt. Ltd.,Branch,"No. L-44, Ambattur Industrial Estate, , Mogappair, Chennai",Chennai,Tamil Nadu,600058,(044) 26880093,d10200@bajajauto.co.in
Shakthi Bajaj,Dealer,"946-949, Poonamallee High Road, Pursaiwakkam",Chennai,Tamil Nadu,600084,9840791868,d10736@baldealer.com
Shakthi Motors,Branch,"No. 31/B1, Madavaram High Road,, Chennai, Perambur, Chennai",Chennai,Tamil Nadu,600011,(044) 25593149,d10736@bajajauto.co.in
Jai Bajaj,Dealer,"No.11.1St Main Road, Gandhi Nagar, Adyar",Chennai,Tamil Nadu,600020,9841372731,d10491@baldealer.com
Sri Raj Bajaj,Dealer,"No. 13, Pulli Lane Vilage, Redhills Bye Pass Road, Red Hills",Chennai,Tamil Nadu,600052,9840137333,d12966@baldealer.com
Vishak Bajaj,Dealer,"22, Arcot Road, Saligram",Chennai,Tamil Nadu,600040,7299088040,d10419@baldealer.com
Popular Bajaj,Dealer,"No. 1293B, 1302, 131B2, Porur, Arcot Road",Chennai,Tamil Nadu,600116,9840193908,d12834@baldealer.com
Popular Motor Corporation,Branch,"OMR-421/3B, , Rajiv Gandhi Road, OMR, Sholinganallur, Dist : Chennai",Chennai,Tamil Nadu,600119,9840293007,d12834@bajajauto.co.in
Popular Motor Corporation,Branch,"New Survey No. 46/1A2 (Old Survey No. 46/1), Aadiparashakti Nagar Layout, GST Road No. 6, , Nandhivaram Village, Chengalpattu Talq., Guduvanchery, Dist : Kanchipuram",Chennai,Tamil Nadu,603202,9840293007,d12834@bajajauto.co.in
Jai Bajaj,Dealer,"No.1, Madhavan Street,, Sundarambal Nagar, Tambaram Sanitorium,",Chennai,Tamil Nadu,600047,9841612178,d10591@baldealer.com
Jai Automobiles ,Branch,"9/A, Grond Floor, Modichur Main Road,, Lakshmipuram, West Tambaram, Mudichur, Chennai",Chennai,Tamil Nadu,600045,(044) 22260702,d10591@bajajauto.co.in
Jai Automobiles ,Branch,"2, KVIC Nagar, Velachery Main Road,, Gowrivakkam, Selaiyur, Chennai",Chennai,Tamil Nadu,600073,(044) 43512028,d10591@bajajauto.co.in
Jai Automobiles ,Branch,"1, Tannery Street (Dr Rajendra Prasad Road), Cantonment, Pallavaram, Chennai",Chennai,Tamil Nadu,600043,(044) 22642180,d10591@bajajauto.co.in
Khivraj Bajaj,Dealer,"Pallavaram , 200 Ft Road,, Sunambukolathur, Near Velachery",Chennai,Tamil Nadu,600100,9043014523,d11607@baldealer.com
Mohteej  Bajaj,Dealer,"No.2331,MT. Poonamallee High Road, Kattupakkam, Poonamallee",Chennai,Tamil Nadu,600056,9962779778,d11824@baldealer.com
Jai Bajaj,Dealer,"110, Arya Gowder Road, West Mambalam",Chennai,Tamil Nadu,600033,9551066229,d10167@baldealer.com
Jai Autos,Branch,"New No. 50, Old No. 80, Rahamath Towers,, Anjugam Nagar, 3rd Street, Jaffarkhanpet, Ashok Nagar, Chennai",Chennai,Tamil Nadu,600083,6379906661,d10167@bajajauto.co.in
Malinisri Bajaj,Dealer,"No.106, T.H.Road, New Washermenpet",Chennai,Tamil Nadu,600081,9042396038,d10790@baldealer.com
Malinisri Motors,Branch,"47, Kannagi Street (Near Rettari Jn), Thiruvalluvar Nagar, Kolathur, Chennai",Chennai,Tamil Nadu,600099,(044) 6380766355,d10790@bajajauto.co.in
Malinisri Motors,Branch,"No. 128/129, Konnur High Road,, Ayanavaram, Ayanavaram, Chennai",Chennai,Tamil Nadu,600023,(044) 26747577,d10790@bajajauto.co.in
Malinisri Motors,Branch,"N No. 312, O No. 54,, MRV Complex, CTH Road,, Chennai, Avadi",Chennai,Tamil Nadu,600054,8825489021,d10790@bajajauto.co.in
Sriram Bajaj,Dealer,"782 A1, Salem Main Road, ",Namakkal,Tamil Nadu,637001,9942991414,d11633@baldealer.com
Vaibav Bajaj,Dealer,"No.56, Salem Byepass Road, LNS Post",Karur,Tamil Nadu,639002,7338898400,d12395@baldealer.com
Knn Bajaj,Dealer,"130, Chennai Salai, ",Krishnagiri,Tamil Nadu,635001,9952434903,d11485@baldealer.com
Arasu Bajaj,Dealer,"36  2147, Thirunarayanapuram East, Near Nall Road",Kumbakonam,Tamil Nadu,612001,9364477714,d11487@baldealer.com
Adhithya Bajaj,Dealer,"1663, Adithya Building, PO-Ramanathapuram",Coimbatore,Tamil Nadu,641045,9786019999,d12318@baldealer.com
Aadhithya Motors,Branch,"32, AVG Layout, Periyarnagar, SIDCO, Dist : Coimbatore, Sundarapuram",Coimbatore,Tamil Nadu,641024,9787914772,d12318@bajajauto.co.in
Aadhithya Motors,Branch,"311, Opp: Shivananda Mills Stop, Sathy Road,, Dist : Coimbatore, Saravanampatti",Coimbatore,Tamil Nadu,641024,9843644772,d12318@bajajauto.co.in
Aadhithya Motors,Branch,"513, Adhithya Building, Avinashi Road, Peelamedu, Coimbatore",Coimbatore,Tamil Nadu,641004,9943029999,d12318@bajajauto.co.in
Aadhithya Motors,Branch,"110, Palakkad Main Road,, , Dist : Coimbatore, Kuniyamuthur",Coimbatore,Tamil Nadu,641008,9786924772,d12318@bajajauto.co.in
Jaikrishnaa Bajaj,Dealer,"392,100 FEET ROAD,GANDHIPURAM, ",Coimbatore,Tamil Nadu,641012,9788851856,d10057@baldealer.com
Jaikrishnaa Auto Pvt Ltd,Branch,"No. 7 & 8, Gowtham Complex,, Mettupalayam Road,, Sai Baba Colony, Coimbatore",Coimbatore,Tamil Nadu,641043,0422 2433882 / 2433230,d10057@bajajauto.co.in
Jaikrishnaa Auto Pvt Ltd,Branch,"No. 152/154, Sathy Main Road,, , Ganapathy, Coimbatore",Coimbatore,Tamil Nadu,641006,(0422) 4351768,d10057@bajajauto.co.in
Jaikrishnaa Auto Pvt Ltd,Branch,"450, Opp: Angalamman Kovil, , Dist : Coimbatore, Vysial (Vairam) Street",Coimbatore,Tamil Nadu,641001,9788856108,d10057@bajajauto.co.in
Jaikrishnaa Auto Pvt Ltd,Branch,"67-1B, Thadagam Road,, , Dist : Coimbatore, Edayarpalayam",Coimbatore,Tamil Nadu,641025,9788851764,d10057@bajajauto.co.in
Ttk Bajaj,Dealer,"No.47, TTK Towers, Imperial Road, Cuddalore-Chidambaram Road",Cuddalore,Tamil Nadu,607002,8489323336,d12453@baldealer.com
TTK Motors,Branch,"No. 1, Rathinam Layout, Link Road,  Opp: John Dewey School, Dist : Cuddalore, Panruti",Cuddalore,Tamil Nadu,607106,8489113322,d12453@bajajauto.co.in
Aadhithya Bajaj,Dealer,"609, Adithya Building, Pollachi Road",Dharapuram,Tamil Nadu,638657,9003529999,d11412@baldealer.com
Aadhithya Motors,Branch,"2/38-A, Adhithya Building, Ranganathapuram Trichy Road, Sulur, Coimbatore",Dharapuram,Tamil Nadu,641402,(0422) 2681772 / 2691772,d11412@bajajauto.co.in
Aadhithya Motors,Branch,"310/1, 2, Adithya Building, Trichy Road, Anna Nagar, Palladam, Tirupur",Dharapuram,Tamil Nadu,641412,(04255) 255772,d11412@bajajauto.co.in
Dnv Bajaj,Dealer,"41-B, Salem Main Road, Bharathipuram",Dharmapuri,Tamil Nadu,636705,9842733362,d10115@baldealer.com
Gounder Bajaj,Dealer,"108, SSD Road, Near SBI, Namakkal Dt, ",Tiruchengode,Tamil Nadu,637211,9715955551,d12749@baldealer.com
Susee Bajaj,Dealer,"1842 Trivendrum Road, Vannarpettai",Tirunelveli,Tamil Nadu,627003,9944458000,d10721@baldealer.com
Susee Vehicle Dealers Pvt. Ltd,Branch,"2/27, William Booth Memorial Complex,, , Valliyoor, Tirunelveli",Tirunelveli,Tamil Nadu,627117,9944458815,d10721@bajajauto.co.in
Susee Vehicle Dealers Pvt. Ltd,Branch,"7-A/2-B, Ambai Road,, Near JK Mahal, Dist : Tirunelveli, Melapalayam",Tirunelveli,Tamil Nadu,627005,6384058105,d10721@bajajauto.co.in
Dnv Bajaj,Dealer,"112, Vaniyambadi Main Road, Thamalerimuthur Post , Dist Vellore",Tirupattur,Tamil Nadu,635853,9688975333,d11707@baldealer.com
Vsg Bajaj,Dealer,"477-C, Palladam Road, Near Sirpathy Way Bridge",Tirupur,Tamil Nadu,641604,8754952323,d11741@baldealer.com
Khivraj Bajaj,Dealer,"Plot No 3575, No 75, Kakkallur Toad",Tiruvallur,Tamil Nadu,602001,7358072777,d12257@baldealer.com
Jaisakthi Bajaj,Dealer,"No. 27P, New Karur Bye Pass Road, Annamalai Nagar",Trichy,Tamil Nadu,620018,9965515071,d11862@baldealer.com
Jaisakthi Bajaj,Branch,"Old Chennai Trunk Road, , Dist : Tiruchirapalli, Tiruvanaikoil, Tiruchirappally",Trichy,Tamil Nadu,620005,9942910384,d11862@bajajauto.co.in
Jaisakthi Bajaj,Branch,"Thanjavur Bye Pass Road, Vin Nagar, Kattur (Near Chithra Nagar), Thiruverumbur, Tiruchirappally",Trichy,Tamil Nadu,620019,9489475068,d11862@bajajauto.co.in
Krishnaa  Bajaj,Dealer,"73, Promenade Road, Opp Americal Hospital Cantonment",Trichy,Tamil Nadu,620001,7373003002,d11856@baldealer.com
Krishnaa Autos ,Branch,"1352/1352A, Vijay Towers, Tricny Main Road, Thuraiyur, Tiruchirapally",Trichy,Tamil Nadu,621010,8489940991,d11856@bajajauto.co.in
Susee Bajaj,Dealer,"99-A, Ettayapuram Road, ",Tuticorin,Tamil Nadu,628001,9442186155,d10320@baldealer.com
Susee Auto Ltd.,Branch,"3/4, Ettayapuram Main Road,, , Kovilpatti, Thoothukudi",Tuticorin,Tamil Nadu,628501,(04632) 223286,d10320@bajajauto.co.in
Vds Sayar Bajaj,Dealer,"New Katpadi Road,, Near New Bus Stand",Vellore,Tamil Nadu,632004,9655246523,d11153@baldealer.com
VDS Sayar Bajaj,Branch,"No. 122/B, MBT Road,, Muthukadai, Ranipet, Vellore",Vellore,Tamil Nadu,632401,8695039700,d11153@bajajauto.co.in
VDS Sayar Bajaj,Branch,"No. 22/1, 2/2, Arni Road, , Dinakaran Bus Stop, Sainathapuram, Vellore",Vellore,Tamil Nadu,632001,6381574462,d11153@bajajauto.co.in
Akash Bajaj,Dealer,"No.318, Trichy Main Road, Salamedu",Villupuram,Tamil Nadu,605602,9942977033,d11112@baldealer.com
Aakash Automobiles Pvt. Ltd,Branch,"64/8, Tindivanam Road,, Dist : Villupuram, Gingee, Villupuram",Villupuram,Tamil Nadu,604202,(04145) 222888,d11112@bajajauto.co.in
Aakash Bajaj,Dealer,"85, Cuddalore Main Road, Gangai Kondan",Neyveli,Tamil Nadu,607802,8883077033,d11449@baldealer.com
Aakash Automobiles Pvt. Ltd,Branch,"Plot No. 3, ARB Walk, Vandigate, Chidambaram, Cuddalore",Neyveli,Tamil Nadu,608001,(04144) 231033,d11449@bajajauto.co.in
Lingam Bajaj,Dealer,"53-B, Venkadeshapuram, Trichy Main Road",Perambalur,Tamil Nadu,621212,9655866266,d12802@baldealer.com
Lingam Automobiles,Branch,"No. 1, Trichy Main Road,, , Dist : Ariyalur, Jayankondam",Perambalur,Tamil Nadu,621802,9842415152,d12802@bajajauto.co.in
Lingam Automobiles,Branch,"Jayankondam Main Road,, , Dist : Ariyalur, Ariyalur",Perambalur,Tamil Nadu,621704,9965566266,d12802@bajajauto.co.in
Krishnaa  Bajaj,Dealer,"121, Kamraj Road, ( Near Arch ), Mahalingpuram",Pollachi,Tamil Nadu,642002,8489940940,d11596@baldealer.com
Krishnaa Autos,Branch,"164-A, Gandhi Nagar, Near RTO Office, , ",Pollachi,Tamil Nadu,642126,04252 225444,d11596@bajajauto.co.in
Krishnaa Bajaj,Dealer,"No. 85012, Marthandapuram, 3Rd Street, Alangudi Road",Pudukkotai,Tamil Nadu,622001,9942912111,d12726@baldealer.com
Krishnaa Autos,Branch,"Deivanai Nagar, Pudukkottai Main Road, Dist : Pudukkottai, Ponnamaravathy",Pudukkotai,Tamil Nadu,622407,8489940099,d12726@bajajauto.co.in
Krishnaa Autos,Branch,"Pudukkottai Man Road, , Dist : Pudukkottai, Aranthangi",Pudukkotai,Tamil Nadu,614616,8489940779,d12726@bajajauto.co.in
Subhalakshmi Bajaj,Dealer,"No.2, Ayyasamy Club, North Street, Railway Feeder Road, Near SVM Petrol Bunk",Ramnathpuram,Tamil Nadu,623501,7667997717,d10842@baldealer.com
Swarnambigai Bajaj,Dealer,"2451, Trichy Main Road, Dadagapatty, West Street",Salem,Tamil Nadu,636006,9791331166,d11492@baldealer.com
Swarnambigai Bajaj,Branch,"Opp: Allangar Threatre, Dharmapuri Main Road, Omalur, Salem",Salem,Tamil Nadu,636455,8098871122,d11492@bajajauto.co.in
Tkra Bajaj,Dealer,"No.555, Opp To Goukalam Hospital,, Meyyanur Main Road",Salem,Tamil Nadu,636004,7397780666,d12705@baldealer.com
Rk Bajaj,Dealer,"194,, Thiruthangal Road",Sivakasi,Tamil Nadu,626123,9442282881,d10997@baldealer.com
RK Motors,Branch,"160, Cotton Market, , Dist : Virudhunagar, Rajapalayam",Sivakasi,Tamil Nadu,626117,094563-224481,d10997@bajajauto.co.in
RK Motors,Branch,"No. 6/504, Madurai Highway, Near VW College, , Virudhunagar",Sivakasi,Tamil Nadu,626001,9443334581,d10997@bajajauto.co.in
Roja Bajaj,Dealer,"175, Railway Feeder Road, Madurai Main Road",Tenkasi,Tamil Nadu,627811,8489924200,d11841@baldealer.com
Roja Autos,Branch,"65-A, Thilagarpuram Main Road,, Tenkasi  , Dist : Tirunelveli, Ambasamudram",Tenkasi,Tamil Nadu,627811,8489943979,d11841@bajajauto.co.in
Roja Autos,Branch,"191, Puliyankudi Main Road,, , Sankarankoil, Tirunelveli",Tenkasi,Tamil Nadu,627756,(4636) 222244,d11841@bajajauto.co.in
Roja Autos,Branch,"503, Opp: EB Office, Tenkasi Main Road,, Alangulam, Tirunelveli",Tenkasi,Tamil Nadu,627851,(4633) 272115,d11841@bajajauto.co.in
Arasu Bajaj,Dealer,"No.1, VOC Nagar, Trichy Main Road",Thanjavur,Tamil Nadu,613001,9364477716,d10060@baldealer.com
Arasu Autos,Branch,"No. 47, Kottaikulam, Thanjavur Main Road, Pattukottai, Thanjavur",Thanjavur,Tamil Nadu,614601,(04373) 223777,d10060@bajajauto.co.in
Arasu Autos,Branch,"No. 42/2, Nataraja Pillai Street, Thanjavur Main Road, Mannargudi, Tiruvarur",Thanjavur,Tamil Nadu,614001,9443127777,d10060@bajajauto.co.in
Balamuruga Bajaj,Dealer,"D.No.154515, Ground Floor, Periyakulam Main Road, Allinagaram",Theni,Tamil Nadu,625531,9842880001,d12591@baldealer.com
Sayar Bajaj,Dealer,"40B Thirumanjanagopuram Street, ",Thiruvannamalai,Tamil Nadu,606601,7867012968,d10311@baldealer.com
Sayar Motors,Branch,"No. 518/2, CC Road,, Opp: Reliance Petrol Bunk, Dist : Tiruvannamalai, Polur",Thiruvannamalai,Tamil Nadu,606803,9944528777,d10311@bajajauto.co.in
Sayar Motors,Branch,"No. 267/14, Chetpet Road,, Keelsathamangalam, Dist : Tiruvannamalai, Vandhavasi",Thiruvannamalai,Tamil Nadu,606060,7867012924,d10311@bajajauto.co.in
Arasu Bajaj,Dealer,"No.1 TS No.4805, 4804, 4804A, Nagai Bye Pass Road",Thiruvarur,Tamil Nadu,610001,9364677713,d11476@baldealer.com
Arasu Autos-Thiruvarur,Branch,"Srinivasapuram, Thiruvarur Main Road, Dist : Nagapattinam, Mayiladuthurai",Thiruvarur,Tamil Nadu,609001,(4364)227222,d11476@bajajauto.co.in
Sri Sairam Bajaj,Dealer,"234, 235 Erode Main Road, ",Gobichettipalayam,Tamil Nadu,638476,9865402222,d11483@baldealer.com
Akash Bajaj,Dealer,"No.72 & 65, Chennathur Village, NH7, Next To Anand Electronic",Hosur,Tamil Nadu,635109,9025333377,d10745@baldealer.com
Varna Bajaj,Dealer,"27K-1,, Raja Nagar",Kallakurichi,Tamil Nadu,606202,9444502355,d12020@baldealer.com
Varna Motors,Branch,"No. 1049, VPN Complex, Opp: Velmurugan Theater, Salem Main Road, , Attur, Salem",Kallakurichi,Tamil Nadu,636102,(04282) 250168,d12020@bajajauto.co.in
Susee Bajaj,Dealer,"Plot No.219, Indra Nagar, Near New Railway Station",Kanchipuram,Tamil Nadu,631502,9629555136,d10339@baldealer.com
Susee Scooter Centre,Branch,"No. 117, Arcot Road, Koda Nagar, Near Govt. Anna Arts College, Dist : Thiruvannamalai, Cheyyar",Kanchipuram,Tamil Nadu,604407,9843839939,d10339@bajajauto.co.in
Meenakshi Bajaj,Dealer,"Plot No.279280, Mudirasan Salai, Near Kannadasan Manipandapam",Karaikudi,Tamil Nadu,630001,9443184001,d10540@baldealer.com
Sri Meenakshi Bikes ,Branch,"165/1-2, Byepass Road, , Near New Bus Stand, Dist : Sivaganga, Manamadurai",Karaikudi,Tamil Nadu,630606,9543343300,d10540@bajajauto.co.in
Athen Bajaj,Dealer,"932, TVM Road, ",Kuzhuthurai,Tamil Nadu,629163,8012078444,d12138@baldealer.com
Athen Automobiles ,Branch,"RS No. 324/B, 1-C,, NH Road, Dist : Kanyakumari, Marthandam",Kuzhuthurai,Tamil Nadu,629165,8012518888,d12138@bajajauto.co.in
Balamuruga Bajaj,Dealer,"No. 190, Lake View Road, Near Apollo Hospital, K. K. Nagar",Madurai,Tamil Nadu,625020,7373084430,d11843@baldealer.com
Balamuruga Motors,Branch,"257/1, B2B, 377-B, ,, Madurai-Trichi Main Road, Dist : Madurai, Melur",Madurai,Tamil Nadu,625106,7373084434,d11843@bajajauto.co.in
Balamuruga Motors,Branch,"Natham Main Road, State Bank Colony Bus stop, Narayanapuram, Madurai",Madurai,Tamil Nadu,625007,(0452) 7373084416,d11843@bajajauto.co.in
Balamuruga Motors,Branch,"54, BP Tower,, Palam Station Road,, Dist : Madurai, Sellur",Madurai,Tamil Nadu,625002,9965584409,d11843@bajajauto.co.in
Rk Bajaj,Dealer,"No.1 A, Vanamamalai Nagar, Bye Pass Road",Madurai,Tamil Nadu,625016,9442620881,d11177@baldealer.com
RK Motors,Branch,"159/4B/1, , Kamarajar Salai, Madurai",Madurai,Tamil Nadu,625009,(0452) 22631881,d11177@bajajauto.co.in
RK Motors,Branch,"Plot No. 2, GST Road,, , Dist : Madurai, Thirunagar",Madurai,Tamil Nadu,625006,9486736881,d11177@bajajauto.co.in
RK Motors,Branch,"Survey No. 412 (Part),, Sathangi Academy, Dist : Madurai, Koodal Nagar",Madurai,Tamil Nadu,625018,9791288029,d11177@bajajauto.co.in
Sri Murugan Bajaj,Dealer,"1801, Kovai Main Road, Opp Old Court",Mettupalayam,Tamil Nadu,641301,9585091122,d13022@baldealer.com
Athen Bajaj,Dealer,"No.272, KP Road, Near Parvathipuram Junction",Nagercoil,Tamil Nadu,629003,8012517777,d12297@baldealer.com
Pallava Bajaj,Dealer,"4, G.S.T. Road, ",Changelpet,Tamil Nadu,603002,9841168686,d11692@baldealer.com
Ram Bajaj,Dealer,"9-A, New Agraharam, Palani Road",Dindigul,Tamil Nadu,624001,9865215015,d10272@baldealer.com
Ram Auto,Branch,"14/1-11/K1, Near VVR Kalyana Mahal, Dindigul Road,, Palani, Dindigul",Dindigul,Tamil Nadu,624601,(04545) 251122,d10272@bajajauto.co.in
Sresakthi Bajaj,Dealer,"135, Perundurai Road, Opp-Reliance Bunk",Erode,Tamil Nadu,638011,9865942600,d10937@baldealer.com
Sri Sakthi Care,Branch,"15/2, Erode Main Road, Opp: BSNL Office, , ",Erode,Tamil Nadu,638052,04294 222990,d10937@bajajauto.co.in
Sre Sakthi Care,Branch,"44, Sathy Road, Veerappan Chathiram, Sathy Road, Erode",Erode,Tamil Nadu,638004,373377222,d10937@bajajauto.co.in
Sre Sakthi Care,Branch,"5/100, Karur Bye-Pass Road,, , Moolapalayam, Erode",Erode,Tamil Nadu,638002,(0424) 2283855,d10937@bajajauto.co.in
Varun Bajaj,Dealer,"S No. 59, D No.1-110 A118, Raghavendra Colony, Kondapur ( V), Serilingampally (M), Rangareddy Dist",Hyderabad,Telangana,500084,8297544408,d11716@baldealer.com
Varun Motors,Branch,"2-1-21, Opp: William Moon High School, Hyderabad Road,, Tandur, Dist : Vikarabad",Hyderabad,Telangana,501141,8297544419,d11716@bajajauto.co.in
Varun Motors,Branch,"Plot No. 536, Survey No. 11/14 to 11/18, 100 Ft Road, Ayyappa Society, Madhapur, Hyderabad",Hyderabad,Telangana,500081,8581291777,d11716@bajajauto.co.in
Varun Motors,Branch,"Plot No. 8, Survey No. 514/A,, NH-9, Highway, Isnapur Cross Road, Patanchery Mandal, Dist : Sangareddy, Isnapur, Hyderabad",Hyderabad,Telangana,502300,6303910598,d11716@bajajauto.co.in
Varun Motors,Branch,"Plot No. 7, Survey No. 96/A/7,, Pastapur Cross Road, Opp: SBI, Hyderabad, Zaheerabad",Hyderabad,Telangana,502318,8297544426,d11716@bajajauto.co.in
Varun Motors,Branch,"#2-105/1/C, Sri Ram Nagar Colony, Gangaram (Hyderabad), Ranga Reddy, Telangana",Hyderabad,Telangana,500049,8297544420,d11716@bajajauto.co.in
Varun Motors,Branch,"LIG 23, 24, Phase-02, Pathe Reddy Palli, Sangareddy, Sangareddy",Hyderabad,Telangana,502001,8297544409,d11716@bajajauto.co.in
Varun Motors,Branch,"23-29, Plot No. 6, Survey No. 203, Jyothi Nagar, Rachamandrapuram (RC Puram), Sangareddy",Hyderabad,Telangana,502032,9642294294,d11716@bajajauto.co.in
S & S Bajaj,Dealer,"Plot No. 3 & 22,, Quthubullapur, Kompally",Hyderabad,Telangana,500100,7995509090,d12803@baldealer.com
Mgb Bajaj,Dealer,"Bhanu Enclave, 7-1-638,Erragadda",Hyderabad,Telangana,500018,8885102244,d10223@baldealer.com
Abhinandan Bajaj,Dealer,"D.No 8-1-21160, Suryanagar, Colony, Towlichowki",Hyderabad,Telangana,500008,8008803761,d11287@baldealer.com
Abhinandan Motors ( P ) Ltd,Branch,"#13-6-826/A/1/1, Ring Road, Near Pillar No. 106, Mogal Ka Nala, Attapur, Hyderabad",Hyderabad,Telangana,500008,9959097618,d11287@bajajauto.co.in
Talwar Bajaj,Dealer,"5, 5-321A, Suhana Plaza, Kukatapally Y Junction",Hyderabad,Telangana,500072,8008034443,d11739@baldealer.com
T & R Auto Private Ltd,Branch,"19-57/3, Hyderabad Road, Opp: New Bus-stand, Siddipet, Siddipet",Hyderabad,Telangana,502103,7702015577,d11739@bajajauto.co.in
T & R Auto Private Ltd,Branch,"#1-2-15, , Hydernagar, , Kukatpally, Hyderabad",Hyderabad,Telangana,500072,7702015533,d11739@bajajauto.co.in
Select Bajaj,Dealer,"1-48,Nagole Road, Near Rajyalaxmi Theater, Uppal",Hyderabad,Telangana,500039,8008100966,d11277@baldealer.com
Select Automobiles,Branch,"Plot No. 26, H. No. 4-7-117/1,, Opp: CCMB, Habsiguda X Roads, Habsiguda, Hyderabad",Hyderabad,Telangana,500007,8008104400,d11277@bajajauto.co.in
Select Automobiles,Branch,"#41-22, Sushilpi Hills, Maulali, ECIL, Hyderabad",Hyderabad,Telangana,500040,8008104461,d11277@bajajauto.co.in
Select Automobiles,Branch,"#14-225/1/2/3, Mirijalguda, Malkajgiri, Hyderabad",Hyderabad,Telangana,500047,8008104445,d11277@bajajauto.co.in
Srivinayaka Bajaj,Dealer,"Door No.3-2-8703, VNR Commercial Complex, Kachiguda Station Road,Kachiguda",Hyderabad,Telangana,500027,9030030280,d10382@baldealer.com
Sri Vinayaka Mobikes Pvt. Ltd.,Branch,"3-8-268, Road N o. 3, , Chandrapuri Colony, Opp: Vijayalakshmi Theater, LB Nagar, Hyderabad",Hyderabad,Telangana,500074,9849002442,d10382@bajajauto.co.in
Sri Vinayaka Mobikes Pvt. Ltd.,Branch,"11-14-4, Greenhills Colony,, NTR Nagar, Opp: White House, RK Puram, Hyderabad",Hyderabad,Telangana,500074,9849002442,d10382@bajajauto.co.in
Sri Vinayaka Mobikes Pvt. Ltd.,Branch,"H. No. 11-6-192/A/1, H. No. 11-6-192/B, C, D, E, F, Nampally Station Road, Opp: Hotel Harsha, Public Garden Road, Nampally, Hyderabad",Hyderabad,Telangana,500001,9642488833,d10382@bajajauto.co.in
Siddhivinayaka Bajaj,Dealer,"D.N.19-2-224GA, Opp Nehru Zoological Park, Bahadurpura",Hyderabad,Telangana,500064,9393745666,d10834@baldealer.com
Srivinayaka Bajaj,Dealer,"1-11-2225, Opp HDFC Bank, Begumpet Main Road",Hyderabad,Telangana,500016,9390459666,d11463@baldealer.com
Standard Bajaj,Dealer,"H.No. 8-6-410, Hyderabad Road, Rampur",Karimnagar,Telangana,505001,9848576545,d10286@baldealer.com
Standard Automobiles,Branch,"H. No. 3-1-30/2, , Balajinagar, Dist : Rajanna Siricilla, Sircilla",Karimnagar,Telangana,505301,9550109354,d10286@bajajauto.co.in
Standard Automobiles,Branch,"D. No. 1-5-203/E/7/1, Near Ganesh Tample, Karimnagar Road,, Dist : Jagtial, Jagtial",Karimnagar,Telangana,505327,9553693310,d10286@bajajauto.co.in
Venkat Bajaj,Dealer,"2-23531,, Seetharampur",Karimnagar,Telangana,505001,7989787161,d13032@baldealer.com
Venkataramana Bajaj,Dealer,"Veeraiah Chowdary Complex, Wyra Road, D No. B-3-201",Khammam,Telangana,507001,9100266191,d10403@baldealer.com
Sai Anajna Bajaj,Dealer,"H No. 517, Laxmidevepalli, Dist Khammam",Kothgudem,Telangana,507101,7799444544,d11454@baldealer.com
Sai Anjana Motors ,Branch,"BCM Road, , Near Market, Dist : Kothegudam, Aswaraopeta",Kothgudem,Telangana,507301,9985444344,d11454@bajajauto.co.in
Haroon Bajaj,Dealer,"B-2, Industrial Estate,, Pillalamarri Road",Mahabubnagar,Telangana,509002,9010844460,d11261@baldealer.com
Haroon Motors,Branch,"15-107/10/6, Snehapuri Colony, Housing Board,, , Nagarkurnool",Mahabubnagar,Telangana,509209,9666100050,d11261@bajajauto.co.in
Mahi Bajaj,Dealer,"Bellampally Road,, Dist Adilabad",Mancherial,Telangana,504209,9912278641,d10492@baldealer.com
"Mahi Motors,",Branch,"H. No. 5-6-170/1, , Backside of SBI NTPC, Ramagundam, Peddapalli",Mancherial,Telangana,505215,(08728) 273299,d10492@bajajauto.co.in
Sansai Bajaj,Dealer,"NSR Complex, Opp LIC Office,, Hanumanpet",Miryalaguda,Telangana,508207,9160059997,d11501@baldealer.com
Sansai Motors Pvt Ltd,Branch,"NH-65,, , Suryapet, Dist : Suryapet",Miryalaguda,Telangana,508213,9160899905,d11501@bajajauto.co.in
Sansai Motors Pvt Ltd,Branch,"Opp: BSNL Office, , Sreepathi Premeela Plaza, Main Road, Dist : Suraypet, Kodad",Miryalaguda,Telangana,508206,9160079897,d11501@bajajauto.co.in
Sansai Bajaj,Dealer,"H No. 6-3-64, VT Road,, Maddi Complex, Ramagiri",Nalgonda,Telangana,588001,9160789555,d11864@baldealer.com
Sansai Mobikes Pvt Ltd,Branch,"H. No. 3-371/14, Main Road, , Choutupal, Yadadri",Nalgonda,Telangana,508252,9160008499,d11864@bajajauto.co.in
Bijay Bajaj,Dealer,"127-128, Arya Nagar, Borgaon (P) ,Hyderbad Road",Nizamabad,Telangana,503230,8885671855,d12281@baldealer.com
Vijayaganapathi Bajaj,Dealer,"11-3-841, Beside Laxmi Kalyana Mandapam, Kanteshwar, Armoor Road",Nizamabad,Telangana,503003,9849590160,d12692@baldealer.com
Vijayaganapathi Automotives,Branch,"# 5-5-115/5/1,, Bodhan Road, Dist : Kamareddy, Banswada",Nizamabad,Telangana,503187,9177034143,d12692@bajajauto.co.in
Deccan Bajaj,Dealer,"5, RP Road, ",Secunderabad,Telangana,500003,9948884427,d10452@baldealer.com
Anika Bajaj,Dealer,"15-1-338, Mulugu Road, Industrial Estate, ",Warangal,Telangana,506007,9885953888,d10799@baldealer.com
Select Bajaj,Dealer,"1-7-8711, Vinayaka Plaza, Hunter Road, Warangal Dist",Hanamkonda,Telangana,506001,7702611220,d11478@baldealer.com
Select Bikes,Branch,"Jawahar Colony, Opp: HP Petrol Pump, Hunter Road, Dist: Jayashankar, Bhupalpally",Hanamkonda,Telangana,506169,8008793934,d11478@bajajauto.co.in
Select Bikes,Branch,"2-8-P, Sai Nagar, Hyderabad Road,, Dist : Jangaon, Jangaon",Hanamkonda,Telangana,506167,9618747375,d11478@bajajauto.co.in
Srr Bajaj,Dealer,"Plot No.5&17, Sri Sai Nagar, Dasnapur, NH 7 Road",Adilabad,Telangana,504001,9441579451,d12638@baldealer.com
SRR Motors,Branch,"Kala Complex, Mancherial Road, , Shantinagar X Road, Nirmal",Adilabad,Telangana,505106,8985742322,d12638@bajajauto.co.in
SRR Motors,Branch,"Main Road, Ichoda, Dist : Adilabad, Ichoda",Adilabad,Telangana,504307,8179751534,d12638@bajajauto.co.in
SRR Motors,Branch,"Main Road, , Near KB Complex, Dist : Adilabad, Utnoor",Adilabad,Telangana,504311,8330966063,d12638@bajajauto.co.in
Sri Sai Bajaj,Dealer,"Plot No. 160 & 172, Opp New Collector Office, Kurnool Road, District Jogulamba Gadwal",Gadwal,Telangana,509125,8886667721,d12851@baldealer.com
Sengupta Bajaj,Dealer,"Laxmi Narayan Bari Road, Opp Ram Thakur Asram, Banamalipur",Agartala,Tripura,799001,8794713640,d12644@baldealer.com
Sengupta Motors,Branch,"Near Ramesh Choumuni, Opp: Hotel Royal Inn, Udaipur, Dist : Gomati",Agartala,Tripura,799120,7005988082,d12644@bajajauto.co.in
Sengupta Motors,Branch,"Dist : Tripura West, , Kashipur, Agartala",Agartala,Tripura,799008,8794713641,d12644@bajajauto.co.in
Sreeram Bajaj,Dealer,"Plot No. 020394, Bankar Road,, South Tripura",Belonia,Tripura,799155,9402335449,d12788@baldealer.com
Gita Bajaj,Dealer,"Rajbari, Opp OF ISBT, ",Dharamnagar,Tripura,799253,8837023664,d12891@baldealer.com
Gita Motors,Branch,"Near Pramila Guest House, , Dist : Dhalai, Ambassa",Dharamnagar,Tripura,799289,9436132196,d12891@bajajauto.co.in
Shiva Bajaj,Dealer,"Delhi Road,, Near SSV College",Hapur,Uttar Pradesh,245101,9760020028,d12852@baldealer.com
Bansal Bajaj,Dealer,"345 Civil Lines, Jail Road",Hardoi,Uttar Pradesh,241001,9453018534,d10051@baldealer.com
Manglam Bajaj,Dealer,"Purana Mill Compound, Mursan Gate, Agra Road",Hathras,Uttar Pradesh,204101,7895032222,d11445@baldealer.com
Woodland Bajaj,Dealer,"T D Collage Road, Jaycess Crossing, Jaunpur, ",Jaunpur,Uttar Pradesh,222002,7388098894,d11043@baldealer.com
Dhruvtara Bajaj,Dealer,"B-154, Nandanpura, Shiv Puri Road, ",Jhansi,Uttar Pradesh,284003,8922848152,d11452@baldealer.com
Nataraj Bajaj,Dealer,"Station Road, Civil Lines, ",Jhansi,Uttar Pradesh,284001,9795457434,d10235@baldealer.com
Mishra Bajaj,Dealer,"Makrand Nagar, G T Road, ",Kannauj,Uttar Pradesh,209726,9721333384,d12830@baldealer.com
Society Bajaj,Dealer,"12483, Macrobertganj, ",Kanpur,Uttar Pradesh,208001,9235662118,d10319@baldealer.com
Society Motors Ltd.,Branch,"516, I.I.T. Gate, G. T. Road,, Kalyanpur, Kanpur, Uttar Pradesh",Kanpur,Uttar Pradesh,208016,9044200200,d10319@bajajauto.co.in
Society Motors Ltd.,Branch,"63/2, City Centre, Mail Road, Dist : Kanpur, City Centre (Kanpur)",Kanpur,Uttar Pradesh,208001,9235598151,d10319@bajajauto.co.in
Society Bajaj,Dealer,"127201 -W-1 Saket Nagar, ",Kanpur,Uttar Pradesh,208014,9235598152,d10679@baldealer.com
Santosh Bajaj,Dealer,"Tulsi Dham, Lari Stop,, Akbarpur",Kanpur Dehat,Uttar Pradesh,209101,9793909292,d10650@baldealer.com
Amar Bajaj,Dealer,"Bedipuliya, Amanpur",Karwi(Chitrakoot Dham),Uttar Pradesh,210205,,d12828@baldealer.com
Opm Bajaj,Dealer,"Sorom Gate ,Near Railwat Crossing, B.M.Road",Kasganj,Uttar Pradesh,207123,7466933338,d12735@baldealer.com
Subash Bajaj,Dealer,"Opposite State Bank Of India, Bank Road",Gorakhpur,Uttar Pradesh,273001,9151335302,d10361@baldealer.com
Akash Bajaj,Dealer,"Village Brahmapur, NH-28, Sadar",Gorakhpur,Uttar Pradesh,273016,9169959259,d13049@baldealer.com
P R Bajaj,Dealer,"G1,G2, Shagun Palace,3, Sapru Marg, Hazratganj, ",Lucknow,Uttar Pradesh,226001,8090107766,d11806@baldealer.com
Jps Bajaj,Dealer,"5461274, Sarfarjganj, Ward - Balaganj, Hardoi Road",Lucknow,Uttar Pradesh,226003,8127106666,d11941@baldealer.com
JP Sales Corporation,Branch,"Neelima Complex, Kalyanpur, Ring Road, Lucknow",Lucknow,Uttar Pradesh,226022,7570900043,d11941@bajajauto.co.in
JP Sales Corporation,Branch,"Godawari Towers, Navikot Nandna, NH-24, Lucknow-Sitapur Road,, Lucknow, Bakshi Ka Talab",Lucknow,Uttar Pradesh,227202,7388053333,d11941@bajajauto.co.in
Anita Bajaj,Dealer,"537183, Puraniya, Sitapur Road",Lucknow,Uttar Pradesh,226020,9235510004,d12256@baldealer.com
Motor Sales Bajaj,Dealer,"Plot No. 4, Khasra No. 118, Chinhat, Faizabad Road, Before Matiyari Crossing",Lucknow,Uttar Pradesh,226028,8957411237,d13040@baldealer.com
Namdhari Bajaj,Dealer,"1, Amarpalli Senani, Vihar,, Telibagh, Rai Bareli Road",Lucknow,Uttar Pradesh,226012,8573042901,d11963@baldealer.com
Pushpa Bajaj,Dealer,"Opp. Alambagh Bus Stop, Alambagh, ",Lucknow,Uttar Pradesh,226005,9936077773,d10614@baldealer.com
Chandra Bajaj,Dealer,"Chandra Bajaj, Bakwal,, Ghazipur Road",Mau,Uttar Pradesh,275101,9450006900,d12051@baldealer.com
Vishal Bajaj,Dealer,"NH-28, Saraiya Bye Pass, Near Neveen Mandi Sthal, Sant Kabir Nagar",Khalilabad,Uttar Pradesh,272175,9454004814,d12666@baldealer.com
Us Bajaj,Dealer,"LRP Road,, Pilibhit Basti Road",Lakhimpur Kheri,Uttar Pradesh,262701,9670188388,d12525@baldealer.com
Indra Bajaj,Dealer,"Kheri Road, Lakhimpur Kheri",Lakhimpur-Kheri,Uttar Pradesh,262701,9628604444,d12928@baldealer.com
Anand Bajaj,Dealer,"Anand Tower, Elite Crossing, Jhansi Road, ",Lalitpur,Uttar Pradesh,284403,9453039931,d10705@baldealer.com
Balaji Bajaj,Dealer,"Mansarover Colony, Delhi Road",Moradabad,Uttar Pradesh,244001,9927010207,d10317@baldealer.com
Nirmala Bajaj,Dealer,"Harthala , Kanth Road, Near Dharam Kanta",Moradabad,Uttar Pradesh,244001,9219043555,d11451@baldealer.com
Rk Bajaj,Dealer,"4171, Bhagya Villa, Opp. Agarwal Petrol Pump, Naibasti, GT Road, Distt. Chandauli",Mughalsarai,Uttar Pradesh,232101,7571866644,d12571@baldealer.com
Bimal Bajaj,Dealer,"Sujuru Chungi, Meerut Road",Muzaffarnagar,Uttar Pradesh,251003,8791814600,d10046@baldealer.com
Veer Bajaj,Dealer,"Dwarika City, Jansath Road,",Muzaffarnagar,Uttar Pradesh,251001,6397996011,d12949@baldealer.com
Vivek Bajaj,Dealer,"Kotdwar Road, Dist Bijnor",Najibabad,Uttar Pradesh,246763,9917712873,d12948@baldealer.com
Kay Dee Bajaj,Dealer,"H-14, Sector-63",Noida,Uttar Pradesh,201301,8750044099,d13021@baldealer.com
Suman Bajaj,Dealer,"B-77-78, Phase-I, Sector-2, Gautam Budh Nagar",Noida,Uttar Pradesh,201301,8130730202,d10418@baldealer.com
Suman Autos,Branch,"G-20-25, Krishna Shopping Complex,, Site IV, Near Radisson Hotel, Greater Noida, Noida",Noida,Uttar Pradesh,201306,9871114971,d10418@bajajauto.co.in
Shyam Bajaj,Dealer,"Rath Bus Stand, Rath Road, ",Orai,Uttar Pradesh,285001,9618581320,d10501@baldealer.com
Gupta Bajaj,Dealer,"Gaytri Nagar, Chhawani",Padrauna,Uttar Pradesh,274304,8115566437,d11366@baldealer.com
Gupta Auto Sales,Branch,"NH-28, Near Rahul School, , Kushinagar, Kushinagar",Padrauna,Uttar Pradesh,274403,9984482181,d11366@bajajauto.co.in
Bankey Bihari Bajaj,Dealer,"Tanakpur Bye Pass Road, Near Degree College Chouraha",Pilibhit,Uttar Pradesh,262001,7078598999,d13064@baldealer.com
Gandhi Bajaj,Dealer,"Gandhi Niwas, Sadar Bajar, ",Pratapgarh,Uttar Pradesh,230001,8381811767,d10448@baldealer.com
Sd Bajaj,Dealer,"Jogapur,  Allahabad Faizabad Road, ",Pratapgarh,Uttar Pradesh,230001,7570056115,d12791@baldealer.com
Shakthi Bajaj,Dealer,"201, Akhtiyarpur, Ratapur Road, Opp. Pragatipuram Colony,",Raebareli,Uttar Pradesh,229001,7266032001,d12171@baldealer.com
Royal Bajaj,Dealer,"Opp Rampur Club, Rah-E-Raza, Civil Lines",Rampur,Uttar Pradesh,244901,8126416524,d10497@baldealer.com
Singh Bajaj,Dealer,"Pipri Road, ",Robertsganj,Uttar Pradesh,231216,9838365532,d10917@baldealer.com
Devendra Bajaj,Dealer,"Paper Mills Road, ",Saharanpur,Uttar Pradesh,247001,9997192000,d10832@baldealer.com
Shiva Bajaj,Dealer,"2835, Site - IV, Industrial Area, District Ghaziabad",Sahibabad,Uttar Pradesh,201005,9311590335,d10723@baldealer.com
Sai Bajaj,Dealer,"Takhat Gosain, Moradabad Road",Sambhal,Uttar Pradesh,244302,9719138035,d12658@baldealer.com
Akc Bajaj,Dealer,"Near Civil Court,, ",Shahjahanpur,Uttar Pradesh,242001,9984073666,d10033@baldealer.com
A2z Bajaj,Dealer,"Near Laxmi Dharam Kanta,, Kairana Road",Shamli,Uttar Pradesh,247776,7055705012,d12216@baldealer.com
Avon Bajaj,Dealer,"Mainpuri Crossing, Bye Pass Road, District Firozabad",Shikohabad,Uttar Pradesh,283135,9808849925,d12920@baldealer.com
Bk Bajaj,Dealer,"Tetri Bazar, Naugarh",Siddharthnagar,Uttar Pradesh,272207,7068731185,d11460@baldealer.com
Jps Bajaj,Dealer,"Plot No. Cp01, Station Road, ",Sitapur,Uttar Pradesh,261001,9839372999,d10995@baldealer.com
Mb Bajaj,Dealer,"NH-24, Village - Dhanipur, Lucknow Road",Sitapur,Uttar Pradesh,261001,9918701763,d12911@baldealer.com
Tirupati Bajaj,Dealer,"Dariyapur, Allahabad Road",Sultanpur,Uttar Pradesh,228001,9721451024,d11011@baldealer.com
Sk Bajaj,Dealer,"Near District Head Quarters, Pharenda Road, ",Maharajganj,Uttar Pradesh,273303,7408688355,d11470@baldealer.com
Laxmi Bajaj,Dealer,"In Front Of Naveen Galla Mandi,, Charkhari Bye Pass Road,",Mahoba,Uttar Pradesh,210427,8318930875,d12730@baldealer.com
Gurucharan Bajaj,Dealer,"Radha Raman Road, ",Mainpuri,Uttar Pradesh,205001,9675804804,d12667@baldealer.com
R. K. Bajaj,Dealer,"Plot No. 9, Shri Radha Valley,, NH-2,",Mathura,Uttar Pradesh,281001,6397992886,d12979@baldealer.com
Upadhyay Bajaj,Dealer,"Plot No. 146, Karmayogi Nagar, Phase 1, Part 1, Nabada NH-2",Mathura,Uttar Pradesh,281006,9557399900,d12897@baldealer.com
Ganesh Bajaj,Dealer,"Civil Lines, Barhaj Road, ",Deoria,Uttar Pradesh,274001,9918858516,d12681@baldealer.com
Devendra Bajaj,Dealer,"Nagina Road, Opp Durga Vihar",Dhampur,Uttar Pradesh,246761,8755289500,d11469@baldealer.com
Etah Bajaj,Dealer,"In Front Of Aruna Nagar, G.T. Road",Etah,Uttar Pradesh,207001,9711396535,d13003@baldealer.com
Mishra Bajaj,Dealer,"Near Deep Takies, Infront Of Sahkari Cold Store, Anand Nagar Old Kanpur Road",Etawah,Uttar Pradesh,206001,9259738062,d10214@baldealer.com
Mishra Auto Centre,Branch,"I/B Electricity Powerhouse & Telephone Exchange, Yamuna Road,, Auraiya, ",Etawah,Uttar Pradesh,206122,(05683) 241094,d10214@bajajauto.co.in
Saket Bajaj,Dealer,"1132042, Station Road,, Civil Lines",Faizabad,Uttar Pradesh,224001,9235508781,d10726@baldealer.com
Kanak Bajaj,Dealer,"Near Disha Coaching,, Naka Bypass,",Faizabad,Uttar Pradesh,224001,6390780000,d12856@baldealer.com
Standard Bajaj,Dealer,"Farrukhabad-Fategarh Road, Nekpur",Farukhabad,Uttar Pradesh,209625,9452613004,d10322@baldealer.com
Mudgal Bajaj,Dealer,"Shasabad Bye Pass Road, District Agra",Fatehabad,Uttar Pradesh,283111,9759037900,d13017@baldealer.com
Singh Bajaj,Dealer,"371, Hariharganj, Banda Sagar Road, ",Fatehpur,Uttar Pradesh,212601,9554661236,d10633@baldealer.com
Jindal Bajaj,Dealer,"Kotla Chungi, Bye-Pass Road",Firozabad,Uttar Pradesh,283203,8006884333,d10163@baldealer.com
Sunny Bajaj,Dealer,"Anandbagh, Gonda Road,, Near Rapti Gas Service",Balrampur,Uttar Pradesh,271201,9208045741,d11534@baldealer.com
Banda Bajaj,Dealer,"Kalu Kuwan, Tindwari Road, ",Banda,Uttar Pradesh,210001,,d10471@baldealer.com
Jain Bajaj,Dealer,"Delhi Sharanpur Road, Near Tehsil, Distt. Baghpat",Baraut,Uttar Pradesh,250611,9837090771,d10645@baldealer.com
City Bajaj,Dealer,"Near Sanjay Nagar Crossing, Pilibhit Bye Pass",Bareilly,Uttar Pradesh,243006,8126482222,d11522@baldealer.com
S.R. Bajaj,Dealer,"Upper Ground Floor,  Om Plaza, Badaun Road, Kargaina",Bareilly,Uttar Pradesh,243001,6396855560,d12871@baldealer.com
Commercial Bajaj,Dealer,"Rampur Road, ",Bareilly,Uttar Pradesh,243502,8392939475,d12930@baldealer.com
Commercial Autozone,Branch,"167, Civil Lines, , Station Road,, Cvil Lines, Bareilly",Bareilly,Uttar Pradesh,243001,8392939483,d12930@bajajauto.co.in
Prakash Bajaj,Dealer,"Prakash Auto Sales, Beside (Sbi Court Area) Gandhi Nagar Basti, ",Basti,Uttar Pradesh,272001,8707895954,d10281@baldealer.com
Dhananjay Bajaj,Dealer,"Station Road, ",Bhadohi,Uttar Pradesh,221401,9369242483,d11347@baldealer.com
Shailendra Bajaj,Dealer,"Bahraich Road Bhinga, Sharavasti",Bhinga,Uttar Pradesh,271831,9076832621,d12729@baldealer.com
Devendra Bajaj,Dealer,"Vijay Bhavan, Vijay Nagar, Vidur Kuti Road",Bijnor,Uttar Pradesh,246701,9997192001,d10111@baldealer.com
Ahuja Bajaj,Dealer,"Shyam Nagar, ",Budaun,Uttar Pradesh,243601,8445240483,d10595@baldealer.com
Singh Bajaj,Dealer,"Zilla Parishad Market, Court Road Kala Aam",Bulandshahr,Uttar Pradesh,203001,8191900112,d10314@baldealer.com
Vaishnavi  Bajaj,Dealer,"Near Utsav Garden, Delhi Road",Bulandshahr,Uttar Pradesh,203001,7830604966,d12080@baldealer.com
United Bajaj,Dealer,"NH-2 Road, Rasoolpur, Khokhraj Bypass",Kaushambi,Uttar Pradesh,212201,7379503333,d12827@baldealer.com
Bike Zone Bajaj,Dealer,"B-106, Pallavapuram, Phase 1, Roorkee Road, Near Bank Of Baroda",Meerut,Uttar Pradesh,250110,8938884716,d12739@baldealer.com
Krishnamani Bajaj,Dealer,"Pili Kothi,, Station Road,",Mirzapur,Uttar Pradesh,231001,9918401296,d12956@baldealer.com
Sainik Bajaj,Dealer,"Gauriganj Market, Near SBI Bank, Dist Amethi",Gauriganj,Uttar Pradesh,227409,9792207222,d12728@baldealer.com
Shiva Bajaj,Dealer,"J.P.Bhavan, E-18, New Arya Nagar, Meerut Road Chowk",Ghaziabad,Uttar Pradesh,201003,8595167770,d10348@baldealer.com
Shiva Scooter Agency,Branch,"NH-24, Masoori,, , Dist : Ghaziabad, Dasna",Ghaziabad,Uttar Pradesh,201015,9015607624,d10348@bajajauto.co.in
The Hind Bajaj,Dealer,"Mau Road, Rauza",Ghazipur,Uttar Pradesh,233001,9628372574,d10911@baldealer.com
Ansuman Bajaj,Dealer,"Bahraich Road, ",Gonda,Uttar Pradesh,271001,9792136221,d10443@baldealer.com
Chaturbhuj Bajaj,Dealer,"Mohalla Sheikhpur, Unnao - Shuklaganj Road,, ",Unnao,Uttar Pradesh,209801,7408427772,d10456@baldealer.com
Nikhil Bajaj,Dealer,"SA 473,  E-2, Pahariya, ",Varanasi,Uttar Pradesh,221007,9118656565,d12850@baldealer.com
Uday Bajaj,Dealer,"Plot No-05, Arazi No-219,, Manduadih, D.L.W. Road,",Varanasi,Uttar Pradesh,221103,7705008685,d11457@baldealer.com
Vinayak Bajaj,Dealer,"S - 2052 A, The Mall, Cantonment",Varanasi,Uttar Pradesh,221002,8935033057,d10704@baldealer.com
Bee Pee Satvaa Bajaj,Dealer,"752-D, Nagala Jawahar, Opp Lawyers Colony",Agra,Uttar Pradesh,282002,7817011055,d13098@baldealer.com
Khemka Bajaj,Dealer,"54, Azad Nagar, Near Mandi Samiti, Opp Gitanjali Hospital, Firozabad Road",Agra,Uttar Pradesh,282006,7902056789,d13063@baldealer.com
Shiva Bajaj,Dealer,"Dubey Ka Parao, G.T.Road",Aligarh,Uttar Pradesh,202001,7535050011,d10344@baldealer.com
Shiva Automobiles (Auto Divn),Branch,"/11, BANNADEVI, Near Blue Bird School, GT Road, ",Aligarh,Uttar Pradesh,200135,0571 2409640,d10344@bajajauto.co.in
United Bajaj,Dealer,"United Tower, 53, Leader Road",Allahabad,Uttar Pradesh,211003,9936038222,d10963@baldealer.com
Mritunjay Bajaj,Dealer,"Varanasi High Way Road, Akbarpur",Ambedkar Nagar,Uttar Pradesh,224122,9839657129,d11447@baldealer.com
Mahalakshmi Bajaj,Dealer,"Joya Road, ",Amroha,Uttar Pradesh,244221,8279783890,d10774@baldealer.com
Car Care Centre,Branch,"Delhi Road, , Dist : Amroha, Gajraula",Amroha,Uttar Pradesh,244235,9917714343,d10774@bajajauto.co.in
Om Bajaj,Dealer,"Aurimore, Anpara, NH75, District Sonebhadra",Anpara,Uttar Pradesh,231225,9936181369,d11809@baldealer.com
Himalaya Bajaj,Dealer,"Railway Station Road, Sharfuddinpur, ",Azamgarh,Uttar Pradesh,276001,9648877771,d10147@baldealer.com
Param Bajaj,Dealer,"Naurali, Beside Of S R Auto Sales",Azamgarh,Uttar Pradesh,276001,8765161000,d13042@baldealer.com
Ghidia Bajaj,Dealer,"Gonda Road, ",Bahraich,Uttar Pradesh,271801,9453040083,d10759@baldealer.com
Shree Kailash Bajaj,Dealer,"Rajdhani Road,, Baheri",Ballia,Uttar Pradesh,277001,7880995005,d12564@baldealer.com
Mayur Bajaj,Dealer,"93 Rajpur Road, ",Dehradun,Uttarakhand,248001,9412009070,d10210@baldealer.com
Nagpal Bajaj,Dealer,"Bareilly Road, ",Haldwani,Uttarakhand,263139,9927000883,d10232@baldealer.com
Nainital Bajaj,Dealer,"5Th K M Rampur Road, Jeetpur Negi, Near Amar Ujala Press",Haldwani,Uttarakhand,263139,8954126000,d13053@baldealer.com
Espee Bajaj,Dealer,"Espee House Arya Nagar, Jwalapur",Hardwar,Uttarakhand,249407,,d10121@baldealer.com
Abhay Bajaj,Dealer,"Muradabad Road,, ",Kashipur,Uttarakhand,244713,9897057533,d13019@baldealer.com
Nagpal Bajaj,Dealer,"Bajpur Road, ",Kashipur,Uttarakhand,244713,9927041620,d10234@baldealer.com
Nainital Bajaj,Dealer,"Opp Ganga Filling Station, Sitarganj Road",Khatima,Uttarakhand,262308,9690996901,d12783@baldealer.com
Espee Bajaj,Dealer,"190 - Purawali,, Ganeshpur",Roorkee,Uttarakhand,247667,,d10466@baldealer.com
Gopal Bajaj,Dealer,"Shakti Complex, Kashipur Road",Rudrapur,Uttarakhand,263153,9690411222,d12725@baldealer.com
Ss Bajaj,Dealer,"N.H-34, Palpara More, Shantipur Road, Po-Bhatjangla, Nadia",Krishnanagar,West Bengal,741101,8170014221,d12854@baldealer.com
S. S. Auto Trader LLP,Branch,"Motiganj More,, Dist : Nadia, Santipur, West Bengal",Krishnanagar,West Bengal,741101,,d12854@bajajauto.co.in
S. S. Auto Trader LLP,Branch,"Station Road, PO Debogram, PS: Kaliganj, Dist : Nadia, Debogram, West Bengal",Krishnanagar,West Bengal,741137,9564500111,d12854@bajajauto.co.in
S. S. Auto Trader LLP,Branch,"Village + PO : Begopara, PS: Ranaghat, Dist : Nadia, Ranaghat",Krishnanagar,West Bengal,741256,9734873359,d12854@bajajauto.co.in
Planetwheels Bajaj,Dealer,"N.H.-34, Gabgachhi",Malda,West Bengal,732103,,d10519@baldealer.com
Planet Wheels Pvt. Ltd.,Branch,"Mongalpur, PO Beltala Park, PS Balurghat, Dist : Dakshin Dinajpur, Balurghat",Malda,West Bengal,733103,9933915555,d10519@bajajauto.co.in
Amit Bajaj,Dealer,"Keranitola, Distt.Paschim Medinipur",Midnapore,West Bengal,721101,9933004509,d10604@baldealer.com
Osl Bajaj,Dealer,"Kulpi Road, Rabindra Pally, Baruipur",Kolkata,West Bengal,700144,9875633008,d12121@baldealer.com
OSL Auto Pvt Ltd,Branch,"571, Garia Main Road,, Tentultala, Garia, Kolkata",Kolkata,West Bengal,700084,9875633031,d12121@bajajauto.co.in
Rolta Bajaj,Dealer,"Vip Road,Narayantala(West), Baguiati",Kolkata,West Bengal,700059,9830132327,d11943@baldealer.com
Rolta Credit Pvt Ltd,Branch,"124, Jessore Road,, , Dist : Kolkata, Madhyamgram",Kolkata,West Bengal,700129,9002736528,d11943@bajajauto.co.in
Rolta Credit Pvt Ltd,Branch,"Bishnupur, Goshpara, Kolkata, Rajarhat",Kolkata,West Bengal,700135,8017983615,d11943@bajajauto.co.in
Visaka Bajaj,Dealer,"100B, B T Road, PO Sukchar, Girja, Sodepur",Kolkata,West Bengal,700115,7604063653,d12723@baldealer.com
Osl Bajaj,Dealer,"2343A, AJC Bose Road, FMC Fourtuna",Kolkata,West Bengal,700020,9875633004,d11132@baldealer.com
OSL Auto Pvt Ltd,Branch,"267, Prince Anwar Shah Road, , Prince Anwar Shah Road, Kolkata",Kolkata,West Bengal,700033,9875633012,d11132@bajajauto.co.in
Osl Bajaj,Dealer,"287A, Diamond Harbour Road, Thakurpukar",Kolkata,West Bengal,700063,9875633007,d11505@baldealer.com
OSL Auto Pvt Ltd,Branch,"Banerjee Para,, Raipur, Maheshtala, Kolkata",Kolkata,West Bengal,700144,9875633022,d11505@bajajauto.co.in
OSL Auto Pvt Ltd,Branch,"Ground Floor,  , PS : Bishnupur, 235, Bus-stand, Dist : 24 Paragnas(South) (Kolkata), Amtala",Kolkata,West Bengal,743503,9051681411,d11505@bajajauto.co.in
OSL Auto Pvt Ltd,Branch,"Karwala Rail Gate,  Pachur College, Opp: Janata Club, Kolkata, Metiaburj",Kolkata,West Bengal,700066,9875633029,d11505@bajajauto.co.in
Ms Bajaj,Dealer,"Saheb Colony More, Vill  Bora, PO Mamudpur, District 24 North Pargana",Naihati,West Bengal,743165,9875536340,d12901@baldealer.com
Raghunathganj Bajaj,Dealer,"NH-34, Tatai More, PO - Jarur, Dist Murshidabad",Raghunathganj,West Bengal,742235,8373055182,d11807@baldealer.com
Raghunathganj Auto,Branch,"Old Dukbanglow,, PO Ratanpur, Near Rail Gate No. 2, Dist : Murshidabad, Dhulian",Raghunathganj,West Bengal,742202,7001699706,d11807@bajajauto.co.in
Bajaj Wheels,Dealer,"NH-34, Opp NH Divn, Siliguri More, Uttar Dinjapur",Raiganj,West Bengal,733134,8967878803,d11798@baldealer.com
Bajaj Wheels Pvt Ltd,Branch,"Opp: Panchayat Office,, PO Sahapur, PS Goalpokher, Dist : Uttar Dinajpur, Sahapur",Raiganj,West Bengal,733210,7363883674,d11798@bajajauto.co.in
Chatterjee Bajaj,Dealer,"G T Road, PO Searsole, Bansra., Dist Burdwan",Raniganj,West Bengal,713358,9800119030,d12196@baldealer.com
Auto Bajaj,Dealer,"546, G T Road, Manicktala, Dist Hooghly",Serampore,West Bengal,712201,9874973388,d12675@baldealer.com
Auto Bazar,Branch,"880/B, Arambag, Tarkeshwar Road,, Basudebpur More, Dist : Hooghly, Arambag",Serampore,West Bengal,712601,6291336990,d12675@bajajauto.co.in
Siliguri Bajaj,Dealer,"2Nd Mile, Sevoke Road",Siliguri,West Bengal,734001,,d10335@baldealer.com
Siliguri Bajaj,Branch,"H/1860/2, Shaktigarh, Burdwan Road, Ward No. 31,, Siliguri, Darjiling",Siliguri,West Bengal,734005,353 22562062,d10335@bajajauto.co.in
Siliguri Auto Works Pvt.Ltd.,Branch,"Bajrapara, Near Old Anand Talkies, Belwarganj, Jalpaiguri, Jalpaiguri",Siliguri,West Bengal,735121,9832015373,d10335@bajajauto.co.in
Banerjee Bajaj,Dealer,"Subhash Pally, Dubrajpur Road, District - Birbhum",Siuri,West Bengal,731101,8170000448,d12780@baldealer.com
Sovan Bajaj,Dealer,"At- Barpadumbasan, Word No- 4,, Pops- Tamluk",Tamluk,West Bengal,721636,8670267432,d11509@baldealer.com
Automoover Bajaj,Dealer,"771 G.T.Road (East) Murgasol, Murgasol",Asansol,West Bengal,713303,9434744778,d10644@baldealer.com
Auto Moovers,Branch,"Dayal Building, Opp: Chitra Cinema Complex, Radhanagar Road,, Dist : Burdhaman, Burnpur",Asansol,West Bengal,713325,9093442012,d10644@bajajauto.co.in
Rk Bajaj,Dealer,"Katjuridanga, Chhatna Road, Asna",Bankura,West Bengal,722102,9775888473,d12563@baldealer.com
RK Automobiles,Branch,"Raghabpur More, Lake Road,, Near NCC Office, Purulia, Purulia",Bankura,West Bengal,723101,7797022162,d12563@bajajauto.co.in
Das Bajaj,Dealer,"Maitrabagan Bhawanipur,, Basirhat Collage, North 24 Parganas",Basirhat,West Bengal,743412,9734684303,d11444@baldealer.com
Ss Bajaj,Dealer,"Katbeltala, Jalangi Road, Po-Boaliadanga",Berhampore,West Bengal,742101,8001305000,d10420@baldealer.com
Sales & Service Automotive Pvt. Ltd.,Branch,"PNL Road, PO Polsonda More, PS Nabagram, Polsonda, Murshidabad",Berhampore,West Bengal,742238,9434000436,d10420@bajajauto.co.in
Sales & Service Automotive Pvt. Ltd.,Branch,"NH-34, Vill: Takipur, PO Takipur, Dist : Murshidabad, Rejingar, West Bengal",Berhampore,West Bengal,742189,9434000436,d10420@bajajauto.co.in
Sales & Service Automotive Pvt. Ltd.,Branch,"PO+PS Domkol, , Dist : Mushidabad, Domkol",Berhampore,West Bengal,742303,8001305000,d10420@bajajauto.co.in
Saluja Bajaj,Dealer,"Laxmipur, G.T.Road., Burdwan",Burdwan,West Bengal,713101,9434744277,d10810@baldealer.com
Sovan Bajaj,Dealer,"At- Padmapukuria, Word No- 18, Pops- Contai",Contai,West Bengal,721401,9475258144,d12102@baldealer.com
Brahmachari Bajaj,Dealer,"P.N.Road, D.T. Cooch Behar, Near Maa Bhawani Chowpati",Cooch Behar,West Bengal,781315,8373050491,d11508@baldealer.com
Dankuni Bajaj,Dealer,"T N Mukherjee Road, Dist Hooghly, Kalipur, Po Dankuni, Garalgacha",Dankuni,West Bengal,712708,8900131616,d11443@baldealer.com
Banerjee Bajaj,Dealer,"NH-2 (G.T.Road), District - Burdwan",Durgapur,West Bengal,713203,8170000438,d12781@baldealer.com
Banerjee Auto Corporation,Branch,"Harinarayan Pally,, G. T. Road,, Budbud, Burdwan",Durgapur,West Bengal,713403,8170000383 / 8170061297,d12781@bajajauto.co.in
Dolphin Bajaj,Dealer,"At Purushottampur, Ward No. 8, POPS Egra Dist, Dist Purba Medinipur",Egra,West Bengal,721429,9775705805,d12855@baldealer.com
Aquarium Bajaj,Dealer,"Khadinamore, Chinsurah G.T.Road, Dist Hooghly",Hooghly,West Bengal,712102,,d10068@baldealer.com
Middya Bajaj,Dealer,"Andul Bus-Stand, Andul-Mouri Sankrail",Howrah,West Bengal,711302,9836084448,d11957@baldealer.com
Middya Auto Centre,Branch,"No. 4, Shaikh Para Lane, Near Nabanna, Carry Road, Howrah",Howrah,West Bengal,711104,(033) 7980014835,d11957@bajajauto.co.in
Middya Auto Centre,Branch,"O.T. Road,, Bazarpara, Dist : Howrah, Uluberia",Howrah,West Bengal,700019,(033) 26690539,d11957@bajajauto.co.in
Sunrise Bajaj,Dealer,"167, G.T. Road (South), Shibpur,",Howrah,West Bengal,711102,,d12877@baldealer.com
Star Bajaj,Dealer,"Near New Bus Stand, Rameswarpur, Purba Bardhaman",Kalna,West Bengal,713409,7430844994,d12787@baldealer.com
Star Automobiles,Branch,"Vill: Baidyapur, PO : Baidyapur, PS : Kalna, Dist : Burdhwan, Patil Para (Baidyapur)",Kalna,West Bengal,713122,9734281637,d12787@bajajauto.co.in
Amit Bajaj,Dealer,"Inda, Distt.Paschim Medinipur",Kharagpur,West Bengal,721305,9800892570,d10034@baldealer.com
