"Dealer Name","Type","Address","City","State","Pincode","Contact","Email"
"Sri Venkateswara Motorcorp","Dealer","R S.NO.1492,NADIPUDI DABA GARDENS, AMALAPURAM - AMBAJIPETA ROAD, AMLAPURAM DISTT. EAST GODAVARI","Amalapuram","Andhra Pradesh","533221","91 95331 42345","d12806@baldealer.com"
"Varun Motors","Dealer","VARUN AUTO PARK, DOOR NO.  88P, BLOCK - D, NH-5,, SRINAGAR, GAJUWAKA,","Visakhapatnam","Andhra Pradesh","530026","91 891-2757835","d12819@baldealer.com"
"Varun Motors","Dealer","DOOR NO  48-14-85 & 86, SRINAGAR,, S.NO  686, RAMA TALKIES JUNCTION,","Visakhapatnam","Andhra Pradesh","530013","91 78880 95957 - 78880 95958","d12435@baldealer.com"
"Nandi Bajaj","Dealer","SHOP NO. 291E-9-6, BESIDE PADMAVATHI NAGAR ARCH,, TEKKE MAIN ROAD, NANDYAL - 518501 DISTT. KURNOOL (ANDHRA PRADESH)","Nandyal","Andhra Pradesh","518501","91 90302 32393","d12836@baldealer.com"
"Mgb Motor","Dealer","76109, BELLARY CHOWRASTHA ,, NEAR SAP CAMP,","Kurnool","Andhra Pradesh","518003","91 8518 259 475","d12371@baldealer.com"
"Sri Ram Enterprises","Dealer","19-3-1K, RENIGUNTA ROAD,, ","Tirupati","Andhra Pradesh","517501","91 877 223 8752","d12335@baldealer.com"
"Sri Siddhi Vinayaka Automobiles","Dealer","PLOT NO. 11  94, OPP. CINE SQUARE, AMRAVATI ROAD,, GORANTLA,","Guntur","Andhra Pradesh","522034","91 96409 94488","d12267@baldealer.com"
"Sri Siddhi Vinayaka Automobiles","Dealer","D. NO. 7-5-51, A1-1A STREET,, GANGANAMMA PETA,","Tenali","Andhra Pradesh","522201","91 91009 61201","d12267@baldealer.com"
"Tirumala Automotives","Dealer","8TH LINE, NEAR BHASHYAM SCHOOL,, RAM NAGAR, ONGOLE,","Ongole","Andhra Pradesh","523001","91 92464 65463","d12648@baldealer.com"
"Varun Motors","Dealer","OPPOSITE SUN SCHOOL, 100 FEET RING ROAD., ","Vizianagaram","Andhra Pradesh","535002","91 80089 00177","d12147@baldealer.com"
"Sai Motor Plaza","Dealer","D.NO 78-2-5, SOMALAMMA GUDI VEEDHI,, G S R  PLAZA, GROUND FLOOR, G-1, SYAMLA NAGAR,","Rajahmundry","Andhra Pradesh","533101","91 77320 44888","d12221@baldealer.com"
"Essencea Automotives P. Ltd","Dealer","SY NUM 189, WARD NUM 11,MEDA MEEDI PANCHAYATH, MYDUKUR ROAD","Proddatur","Andhra Pradesh","516360","91 9121216977","d12935@baldealer.com"
"Haroon Super Bykes","Dealer","8194, 1ST FLOOR, TRUNK ROAD,, ALMASPET,","Kadapa","Andhra Pradesh","516001","91 8562 244 284","d12118@baldealer.com"
"Deekay Automotives","Dealer","26-3-16194A, GROUND FLOOR, MASTERS COLONY,, NEAR VEDAYAPALEM FLYOVER, MINI BYPASS ROAD,","Nellore","Andhra Pradesh","524004","91 88855 66767","d12141@baldealer.com"
"Sri Ram Enterprises","Dealer","DOOR NO 15-24-84, JAYA NAGAR, PALAMANER ROAD,, BESIDE MRF SHOWROOM,","Chittoor","Andhra Pradesh","517001","91 70329 80070","d12994@baldealer.com"
"Kaizen Automotives","Dealer","SURVEY NUMBER 1431 & 1432B, RAJAHAMSA GALAXY HOMES,, RUDRAMPETA BYPASS, ANANTAPUR - 515 005 (ANDHRA PRADESH)","Annantpur","Andhra Pradesh","","91 8554 221523,","d12630@baldealer.com"
"Kaizen Automotives","Dealer","26-4-1356, MELAPUR CROSS,, BESIDE MPDO OFFICE","Hindupur","Andhra Pradesh","515201","91 93922 21523","d12630@baldealer.com"
"Varun Motors","Dealer","D NO 22A-2-5, BSNL OFFICE ROAD,, JUITE MILL,","Eluru","Andhra Pradesh","534006","91  97035 00016","d12706@baldealer.com"
"Sai Motor Plaza","Dealer","D.NO 70-1-171, OPP SPENCERS PLAZA,, PITHAPURAM ROAD, NEAR SARPAVARAM JUNCTION","Kakinada","Andhra Pradesh","533005","91 884 237 4489","d12398@baldealer.com"
"Varun Motors","Dealer","D. NO. 2-25-6, BESIDE IOC PETROL BUNK,, UNDI ROAD,","Bhimavaram","Andhra Pradesh","534202","91 8816 226 422","d12413@baldealer.com"
"Varun Motors","Dealer","#38-8-28,, OPP ALL INDIA RADIO, M.G. ROAD","Vijaywada","Andhra Pradesh","520010","91 78880 94948 - 78880 95955","d12440@baldealer.com"
"Varun Motors","Dealer","D.NO 124, PANCHAVATI COLONY,, NEW BYE PASS ROAD,","Gudiwada","Andhra Pradesh","521301","91 86742 47285","d12440@baldealer.com"
"Prince Hardware","Dealer","BABULANE, ABERDEEN BAZAAR,, ","Port Blair","Andman & Nikobar","744101","91 3192 240 029","d12388@baldealer.com"
"Doimukh Trading Centre","Dealer","OPP. NIRJULI POLICE STATION,  NH 52 A, AT & PO. NIRJULI,","Itanagar","Arunnchal Pradesh","791109","91 360 2257232, 91 9402809163","d12117@baldealer.com"
"Jubi  Ktm","Dealer","OPP. 2ND LINK ROAD POINT,, SONAI ROAD,","Silchar","Assam","788006","91 3842 225 167","d12143@baldealer.com"
"Global Enterprises","Dealer","NT ROAD, KETEKIBARI, ","Tezpur","Assam","784001","91 3712 255 552, 97060 83398","d12096@baldealer.com"
"Global Enterprises","Dealer","DIMORUGURI,, AT ROAD,","Nagaon","Assam","782003","91 70025 22815","d12096@baldealer.com"
"Olive Auto","Dealer","A.T. ROAD, NH-37, HIJUGURI, NEAR BORAH HYUNDAI,, DISTT. TINSUKIA","Tinsukia","Assam","786125","91 374 2315426","d12174@baldealer.com"
"Highway Bajaj","Dealer","A.T. ROAD, TARAJAN,, ","Jorhat","Assam","785001","91 376 2372315 - 2371632","d12426@baldealer.com"
"Highway Bajaj","Dealer","KARENG TIN ALI,, JOYSAGAR,","Sivasagar","Assam","785665","91 8876253580 - 98590 56942","d12426@baldealer.com"
"Highway Bajaj","Dealer","BENGENAKHUWA CHARI ALI,, ARENGAPARA ROAD,","Golaghat","Assam","785621","91 9859056942 - 7578009216","d12426@baldealer.com"
"Olive Auto","Dealer","KUMARANICHIGA,, OPPOSITE TATA COMMERCIAL","Dibruragh","Assam","786004","91 99547 81950","d12996@baldealer.com"
"Anirbaan Enterprise","Dealer","MAIN ROAD,, P.O-SIMLAGURI, NEAR BAZAR INDIA","Barpeta","Assam","781313","91 86383 74583","d13012@baldealer.com"
"Donyi Polo Holdings","Dealer","GROUND FLOOR, HARISH RESIDENCY,, JAYANAGAR ROAD, BELTOLA KHANPARA,","Guwahati","Assam","781022","91  97074 55550","d12577@baldealer.com"
"Shree Automobiles Pvt. Ltd.","Dealer","MRD ROAD,, CHANDMARI","Guwahati","Assam","781003","91 8876041991","d12364@baldealer.com"
"MALIGAON KTM","Branch","AXIS BANK BUILDING, , MALIGAON OVER BRIDGE, MALIGAON, , ","Guwahati","Assam","781001","+91 99540 27599 - 98640 27599","d12364@baldealer.com"
"Shree Automobiles Pvt. Ltd.","Dealer","AXIS BANK BUILDING,, MALIGAON OVER BRIDGE, MALIGAON","Guwahati","Assam","781001","91 99540 27599 - 98640 27599","d12364@baldealer.com"
"MALIGAON KTM","Branch","AXIS BANK BUILDING, , MALIGAON OVER BRIDGE, MALIGAON, , ","Guwahati","Assam","781001","+91 99540 27599 - 98640 27599","d12364@baldealer.com"
"Champak Bajaj","Dealer","MAIN ROAD, NEAR BARABAZAR","Bongaigaon","Assam","","91  9435020672","d12764@baldealer.com"
"Lakhimpur Tyres","Dealer","TOWN BANTOW, WARD NO 14 ,, N.T ROAD ,","North Lakhimpur","Assam","787001","91 9957636160","d12526@baldealer.com"
"Tirhut Automobiles","Dealer","NEAR POWER HOUSE CHOWK,, MARIPUR","Muzaffarpur","Bihar","842001","91 621 224 2180","d12365@baldealer.com"
"Sadhana Auto Agencies Pvt. Ltd.","Dealer","MAHADEVA MISSION COMPOUND,, ","Siwan","Bihar","841226","91 6154 243 156","d12456@baldealer.com"
"Jai Bajrang Bajaj","Dealer","CIRCUIT HOUSE ROAD,, PAKRI","Arrah","Bihar","","91  6182 234421","d12654@baldealer.com"
"Jagat Automobiles","Dealer","BANJARIYA PANDAL CHOWK, MOTIHARI","Motihari","Bihar","845401","91  77810 06985","d12651@baldealer.com"
"Paradise Automobiles","Dealer","NEAR DUMRAIL BY-PASS ROAD,, N.H.-107","Saharsa","Bihar","852201","91 7280081504","d13011@baldealer.com"
"Excel Auto","Dealer","UNDER RUPASPUR FLYOVER,, RUPASPUR, BAILEY ROAD","Patna","Bihar","800014","91 92343 68904","d12410@baldealer.com"
"KANKARBAGH KTM","Branch","INFRONT OF KUMHRAR PARK, OLD BYE PASS , KANKARBAGH, , ","Patna","Bihar","800026","+91 73699 46352","d12410@baldealer.com"
"Excel Auto","Dealer","INFRONT OF KUMHRAR PARK, OLD BYE PASS, KANKARBAGH","Patna","Bihar","800026","91 73699 46352","d12410@baldealer.com"
"KANKARBAGH KTM","Branch","INFRONT OF KUMHRAR PARK, OLD BYE PASS , KANKARBAGH, , ","Patna","Bihar","800026","+91 73699 46352","d12410@baldealer.com"
"Akarsh Auto Pvt. Ltd.","Dealer","BETWEEN 70 FEET & SIPARA PULL,, ANISABAD BY-PASS ROAD,","Patna","Bihar","800001","91 612 322 5666","d12425@baldealer.com"
"Shree Bajaj","Dealer","OPP. HOLY CROSS SCHOOL,, DONAR ROAD,","Darbhanga","Bihar","846004","91 75448 80026","d12387@baldealer.com"
"Akarsh Auto Pvt. Ltd.","Dealer","OPPOSITE BRB COLLEGE, MOHANPUR ROAD","Samastipur","Bihar","848101","91 84097 85567","d12425@baldealer.com"
"Pooja Automobiles","Dealer","GAURAKSHNI, NEAR DURGA MANDIR, ARA  PATNA MAIN ROAD, DISTT. ROHTAS","Sasaram","Bihar","821115","91 70500 94904","d12941@baldealer.com"
"Mahaveer Automobiles","Dealer","MAHAVEER COMPLEX, NEAR FORD COMPANY , NH -31, -","Purnea","Bihar","845301","91 6454 240221","d12942@baldealer.com"
"Rajendra Automobiles","Dealer","MS RAJENDRA AUTOMOBILES BATA MORE, S P ROAD WARD NO 18 HOUSE NO 448","Gaya","Bihar","823001","91 099316 91381","d12923@baldealer.com"
"Golu Automobiles","Dealer","NH-31, OPP. AMARDEEP CINEMA HALL, ","Begusarai","Bihar","851101","91 7709597157, 6243-241552","d12892@baldealer.com"
"Shail Kamal Tractors","Dealer","SHANTI NAGAR,, DUMRA ROAD","Sitamarhi","Bihar","843001","91 62057 52882","d12987@baldealer.com"
"Vaishali Electro India","Dealer","SHARMA HOUSE, RAMASHISH CHOWK,, NEAR GOLAMBER,","Hajipur, Vaishali","Bihar","844101","91 6224 277138","d12980@baldealer.com"
"Suraj Automobiles","Dealer","AT.  DAUDBAT PO. HABIBPUR, SAHJADPUR, AMARPUR ROAD,","Bhagalpur","Bihar","812005","91 95726 58185","d12291@baldealer.com"
"Shree Motors","Dealer","SCO 22-23, SEC 8C, MADHYA MARG","Chandigarh","Chandigarh","160009","91 78880 96967 - 78880 96968","d12813@baldealer.com"
"Tripur Bajaj","Dealer","NEAR TIFRA RAILWAY OVER-BRIDGE, RAIPUR ROAD,","Bilaspur","Chhattisgarh","495004","91 7752 429444","d12322@baldealer.com"
"Mahavir Automobiles","Dealer","NEAR FOREST NAKA,, ADAWAL,","Jagdalpur","Chhattisgarh","494001","91 82239 66000","d12530@baldealer.com"
"Vandana Auto","Dealer","VANDNA HOUSE, RAMKUND, G.E. ROAD","Raipur","Chhattisgarh","492001","91 771 408 3942","d12366@baldealer.com"
"Akashaya Automobiles","Dealer","NEAR RAILWAY CROSSING, TELIBANDHA CHOWK,, TELIBANDHA","Raipur","Chhattisgarh","492001","91  77149 16464","d12731@baldealer.com"
"Shastri Auto","Dealer","M.G ROAD,SURGUJA, BESIDES TATA MOTORS, AMBIKAPUR","Ambikapur","Chhattisgarh","497001","91 62610 42124","d12861@baldealer.com"
"Ag Corporation","Dealer","PLOT NO. 144, VIJAY TALKIES ROAD, TRANSPORT NAGAR","Korba","Chhattisgarh","495678","91 8770192559","d12984@baldealer.com"
"Kataria Motors","Dealer","PLOT NO.22, OPPOSITE HDFC BANK,, KRISHNA TALKIES ROAD, RISALI,","Bhilai","Chhattisgarh","490006","91 788 227 9996","d12631@baldealer.com"
"Shreshth Auto Center","Dealer","SIDDI VINAYAK COLONY,, INDRA NAGAR","Raigarh","Chhattisgarh","","91 90099 30000","d12857@baldealer.com"
"Bagga Link Service Ltd.","Dealer","KLJ COMPLEX,, NAZAFGARH ROAD,, MOTI NAGAR","Delhi","Delhi","110015","91 11 4798 0011","d12389@baldealer.com"
"DELHI NORTH KTM","Branch","A-1 GROUD FLOOR, MAHENDRU ENCLAVE,, GT KARNAL ROAD, , , ","Delhi","Delhi","110033","+91 11 4370 9570","d12389@baldealer.com"
"Js Automobiles  - Narela","Dealer","429 SAFIABAD ROAD,, NARELA,","Delhi","Delhi","110040","91 11 27280132 - 98999 92903","d12379@baldealer.com"
"Rajiv Automobiles","Dealer","184, RADHE PURI EXTENSION,, MAIN JAGAT PURI ROAD,","Delhi","Delhi","110051","91 88009 02222","d12345@baldealer.com"
"DILSHAD GARDEN KTM","Branch","A1 JHILMIL INDUSTRIAL AREA, MAIN GT ROAD, EAST DELHI, , ","Delhi","Delhi","110095","+91 98184 42222","d12345@baldealer.com"
"Bagga Link Service Ltd.","Dealer","L1, GROUND FLOOR,, PLOT NO 3 & 4, OUTERWING,","Delhi","Delhi","141003","91 78880 86864 - 78880 86865","d12389@baldealer.com"
"DELHI NORTH KTM","Branch","A-1 GROUD FLOOR, MAHENDRU ENCLAVE,, GT KARNAL ROAD, , , ","Delhi","Delhi","110033","+91 11 4370 9570","d12389@baldealer.com"
"Bagga Link Service Ltd.","Dealer","A-1 GROUD FLOOR, MAHENDRU ENCLAVE,, GT KARNAL ROAD,","Delhi","Delhi","110033","91 11 4370 9570","d12389@baldealer.com"
"DELHI NORTH KTM","Branch","A-1 GROUD FLOOR, MAHENDRU ENCLAVE,, GT KARNAL ROAD, , , ","Delhi","Delhi","110033","+91 11 4370 9570","d12389@baldealer.com"
"Bagga Link Service Ltd.","Dealer","36, COMMUNITY CENTRE, NEAR PVR CINEMA, VASANT LOK,, VASANT VIHAR,","Delhi","Delhi","","91 78880 86866 - 78880 86869","d12389@baldealer.com"
"DELHI NORTH KTM","Branch","A-1 GROUD FLOOR, MAHENDRU ENCLAVE,, GT KARNAL ROAD, , , ","Delhi","Delhi","110033","+91 11 4370 9570","d12389@baldealer.com"
"Grd Trucks Pvt. Limited","Dealer","K-18A2, ROAD NUMBER -201,, MAIN RAJAPURI ROAD,","Delhi","Delhi","100059","91 11 4704 2723, 11 6580 2333","d12263@baldealer.com"
"Dewan Auto","Dealer","K - 96, CENTRAL MARKET,, LAJPAT NAGAR-II","Delhi","Delhi","110024","91 11 2983 0002, 11 2983 0003, 95600 92928","d12332@baldealer.com"
"Rajiv Automobiles","Dealer","A1 JHILMIL INDUSTRIAL AREA, MAIN GT ROAD, EAST DELHI","New Delhi","Delhi","110095","91 98184 42222","d12345@baldealer.com"
"DILSHAD GARDEN KTM","Branch","A1 JHILMIL INDUSTRIAL AREA, MAIN GT ROAD, EAST DELHI, , ","New Delhi","Delhi","110095","+91 98184 42222","d12345@baldealer.com"
"Crystal Trade Links","Dealer","SHOP 1&2, GOLDEN NEST OPP. VISION HOSPITAL,  DULER,, MAPUSA, BARDEZ,","Goa","Goa","403507","91 83800 00390 -  73500 00390","d12466@baldealer.com"
"PORVORIM KTM","Branch","VAZE HEIGHTS, OPP. P.M.C BANK, NH 17 HIGHWAY, PORVORIM BARDEZ, , ","Goa","Goa","403521","+91 77093 13347","d12466@baldealer.com"
"Crystal Trade Links","Dealer","VAZE HEIGHTS, OPP. P.M.C BANK, NH 17 HIGHWAY, PORVORIM BARDEZ","Goa","Goa","403521","91 77093 13347","d12466@baldealer.com"
"PORVORIM KTM","Branch","VAZE HEIGHTS, OPP. P.M.C BANK, NH 17 HIGHWAY, PORVORIM BARDEZ, , ","Goa","Goa","403521","+91 77093 13347","d12466@baldealer.com"
"Sitara Motors Pvt.Ltd","Dealer","SHOP NO. 6, GF,  BLOCK 2, CROSS ROAD AVENUE,, EASTERN EXPRESS BYEPASS, ARLEM FATORDA, MARGAO,","Goa","Goa","433720","91 93263 88672","d12357@baldealer.com"
"Ram Auto","Dealer","B-02, SURVEY NO. 51, NEAR NADIDA CHOKDI,, NEXT TO TATA SHOWROOM, BARDOLI - SURAT ROAD","Ta - Bardoli , Dist - Surat,","Gujarat","394601","91 8238755755","d12934@baldealer.com"
"Pride Automobiles","Dealer","G-1, G-2 SWAGAT RAINFOREST II,, GANDHINAGAR - KOBA ROAD,  KUDASAN,","Gandhinagar","Gujarat","382421","91 98984 66222","d12883@baldealer.com"
"Mahalaxmi Motors","Dealer","OPP. P.G. GARDEN, GRID ROAD, KABILPORE,, NAVSARI, GUJARAT","Navsari","Gujarat","396418","91 72278 87882","d12921@baldealer.com"
"Pride Automobiles","Dealer","11-12, MEERA COMPLEX,, NAGALPUR,","Mehsana","Gujarat","384002","91 90335 41114","d12168@baldealer.com"
"Nis Auto","Dealer","G-1, RAGHUVIR BUSINESS PARK,, UNIVERSITY ROAD, VESU,","Surat","Gujarat","395007","91 261 656 7676","d12160@baldealer.com"
"VARACHHA KTM","Branch","G-2/3, Y JUNCTION, NEXT TO NAVJIVAN HOTEL, , VARACHHA MAIN ROAD, SARTHANA , , ","Surat","Gujarat","","+91  261 654 7676","d12160@baldealer.com"
"Nis Auto","Dealer","G-23, Y JUNCTION, NEXT TO NAVJIVAN HOTEL,, VARACHHA MAIN ROAD, SARTHANA","Surat","Gujarat","","91  261 654 7676","d12160@baldealer.com"
"VARACHHA KTM","Branch","G-2/3, Y JUNCTION, NEXT TO NAVJIVAN HOTEL, , VARACHHA MAIN ROAD, SARTHANA , , ","Surat","Gujarat","","+91  261 654 7676","d12160@baldealer.com"
"Gujarat Motors Pvt Ltd","Dealer","G7 TRINITY BUSINESS PARK, MADHUVAN CIRCLE,, L P SAVANI ROAD, BESIDE DOMINOS ADAJAN,","Surat","Gujarat","395009","91 261  6555610","d12397@baldealer.com"
"Amin Automobiles","Dealer","NEAR OLD RUPLAI CINEMA,, NEHRU BRIDGE, LAL DARWAJA","Ahmedabad","Gujarat","380001","91 79 4040 3344","d12315@baldealer.com"
"Gallops Automobiles Pvt Ltd","Dealer","PUSHPAK COMPLEX, OPP SHITIRATNA COMPLEX,, NEAR PANCHVATI CIRCLE, OFF C.G.ROAD,","Ahmedabad","Gujarat","380009","91 79 66051711","d12437@baldealer.com"
"CHANDKHEDA KTM","Branch","11, MANMOHAN PARK SOCIETY.,,  NEAR SHARDA PETROL PUMP HIGHWAY ROAD, CHANDKHEDA, , ","Ahmedabad","Gujarat","382424","9978940568","d12437@baldealer.com"
"MANINAGAR KTM","Branch","NATKAMAL COMPLEX, NR SHELL PETROL PUMP, , HIRABHAI TOWER ROAD, JAWAHAR CHOWK, MANINAGAR. , , ","Ahmedabad","Gujarat","380008","+91  89800 01717","d12437@baldealer.com"
"Gallops Automobiles Pvt Ltd","Dealer","GROUND FLOOR, ASTRON SQUARE,  OPP. ISKON TEMPLE,, ISCON CROSS ROAD, SG HIGHWAY","Ahmedabad","Gujarat","380054","91 89056 41733","d12437@baldealer.com"
"CHANDKHEDA KTM","Branch","11, MANMOHAN PARK SOCIETY.,,  NEAR SHARDA PETROL PUMP HIGHWAY ROAD, CHANDKHEDA, , ","Ahmedabad","Gujarat","382424","9978940568","d12437@baldealer.com"
"MANINAGAR KTM","Branch","NATKAMAL COMPLEX, NR SHELL PETROL PUMP, , HIRABHAI TOWER ROAD, JAWAHAR CHOWK, MANINAGAR. , , ","Ahmedabad","Gujarat","380008","+91  89800 01717","d12437@baldealer.com"
"Gallops Automobiles Pvt Ltd","Dealer","11, MANMOHAN PARK SOCIETY.,, NEAR SHARDA PETROL PUMP HIGHWAY ROAD, CHANDKHEDA","Ahmedabad","Gujarat","382424","9978940568","d12437@baldealer.com"
"CHANDKHEDA KTM","Branch","11, MANMOHAN PARK SOCIETY.,,  NEAR SHARDA PETROL PUMP HIGHWAY ROAD, CHANDKHEDA, , ","Ahmedabad","Gujarat","382424","9978940568","d12437@baldealer.com"
"MANINAGAR KTM","Branch","NATKAMAL COMPLEX, NR SHELL PETROL PUMP, , HIRABHAI TOWER ROAD, JAWAHAR CHOWK, MANINAGAR. , , ","Ahmedabad","Gujarat","380008","+91  89800 01717","d12437@baldealer.com"
"Gallops Automobiles Pvt Ltd","Dealer","NATKAMAL COMPLEX, NR SHELL PETROL PUMP,, HIRABHAI TOWER ROAD, JAWAHAR CHOWK, MANINAGAR.","Ahmedabad","Gujarat","380008","91  89800 01717","d12437@baldealer.com"
"CHANDKHEDA KTM","Branch","11, MANMOHAN PARK SOCIETY.,,  NEAR SHARDA PETROL PUMP HIGHWAY ROAD, CHANDKHEDA, , ","Ahmedabad","Gujarat","382424","9978940568","d12437@baldealer.com"
"MANINAGAR KTM","Branch","NATKAMAL COMPLEX, NR SHELL PETROL PUMP, , HIRABHAI TOWER ROAD, JAWAHAR CHOWK, MANINAGAR. , , ","Ahmedabad","Gujarat","380008","+91  89800 01717","d12437@baldealer.com"
"Sakal Auto","Dealer","SHOP. NO. 19, 20 MAPLE CRYSTAL COMPLEX, NEAR  SAHKARI JIN ROAD. NH - 8,","Himmatnagar","Gujarat","383001","91  9909022793 - 7573916883","d12606@baldealer.com"
"Kartavya Auto","Dealer","VIKAS SHOPPING CENTER,, NEAR CERCUIT HOUSE, MAHENDRA NAGAR RAOD","Morbi","Gujarat","363642","91 2822 242365 87802 03793","d12998@baldealer.com"
"Platinum Motors","Dealer","C-17 & B-18, M.P. SHAH INDUSTRIAL ESTATE,, SARU SECTION ROAD,","Jamnagar","Gujarat","361006","91 288 266 6636","d13008@baldealer.com"
"A.S.Motors","Dealer","5, RAJPATH SOCIETY,, OLD PADRA ROAD,","Baroda","Gujarat","390007","91 78880 96963 - 78880 96964","d12441@baldealer.com"
"A.S.Motors","Dealer","J. K. AVENUE, D-15 - TASHKAND SOCIETY, OPP. AXIS BANK,, NEW CHHANI ROAD, NIZAMPURA","Baroda","Gujarat","390002","91 99982 22551","d12441@baldealer.com"
"A.S.Motors","Dealer","VAVDI ROAD, NEAR NISSAN SHOWROOM, GODHRA  DAHOD HIGHWAY","Godhra","Gujarat","389001","91 99989 02222","d12441@baldealer.com"
"Aakar Motors","Dealer","SHOP NO. 37, TIRUPATI PLAZA, DHARMAPUR CHAR RASTA","Valsad","Gujarat","396001","97143 23001","d12336@baldealer.com"
"Aakar Motors","Dealer","PLOT NO CM - 817, NH NO. 08, GIDC, ","Vapi","Gujarat","396195","91 260 2425 777","d12336@baldealer.com"
"Mark Automotives","Dealer","TILARA's CORPORATE HOUSE, SURYODAY SOCIETY,, AMIN MARG, NEAR 150 FEET RING ROAD,","Rajkot","Gujarat","360002","91  89808 02060","d12677@baldealer.com"
"Lords Grand","Dealer","CHHA ROAD, NEAR CHHAYA CHOWKI ,, OPP. JALARAM MASALA MILL,","Porbandar","Gujarat","360575","91  94094 32619","d12660@baldealer.com"
"Na Autolink","Dealer","6768 DC  3, BEHIND ADIPUR POLICE STATION","Gandhidham","Gujarat","370205","91  98256 27374","d12649@baldealer.com"
"Na Autolink","Dealer","64, ADM SPACE 1,, MADHAPUR HIGHWAY","Bhuj","Gujarat","370001","91 90333 43601 - 63548 88912","d12649@baldealer.com"
"Mahesh Sales Corp","Dealer","DEESA HIGHWAY, ","Palanpur","Gujarat","385001","91 2742 252726","d12373@baldealer.com"
"Kena Auto","Dealer","NIRAV HERITAGE, NEAR ONGC COLONY GATE,, GADAKHOL ROAD,","Ankleshwar","Gujarat","393001","91 75748 20075","d12824@baldealer.com"
"Baba Motors","Dealer","NH 10, DELHI ROHTAK ROAD, OPPOSITE D MARKET,, VILL. & PO. SAKHOL","Bahadurgarh","Haryana","124507","91 1276 606160 - 9215455506","d12409@baldealer.com"
"Yash Concrete Co","Dealer","AMBALA ROAD,, ","Kaithal","Haryana","136027","91 99920 11108","d12652@baldealer.com"
"Universal Automotives Pvt. Ltd.","Dealer","NAHARPUR RUPA , RAJEEV COLONY , NEAR RAJEEV CHOWK,, OPP. NEXA SHOWROOM , NH-48, DELHI  JAIPUR EXPRESSWAY","Gurgaon","Haryana","122001","91 124 220 2064 - 220 1064, 98181 62064, 99101 62064,","d12264@baldealer.com"
"Universal Automotives Pvt. Ltd.","Dealer","SHOP NO  G3 & G4, ABW TOWER, M.G.ROAD, IFFCO CHOWK","Gurgaon","Haryana","122002","91 78880 87872, 78880 87873","d12264@baldealer.com"
"Universal Automotives Pvt. Ltd.","Dealer","OPPOSITE KLP COLLEGE,, DELHI ROAD,","Rewari","Haryana","123401","91 70117 24595","d12264@baldealer.com"
"Grd Trucks Pvt. Limited","Dealer","5B7, B.P., RAILWAY ROAD,, NIT","Faridabad","Haryana","121001","91 97160 03009","d12603@baldealer.com"
"Grd Trucks Pvt. Limited","Dealer","SHERAWAT BHAWAN, ADARSH COLONY,, OPP. SARASWATI COLLEGE, NH - 2,","Palwal","Haryana","121102","91 2175 259 188","d12603@baldealer.com"
"Hi-Tech Auto Mobiles","Dealer","D.S.S. 105 SECTOR - 13, MARKET,, ","Hissar","Haryana","125001","91 94163 91550","d12146@baldealer.com"
"J S Automobiles","Dealer","PLOT NO. 7, NEAR NAMASTEY CHOWK, OLD GT ROAD,","Karnal","Haryana","132001","91 97110 10916","d12251@baldealer.com"
"J S Automobiles","Dealer","NATIONAL HIGHWAY 1,, NEAR BAJAJ SHOWROOM,","Panipat","Haryana","132103","91 98131 10916","d12251@baldealer.com"
"Hi-Tech Auto Mobiles","Dealer","SONIPAT ROAD,, RAM GOPAL COLONY","Rohtak","Haryana","124001","91 1262 273550","d12146@baldealer.com"
"Nitesh Automobiles","Dealer","GT ROAD, NEAR MILK PLANT,, AMBALA CITY,","Ambala","Haryana","134001","91 171 2540803","d11918@baldealer.com"
"Global Motors","Dealer","NH 21,, VPO - GUTKAR","Mandi","Himachal Pradesh","175021","91 1905 246347","d11676@baldealer.com"
"Global Motors","Dealer","V & PO. VASHIST,, TEHSIL. MANALI","Manali","Himachal Pradesh","175131","98160 65771","d11676@baldealer.com"
"Sangam Auto Sales","Dealer","NH - 20, V & PO. KACHHIARI, VILL & POST. KACHHARI, TEH. & DISTT. KANGRA","Palampur","Himachal Pradesh","176001","91 92184 64372","d12358@baldealer.com"
"Sangam Auto Sales","Dealer","PATHANKOT  MANALI HIGHWAY,, ","Jassur","Himachal Pradesh","176201","91 94189 84888","d12358@baldealer.com"
"Sangam Auto Sales","Dealer","VILL. MALURA BATHARI,, TAHSIL - BANIKHET","Banikhet","Himachal Pradesh","176306","91 75900 05151","d12358@baldealer.com"
"Jaryal Automobiles","Dealer","BYE PASS, HAMIRPUR SHIMLA - KANGRA HIGHWAY, ","Hamirpur","Himachal Pradesh","177001","91 94180 75588","d12570@baldealer.com"
"S B Automobiles","Dealer","NEAR MOHAN PARK OR MEZWAN HOTEL,, CHAMBAGHAT, SOLAN - 173 213 (HIMACHAL PRADESH)","Solan","Himachal Pradesh","173213","91  98164 94486","d12816@baldealer.com"
"Kashmir Auto Aids","Dealer","SHOP NO 574, SECTOR - C EXTENSION,, SAINIK COLONY (NEXT TO NISHAN SHOWROOM)","Jammu","Jammu & Kashmir","180006","91 191 2469862, 91 191 2469863","d11842@baldealer.com"
"Kashmir Auto Aids","Dealer","MH ROAD,, ","Udhampur","Jammu & Kashmir","182101","91 94842 99999","d11842@baldealer.com"
"Stag Trading P Ltd","Dealer","MEHRAJRPORA TENGPORA BYEPASS,, BATAMALOO NATIONAL HIGHWAY 1-A,","Srinagar","Jammu & Kashmir","190009","91 90864 82016","d12082@baldealer.com"
"ANANTNAG KTM","Branch","DAR COMPLEX, S/K NH 44 BATENGOO, , BIJBEHARA, , ","Srinagar","Jammu & Kashmir","192101","+91 90864 82223 ","d12082@baldealer.com"
"BARAMULLA KTM","Branch","9 MILES, SANGRAMA CROSSING, ,  NH-1A, , ","Srinagar","Jammu & Kashmir","193201","+91 90864 82220","d12082@baldealer.com"
"Stag Trading P Ltd","Dealer","DAR COMPLEX, SK NH 44 BATENGOO,, BIJBEHARA","Anantnag","Jammu & Kashmir","192101","91 90864 82223","d12082@baldealer.com"
"ANANTNAG KTM","Branch","DAR COMPLEX, S/K NH 44 BATENGOO, , BIJBEHARA, , ","Anantnag","Jammu & Kashmir","192101","+91 90864 82223 ","d12082@baldealer.com"
"BARAMULLA KTM","Branch","9 MILES, SANGRAMA CROSSING, ,  NH-1A, , ","Anantnag","Jammu & Kashmir","193201","+91 90864 82220","d12082@baldealer.com"
"Stag Trading P Ltd","Dealer","9 MILES, SANGRAMA CROSSING,, NH-1A","Baramula","Jammu & Kashmir","193201","91 90864 82220","d12082@baldealer.com"
"ANANTNAG KTM","Branch","DAR COMPLEX, S/K NH 44 BATENGOO, , BIJBEHARA, , ","Baramula","Jammu & Kashmir","192101","+91 90864 82223 ","d12082@baldealer.com"
"BARAMULLA KTM","Branch","9 MILES, SANGRAMA CROSSING, ,  NH-1A, , ","Baramula","Jammu & Kashmir","193201","+91 90864 82220","d12082@baldealer.com"
"Tirath & Sons Automobiles","Dealer","MANWAL BAGH, NEAR OBERAI SERVICE STATION,, JUGIAL ROAD,","Pathankot","Jammu & Kashmir","","91 186 239 0298","d12858@baldealer.com"
"Auto World","Dealer","AUTO WORLD BUILDING, NEW KALIMATI ROAD, SAKCHI,","Jamshedpur","Jharkhand","831001","91 657 242 3481","d12027@baldealer.com"
"Auto World","Dealer","GROUND FLOOR, SERAIKELA,, RAILWAY CROSSING.","Chaibasa","Jharkhand","833201","91 70502 77435","d12027@baldealer.com"
"V&S Automobiles","Dealer","SAHEEDH AASHRAM ROAD, INFRONT OF JHAA CHURA MILL","Deoghar","Jharkhand","","91 70045 38788","d12863@baldealer.com"
"Shreyansh Automobiles","Dealer","NEAR NATIONAL HIGH SCHOOL, GAUSHALA ROAD , DUDHANI","Dumka","Jharkhand","814101","91 6434 231077","d12902@baldealer.com"
"Peekay Automobiles Llp","Dealer","PLOT NO  204, NEAR DHANSAR POST OFFICE, DHANSAR CHOWK, DHANBAD","Dhanbad","Jharkhand","826106","91 9431115845","d12916@baldealer.com"
"Cosmic Mobikes","Dealer","GROUND FLOOR,  ARAVALI ENCLAVE,, HELAL RATU ROAD,","Ranchi","Jharkhand","","91 72504 50555","d12860@baldealer.com"
"Peekay Automobiles Llp","Dealer","STRABERRY HILLS,  GROUND FLOOR,, SIRAM TOLI CHOWK","Ranchi","Jharkhand","834001","91 9431900000","d12586@baldealer.com"
"Ranju Automobiles","Dealer","BYE PASS ROAD, CHAS, ","Bokaro","Jharkhand","827013","91 92040 60238","d12351@baldealer.com"
"Rm Motors","Dealer","1ST FLOOR, G M MALL, INFRONT OF INCOME TAX OFFICE,, UDIT NAGAR, ROURKELA (ODISHA)","Rourkela","Jharkhand","796012","91 661  699 9993","d12607@baldealer.com"
"Volkan Bajaj (A Unit Of Vatsalautowheelspvt Ltd)","Dealer","NH- 33 MURRAMKALA, NEAR RAMGARH COLLEGE, COLLEGE ROAD,, RAMGARH CANTT.","Ramgarh","Jharkhand","829122","91 84069 04801","d12837@baldealer.com"
"Popular Motors Corp","Dealer","#114,PRAMEGA ARCADE, 3RD BLOCK, B.M.ROAD,, NEAR FATHIMA CONVENT SCHOOL,","Kushalnagar","Karnataka","571234","91 72597 86272","d12404@baldealer.com"
"Supreme Auto Dealers Pvt. Ltd.","Dealer","MAYA DEEPA, PANDITH HOUSE,, PERAMANURU VILLAGE, THOKOTTU,","Deralakatte","Karnataka","575017","91 99000 83342","d12433@baldealer.com"
"Channamma Motors","Dealer","OPP UNKAL LAKE, UNKAL,, ","Hubli","Karnataka","580025","91 80502 50999","d12374@baldealer.com"
"DHARWAD KTM","Branch","NEAR TOLL NAKA, PATIL BUILDING, , P.B ROAD, , , ","Hubli","Karnataka","","+91 81051 95296","d12374@baldealer.com"
"Channamma Motors","Dealer","OPP. MADHUVAN HOTEL,, YELLAPUR ROAD,","Sirsi","Karnataka","581402","91 99169 94885","d12374@baldealer.com"
"DHARWAD KTM","Branch","NEAR TOLL NAKA, PATIL BUILDING, , P.B ROAD, , , ","Sirsi","Karnataka","","+91 81051 95296","d12374@baldealer.com"
"Channamma Motors","Dealer","NEAR TOLL NAKA, PATIL BUILDING,, P.B ROAD,","Dharwad","Karnataka","","91 81051 95296","d12374@baldealer.com"
"DHARWAD KTM","Branch","NEAR TOLL NAKA, PATIL BUILDING, , P.B ROAD, , , ","Dharwad","Karnataka","","+91 81051 95296","d12374@baldealer.com"
"Jain Motors","Dealer","868N3-N7, SHANKAR VIHAR EXTENSION, PB ROAD","Davangere","Karnataka","577006","91 8192 232 088","d12396@baldealer.com"
"Kamath Motors","Dealer","SAPTAGIRI UDUPI  MANIPAL MAIN ROAD,, LAXMINDRANAGAR","Udupi","Karnataka","576102","91 820 429 4064","d12370@baldealer.com"
"Jagajampi Auto Pvt. Ltd,","Dealer","483427, NEAR KOLHAPUR CIRCLE,, CIVIL HOSPITAL ROAD,","Belgaum","Karnataka","590001","91 831 - 420 9055","d12391@baldealer.com"
"Jagajampi Auto Pvt. Ltd,","Dealer","GANGA COMPLEX COLLEGE ROAD,, NEAR BYALI KATA,","Gokak","Karnataka","591307","91 91644 78610","d12391@baldealer.com"
"Rockline Automobiles","Dealer","#11, CHANDRALAYOUT MAIN ROAD,, INCOME TAX LAYOUT, VIJAYANAGAR","Bangalore","Karnataka","560040","91 80 4954 7755","d12269@baldealer.com"
"Khivraj Motors","Dealer","NO.16, 8TH MILE, NEAR PEENYA METRO STATION, TUMKUR ROAD,","Bangalore","Karnataka","560073","91 9483694817","d12442@baldealer.com"
"RAJAJI NAGAR KTM","Branch","NO. 71, GROUND FLOOR, 1ST MAIN ROAD,, RAJAJINAGAR, 2ND BLOCK, DR. RAJKUMAR ROAD, , ","Bangalore","Karnataka","560010","+91 80 4164 4564","d12442@baldealer.com"
"MARATHAHALLI KTM","Branch","GOWRASRI ARCADE, NO. 95/3, OUTTER RING ROAD,, DODDANEKUNDI VILLAGE,, , ","Bangalore","Karnataka","560037","+91 80 65555810","d12442@baldealer.com"
"HRBR  KTM","Branch","# 801-2C, HRBR LAYOUT, 1ST BLOCK  , KALYANNAGAR, (NEXT TO VIJAYA BANK), , ","Bangalore","Karnataka","560043","+91 80 4092 1008","d12442@baldealer.com"
"8TH MILE KTM","Branch","NO.16, 8TH MILE, NEAR PEENYA METRO STATION, TUMKUR ROAD, , , ","Bangalore","Karnataka","560073","+91 9483694817","d12442@baldealer.com"
"HENNUR KTM","Branch","#49,NEAR GUBBI CROSS,KOTHANUR MAIN ROAD, , NEAR DECATHLON, KOTHANUR, , , ","Bangalore","Karnataka","560077","+91 97421 55224","d12442@baldealer.com"
"HOSKOTE KTM","Branch","1/2, AIR EXTENSION, 1ST FLOOR, , OLD MADRAS ROAD, HOSKOTE TOWN, , , ","Bangalore","Karnataka","562114","+91  98866 80788","d12442@baldealer.com"
"Khivraj Motors","Dealer","#49,NEAR GUBBI CROSS,KOTHANUR MAIN ROAD,, NEAR DECATHLON, KOTHANUR,","Bangalore","Karnataka","560077","91 97421 55224","d12442@baldealer.com"
"RAJAJI NAGAR KTM","Branch","NO. 71, GROUND FLOOR, 1ST MAIN ROAD,, RAJAJINAGAR, 2ND BLOCK, DR. RAJKUMAR ROAD, , ","Bangalore","Karnataka","560010","+91 80 4164 4564","d12442@baldealer.com"
"MARATHAHALLI KTM","Branch","GOWRASRI ARCADE, NO. 95/3, OUTTER RING ROAD,, DODDANEKUNDI VILLAGE,, , ","Bangalore","Karnataka","560037","+91 80 65555810","d12442@baldealer.com"
"HRBR  KTM","Branch","# 801-2C, HRBR LAYOUT, 1ST BLOCK  , KALYANNAGAR, (NEXT TO VIJAYA BANK), , ","Bangalore","Karnataka","560043","+91 80 4092 1008","d12442@baldealer.com"
"8TH MILE KTM","Branch","NO.16, 8TH MILE, NEAR PEENYA METRO STATION, TUMKUR ROAD, , , ","Bangalore","Karnataka","560073","+91 9483694817","d12442@baldealer.com"
"HENNUR KTM","Branch","#49,NEAR GUBBI CROSS,KOTHANUR MAIN ROAD, , NEAR DECATHLON, KOTHANUR, , , ","Bangalore","Karnataka","560077","+91 97421 55224","d12442@baldealer.com"
"HOSKOTE KTM","Branch","1/2, AIR EXTENSION, 1ST FLOOR, , OLD MADRAS ROAD, HOSKOTE TOWN, , , ","Bangalore","Karnataka","562114","+91  98866 80788","d12442@baldealer.com"
"Khivraj Motors","Dealer","12, AIR EXTENSION, 1ST FLOOR,, OLD MADRAS ROAD, HOSKOTE TOWN,","Bangalore","Karnataka","562114","91  98866 80788","d12442@baldealer.com"
"RAJAJI NAGAR KTM","Branch","NO. 71, GROUND FLOOR, 1ST MAIN ROAD,, RAJAJINAGAR, 2ND BLOCK, DR. RAJKUMAR ROAD, , ","Bangalore","Karnataka","560010","+91 80 4164 4564","d12442@baldealer.com"
"MARATHAHALLI KTM","Branch","GOWRASRI ARCADE, NO. 95/3, OUTTER RING ROAD,, DODDANEKUNDI VILLAGE,, , ","Bangalore","Karnataka","560037","+91 80 65555810","d12442@baldealer.com"
"HRBR  KTM","Branch","# 801-2C, HRBR LAYOUT, 1ST BLOCK  , KALYANNAGAR, (NEXT TO VIJAYA BANK), , ","Bangalore","Karnataka","560043","+91 80 4092 1008","d12442@baldealer.com"
"8TH MILE KTM","Branch","NO.16, 8TH MILE, NEAR PEENYA METRO STATION, TUMKUR ROAD, , , ","Bangalore","Karnataka","560073","+91 9483694817","d12442@baldealer.com"
"HENNUR KTM","Branch","#49,NEAR GUBBI CROSS,KOTHANUR MAIN ROAD, , NEAR DECATHLON, KOTHANUR, , , ","Bangalore","Karnataka","560077","+91 97421 55224","d12442@baldealer.com"
"HOSKOTE KTM","Branch","1/2, AIR EXTENSION, 1ST FLOOR, , OLD MADRAS ROAD, HOSKOTE TOWN, , , ","Bangalore","Karnataka","562114","+91  98866 80788","d12442@baldealer.com"
"Khivraj Motors","Dealer","657, 100 FEET ROAD,, NEAR KFC JUNCTION, INDIRANAGAR","Bangalore","Karnataka","560038","91 80 4165 7777, 91 80 40914835  36","d12442@baldealer.com"
"RAJAJI NAGAR KTM","Branch","NO. 71, GROUND FLOOR, 1ST MAIN ROAD,, RAJAJINAGAR, 2ND BLOCK, DR. RAJKUMAR ROAD, , ","Bangalore","Karnataka","560010","+91 80 4164 4564","d12442@baldealer.com"
"MARATHAHALLI KTM","Branch","GOWRASRI ARCADE, NO. 95/3, OUTTER RING ROAD,, DODDANEKUNDI VILLAGE,, , ","Bangalore","Karnataka","560037","+91 80 65555810","d12442@baldealer.com"
"HRBR  KTM","Branch","# 801-2C, HRBR LAYOUT, 1ST BLOCK  , KALYANNAGAR, (NEXT TO VIJAYA BANK), , ","Bangalore","Karnataka","560043","+91 80 4092 1008","d12442@baldealer.com"
"8TH MILE KTM","Branch","NO.16, 8TH MILE, NEAR PEENYA METRO STATION, TUMKUR ROAD, , , ","Bangalore","Karnataka","560073","+91 9483694817","d12442@baldealer.com"
"HENNUR KTM","Branch","#49,NEAR GUBBI CROSS,KOTHANUR MAIN ROAD, , NEAR DECATHLON, KOTHANUR, , , ","Bangalore","Karnataka","560077","+91 97421 55224","d12442@baldealer.com"
"HOSKOTE KTM","Branch","1/2, AIR EXTENSION, 1ST FLOOR, , OLD MADRAS ROAD, HOSKOTE TOWN, , , ","Bangalore","Karnataka","562114","+91  98866 80788","d12442@baldealer.com"
"Khivraj Motors","Dealer","NO. 353, GROUND FLOOR, LANGFORD ROAD,, NEAR RICHMOND CIRCLE FLYOVER,","Bangalore","Karnataka","560025","91 80 6539 3535,","d12442@baldealer.com"
"RAJAJI NAGAR KTM","Branch","NO. 71, GROUND FLOOR, 1ST MAIN ROAD,, RAJAJINAGAR, 2ND BLOCK, DR. RAJKUMAR ROAD, , ","Bangalore","Karnataka","560010","+91 80 4164 4564","d12442@baldealer.com"
"MARATHAHALLI KTM","Branch","GOWRASRI ARCADE, NO. 95/3, OUTTER RING ROAD,, DODDANEKUNDI VILLAGE,, , ","Bangalore","Karnataka","560037","+91 80 65555810","d12442@baldealer.com"
"HRBR  KTM","Branch","# 801-2C, HRBR LAYOUT, 1ST BLOCK  , KALYANNAGAR, (NEXT TO VIJAYA BANK), , ","Bangalore","Karnataka","560043","+91 80 4092 1008","d12442@baldealer.com"
"8TH MILE KTM","Branch","NO.16, 8TH MILE, NEAR PEENYA METRO STATION, TUMKUR ROAD, , , ","Bangalore","Karnataka","560073","+91 9483694817","d12442@baldealer.com"
"HENNUR KTM","Branch","#49,NEAR GUBBI CROSS,KOTHANUR MAIN ROAD, , NEAR DECATHLON, KOTHANUR, , , ","Bangalore","Karnataka","560077","+91 97421 55224","d12442@baldealer.com"
"HOSKOTE KTM","Branch","1/2, AIR EXTENSION, 1ST FLOOR, , OLD MADRAS ROAD, HOSKOTE TOWN, , , ","Bangalore","Karnataka","562114","+91  98866 80788","d12442@baldealer.com"
"Khivraj Motors","Dealer","NO. 71, GROUND FLOOR, 1ST MAIN ROAD,, RAJAJINAGAR, 2ND BLOCK, DR. RAJKUMAR ROAD","Bangalore","Karnataka","560010","91 80 4164 4564","d12442@baldealer.com"
"RAJAJI NAGAR KTM","Branch","NO. 71, GROUND FLOOR, 1ST MAIN ROAD,, RAJAJINAGAR, 2ND BLOCK, DR. RAJKUMAR ROAD, , ","Bangalore","Karnataka","560010","+91 80 4164 4564","d12442@baldealer.com"
"MARATHAHALLI KTM","Branch","GOWRASRI ARCADE, NO. 95/3, OUTTER RING ROAD,, DODDANEKUNDI VILLAGE,, , ","Bangalore","Karnataka","560037","+91 80 65555810","d12442@baldealer.com"
"HRBR  KTM","Branch","# 801-2C, HRBR LAYOUT, 1ST BLOCK  , KALYANNAGAR, (NEXT TO VIJAYA BANK), , ","Bangalore","Karnataka","560043","+91 80 4092 1008","d12442@baldealer.com"
"8TH MILE KTM","Branch","NO.16, 8TH MILE, NEAR PEENYA METRO STATION, TUMKUR ROAD, , , ","Bangalore","Karnataka","560073","+91 9483694817","d12442@baldealer.com"
"HENNUR KTM","Branch","#49,NEAR GUBBI CROSS,KOTHANUR MAIN ROAD, , NEAR DECATHLON, KOTHANUR, , , ","Bangalore","Karnataka","560077","+91 97421 55224","d12442@baldealer.com"
"HOSKOTE KTM","Branch","1/2, AIR EXTENSION, 1ST FLOOR, , OLD MADRAS ROAD, HOSKOTE TOWN, , , ","Bangalore","Karnataka","562114","+91  98866 80788","d12442@baldealer.com"
"Khivraj Motors","Dealer","GOWRASRI ARCADE, NO. 953, OUTTER RING ROAD,, DODDANEKUNDI VILLAGE,","Bangalore","Karnataka","560037","91 80 65555810","d12442@baldealer.com"
"RAJAJI NAGAR KTM","Branch","NO. 71, GROUND FLOOR, 1ST MAIN ROAD,, RAJAJINAGAR, 2ND BLOCK, DR. RAJKUMAR ROAD, , ","Bangalore","Karnataka","560010","+91 80 4164 4564","d12442@baldealer.com"
"MARATHAHALLI KTM","Branch","GOWRASRI ARCADE, NO. 95/3, OUTTER RING ROAD,, DODDANEKUNDI VILLAGE,, , ","Bangalore","Karnataka","560037","+91 80 65555810","d12442@baldealer.com"
"HRBR  KTM","Branch","# 801-2C, HRBR LAYOUT, 1ST BLOCK  , KALYANNAGAR, (NEXT TO VIJAYA BANK), , ","Bangalore","Karnataka","560043","+91 80 4092 1008","d12442@baldealer.com"
"8TH MILE KTM","Branch","NO.16, 8TH MILE, NEAR PEENYA METRO STATION, TUMKUR ROAD, , , ","Bangalore","Karnataka","560073","+91 9483694817","d12442@baldealer.com"
"HENNUR KTM","Branch","#49,NEAR GUBBI CROSS,KOTHANUR MAIN ROAD, , NEAR DECATHLON, KOTHANUR, , , ","Bangalore","Karnataka","560077","+91 97421 55224","d12442@baldealer.com"
"HOSKOTE KTM","Branch","1/2, AIR EXTENSION, 1ST FLOOR, , OLD MADRAS ROAD, HOSKOTE TOWN, , , ","Bangalore","Karnataka","562114","+91  98866 80788","d12442@baldealer.com"
"Khivraj Motors","Dealer","# 801-2C, HRBR LAYOUT, 1ST BLOCK, KALYANNAGAR, (NEXT TO VIJAYA BANK)","Bangalore","Karnataka","560043","91 80 4092 1008","d12442@baldealer.com"
"RAJAJI NAGAR KTM","Branch","NO. 71, GROUND FLOOR, 1ST MAIN ROAD,, RAJAJINAGAR, 2ND BLOCK, DR. RAJKUMAR ROAD, , ","Bangalore","Karnataka","560010","+91 80 4164 4564","d12442@baldealer.com"
"MARATHAHALLI KTM","Branch","GOWRASRI ARCADE, NO. 95/3, OUTTER RING ROAD,, DODDANEKUNDI VILLAGE,, , ","Bangalore","Karnataka","560037","+91 80 65555810","d12442@baldealer.com"
"HRBR  KTM","Branch","# 801-2C, HRBR LAYOUT, 1ST BLOCK  , KALYANNAGAR, (NEXT TO VIJAYA BANK), , ","Bangalore","Karnataka","560043","+91 80 4092 1008","d12442@baldealer.com"
"8TH MILE KTM","Branch","NO.16, 8TH MILE, NEAR PEENYA METRO STATION, TUMKUR ROAD, , , ","Bangalore","Karnataka","560073","+91 9483694817","d12442@baldealer.com"
"HENNUR KTM","Branch","#49,NEAR GUBBI CROSS,KOTHANUR MAIN ROAD, , NEAR DECATHLON, KOTHANUR, , , ","Bangalore","Karnataka","560077","+91 97421 55224","d12442@baldealer.com"
"HOSKOTE KTM","Branch","1/2, AIR EXTENSION, 1ST FLOOR, , OLD MADRAS ROAD, HOSKOTE TOWN, , , ","Bangalore","Karnataka","562114","+91  98866 80788","d12442@baldealer.com"
"Popular Motor Corp","Dealer","ACHAIAH CHETTY ARCADE, NO.19,1ST CROSS, ACHAIAH CHETTY LAY OUT,, RMV EXTENSION, SADASHIVA NAGAR, MEKHRI CIRCLE JUNCTION,","Bangalore","Karnataka","560080","91 80 23617474","d12354@baldealer.com"
"BG ROAD KTM","Branch","NEAR ROYAL MEENAKSHI MALL, , OPP. LOYOLA COLLEGE, BANNERGHATTA ROAD, , , ","Bangalore","Karnataka","","+91 80 40946286","d12392@baldealer.com"
"WHITEFIELD KTM","Branch","NEAR HOPE FARM SIGNAL, ITPL MAIN ROAD, , WHITEFIELD, , , ","Bangalore","Karnataka","560066","+91 91485 72495","d12392@baldealer.com"
"Popular Motor Corp","Dealer","NEAR ROYAL MEENAKSHI MALL,, OPP. LOYOLA COLLEGE, BANNERGHATTA ROAD,","Bangalore","Karnataka","","91 80 40946286","d12392@baldealer.com"
"BG ROAD KTM","Branch","NEAR ROYAL MEENAKSHI MALL, , OPP. LOYOLA COLLEGE, BANNERGHATTA ROAD, , , ","Bangalore","Karnataka","","+91 80 40946286","d12392@baldealer.com"
"WHITEFIELD KTM","Branch","NEAR HOPE FARM SIGNAL, ITPL MAIN ROAD, , WHITEFIELD, , , ","Bangalore","Karnataka","560066","+91 91485 72495","d12392@baldealer.com"
"Popular Motor Corp","Dealer","NEAR HOPE FARM SIGNAL, ITPL MAIN ROAD,, WHITEFIELD,","Bangalore","Karnataka","560066","91 91485 72495","d12392@baldealer.com"
"BG ROAD KTM","Branch","NEAR ROYAL MEENAKSHI MALL, , OPP. LOYOLA COLLEGE, BANNERGHATTA ROAD, , , ","Bangalore","Karnataka","","+91 80 40946286","d12392@baldealer.com"
"WHITEFIELD KTM","Branch","NEAR HOPE FARM SIGNAL, ITPL MAIN ROAD, , WHITEFIELD, , , ","Bangalore","Karnataka","560066","+91 91485 72495","d12392@baldealer.com"
"Kalyani Motors","Dealer","NO. 180, 100 FT ROAD , 1ST BLOCK , 3RD PHASE,, BANASHANKARI 3RD STAGE ,","Bangalore","Karnataka","560085","91 80 26729090","d12381@baldealer.com"
"YEHALANKA KTM","Branch","#1, HOUSING BOARD COLONY, GANDHI NAGAR, , OLD TOWN, YELAHANKA, , ","Bangalore","Karnataka","560064"," '+91 2846 3888","d12381@baldealer.com"
"KENGERI KTM","Branch","2084, NORTH CONCEPTS,  , AURA   KENGERI SATELLITE TOWN, , ","Bangalore","Karnataka","560060"," +91  80 2848 2331","d12381@baldealer.com"
"RAMNAGARA KTM","Branch","NO 1308/ 2038/ 1, WARD NO. 27, BM ROAD, , VIVEKANANDA NAGAR, RAMNAGARA CITY, , , ","Bangalore","Karnataka","562159","+91  80 2228 8558","d12381@baldealer.com"
"Kalyani Motors","Dealer","#1, HOUSING BOARD COLONY, GANDHI NAGAR,, OLD TOWN, YELAHANKA","Bangalore","Karnataka","560064","'91 2846 3888","d12381@baldealer.com"
"YEHALANKA KTM","Branch","#1, HOUSING BOARD COLONY, GANDHI NAGAR, , OLD TOWN, YELAHANKA, , ","Bangalore","Karnataka","560064"," '+91 2846 3888","d12381@baldealer.com"
"KENGERI KTM","Branch","2084, NORTH CONCEPTS,  , AURA   KENGERI SATELLITE TOWN, , ","Bangalore","Karnataka","560060"," +91  80 2848 2331","d12381@baldealer.com"
"RAMNAGARA KTM","Branch","NO 1308/ 2038/ 1, WARD NO. 27, BM ROAD, , VIVEKANANDA NAGAR, RAMNAGARA CITY, , , ","Bangalore","Karnataka","562159","+91  80 2228 8558","d12381@baldealer.com"
"Kalyani Motors","Dealer","2084, NORTH CONCEPTS,, AURA   KENGERI SATELLITE TOWN","Bangalore","Karnataka","560060","91  80 2848 2331","d12381@baldealer.com"
"YEHALANKA KTM","Branch","#1, HOUSING BOARD COLONY, GANDHI NAGAR, , OLD TOWN, YELAHANKA, , ","Bangalore","Karnataka","560064"," '+91 2846 3888","d12381@baldealer.com"
"KENGERI KTM","Branch","2084, NORTH CONCEPTS,  , AURA   KENGERI SATELLITE TOWN, , ","Bangalore","Karnataka","560060"," +91  80 2848 2331","d12381@baldealer.com"
"RAMNAGARA KTM","Branch","NO 1308/ 2038/ 1, WARD NO. 27, BM ROAD, , VIVEKANANDA NAGAR, RAMNAGARA CITY, , , ","Bangalore","Karnataka","562159","+91  80 2228 8558","d12381@baldealer.com"
"Kalyani Motors","Dealer","NO 1308 2038 1, WARD NO. 27, BM ROAD,, VIVEKANANDA NAGAR, RAMNAGARA CITY,","Bangalore","Karnataka","562159","91  80 2228 8558","d12381@baldealer.com"
"YEHALANKA KTM","Branch","#1, HOUSING BOARD COLONY, GANDHI NAGAR, , OLD TOWN, YELAHANKA, , ","Bangalore","Karnataka","560064"," '+91 2846 3888","d12381@baldealer.com"
"KENGERI KTM","Branch","2084, NORTH CONCEPTS,  , AURA   KENGERI SATELLITE TOWN, , ","Bangalore","Karnataka","560060"," +91  80 2848 2331","d12381@baldealer.com"
"RAMNAGARA KTM","Branch","NO 1308/ 2038/ 1, WARD NO. 27, BM ROAD, , VIVEKANANDA NAGAR, RAMNAGARA CITY, , , ","Bangalore","Karnataka","562159","+91  80 2228 8558","d12381@baldealer.com"
"Amba Auto Sales & Service Pvt. Ltd.","Dealer","NO. 3, SERVICE ROAD, 17TH MAIN,, AICOBA NAGAR, BTM LAYOUT, 1ST STAGE","Bangalore","Karnataka","560068","91 80 4210 7195 - 81977 66636","d12382@baldealer.com"
"E CITY KTM","Branch","GANESHA TOWERS, NO 60/6,KONEPPANA AGRAHARA ,, OPP INFOSYS BUILDING, ELECTRONIC CITY, HOSUR ROAD,, , ","Bangalore","Karnataka","560100","     +91 80 41250119","d12382@baldealer.com"
"Amba Auto Sales & Service Pvt. Ltd.","Dealer","GANESHA TOWERS, NO 606,KONEPPANA AGRAHARA ,, OPP INFOSYS BUILDING, ELECTRONIC CITY, HOSUR ROAD,","Bangalore","Karnataka","560100","91 80 41250119","d12382@baldealer.com"
"E CITY KTM","Branch","GANESHA TOWERS, NO 60/6,KONEPPANA AGRAHARA ,, OPP INFOSYS BUILDING, ELECTRONIC CITY, HOSUR ROAD,, , ","Bangalore","Karnataka","560100","     +91 80 41250119","d12382@baldealer.com"
"Akshaya Auto Service","Dealer","AKSHAYA AUTO SERVICE COMPOUND,, SIRA ROAD,","Tumkur","Karnataka","572106","91 816 227 2212","d12327@baldealer.com"
"Vkg Bajaj","Dealer","OPPOSITE TO STBT DARGA ROAD,, ","Gulbarga","Karnataka","585101","91 8472 230999","d12399@baldealer.com"
"Vkg Bajaj","Dealer","OPPOSITE TO STBT DARGA ROAD,, KALABURAGI","Bidar","Karnataka","585101","91  8472 230999","d12399@baldealer.com"
"Popular Motors Corp","Dealer","1071A, SNA COMPLEX, OPP. ZILLA PANCHAYATH OFFICE, JAYA LAKSHMI VILAS ROAD,","Mysore","Karnataka","570005","91 821 2333393","d12404@baldealer.com"
"Sai Automobiles","Dealer","OPP. TSP , T.B. DAM ROAD, NEAR RAILWAY GATE,, HOSAPETE -583201 (KARNATAKA)","Hosapete","Karnataka","","91  73386 67326","d12623@baldealer.com"
"Yashaswini Bikes","Dealer","VRISHABA COMPLEX, NH-4 SERVICE ROAD ,, NEXT TO HOTEL RAVI MAYUR,","Chitradurga","Karnataka","577501","91  82966 34394","d12642@baldealer.com"
"Bijjaragi  Bajaj","Dealer","228 DAMAGAR COMPLEX, OPP. RAVI INDANE GAS,, MAHALBAGAYAT, ASHRAM ROAD,","Bijapur","Karnataka","586103","91  8352 263 443","d12424@baldealer.com"
"Bijjaragi  Bajaj","Dealer","SHOP NO. UG - 29, MELLIGERI TOWERS,, STATION ROAD,","Bagalkot","Karnataka","587101","91 74115 00267","d12424@baldealer.com"
"Supreme Auto Dealers Pvt. Ltd.","Dealer","SARA SOLITAIRE , RS NO  91-5, T.S NO. 81-5,, EXTENT A-C-13.50, BALAMATTA ROAD,","Mangalore","Karnataka","575001","91 78880 94946 78880 94947","d12433@baldealer.com"
"Vaishali Trading Corporation","Dealer","PURUSHOTTAM HALL COMPLEX,, N.H. 66(17), SADASHIVGAD,","Karwar","Karnataka","581352","91  8382 265 553","d12713@baldealer.com"
"Lakshmi Auto","Dealer","J P ARCADE, OPPOSITE SBI BANK,, RING ROAD, JAYANAGAR 2ND BLOCK,","Hassan","Karnataka","573201","91  8172 269 599","d12908@baldealer.com"
"Popular Motor Corp","Dealer","OPPOSITE KABA PLAZA, KOLAR BY PASS RAOD,, NEXT  TO HP PETROL PUMP.","Kolar","Karnataka","563101","91 91089 53193","d12252@baldealer.com"
"Sai Automobiles","Dealer","158 F, HOSPET ROAD,, CANTONMENT,","Ballary","Karnataka","583104","91 8392 244110 - 244109 - 7829444344 - 7829444844","d12356@baldealer.com"
"Supreme Auto Dealers Pvt. Ltd.","Dealer","SHANKAR MUTT ROAD,, SHIMOGA - 577 201 (KARNATAKA)","Shimoga","Karnataka","577201","91 8182 267 178","d12362@baldealer.com"
"Supreme Auto Dealers Pvt. Ltd.","Dealer","BELUR ROAD, KOTE ,, ","Chikmaglur","Karnataka","577101","91 96321 02299","d12362@baldealer.com"
"Av Automobiles","Dealer","NH 544 NADATHARA ,, NADATHARA POST,","Thrissur","Kerala","","91  94965 18171","d12703@baldealer.com"
"Popular Motor Corporation","Dealer","DOOR NO 131-54, VAZHAPPILAY ARCADE, PUZHAKKAL,, NEAR LULU INTERNATIONAL CONVENTION CENTER,  P.O. AYYANTHOLA,","Thrissur","Kerala","680003","91 9846610999","d12738@baldealer.com"
"Av Automobiles","Dealer","NH544 , NEAR POTTA BRIDGE, CHALAKUDY","Chalakkudi","Kerala","680307","91 79091 99991","d12703@baldealer.com"
"Kvr Bikes ( A Unit Under Kvr Automo","Dealer","NADUVILANGADI,, ","Tirur","Kerala","676107","91 494 2422119","d12427@baldealer.com"
"Kvr Auto","Dealer","ASPIRE TRADE CENTRE,  BYE PASS ROAD,, OOTTY ROAD JUNCTION,","Perinthalmanna","Kerala","679322","91 4933221789","d12428@baldealer.com"
"Kvr Auto","Dealer","PILAKKAL, POOKOTTUR,, MALAPPURAM, KERELA","Mallapuram","Kerala","676517","91 96050 01599","d12428@baldealer.com"
"Sarathy Motors","Dealer","NEAR JUMA MASJID,, THATTAMAKA,","Kollam","Kerala","691020","91 474 6056665","d12402@baldealer.com"
"ATTINGAL KTM","Branch","LAMAS BUILDING, MONNUMUKKU, , TRIVANDRUM ROAD, , , ","Kollam","Kerala","695101","+91 470 262 6565 ","d12402@baldealer.com"
"KARUNAGAPALLY KTM","Branch","PUTHEN THERUVU, , K.S PURAM, , , ","Kollam","Kerala","690544","+91 98470 71165","d12402@baldealer.com"
"Sarathy Motors","Dealer","KOTTARAKKARATVM MC ROAD,, PULAMON","Kottarakkara","Kerala","691531","91 98470 24265","d12402@baldealer.com"
"ATTINGAL KTM","Branch","LAMAS BUILDING, MONNUMUKKU, , TRIVANDRUM ROAD, , , ","Kottarakkara","Kerala","695101","+91 470 262 6565 ","d12402@baldealer.com"
"KARUNAGAPALLY KTM","Branch","PUTHEN THERUVU, , K.S PURAM, , , ","Kottarakkara","Kerala","690544","+91 98470 71165","d12402@baldealer.com"
"Sarathy Motors","Dealer","LAMAS BUILDING, MONNUMUKKU,, TRIVANDRUM ROAD,","Trivandrum","Kerala","695101","91 470 262 6565","d12402@baldealer.com"
"ATTINGAL KTM","Branch","LAMAS BUILDING, MONNUMUKKU, , TRIVANDRUM ROAD, , , ","Trivandrum","Kerala","695101","+91 470 262 6565 ","d12402@baldealer.com"
"KARUNAGAPALLY KTM","Branch","PUTHEN THERUVU, , K.S PURAM, , , ","Trivandrum","Kerala","690544","+91 98470 71165","d12402@baldealer.com"
"Deedi Automobiles","Dealer","SHOP NO  1 TO 4, UPPER GROUND FLOOR,, TN SAMRUDHI COMPLEX, VAZUTHACADU,","Trivandrum","Kerala","695014","91 78880 97973 78880 97974","d12448@baldealer.com"
"Sarathy Motors","Dealer","PUTHEN THERUVU,, K.S PURAM,","Karunagappally","Kerala","690544","91 98470 71165","d12402@baldealer.com"
"ATTINGAL KTM","Branch","LAMAS BUILDING, MONNUMUKKU, , TRIVANDRUM ROAD, , , ","Karunagappally","Kerala","695101","+91 470 262 6565 ","d12402@baldealer.com"
"KARUNAGAPALLY KTM","Branch","PUTHEN THERUVU, , K.S PURAM, , , ","Karunagappally","Kerala","690544","+91 98470 71165","d12402@baldealer.com"
"Kvr Vehicles","Dealer","KVR TOWER, OPP BISHOP HOUSE,, MELE CHOVVA, KANNUR  (KERALA)","Kannur","Kerala","670006","91 8138066399","d12380@baldealer.com"
"Kvr Vehicles","Dealer","751, JUBILEE ROAD ,, NR. YATHEEM  KHANA,","Thalassery","Kerala","670101","82818 27719","d12380@baldealer.com"
"St. Patrick Motors","Dealer","MANNARMALA, OMALLOR,, ","Pathanamthitta","Kerala","689645","91 8547874213 - 94460 65030","d12946@baldealer.com"
"Joyees International","Dealer","M.C.ROAD, KODIMATHA,, NATTAKA","Kottayam","Kerala","686013","91 481 236 1639","d12103@baldealer.com"
"Joyees International","Dealer","NEAR GOOD SAMARITEN CENTRE,, KOTTAYAM - PALA HIGHWAY, CHERPINKAL, PALA DISTT. KOTTAYAM","Pala","Kerala","686584","91 95449 17555","d12103@baldealer.com"
"Joyees International","Dealer","MANALITHARA BUILDING, M.C.ROAD,, PO.  KUTTOOR,","Thiruvalla","Kerala","689106","91 95449 16555, 95449 13555","d12103@baldealer.com"
"Popular Motor Corp","Dealer","JACON & SONS BIDG. S.A. ROAD, DOOR NO. 29 5A, 295B, JANATHA JUNCTION, VYTTILA","Cochin","Kerala","682019","91 81298 20906","d12355@baldealer.com"
"ALUVA KTM","Branch","NH 47, BUILDING NO.  2/262, , CHOORNIKKARA GRAM PANCHAYAT,  MUTTAM, , , ","Cochin","Kerala","683106","+91 81298 20900","d12355@baldealer.com"
"Popular Motor Corp","Dealer","NH 47, BUILDING NO.  2262,, CHOORNIKKARA GRAM PANCHAYAT,  MUTTAM,","Cochin","Kerala","683106","91 81298 20900","d12355@baldealer.com"
"ALUVA KTM","Branch","NH 47, BUILDING NO.  2/262, , CHOORNIKKARA GRAM PANCHAYAT,  MUTTAM, , , ","Cochin","Kerala","683106","+91 81298 20900","d12355@baldealer.com"
"Popular Motor Corporation","Dealer","KOOTTINGAL ARCADE, DOOR. NO. M,N,O,P AKATHIYOOR,, P.O, PAREMPADAM,","Kunnamkullam","Kerala","680519","91 97457 03999","d12738@baldealer.com"
"Jkb Motors","Dealer","KALLARAKKAL SQUARE, IX-206, AM ROAD, MARTHOMA COLLEGE ROAD,","Perumbavoor","Kerala","683542","91 9072701999","d12982@baldealer.com"
"Poonthottathil Motors","Dealer","NEAR PALAKKAD ROTARY CLUB, NH-47,, KADAMKODE,","Palakkad","Kerala","678001","91 491 6066000","d12981@baldealer.com"
"Popular Motors","Dealer","MANGATTUKAVALA, 4 LANE BYE PASS,, STATE HIGHWAY - 41,","Thodupuza","Kerala","685584","91 98957 90624","d12973@baldealer.com"
"K.V.R.Motors","Dealer","NEAR KANAKALAYA BANK, CHAKKORATHUKULAM,, ","Calicut","Kerala","673005","91 495 - 2386565","d12342@baldealer.com"
"K.V.R.Motors","Dealer","KVR TOWER,, NATIONAL HIGHWAY,","Vadakara","Kerala","673101","91 96334 44420","d12342@baldealer.com"
"K.V.R.Motors","Dealer","KK TOWER,, OPP SBI KALPETA","Kalpetta","Kerala","673121","91 75588 04455","d12342@baldealer.com"
"Deedi Automobiles","Dealer","DOOR NUMBER - 17250 (2), VALICODE,, NEDUMANGAD PO,","Nedumangad","Kerala","695541","91 472 280 4500","d12448@baldealer.com"
"Popular Motor Corp","Dealer","VI5A, NH 47, PARAVOOR JUNCTION,, P.O. PUNNAPPRA NORTH","Alappuzha","Kerala","","91 477 2288421","d12392@baldealer.com"
"St. Patrick Motors","Dealer","KM BULIDING,, VADACKEDATHUKAVU","Adoor","Kerala","691526","91 94464 11115","d12946@baldealer.com"
"Zain Motors","Dealer","GROUND FLOOR, ZAIN ARCADE,, NR. CHANDRAGIRI BRIDGE,","Kasargod","Kerala","671121","91 4994223277","d12377@baldealer.com"
"Anjushree Automobiles","Dealer","PLOT NO. 19, BEHIND GAIL,, NANAKHEDA, INDORE ROAD,","Ujjain","Madhya Pradesh","","91 94245 00744","d12774@baldealer.com"
"Sunil Scooters","Dealer","P.G COLLEGE ROAD,, LALBAGH","Chhindwara","Madhya Pradesh","480001","91  90096 79679","d12796@baldealer.com"
"Seth Motors","Dealer","37, LOKENDRA BHAWAN ROAD,, RATLAM","Ratlam","Madhya Pradesh","457001","91  7412 408 855","d12688@baldealer.com"
"Sixth Gear","Dealer","ANMOL SPACES, NEAR ANAND BAZAR,, MAIL KHAJRANA ROAD,","Indore","Madhya Pradesh","452016","91 731 498 0088","d12689@baldealer.com"
"Anjushree Automobiles","Dealer","EF23, SCHEME NO.54,, VIJAY NAGAR","Indore","Madhya Pradesh","451001","91  731 494 8483","d12933@baldealer.com"
"Gupta And Sons Pvt. Ltd.","Dealer","AHHENA BEHIND SP OFFICE,, CITY CENTER","Gwalior","Madhya Pradesh","474011","91 9584820523","d12338@baldealer.com"
"Avtar Agency","Dealer","GULAB ROAD, INFRONT OF MAHENDRA OLI MILL,, TILAK GANJ WARD,","Sagar","Madhya Pradesh","470002","91 7582 494089","d12974@baldealer.com"
"Raj Automotives","Dealer","E-214 DYNASTY COMPLEX,, ARERA COLONY, OPP. HABIBGANJ RAILWAY STATION,","Bhopal","Madhya Pradesh","462016","91  755 - 4929930","d12737@baldealer.com"
"Surjeet Auto","Dealer","4-5 LALA LAJPAT RAI COLONY,, RAISEN ROAD,","Bhopal","Madhya Pradesh","462023","91 755 2590 000","d12352@baldealer.com"
"Frontier Motors","Dealer","OPPOSITE LIFE STYLE FURNITURE SHOWROOM, MAHARASTHRA SCHOOL ROAD","Jabalpur","Madhya Pradesh","482002","91 761 2400 047","d12383@baldealer.com"
"Frontier Motors","Dealer","TRANSPORT NAGAR,, REWA ROAD,","Satna","Madhya Pradesh","485001","91 77710 03221","d12383@baldealer.com"
"Pagariya Auto Centre","Dealer","ADALAT ROAD,ABC COMPLEX,, SHOPNO-6,NR. BABA PETROL PUMP,","Aurangabad","Maharashtra","431001","91 240 6621111, 6615449","d12432@baldealer.com"
"Kanchan Auto","Dealer","B-36, REGENCY PLAZA, WALDUNI,, KALYAN- AMBERNATH ROAD, ULHASNAGAR (MAHARASHTRA)","Mumbai","Maharashtra","421003","91 251 256 3174","d12446@baldealer.com"
"THANE KTM","Branch","UNIT NO.6,7 & 9, GRD FLOOR, GANATRA INDUSTRIAL ESTATE, CADBURY JUNCTION,,  NEAR ABHISHEK HOTEL, KOPAT, THANE (WEST) MAHARASHTRA, , ","Mumbai","Maharashtra","400602","+91 22 25479409","d12446@baldealer.com"
"BADLAPUR KTM","Branch","SHOP NO.2 & 3, DNYAN MAULI APT, APTEWADI NAKA,, HIGHWAY ROAD,, , ","Mumbai","Maharashtra","421503"," +91  251 269 5345","d12446@baldealer.com"
"Kanchan Auto","Dealer","UNIT NO.6,7 & 9, GRD FLOOR, GANATRA INDUSTRIAL ESTATE, CADBURY JUNCTION,, NEAR ABHISHEK HOTEL, KOPAT, THANE (WEST) MAHARASHTRA","Mumbai","Maharashtra","400602","91 22 25479409","d12446@baldealer.com"
"THANE KTM","Branch","UNIT NO.6,7 & 9, GRD FLOOR, GANATRA INDUSTRIAL ESTATE, CADBURY JUNCTION,,  NEAR ABHISHEK HOTEL, KOPAT, THANE (WEST) MAHARASHTRA, , ","Mumbai","Maharashtra","400602","+91 22 25479409","d12446@baldealer.com"
"BADLAPUR KTM","Branch","SHOP NO.2 & 3, DNYAN MAULI APT, APTEWADI NAKA,, HIGHWAY ROAD,, , ","Mumbai","Maharashtra","421503"," +91  251 269 5345","d12446@baldealer.com"
"Sai Service Agency (Bombay) Pvt. Ltd.","Dealer","PHOENIX MILLS COMPOUND,, 462, SENAPATI BAPAT MARG, LOWER PAREL,","Mumbai","Maharashtra","400013","91 22 430 30411,","d12443@baldealer.com"
"Ahuja Automobiles","Dealer","SHOP NO 2 & 3, NEAR ASHA KRISHNA BUILDING,, A.G LINK ROAD, SAKINAKA, ANDHERI EAST","Mumbai","Maharashtra","400072","91 22 285 10774","d12162@baldealer.com"
"MAHIM KTM","Branch","SHOP NO. 3, CAUSY CORNER BUILDING, NEXT TO THE LIVING ROOM, , LADY JAMSHEDJI ROAD, MAHIM WEST, , , ","Mumbai","Maharashtra","400016","+91 22 6589 9991","d12162@baldealer.com"
"Ahuja Automobiles","Dealer","BAJAJ BHAVAN, 226, NARIMAN POINT,, BARISTER RAJNI PATEL MARG,","Mumbai","Maharashtra","400021","91  22 2285 2978 8953433954","d12162@baldealer.com"
"MAHIM KTM","Branch","SHOP NO. 3, CAUSY CORNER BUILDING, NEXT TO THE LIVING ROOM, , LADY JAMSHEDJI ROAD, MAHIM WEST, , , ","Mumbai","Maharashtra","400016","+91 22 6589 9991","d12162@baldealer.com"
"Ahuja Automobiles","Dealer","SHOP NO. 3, CAUSY CORNER BUILDING, NEXT TO THE LIVING ROOM,, LADY JAMSHEDJI ROAD, MAHIM WEST,","Mumbai","Maharashtra","400016","91 22 6589 9991","d12162@baldealer.com"
"MAHIM KTM","Branch","SHOP NO. 3, CAUSY CORNER BUILDING, NEXT TO THE LIVING ROOM, , LADY JAMSHEDJI ROAD, MAHIM WEST, , , ","Mumbai","Maharashtra","400016","+91 22 6589 9991","d12162@baldealer.com"
"Sk Automobiles","Dealer","SHOP NO.13 & 14, BSEL TECH PARK, PLOT NO.395 & 395A,, SECTOR 30A, OPP VASHI RLY STATION,VASHI,","Mumbai","Maharashtra","400703","91 22 66741111 66740256","d12447@baldealer.com"
"CHEMBUR KTM","Branch","CTS NO. 652, OFF BORLA VILLAGE, OPP SHATABDI HOSPITAL,, W.T.PATIL MARG, CHEMBUR, , ","Mumbai","Maharashtra","400071","     +91 22 6505 0400 ","d12746@baldealer.com"
"Sk Automobiles","Dealer","CTS NO. 652, OFF BORLA VILLAGE, OPP SHATABDI HOSPITAL,, W.T.PATIL MARG, CHEMBUR","Mumbai","Maharashtra","400071","91 22 6505 0400","d12746@baldealer.com"
"CHEMBUR KTM","Branch","CTS NO. 652, OFF BORLA VILLAGE, OPP SHATABDI HOSPITAL,, W.T.PATIL MARG, CHEMBUR, , ","Mumbai","Maharashtra","400071","     +91 22 6505 0400 ","d12746@baldealer.com"
"Sk Automobiles","Dealer","SHOP NO 1 - 4, TARANGAN SOCIETY, NEXT TO SWYAM SIDDI SCHOOL,, BHIWANDI  KALYAN ROAD, PO. DANDEKARWADI","Mumbai","Maharashtra","421302","91 91677 71144","d12746@baldealer.com"
"CHEMBUR KTM","Branch","CTS NO. 652, OFF BORLA VILLAGE, OPP SHATABDI HOSPITAL,, W.T.PATIL MARG, CHEMBUR, , ","Mumbai","Maharashtra","400071","     +91 22 6505 0400 ","d12746@baldealer.com"
"Kanchan Auto","Dealer","SHOP NO 1,2 & 3, A WING, GUNDECHA HEIGHTS LBS MARG,, OPP ST. XAVIER SCHOOL,","Mumbai","Maharashtra","400078","91 78880 96965 78880 97976","d12446@baldealer.com"
"THANE KTM","Branch","UNIT NO.6,7 & 9, GRD FLOOR, GANATRA INDUSTRIAL ESTATE, CADBURY JUNCTION,,  NEAR ABHISHEK HOTEL, KOPAT, THANE (WEST) MAHARASHTRA, , ","Mumbai","Maharashtra","400602","+91 22 25479409","d12446@baldealer.com"
"BADLAPUR KTM","Branch","SHOP NO.2 & 3, DNYAN MAULI APT, APTEWADI NAKA,, HIGHWAY ROAD,, , ","Mumbai","Maharashtra","421503"," +91  251 269 5345","d12446@baldealer.com"
"Kanchan Auto","Dealer","SHOP NO. 1,2, 3 & 4, R.K. TOWERS,, KHAMBALPADA MIDC ROAD , DOMBIVILI","Mumbai","Maharashtra","421201","91 251 2425599","d12446@baldealer.com"
"THANE KTM","Branch","UNIT NO.6,7 & 9, GRD FLOOR, GANATRA INDUSTRIAL ESTATE, CADBURY JUNCTION,,  NEAR ABHISHEK HOTEL, KOPAT, THANE (WEST) MAHARASHTRA, , ","Mumbai","Maharashtra","400602","+91 22 25479409","d12446@baldealer.com"
"BADLAPUR KTM","Branch","SHOP NO.2 & 3, DNYAN MAULI APT, APTEWADI NAKA,, HIGHWAY ROAD,, , ","Mumbai","Maharashtra","421503"," +91  251 269 5345","d12446@baldealer.com"
"Kanchan Auto","Dealer","SHOP NO.2 & 3, DNYAN MAULI APT, APTEWADI NAKA,, HIGHWAY ROAD,","Mumbai","Maharashtra","421503","91  251 269 5345","d12446@baldealer.com"
"THANE KTM","Branch","UNIT NO.6,7 & 9, GRD FLOOR, GANATRA INDUSTRIAL ESTATE, CADBURY JUNCTION,,  NEAR ABHISHEK HOTEL, KOPAT, THANE (WEST) MAHARASHTRA, , ","Mumbai","Maharashtra","400602","+91 22 25479409","d12446@baldealer.com"
"BADLAPUR KTM","Branch","SHOP NO.2 & 3, DNYAN MAULI APT, APTEWADI NAKA,, HIGHWAY ROAD,, , ","Mumbai","Maharashtra","421503"," +91  251 269 5345","d12446@baldealer.com"
"Suryoday Motors Pvt. Ltd.","Dealer","RAJ PRABHA INDUSTRIAL COMPLEX, BUILDING NO. 06,, GALA NO. 05, SATIVALI ROAD, VASAI (E)","Mumbai","Maharashtra","401208","91 250 6588 310 - 6518 222","d12372@baldealer.com"
"BORIVALI EAST KTM","Branch","BORKAR COMPOUND, WESTERN EXPRESS HIGHWAY,, OPP METRO MALL, BORIVALI EAST MUMBAI - (MAHARASHTRA), , ","Mumbai","Maharashtra","400066","     +91 22 6999 8884","d12372@baldealer.com"
"GOREGAON KTM","Branch","SHOPE NO. 10A - 10B, SHIVAM CHS LTD. , OPP. KANCHA BAR & RESTAURANT, SHASHTRI NAGAR,, , ","Mumbai","Maharashtra","400104","     +91 22 6555 6551 - 2876 9077","d12372@baldealer.com"
"BOISAR KTM","Branch","J/147, TARAPUR INDUSTRIAL AREA, , MIDC , , ","Mumbai","Maharashtra","401501","+91 2525 66 11 44","d12372@baldealer.com"
"MIRA ROAD KTM","Branch","MAHESH INDUSTRIAL ESTATE, GALA NO 1&2,NEAR SILVER PARK BUS STOP, MIRA BHYANDAR ROAD, MIRA ROAD(E), THANE, , ","Mumbai","Maharashtra","401107","+91 22 6888 8702","d12372@baldealer.com"
"Suryoday Motors Pvt. Ltd.","Dealer","BORKAR COMPOUND, WESTERN EXPRESS HIGHWAY,, OPP METRO MALL, BORIVALI EAST MUMBAI - (MAHARASHTRA)","Mumbai","Maharashtra","400066","91 22 6999 8884","d12372@baldealer.com"
"BORIVALI EAST KTM","Branch","BORKAR COMPOUND, WESTERN EXPRESS HIGHWAY,, OPP METRO MALL, BORIVALI EAST MUMBAI - (MAHARASHTRA), , ","Mumbai","Maharashtra","400066","     +91 22 6999 8884","d12372@baldealer.com"
"GOREGAON KTM","Branch","SHOPE NO. 10A - 10B, SHIVAM CHS LTD. , OPP. KANCHA BAR & RESTAURANT, SHASHTRI NAGAR,, , ","Mumbai","Maharashtra","400104","     +91 22 6555 6551 - 2876 9077","d12372@baldealer.com"
"BOISAR KTM","Branch","J/147, TARAPUR INDUSTRIAL AREA, , MIDC , , ","Mumbai","Maharashtra","401501","+91 2525 66 11 44","d12372@baldealer.com"
"MIRA ROAD KTM","Branch","MAHESH INDUSTRIAL ESTATE, GALA NO 1&2,NEAR SILVER PARK BUS STOP, MIRA BHYANDAR ROAD, MIRA ROAD(E), THANE, , ","Mumbai","Maharashtra","401107","+91 22 6888 8702","d12372@baldealer.com"
"Suryoday Motors Pvt. Ltd.","Dealer","SHOPE NO. 10A - 10B, SHIVAM CHS LTD., OPP. KANCHA BAR & RESTAURANT, SHASHTRI NAGAR,","Mumbai","Maharashtra","400104","91 22 6555 6551 - 2876 9077","d12372@baldealer.com"
"BORIVALI EAST KTM","Branch","BORKAR COMPOUND, WESTERN EXPRESS HIGHWAY,, OPP METRO MALL, BORIVALI EAST MUMBAI - (MAHARASHTRA), , ","Mumbai","Maharashtra","400066","     +91 22 6999 8884","d12372@baldealer.com"
"GOREGAON KTM","Branch","SHOPE NO. 10A - 10B, SHIVAM CHS LTD. , OPP. KANCHA BAR & RESTAURANT, SHASHTRI NAGAR,, , ","Mumbai","Maharashtra","400104","     +91 22 6555 6551 - 2876 9077","d12372@baldealer.com"
"BOISAR KTM","Branch","J/147, TARAPUR INDUSTRIAL AREA, , MIDC , , ","Mumbai","Maharashtra","401501","+91 2525 66 11 44","d12372@baldealer.com"
"MIRA ROAD KTM","Branch","MAHESH INDUSTRIAL ESTATE, GALA NO 1&2,NEAR SILVER PARK BUS STOP, MIRA BHYANDAR ROAD, MIRA ROAD(E), THANE, , ","Mumbai","Maharashtra","401107","+91 22 6888 8702","d12372@baldealer.com"
"Suryoday Motors Pvt. Ltd.","Dealer","J147, TARAPUR INDUSTRIAL AREA,, MIDC","Mumbai","Maharashtra","401501","91 2525 66 11 44","d12372@baldealer.com"
"BORIVALI EAST KTM","Branch","BORKAR COMPOUND, WESTERN EXPRESS HIGHWAY,, OPP METRO MALL, BORIVALI EAST MUMBAI - (MAHARASHTRA), , ","Mumbai","Maharashtra","400066","     +91 22 6999 8884","d12372@baldealer.com"
"GOREGAON KTM","Branch","SHOPE NO. 10A - 10B, SHIVAM CHS LTD. , OPP. KANCHA BAR & RESTAURANT, SHASHTRI NAGAR,, , ","Mumbai","Maharashtra","400104","     +91 22 6555 6551 - 2876 9077","d12372@baldealer.com"
"BOISAR KTM","Branch","J/147, TARAPUR INDUSTRIAL AREA, , MIDC , , ","Mumbai","Maharashtra","401501","+91 2525 66 11 44","d12372@baldealer.com"
"MIRA ROAD KTM","Branch","MAHESH INDUSTRIAL ESTATE, GALA NO 1&2,NEAR SILVER PARK BUS STOP, MIRA BHYANDAR ROAD, MIRA ROAD(E), THANE, , ","Mumbai","Maharashtra","401107","+91 22 6888 8702","d12372@baldealer.com"
"Suryoday Motors Pvt. Ltd.","Dealer","MAHESH INDUSTRIAL ESTATE, GALA NO 1&2,NEAR SILVER PARK BUS STOP, MIRA BHYANDAR ROAD, MIRA ROAD(E), THANE","Mumbai","Maharashtra","401107","91 22 6888 8702","d12372@baldealer.com"
"BORIVALI EAST KTM","Branch","BORKAR COMPOUND, WESTERN EXPRESS HIGHWAY,, OPP METRO MALL, BORIVALI EAST MUMBAI - (MAHARASHTRA), , ","Mumbai","Maharashtra","400066","     +91 22 6999 8884","d12372@baldealer.com"
"GOREGAON KTM","Branch","SHOPE NO. 10A - 10B, SHIVAM CHS LTD. , OPP. KANCHA BAR & RESTAURANT, SHASHTRI NAGAR,, , ","Mumbai","Maharashtra","400104","     +91 22 6555 6551 - 2876 9077","d12372@baldealer.com"
"BOISAR KTM","Branch","J/147, TARAPUR INDUSTRIAL AREA, , MIDC , , ","Mumbai","Maharashtra","401501","+91 2525 66 11 44","d12372@baldealer.com"
"MIRA ROAD KTM","Branch","MAHESH INDUSTRIAL ESTATE, GALA NO 1&2,NEAR SILVER PARK BUS STOP, MIRA BHYANDAR ROAD, MIRA ROAD(E), THANE, , ","Mumbai","Maharashtra","401107","+91 22 6888 8702","d12372@baldealer.com"
"Holedays Auto Service","Dealer","SHOP NO. 15 & 16,, SHANTAI CITY CENTRE,, NEAR BANK OF INDIA, STATION ROAD,","Pune","Maharashtra","410507","91 77570 06117","d12421@baldealer.com"
"Orange Automotive","Dealer","MY WORLD, SURVEY NO 1281-2,, BALEWADI HIGH STREET, BANER,","Pune","Maharashtra","411045","91 95793 93919","d12639@baldealer.com"
"Pb Narsale Wheels Pvt. Ltd.","Dealer","H NO. 91 S. NO. 134,  NEAR LODHA HOSPITAL,, KATRAJ-DEHU RD BYPASS, GIRIDHAR NAGAR, WARJE,","Pune","Maharashtra","411058","91  98810 01600","d12567@baldealer.com"
"Aadivenoo Motors","Dealer","66, GURUCHAYA,, KARVE ROAD, NAL STOP,","Pune","Maharashtra","411004","91 20 6526 9999","d12293@baldealer.com"
"Sai Service Private Ltd.","Dealer","SHOP NO 2021 SR NO, 431211 TO 7,, UTTAM PLAZA, NEAR NIIT INSTITUTE,  KHARADI,","Pune","Maharashtra","411014","91 77220 28764 - 65","d12390@baldealer.com"
"Sai Service Private Ltd.","Dealer","GODREJ CASTLEMAINE BLDG, BUND GARDEN ROAD,, NEAR RUBY HALL CLINIC,","Pune","Maharashtra","411001","91 20 66091111 - 91588 94071","d12390@baldealer.com"
"Sai Service Private Ltd.","Dealer","12B, BAJAJ BRAND VIEW BUILDING,, WAKDEWADI,","Pune","Maharashtra","411003","91 20 6536 3666 - 91686 26061","d12390@baldealer.com"
"Rutuja Automobiles Pvt. Ltd.","Dealer","ABC RUTUJA ELEGANCE, SHOP NO -15&16, NEAR AKURDI RAILWAY STATION, AKURDI","Pune","Maharashtra","411044","91 20 65110131","d12771@baldealer.com"
"Orange Motorrad","Dealer","OPP MANIKCHAND MALABAR,, LULLANAGAR,","Pune","Maharashtra","411040","91 74474 42326","d12778@baldealer.com"
"Torna Endeavours P Ltd","Dealer","BADNERA RD, VIDHYA VIHAR COLONY, NAVATHE NAGAR, ","Amravati","Maharashtra","444602","91 0721 6999901 - 93269 9990607","d12704@baldealer.com"
"Torna Endeavours P Ltd","Dealer","JAWAHAR NAGAR ROAD,, RANPISE NAGAR","Akola","Maharashtra","444001","91 9326999945","d12704@baldealer.com"
"Torna Endeavours P Ltd","Dealer","SHRI GAJANAN AUTOMOBILE,, NEAR ST WORKSHOP, ARNI ROAD,","Yavatmal","Maharashtra","445001","91 91684 49777","d12704@baldealer.com"
"Bhagyodaya Motors","Dealer","5243A2A, PLOT NO.1,  PAWAR MALA STOP, OPP. HOTEL DIVYA, SANGLI - KOLHAPUR ROAD,","Sangli","Maharashtra","416416","91  233 253 1177","d12601@baldealer.com"
"Rajyog Automobiles","Dealer","3, WEST GAJANAN HOUSING SOCIETY,, OGALEWADI ROAD, GOVARE, KARAD","Karad, Distt. Satara","Maharashtra","415110","91 2164 271004","d13013@baldealer.com"
"Wasan & Sons","Dealer","SHOP NO 1, RUSHIRAJ HEIGHTS,, MAHATMA NAGAR,","Nashik","Maharashtra","422007","91 253 6621111 6618657","d12439@baldealer.com"
"Shreeniwas Motors","Dealer","SHOP. NO. E & F , ANUSHREE APPARTMENT, OPP. SAMRAT SWEET SHOP,, NEAR GURU GOBIND SINGH COLLEGE, WADALA  PATHARDHI ROAD, INDIRA NAGAR","Nashik","Maharashtra","","91 253 237 0909","d12759@baldealer.com"
"C And C Company","Dealer","BANSILAL NAGAR, JIJAMATA ROAD,, NEAR KARAN CHOUPHULI,","Nandurbar","Maharashtra","425412","91 95527 99237","d12253@baldealer.com"
"Kamda Auto Riders","Dealer","NEXT TO GURU FURNITURE,, SHIRDI ROAD, SAVEDI,","Ahmednagar","Maharashtra","414003","91 241 241 8080, 94038 08080","d12087@baldealer.com"
"Auto India","Dealer","RAJARAM ROAD, TAKALA, ","Kolhapur","Maharashtra","416008","91 231 2536399, 2536499","d10732@baldealer.com"
"Mandar Motors","Dealer","G.NO-150,SIDDESHWAR COMPLEX, OPP.PAVANA SAHAKARI BANK, HAPSE WASTI, KURULI, TALUKATOWN- KHED","Chakan","Maharashtra","410501","91 97666 11122","d12922@baldealer.com"
"C And C Company","Dealer","GRACE FITNESS POINT, BEHIND ADARSH PUSTAKALAYA,, NEAR GANDHI PUTLA, AGRA ROAD,","Dhule","Maharashtra","424001","91 2562 232 221","d12253@baldealer.com"
"Venkatesh Motors","Dealer","AWDHUT COMPLEX, SHRI NAGAR MAIN ROAD, NEAR WORKSHOP,","Nanded","Maharashtra","431601","91 2462 254 444","d12238@baldealer.com"
"Raj Motors","Dealer","P.B. ROAD, N.H - 4, NEAR AJANTA CHOWK, GODOLI","Satara","Maharashtra","415002","91 2162 232 968","d12206@baldealer.com"
"Pathan Industrial Agencies","Dealer","OPPOSITE PANCHAYAT SAMITI,, MUMBAI  GOA HIGHWAY,","Chiplun","Maharashtra","415605","91 2355 25 2737","d12161@baldealer.com"
"Pathan Industrial Agencies","Dealer","E971 OPP.HOME GUARD BHAWAN,, M.I.D.C. MIRJOLE,","Ratnagiri","Maharashtra","415639","91 2352 228120","d12161@baldealer.com"
"Star Automotives","Dealer","KAZI COMPLEX, OPP. S.T. WORKSHOP,, AMBEJOGAI ROAD,","Latur","Maharashtra","413512","91 95119 50000","d12747@baldealer.com"
"Herammba Automobiles","Dealer","25, SHREE MITRA NAGAR,, OPP. MAJOR CORNER,","Jalgaon","Maharashtra","425001","91 94233 63300","d12976@baldealer.com"
"Herammba Automobiles","Dealer","PLOT NO 33, TILAK NAGAR, TAKLI PRA CHA, BHADGAON ROAD,","Chalisgaon Dist. Jalgaon","Maharashtra","424101","91 75887 44033","d12976@baldealer.com"
"Kaleshwar Motors","Dealer","163-11-B827A, OPP. MARUTI MANDIR NH-17,, KOLGAON","Sawantwadi","Maharashtra","416510","91  2363 274 349","d12653@baldealer.com"
"Sai Auto","Dealer","MILKAT NO. 7855, PUNE-SOLAPUR HIGHWAY,, NEAR SAI MOTORS,","Aklujindapur","Maharashtra","413106","91 2111 225 440","d12254@baldealer.com"
"Sarbani Motors","Dealer","C-16, INDUSTRIAL ESTATE,, MUL ROAD,","Chandrapur","Maharashtra","442401","91 7172 253 698","d12486@baldealer.com"
"Patni Auto Service","Dealer","KAMPTEE ROAD,, ","Nagpur","Maharashtra","440001","91 712 2522100, 91 712 2521761","d12521@baldealer.com"
"Arun Automobiles","Dealer","PATNI PLAZA, KHAMLA RING ROAD,, OPPOSITE ORANGE CITY HOSPITAL,","Nagpur","Maharashtra","440025","91 712  664 6444 - 664 6445","d12326@baldealer.com"
"Ashok Autotech India Pvt Ltd","Dealer","ASHOK BAJAJ SHOWROOM, MALKAPUR ROAD","Buldhana","Maharashtra","443001","91 88884 26616 - 95030 79009","d12552@baldealer.com"
"Aherkar Automobiles","Dealer","91, MORORJI PETH,, STATION ROAD,","Solapur","Maharashtra","413001","91 90111 29129 - 98813 33400","d12375@baldealer.com"
"Manipur Motors","Dealer","MANTRIPUKHRI, N.H. ROAD,, ","Imphal","Manipur","795002","91 96154 26884","d12346@baldealer.com"
"Goenka Engineering Works","Dealer","KEATING ROAD,, ","Shillong","Meghalaya","793001","91 98630 21570","d12337@baldealer.com"
"Standard Motors","Dealer","ZARKAWT, ","Aizwal","Mizoram","796001","91 389 234 1311","d12350@baldealer.com"
"Automobiles","Dealer","WALFORD ROAD,, NEAR MAHINDRA SHOWROOM,","Dimapur","Nagaland","797112","91 3862 237064","d12142@baldealer.com"
"Shuvalaxmi Motors","Dealer","BAGHRAROAD, WARD NO -19,, OPPDAROGAHHAI SHIV MANDIR,","Baripda","Odisha","757001","91 97766 19000","d12646@baldealer.com"
"BARIPADA KTM","Branch","BAGHRAROAD, WARD NO -19, , OPP;DAROGAHHAI SHIV MANDIR, , , ","Baripda","Odisha","757001","+91 97766 19000","d12646@baldealer.com"
"Arman Motors","Dealer","CHILKA ROAD,, BALUGAON DISTT KHURDA","Balugaon","Odisha","752030","91  6756 251 442","d12687@baldealer.com"
"Sonthalia Motors Pvt Ltd","Dealer","PLOT NUMBER - 146, SECTOR - A, ZONE - B,, MANCHESWAR INDUSTRIAL ESTATE, MANCHESWAR","Bhubneshwar","Odisha","751010","91 90400 55519","d12554@baldealer.com"
"KHANDAGIRI KTM","Branch","PLOT NO -18/2420, NH-5, KHANDAGIRI SQUARE, NEAR HOTEL 7 MILES, , ","Bhubneshwar","Odisha","751030","+91 9937205040","d12554@baldealer.com"
"Sampark Bajaj","Dealer","PLOT NO 8033317, MAYFAIR ROAD,, JAYADEV VIHAR, NAYAPALLI","Bhubneshwar","Odisha","751013","91 75049 92106","d12558@baldealer.com"
"Sonthalia Motors Pvt Ltd","Dealer","PLOT NO -182420, NH-5, KHANDAGIRI SQUARE, NEAR HOTEL 7 MILES","Bhubaneshwar","Odisha","751030","91 9937205040","d12554@baldealer.com"
"KHANDAGIRI KTM","Branch","PLOT NO -18/2420, NH-5, KHANDAGIRI SQUARE, NEAR HOTEL 7 MILES, , ","Bhubaneshwar","Odisha","751030","+91 9937205040","d12554@baldealer.com"
"Sisirabha Properties Pvt. Ltd.","Dealer","NEELKANTHA NAGAR MAIN ROAD,, BESIDE OF NURTURE INTERNATIONAL SCHOOL,","Behrampur","Odisha","760001","91 680 226 0260","d12241@baldealer.com"
"Jamuna Auto","Dealer","NH-55, SIMLIPADA,, NEAR ANGUL CHURCH,","Angul","Odisha","","91 97768 97765 - 9776897766","d12862@baldealer.com"
"Shankar Gouri Automobiles","Dealer","AT- SAMARAIPUR PO- GELPUR, ","Bhadrak","Odisha","756181","91 9435535596","d12907@baldealer.com"
"Rm Motors","Dealer","GROUND FLOOR, D.S. DIESEL COMPLEX, NH - 6, PANCHGANCHIA, PO.PS - BAREIPALLI","Sambalpur","Odisha","","91  78731 86610","d12754@baldealer.com"
"Shiv Shakti Automobiles","Dealer","PLOT NO- 879, ADJACENT TO HOTEL SHEETAL , LINK RAOD,, GANESH BAZAR, PO- ARUNODAYA MARKET, P.S- BADAMABD","Cuttack","Odisha","753012","91 671 655 5512","d12311@baldealer.com"
"Shiv Shakti Automobiles","Dealer","IN FRONT OF TATA MOTORS,, MOHAMMED JAMALPUR, PANIKOILI,","Jajpur Road","Odisha","755043","91 99375 34651","d12311@baldealer.com"
"Mm Motors","Dealer","BESIDES GRAND SUBHAM MANDAP, Besides Grand Subham Mandap, NABAKALEBARA ROAD, KANAKADURGA LANE, KUMBHARAPADA","Puri","Odisha","752002","91 89082 22292","d12995@baldealer.com"
"Shuvalaxmi Motors","Dealer","AT & PO. KALIDASPUR,, BHIMPURA CHOWK,","Balasore","Odisha","","91  6782 240 708","d12646@baldealer.com"
"BARIPADA KTM","Branch","BAGHRAROAD, WARD NO -19, , OPP;DAROGAHHAI SHIV MANDIR, , , ","Balasore","Odisha","757001","+91 97766 19000","d12646@baldealer.com"
"Aakash Automobiles Pvt Ltd","Dealer","NO.3, VILLIANUR MAIN ROAD,, SITHANANDHA NAGAR (NEAR IG SQUARE),","Pondicherry","Pondicherry","605005","91 413 4209000","d12394@baldealer.com"
"Scooter Aid Centre","Dealer","NEAR BADYAL HOSPITAL,, BIBI WALA ROAD,","Bhatinda","Punjab","151001","91 8556000039","d12368@baldealer.com"
"Scooter Aid Centre","Dealer","NEAR OLD BUS STAND,, ","Faridkot","Punjab","151203","91 85560 00039","d12368@baldealer.com"
"Dada Motors","Dealer","SAVITRI - 3, G.T. ROAD,, NEAR DHOLEWAL CHOWK","Ludhiana","Punjab","141003","91 161  6600350 - 52","d12330@baldealer.com"
"Doaba Automobiles","Dealer","COURT ROAD, ","Amritsar","Punjab","143001","91 183 506 4444","d12331@baldealer.com"
"Lovely Autos","Dealer","CIRCULAR ROAD, NEAR RAJIV GANDHI ENCLAVE,, ","Kapurthala","Punjab","144602","91 98764 64748","d12320@baldealer.com"
"Lovely Autos","Dealer","MAIN GT ROAD, NEAR BUS STAND,, PHAGWARA DISTT. KAPURTHALA","Phagwara","Punjab","144401","1824501400, 91 98764 64748","d12320@baldealer.com"
"Lovely Autos","Dealer","DR. AMBEDKAR CHOWK,, JALANDHAR CITY","Jalandhar","Punjab","144001","91 181 50253533","d12320@baldealer.com"
"St Kabir Automobiles","Dealer","HOSHIARPUR TO DASUYA ROAD,, NEAR MOUNT CARMEL SCHOOL,","Hoshiarpur","Punjab","146001","91 9478336463","d12882@baldealer.com"
"Nitesh Automobiles","Dealer","RAJPURA ROAD, NEAR BUS STAND,, ","Patiala","Punjab","147001","91 1752217873","d11916@baldealer.com"
"Ajmer Motors Pvt Ltd","Dealer","593  26, OPPOSITE RAILWAY HOSPITAL,, NEAR PETROL PUMP, BEAWAR ROAD,","Ajmer","Rajasthan","305001","91 145 2610222","d12057@baldealer.com"
"Raja Motors","Dealer","78-A,PRATAP NAGAR,, NEAR AKHALIYA CIRCLE,","Jodhpur","Rajasthan","342001","91 291 2762616, 99506 48000","d12347@baldealer.com"
"Aarzoo Motors","Dealer","E 31 MADHAVNAGAR, ANSALAPI, AJMER ROAD, BHILWARA","Bhilwara","Rajasthan","311001","91 9694329022","d12740@baldealer.com"
"Aarzoo Motors","Dealer","SHOP NO. 3, MUSTAFA COMPLEX, OPP TO GHOOMAR GARDEN, MAHARANA PRATAP SETHU","Chittorgarh","Rajasthan","312001","91 73399 33111","d12740@baldealer.com"
"Rajmandir Motors","Dealer","UDAIPUR ROAD, ","Dungarpur","Rajasthan","","91 91661 01706","d12071@baldealer.com"
"Raj Mandir Automobiles Pvt. Ltd.","Dealer","24, PARAS CHOURAHA,, SEC. NO. 11,","Udaipur","Rajasthan","313001","91 294 2483855","d12415@baldealer.com"
"Shree Shyam Bajaj","Dealer","PLOT NO. 39, SMS COLONY, OPP. VIJAY PATH,, MAIN SHIPRA PATH, MANSAROVAR,","Jaipur","Rajasthan","302020","91 141 688 8666","d12416@baldealer.com"
"Rambagh Service Station","Dealer","OPP R B I TONK ROAD JAIPUR, JAIPUR","Jaipur","Rajasthan","302004","91 141 4111333","d12697@baldealer.com"
"P L Automobiles P. Ltd","Dealer","MEHALA HOUSE, PURANI CHUNGI, QUEENS ROAD CROSSING,, AJMER ROAD","Jaipur","Rajasthan","302021","91 141 699 9982, 645 1915","d12344@baldealer.com"
"Banerjee Auto Corporation","Dealer","G.T ROAD, BHIRINGI,, ","Durgapur","Rajasthan","713203","91 343 2584109","d12701@baldealer.com"
"Aditya Automobiles","Dealer","OPP. INDIAN OIL PETROL PUMP, NEAR RTO OFFICE,, JAIPUR  JHUJHUNU BYPASS,","Sikar","Rajasthan","332001","91 157 251 4131","d12265@baldealer.com"
"Shree Amba Bajaj","Dealer","HANUMANGARH ROAD,, ","Sri Ganaganagar","Rajasthan","335001","91 154 246 5501 - 601 - 602","d12549@baldealer.com"
"The Racing Store","Dealer","PLOT NO.5, LAXMI VIHAR COLONY,, JAIPUR ROAD,","Bikaner","Rajasthan","334001","91  151 222 2121","d12673@baldealer.com"
"Kamal Auto Industries","Dealer","AERODROME CIRCLE,, ","Kota","Rajasthan","324007","91 744 236 4783","d12341@baldealer.com"
"Yash Concrete Co","Dealer","SCO 10 HUDA CITY CENTER,, NEAR BASIA BHAWAN","Bhiwani","Rajasthan","127021","91  97282 45555","d12652@baldealer.com"
"Siliguri Auto Works Pvt.Ltd.","Dealer","NH 31A, TADONG (OPP. SBI),, NEAR CONVEY GROUND,","Gangtok","Sikkim","737102","91 3592 232091","d12751@baldealer.com"
"Gb Motors","Dealer","338B, KARAIKAL MAIN ROAD,, MUTHUPILLAIMANDABAM","Kumbakonam","Tamil Nadu","","91  435 241 1009","d12707@baldealer.com"
"Gb Motors","Dealer","1A  40, BYPASS ROAD,, ","Tiruvarur","Tamil Nadu","610104","91 7373730173","d12707@baldealer.com"
"K.L.N.Automobiles","Dealer","L 44, AMBATTUR INDUSTRIAL ESTATE, ","Chennai","Tamil Nadu","600058","91 44 26880093","d12319@baldealer.com"
"ANNANAGAR KTM","Branch","NEW NO. P  60, OLD NO. P  52, 6TH AVENUE, , ANNANAGAR, CHENNAI  600 040, , ","Chennai","Tamil Nadu","","     +91 44 2363 0343","d12319@baldealer.com"
"K.L.N.Automobiles","Dealer","NEW NO. P  60, OLD NO. P  52, 6TH AVENUE,, ANNANAGAR, CHENNAI  600 040","Chennai","Tamil Nadu","","91 44 2363 0343","d12319@baldealer.com"
"ANNANAGAR KTM","Branch","NEW NO. P  60, OLD NO. P  52, 6TH AVENUE, , ANNANAGAR, CHENNAI  600 040, , ","Chennai","Tamil Nadu","","     +91 44 2363 0343","d12319@baldealer.com"
"Khivraj Automobile And Infrastructure Pvt. Ltd.","Dealer","617, ANNASALAI,, THOUSAND LIGHTS,","Chennai","Tamil Nadu","600006","91 044-4226 9601, 90927 44666","d12414@baldealer.com"
"TIRUVOTTIYUR KTM","Branch","#390, THIRUVOTTIYUR HIGH ROAD, , NEAR PERIYAR NAGAR BUS STOP, THIRUVOTTIYUR , , ","Chennai","Tamil Nadu","600019"," +91  97107 43881","d12414@baldealer.com"
"KOLATHUR KTM","Branch","NO.2,THIRUMALAI NAGAR ANNEX, , 200 FEET ROAD, (NEXT TO IOC PETROL PUMP) KOLATHUR, , ","Chennai","Tamil Nadu","600099","+91 96770 65658","d12414@baldealer.com"
"Khivraj Automobile And Infrastructure Pvt. Ltd.","Dealer","NO.2,THIRUMALAI NAGAR ANNEX,, 200 FEET ROAD, (NEXT TO IOC PETROL PUMP) KOLATHUR","Chennai","Tamil Nadu","600099","91 96770 65658","d12414@baldealer.com"
"TIRUVOTTIYUR KTM","Branch","#390, THIRUVOTTIYUR HIGH ROAD, , NEAR PERIYAR NAGAR BUS STOP, THIRUVOTTIYUR , , ","Chennai","Tamil Nadu","600019"," +91  97107 43881","d12414@baldealer.com"
"KOLATHUR KTM","Branch","NO.2,THIRUMALAI NAGAR ANNEX, , 200 FEET ROAD, (NEXT TO IOC PETROL PUMP) KOLATHUR, , ","Chennai","Tamil Nadu","600099","+91 96770 65658","d12414@baldealer.com"
"Gusto Racing","Dealer","486C, GNT Road, REDHILLS","Chennai","Tamil Nadu","600052","91 98846 18876 - 98410 18876","d13010@baldealer.com"
"Mohteej Automobiles","Dealer","216, MOUNT  POONAMALLE HIGH ROAD,, KATTHPAKKAM, POONAMALLE","Chennai","Tamil Nadu","600056","91 91760 97331","d12423@baldealer.com"
"THIRUMULLAIVOYAL KTM","Branch","#2, CHT ROAD, , THIRUMULLAIVOYAL, , ","Chennai","Tamil Nadu","600062"," +91  98842 22346","d12423@baldealer.com"
"Mohteej Automobiles","Dealer","#2, CHT ROAD,, THIRUMULLAIVOYAL","Chennai","Tamil Nadu","600062","'91 91764 08333","d12423@baldealer.com"
"THIRUMULLAIVOYAL KTM","Branch","#2, CHT ROAD, , THIRUMULLAIVOYAL, , ","Chennai","Tamil Nadu","600062"," +91  98842 22346","d12423@baldealer.com"
"Khivraj Automobile And Infrastructure Pvt. Ltd.","Dealer","#390, THIRUVOTTIYUR HIGH ROAD,, NEAR PERIYAR NAGAR BUS STOP, THIRUVOTTIYUR","Chennai","Tamil Nadu","600019","91  97107 43881","d12414@baldealer.com"
"TIRUVOTTIYUR KTM","Branch","#390, THIRUVOTTIYUR HIGH ROAD, , NEAR PERIYAR NAGAR BUS STOP, THIRUVOTTIYUR , , ","Chennai","Tamil Nadu","600019"," +91  97107 43881","d12414@baldealer.com"
"KOLATHUR KTM","Branch","NO.2,THIRUMALAI NAGAR ANNEX, , 200 FEET ROAD, (NEXT TO IOC PETROL PUMP) KOLATHUR, , ","Chennai","Tamil Nadu","600099","+91 96770 65658","d12414@baldealer.com"
"Sri Jai Autos Pvt Ltd","Dealer","243, SARDAR PATEL ROAD,, SOUTHERN PART, GROUND FLOOR, ADYAR","Chennai","Tamil Nadu","600020","91  44 2441 7272","d12376@baldealer.com"
"OMR KTM","Branch","169, KUMARAN NAGAR, PLOT #1130, OLD MAHABALIPURAM ROAD, , SEMMENCHERY, , ","Chennai","Tamil Nadu","600119","+91 44 2450 1360","d12376@baldealer.com"
"Sri Jai Autos Pvt Ltd","Dealer","169, KUMARAN NAGAR, PLOT #1130, OLD MAHABALIPURAM ROAD,, SEMMENCHERY","Chennai","Tamil Nadu","600119","91 44 2450 1360","d12376@baldealer.com"
"OMR KTM","Branch","169, KUMARAN NAGAR, PLOT #1130, OLD MAHABALIPURAM ROAD, , SEMMENCHERY, , ","Chennai","Tamil Nadu","600119","+91 44 2450 1360","d12376@baldealer.com"
"Jai Auto Pvt. Ltd.","Dealer","2, KVIC NAGAR, VELACHERRY ROAD,, GOWRIWAKKAM, SELAIYUR","Chennai","Tamil Nadu","600073","91 44 4351 2028","d12323@baldealer.com"
"PALLAVARAM KTM","Branch","OLD NO 89, NEW NO 22, DOOR NO90, ,  ISSA PALLAVARAM, GST ROAD, , , ","Chennai","Tamil Nadu","","+91  44 4851 7070","d12323@baldealer.com"
"Jai Auto Pvt. Ltd.","Dealer","OLD NO 89, NEW NO 22, DOOR NO. 90, ISSA PALLAVARAM, GST ROAD,","Chennai","Tamil Nadu","","91  44 4851 7070","d12323@baldealer.com"
"PALLAVARAM KTM","Branch","OLD NO 89, NEW NO 22, DOOR NO90, ,  ISSA PALLAVARAM, GST ROAD, , , ","Chennai","Tamil Nadu","","+91  44 4851 7070","d12323@baldealer.com"
"Sri Jai Auto","Dealer","2, ANJUGAM NAGAR, 1ST STREET, FACING JAWAHARLAL NEHRU ROAD,, JAFFARKHANPET, ASHOK NAGAR","Chennai","Tamil Nadu","600083","91 44 2371 3949","d12340@baldealer.com"
"Vishnu Racing Motors","Dealer","SF NO 2181,, DURUGAM ROAD, KALLAKURICHI DISTT. VILLUPURAM","Kallakurichi","Tamil Nadu","606202","91 4151 222 221  94430 92073","d12760@baldealer.com"
"Athen Automobiles","Dealer","VETURNIMADAM, NEAR TOYOTA SHOWROOM,, TRIVANDRUM MAIN ROAD,  NAGERCOIL, DISTT. KANYAKUMARI","Nagercoil","Tamil Nadu","629003","91 80125 18888","d12166@baldealer.com"
"Nas Motors","Dealer","41 - BLOCK -1, SIVA COMPLEX, IMPERIAL ROAD","Cuddalore","Tamil Nadu","607003","91 95145 54430","d12944@baldealer.com"
"Paavai Motors","Dealer","203, SENGADU, VEERAPPAMPALAYAM PRIVU,, PERUNDURAI ROAD, PO. THINDAL, NEAR HYUNDAI SHOWROOM,","Erode","Tamil Nadu","638012","91 99654 00400, 85088 89999","d12212@baldealer.com"
"Paavai Motors","Dealer","41108, KOLANDAIAPPA COMPLEX, ERODE MAIN ROAD,, PO. VELLAPALAYAM,","Gobi","Tamil Nadu","638476","91 99652 00200","d12212@baldealer.com"
"Roja Autos","Dealer","97B NAINARKULAM, NEAR ARCH,, TIRUNELVELI TOWN","Tirunelveli","Tamil Nadu","627002","91 4622 331115, 84899 44496","d12173@baldealer.com"
"Roja Autos","Dealer","NO. 162, COURTALLAM  MADURAI MAIN ROAD,, KUTHUKKAL VALASAI,","Tenkasi","Tamil Nadu","627803","84899 34496","d12173@baldealer.com"
"Susee Automobiles","Dealer","NO. 219, INDRA NAGAR,, NEAR NEW RAILWAY STATION,","Kanchipuram","Tamil Nadu","631501","91 44 67272737","d12360@baldealer.com"
"Aakash Bajaj","Dealer","180 RK NAGAR, OPP. RAMKRISHNA SCHOOL,, NEAR RAILWAY STATION,","Hosur","Tamil Nadu","635109","91 9025333377","d12386@baldealer.com"
"Aakash Bajaj","Dealer","NO. 4611 A, AVADHANAPATTY, SALEM BYE PASS ROAD","Krishnagiri","Tamil Nadu","635001","91 93447 44751","d12386@baldealer.com"
"R.K.Motors","Dealer","281, EVR ROAD, CROSS ROAD,, PUTHUR","Trichy","Tamil Nadu","620017","91 94890 84881","d11913@baldealer.com"
"Victory Motor Corp","Dealer","119, HASTHAMPATTI MAIN ROAD,, HASTHAMPATTI,","Salem","Tamil Nadu","636007","91 427 404 0055","d12049@baldealer.com"
"Jailaxmi Agencies","Dealer","SF NO - 642 C 5, NEAR SM CAR MARUTI SERVICE,, SEELANAICKENPATTY,","Salem","Tamil Nadu","636201","91 70944 47772 - 70944 47776 - 82200 10533","d12691@baldealer.com"
"Khivraj Automobile And Infrastructure Pvt. Ltd.","Dealer","NO.39, KANDASAMY NAGAR, ONDIKUPPAM,, POONAMALLEE HIGH ROAD, MANAVALA NAGAR, TIRUVALLUR","Tiruvallur","Tamil Nadu","602002","91 44 2764 0664","d12414@baldealer.com"
"TIRUVOTTIYUR KTM","Branch","#390, THIRUVOTTIYUR HIGH ROAD, , NEAR PERIYAR NAGAR BUS STOP, THIRUVOTTIYUR , , ","Tiruvallur","Tamil Nadu","600019"," +91  97107 43881","d12414@baldealer.com"
"KOLATHUR KTM","Branch","NO.2,THIRUMALAI NAGAR ANNEX, , 200 FEET ROAD, (NEXT TO IOC PETROL PUMP) KOLATHUR, , ","Tiruvallur","Tamil Nadu","600099","+91 96770 65658","d12414@baldealer.com"
"Athen Automobiles","Dealer","1376, CHANGAI, TRIVANDRUM MAIN ROAD,, OPP. OLD RTO OFFICE,","Marthandam","Tamil Nadu","629155","91  80121 16666","d12559@baldealer.com"
"Sri Shai Autos","Dealer","5220E, SALEM MAIN ROAD,, SENTHIL NAGAR BUS STOP","Dharmapuri","Tamil Nadu","636705","91  4342 232555 444","d12565@baldealer.com"
"R.K.Motors","Dealer","1 - A , VANAMAMALAI NAGAR,, BYE PASS ROAD,","Madurai","Tamil Nadu","625016","91 94422 30881","d12401@baldealer.com"
"KK NAGAR KTM","Branch","252, LIG COLONY, , K.K.NAGAR, , , ","Madurai","Tamil Nadu","625020","+91 94873 23881","d12401@baldealer.com"
"R.K.Motors","Dealer","252, LIG COLONY,, K.K.NAGAR,","Madurai","Tamil Nadu","625020","91 94873 23881","d12401@baldealer.com"
"KK NAGAR KTM","Branch","252, LIG COLONY, , K.K.NAGAR, , , ","Madurai","Tamil Nadu","625020","+91 94873 23881","d12401@baldealer.com"
"R.K.Motors","Dealer","NO. 6504, VIRUDHNAGARMADURAI HIGH WAY, NEAR VVV COLLEGE","Virudhnagar","Tamil Nadu","626001","91 94425 60881","d12401@baldealer.com"
"KK NAGAR KTM","Branch","252, LIG COLONY, , K.K.NAGAR, , , ","Virudhnagar","Tamil Nadu","625020","+91 94873 23881","d12401@baldealer.com"
"R.K.Motors","Dealer","5204, MALLIGAI NAGAR, MADURAI HIGHWAY","Ramnad","Tamil Nadu","623517","91 94439 66881","d12401@baldealer.com"
"KK NAGAR KTM","Branch","252, LIG COLONY, , K.K.NAGAR, , , ","Ramnad","Tamil Nadu","625020","+91 94873 23881","d12401@baldealer.com"
"Arasan Autos","Dealer","1892B, VVD MAIN ROAD, ANNA NAGAR ROAD STREET, THOOTHUKUDI (TAMILNADU)","Thoothukudi","Tamil Nadu","628002","91 461 422 8444","d12629@baldealer.com"
"Arasan Autos","Dealer","1853 PALAI MAIN ROAD, NEAR FIRE STATION","Tiruchendur","Tamil Nadu","628215","91 84899 87779","d12629@baldealer.com"
"Aadhitheya Bikes","Dealer","No. 8 -1, N.S.R. ROAD,, NEAR SAIBABA KOVIL SIGNAL,","Coimbatore","Tamil Nadu","641011","91 9655724772","d12985@baldealer.com"
"Eagle Motors","Dealer","19-3,4 SHANMUGA NAGAR,, SUNGAM BYPASS ROAD,","Coimbatore","Tamil Nadu","641045","91 96005 12326","d12809@baldealer.com"
"AVINASHI ROAD KTM","Branch","500-A, AVINASHI ROAD, NAVA INDIA, , PEELAMEDU, , ","Coimbatore","Tamil Nadu","641004","  +91 90436 88881","d12809@baldealer.com"
"Eagle Motors","Dealer","500-A, AVINASHI ROAD, NAVA INDIA,, PEELAMEDU","Coimbatore","Tamil Nadu","641004","91 90436 88881","d12809@baldealer.com"
"AVINASHI ROAD KTM","Branch","500-A, AVINASHI ROAD, NAVA INDIA, , PEELAMEDU, , ","Coimbatore","Tamil Nadu","641004","  +91 90436 88881","d12809@baldealer.com"
"Nalli Motors","Dealer","1A AVINASI ROAD , THILAGAR NAGAR PIRIVU,, ANUPARPALAYAM,","Tirupur","Tamil Nadu","641652","91  82207 85555","d12573@baldealer.com"
"R.K.Motors","Dealer","194, THIRUTHANGAL ROAD,, ","Sivakasi","Tamil Nadu","626123","91 94434 00881","d12975@baldealer.com"
"Vishnu Racing Motors","Dealer","NO  1532, KANNJI ROAD,TIRUVANNAMALAI, ","T V Malai","Tamil Nadu","606604","91 94430 92073","d12760@baldealer.com"
"Krishnaa Autos","Dealer","NO. 6087, SASHIYA MADURAI ROAD,, JANAKI NAGAR","Pudukkottai","Tamil Nadu","622003","91 4322 222 919","d12807@baldealer.com"
"Krishnaa Autos","Dealer","NO, 2256 KOVILUR ROAD,, NEAR ABT MARUTI SHOWROOM,","Karaikudi (Sivanganga)","Tamil Nadu","630001","91 8489911584","d12807@baldealer.com"
"Eagle Motors","Dealer","NO.31, VADAKI PALAYAM PIRIVU,, POLLACHI -  COIMBATORE","Pollachi","Tamil Nadu","642002","91 90436 88885","d12810@baldealer.com"
"Arasu Autos","Dealer","NO. 72, RAJAPPA NAGAR,, MEDICAL COLLEGE ROAD.","Tanjavour","Tamil Nadu","613007","91 4362 277 922","d12329@baldealer.com"
"Vetrivel Motors","Dealer","PULIPAKKAM NH BYPASS JUNCTION,, PULIPAKKAM","Chengalpattu","Tamil Nadu","603002","91  94436 39140 - 70107 37274","d12665@baldealer.com"
"Shanmugam Motors Sk Raman-Ktm","Dealer","NO 37 NEW BY-PASS ROAD,, COLLECTOR OFFICE ROAD","Vellore","Tamil Nadu","632004","91  416 222 7194","d12690@baldealer.com"
"Jailaxmi Agencies","Dealer","CHAKRA COMPLEX,SERVICE ROAD,, THIRUGAMPULIUR,","Karur","Tamil Nadu","639002","91 82200 10533","d12487@baldealer.com"
"Jailaxmi Agencies","Dealer","6441 SALEM MAIN ROAD,, OPPOSITE TO HDFC BANK,","Namakkal","Tamil Nadu","637001","91 70944 47779","d12487@baldealer.com"
"Sri Vasa Autos","Dealer","183, KOVAI MAIN ROAD,, ","Mettupalayam","Tamil Nadu","641301","91 4254 223 164","d12488@baldealer.com"
"Sri Vasa Autos","Dealer","NO. 6, COONOOR ROAD,, BEHIND SM HOSPITAL,","Ooty","Tamil Nadu","643001","91 87540 44855","d12488@baldealer.com"
"Yaazhiniy Motors","Dealer","5, THOMAIYAPURAM, MADURAI BYEPASS PIRIVU,, BEGAMPUR POST,","Dindigul","Tamil Nadu","624001","91 91500 00005","d12266@baldealer.com"
"Yaazhiniy Motors","Dealer","SRI PADMESHRAM COMPLEX, PERIYAKULAM ROAM,, P.K PATTI, ALLINGARAM,","Theni","Tamil Nadu","625532","91 81444 00005","d12266@baldealer.com"
"Varun Motors","Dealer","23-29, NEAR JYOTHI THEATRE,, ASHOK NAGAR, MEDAK","Hyderabad","Telangana","502032","91 82975 44403","d12418@baldealer.com"
"KONDAPUR KTM","Branch","1-110/A/116, SURVEY NO. 59, KONDAPUR VILLAGE, , SERILINGAMPALLY MANDA, HYDERABAD,, , ","Hyderabad","Telangana","500084","+91 82973 64444 - 82973 54444","d12418@baldealer.com"
"RC PURAM KTM","Branch","23-29, NEAR JYOTHI THEATRE, , ASHOK NAGAR, MEDAK , , ","Hyderabad","Telangana","502032","+91 82975 44403","d12418@baldealer.com"
"Sri  Vinayaka Mobikes Pvt Ltd","Dealer","18-8-223101,RIYASATNAGAR, OPP WATER RESERVOIR, NEAR DRDO CIRCLE, HYDERABAD, TELANGANA STATE.","Hyderabad","Telangana","500058","91 86390 91651","d12444@baldealer.com"
"L B NAGAR KTM","Branch","# 3-11-22, SREE ENCLAVE, , RTC COLONY, LB NAGAR, , , ","Hyderabad","Telangana","500074","+91 40 20066900 ","d12444@baldealer.com"
"SAINIKPURI KTM","Branch","DOOR NUMBER. 39-182, VAYUPURI, , NEAR A S RAO NAGAR, , , ","Hyderabad","Telangana","500094","+91 98498 64003","d12444@baldealer.com"
"HI-TECH CITY KTM","Branch","PLOT NO. 25, ARUNODAYA COLONY, , BESIDE IMAGE HOSPITAL, MADHAPUR,, , ","Hyderabad","Telangana","500081","+91 8297522622 ","d12444@baldealer.com"
"KUKATPALLY KTM","Branch","7-74, OPP TRAFFIC POLICE STATION & CASH AND CARRY METRO,, KUKATPALLY,, , ","Hyderabad","Telangana","","+91  77990 51188","d12444@baldealer.com"
"FALAKNUMA KTM","Branch","18-8-223/101,RIYASATNAGAR, OPP WATER RESERVOIR, NEAR DRDO CIRCLE, HYDERABAD, TELANGANA STATE., , ","Hyderabad","Telangana","500058","+91 86390 91651","d12444@baldealer.com"
"Sri  Vinayaka Mobikes Pvt Ltd","Dealer","QUEENS PLAZA, BEGUMPET,, SECUNDERABAD","Hyderabad","Telangana","500016","91 40 66481111 - 6648 1112","d12444@baldealer.com"
"L B NAGAR KTM","Branch","# 3-11-22, SREE ENCLAVE, , RTC COLONY, LB NAGAR, , , ","Hyderabad","Telangana","500074","+91 40 20066900 ","d12444@baldealer.com"
"SAINIKPURI KTM","Branch","DOOR NUMBER. 39-182, VAYUPURI, , NEAR A S RAO NAGAR, , , ","Hyderabad","Telangana","500094","+91 98498 64003","d12444@baldealer.com"
"HI-TECH CITY KTM","Branch","PLOT NO. 25, ARUNODAYA COLONY, , BESIDE IMAGE HOSPITAL, MADHAPUR,, , ","Hyderabad","Telangana","500081","+91 8297522622 ","d12444@baldealer.com"
"KUKATPALLY KTM","Branch","7-74, OPP TRAFFIC POLICE STATION & CASH AND CARRY METRO,, KUKATPALLY,, , ","Hyderabad","Telangana","","+91  77990 51188","d12444@baldealer.com"
"FALAKNUMA KTM","Branch","18-8-223/101,RIYASATNAGAR, OPP WATER RESERVOIR, NEAR DRDO CIRCLE, HYDERABAD, TELANGANA STATE., , ","Hyderabad","Telangana","500058","+91 86390 91651","d12444@baldealer.com"
"Sri  Vinayaka Mobikes Pvt Ltd","Dealer","# 3-11-22, SREE ENCLAVE,, RTC COLONY, LB NAGAR,","Hyderabad","Telangana","500074","91 40 20066900","d12444@baldealer.com"
"L B NAGAR KTM","Branch","# 3-11-22, SREE ENCLAVE, , RTC COLONY, LB NAGAR, , , ","Hyderabad","Telangana","500074","+91 40 20066900 ","d12444@baldealer.com"
"SAINIKPURI KTM","Branch","DOOR NUMBER. 39-182, VAYUPURI, , NEAR A S RAO NAGAR, , , ","Hyderabad","Telangana","500094","+91 98498 64003","d12444@baldealer.com"
"HI-TECH CITY KTM","Branch","PLOT NO. 25, ARUNODAYA COLONY, , BESIDE IMAGE HOSPITAL, MADHAPUR,, , ","Hyderabad","Telangana","500081","+91 8297522622 ","d12444@baldealer.com"
"KUKATPALLY KTM","Branch","7-74, OPP TRAFFIC POLICE STATION & CASH AND CARRY METRO,, KUKATPALLY,, , ","Hyderabad","Telangana","","+91  77990 51188","d12444@baldealer.com"
"FALAKNUMA KTM","Branch","18-8-223/101,RIYASATNAGAR, OPP WATER RESERVOIR, NEAR DRDO CIRCLE, HYDERABAD, TELANGANA STATE., , ","Hyderabad","Telangana","500058","+91 86390 91651","d12444@baldealer.com"
"Sri  Vinayaka Mobikes Pvt Ltd","Dealer","DOOR NUMBER. 39-182, VAYUPURI,, NEAR A S RAO NAGAR,","Hyderabad","Telangana","500094","91 98498 64003","d12444@baldealer.com"
"L B NAGAR KTM","Branch","# 3-11-22, SREE ENCLAVE, , RTC COLONY, LB NAGAR, , , ","Hyderabad","Telangana","500074","+91 40 20066900 ","d12444@baldealer.com"
"SAINIKPURI KTM","Branch","DOOR NUMBER. 39-182, VAYUPURI, , NEAR A S RAO NAGAR, , , ","Hyderabad","Telangana","500094","+91 98498 64003","d12444@baldealer.com"
"HI-TECH CITY KTM","Branch","PLOT NO. 25, ARUNODAYA COLONY, , BESIDE IMAGE HOSPITAL, MADHAPUR,, , ","Hyderabad","Telangana","500081","+91 8297522622 ","d12444@baldealer.com"
"KUKATPALLY KTM","Branch","7-74, OPP TRAFFIC POLICE STATION & CASH AND CARRY METRO,, KUKATPALLY,, , ","Hyderabad","Telangana","","+91  77990 51188","d12444@baldealer.com"
"FALAKNUMA KTM","Branch","18-8-223/101,RIYASATNAGAR, OPP WATER RESERVOIR, NEAR DRDO CIRCLE, HYDERABAD, TELANGANA STATE., , ","Hyderabad","Telangana","500058","+91 86390 91651","d12444@baldealer.com"
"Sri  Vinayaka Mobikes Pvt Ltd","Dealer","PLOT NO. 25, ARUNODAYA COLONY,, BESIDE IMAGE HOSPITAL, MADHAPUR,","Hyderabad","Telangana","500081","91 8297522622","d12444@baldealer.com"
"L B NAGAR KTM","Branch","# 3-11-22, SREE ENCLAVE, , RTC COLONY, LB NAGAR, , , ","Hyderabad","Telangana","500074","+91 40 20066900 ","d12444@baldealer.com"
"SAINIKPURI KTM","Branch","DOOR NUMBER. 39-182, VAYUPURI, , NEAR A S RAO NAGAR, , , ","Hyderabad","Telangana","500094","+91 98498 64003","d12444@baldealer.com"
"HI-TECH CITY KTM","Branch","PLOT NO. 25, ARUNODAYA COLONY, , BESIDE IMAGE HOSPITAL, MADHAPUR,, , ","Hyderabad","Telangana","500081","+91 8297522622 ","d12444@baldealer.com"
"KUKATPALLY KTM","Branch","7-74, OPP TRAFFIC POLICE STATION & CASH AND CARRY METRO,, KUKATPALLY,, , ","Hyderabad","Telangana","","+91  77990 51188","d12444@baldealer.com"
"FALAKNUMA KTM","Branch","18-8-223/101,RIYASATNAGAR, OPP WATER RESERVOIR, NEAR DRDO CIRCLE, HYDERABAD, TELANGANA STATE., , ","Hyderabad","Telangana","500058","+91 86390 91651","d12444@baldealer.com"
"Sri  Vinayaka Mobikes Pvt Ltd","Dealer","3-28703, VNR COMMERCIAL COMPLEX, STATION ROAD,, KACHIGUDA","Hyderabad","Telangana","500027","91 77999 99063","d12444@baldealer.com"
"L B NAGAR KTM","Branch","# 3-11-22, SREE ENCLAVE, , RTC COLONY, LB NAGAR, , , ","Hyderabad","Telangana","500074","+91 40 20066900 ","d12444@baldealer.com"
"SAINIKPURI KTM","Branch","DOOR NUMBER. 39-182, VAYUPURI, , NEAR A S RAO NAGAR, , , ","Hyderabad","Telangana","500094","+91 98498 64003","d12444@baldealer.com"
"HI-TECH CITY KTM","Branch","PLOT NO. 25, ARUNODAYA COLONY, , BESIDE IMAGE HOSPITAL, MADHAPUR,, , ","Hyderabad","Telangana","500081","+91 8297522622 ","d12444@baldealer.com"
"KUKATPALLY KTM","Branch","7-74, OPP TRAFFIC POLICE STATION & CASH AND CARRY METRO,, KUKATPALLY,, , ","Hyderabad","Telangana","","+91  77990 51188","d12444@baldealer.com"
"FALAKNUMA KTM","Branch","18-8-223/101,RIYASATNAGAR, OPP WATER RESERVOIR, NEAR DRDO CIRCLE, HYDERABAD, TELANGANA STATE., , ","Hyderabad","Telangana","500058","+91 86390 91651","d12444@baldealer.com"
"Varun Motors","Dealer","OPP. KBR PARK, BANJARA HILLS,, ","Hyderabad","Telangana","500034","91 40 2355 0161","d12418@baldealer.com"
"KONDAPUR KTM","Branch","1-110/A/116, SURVEY NO. 59, KONDAPUR VILLAGE, , SERILINGAMPALLY MANDA, HYDERABAD,, , ","Hyderabad","Telangana","500084","+91 82973 64444 - 82973 54444","d12418@baldealer.com"
"RC PURAM KTM","Branch","23-29, NEAR JYOTHI THEATRE, , ASHOK NAGAR, MEDAK , , ","Hyderabad","Telangana","502032","+91 82975 44403","d12418@baldealer.com"
"Varun Motors","Dealer","1-110A116, SURVEY NO. 59, KONDAPUR VILLAGE,, SERILINGAMPALLY MANDA, HYDERABAD,","Hyderabad","Telangana","500084","91 82973 64444 - 82973 54444","d12418@baldealer.com"
"KONDAPUR KTM","Branch","1-110/A/116, SURVEY NO. 59, KONDAPUR VILLAGE, , SERILINGAMPALLY MANDA, HYDERABAD,, , ","Hyderabad","Telangana","500084","+91 82973 64444 - 82973 54444","d12418@baldealer.com"
"RC PURAM KTM","Branch","23-29, NEAR JYOTHI THEATRE, , ASHOK NAGAR, MEDAK , , ","Hyderabad","Telangana","502032","+91 82975 44403","d12418@baldealer.com"
"S & S Automotives","Dealer","PLOT NO 2 & 23, KOMPALLY,, QUTUBULLAPUR (M)","Hyderabad","Telangana","500014","91 8418 233 690 - 77992 59999","d12270@baldealer.com"
"UPPAL KTM","Branch","ANNE EMPORIO, SY NO 156/1, SHANTHI NAGAR, UPPAL, OPP - NALLA CHERUVU, , ","Hyderabad","Telangana","500039","+91 77999 07777","d12270@baldealer.com"
"S & S Automotives","Dealer","ANNE EMPORIO, SY NO 1561, SHANTHI NAGAR, UPPAL, OPP - NALLA CHERUVU","Hyderabad","Telangana","500039","91 77999 07777","d12270@baldealer.com"
"UPPAL KTM","Branch","ANNE EMPORIO, SY NO 156/1, SHANTHI NAGAR, UPPAL, OPP - NALLA CHERUVU, , ","Hyderabad","Telangana","500039","+91 77999 07777","d12270@baldealer.com"
"Abhinandan Motors Pvt.Ltd.","Dealer","H.NO.13-6-434C141 MARUTHI NAGAR,, NEAR PILLAR NO. 83, ATTAPUR","Hyderabad","Telangana","500028","91 40 2351 6667","d12405@baldealer.com"
"Sri  Vinayaka Mobikes Pvt Ltd","Dealer","7-74, OPP TRAFFIC POLICE STATION & CASH AND CARRY METRO,, KUKATPALLY,","Hyderabad","Telangana","","91  77990 51188","d12444@baldealer.com"
"L B NAGAR KTM","Branch","# 3-11-22, SREE ENCLAVE, , RTC COLONY, LB NAGAR, , , ","Hyderabad","Telangana","500074","+91 40 20066900 ","d12444@baldealer.com"
"SAINIKPURI KTM","Branch","DOOR NUMBER. 39-182, VAYUPURI, , NEAR A S RAO NAGAR, , , ","Hyderabad","Telangana","500094","+91 98498 64003","d12444@baldealer.com"
"HI-TECH CITY KTM","Branch","PLOT NO. 25, ARUNODAYA COLONY, , BESIDE IMAGE HOSPITAL, MADHAPUR,, , ","Hyderabad","Telangana","500081","+91 8297522622 ","d12444@baldealer.com"
"KUKATPALLY KTM","Branch","7-74, OPP TRAFFIC POLICE STATION & CASH AND CARRY METRO,, KUKATPALLY,, , ","Hyderabad","Telangana","","+91  77990 51188","d12444@baldealer.com"
"FALAKNUMA KTM","Branch","18-8-223/101,RIYASATNAGAR, OPP WATER RESERVOIR, NEAR DRDO CIRCLE, HYDERABAD, TELANGANA STATE., , ","Hyderabad","Telangana","500058","+91 86390 91651","d12444@baldealer.com"
"Standard Automobiles","Dealer","#8-6-4101, KOTIRAMPUR,, HYDERABAD ROAD,","Karimnagar","Telangana","505001","91 878 227 6425","d12353@baldealer.com"
"Haroon Motors","Dealer","B2, INDUSTRIAL ESTATE,, PILLAMARRI ROAD,","Mahbubnagar","Telangana","509001","91 8542 220 060, 220 070","d12403@baldealer.com"
"Geetha Auto Agencies","Dealer","D. NO  2-5-364, BESIDE  ADALATH, NAKKALAGUTTA, HANAMKONDA","Warangal","Telangana","506001","91 870 244 0444","d12159@baldealer.com"
"Snr Motors","Dealer","1-121C,RTC COLONY , TARA COMPLEX ,, MANIKBHANDAR, VILL. MAKLOOR MANDAL,","Nizamabad","Telangana","503003","91 671 655 5512","d12288@baldealer.com"
"Venkata Ramana Automobiles","Dealer","H.NO.4-2-748, VVC HOUSE,, MAMATA HOSPITAL ROAD,","Khammam","Telangana","507002","91 8742 243 243","d12367@baldealer.com"
"Venkata Ramana Automobiles","Dealer","HYDERABAD MAIN ROAD,, ","Nalgonda","Telangana","508001","91 86822 47444","d12367@baldealer.com"
"Venkata Ramana Automobiles","Dealer","18-1978 VVC COMPLEX, HANUMANPETA","Miriyalaguda","Telangana","508207","91 79898 91899","d12367@baldealer.com"
"Snr Motors","Dealer","H. NO.10-132,, BESIDE DASNAPUR BRIDGE,","Adilabad","Telangana","504001","91  9542266699","d12668@baldealer.com"
"Mahi Motors","Dealer","BELLAMPALLY ROAD,, MANCHERIAL","Mancherial","Telangana","504208","91 99665 55590","d12838@baldealer.com"
"Sri Krishna Enterprise","Dealer","GURKHABASTI, VIP ROAD,, OPP NEHRU PARK ,","Agartala","Tripura","799006","91  381 2304326, 2308923","d12568@baldealer.com"
"Pankh Autowheels P. Ltd","Dealer","DWARIKA CITY, JANSATH ROAD, ","Muzaffarnagar","Uttar Pradesh","","91 97591401000","d12951@baldealer.com"
"New Star Engineering Works","Dealer","PLOT NO. 408, KHALASI LINE, KYDGANJ","Allahabad","Uttar Pradesh","211003","91 98392 11117 - 98394 02510","d12952@baldealer.com"
"Woodland Auto Wheels","Dealer","JAYCEES CHAURAHA,, JAUNPUR T.D. COLLEGE ROAD,","Jaunpur","Uttar Pradesh","222002","91 97218 88805","d13007@baldealer.com"
"Mishra Automotive Services Pvt. Ltd.","Dealer","NEAR AVADH UNIVERSITY, NAKA BYPASS,SULTANPUR ROAD, FAIZABAD, UTTAR PRADESH","Faizabad","Uttar Pradesh","224001","91 9044320101","d12986@baldealer.com"
"Mishra Automotive Services Pvt. Ltd.","Dealer","PORTER GANJ,, LUCKNOW ROAD","Gonda","Uttar Pradesh","271001","91 5262 231506","d12987@baldealer.com"
"Vikrant Automobiles Llp","Dealer","GROUND FLOOR, MAGIC SQUARE,, 266, SHIVAJI ROAD, NEAR BACHHA PARK.","Meerut","Uttar Pradesh","25001","91 78880 89895 78880 89896","d12997@baldealer.com"
"P R Motors","Dealer","CHANDRAKALA ARCADE,, VIKAS NAGAR, RING ROAD,","Lucknow","Uttar Pradesh","226022","91 522 275 1800 - 84170 00171","d12422@baldealer.com"
"CHOWK KTM","Branch","KUMAR COLD STORAGE, , HARDOI ROAD, THAKURGANJ, , , ","Lucknow","Uttar Pradesh","226003","+91 84170 00385 - 99843 83956","d12422@baldealer.com"
"P R Motors","Dealer","KUMAR COLD STORAGE,, HARDOI ROAD, THAKURGANJ,","Lucknow","Uttar Pradesh","226003","91 84170 00385 - 99843 83956","d12422@baldealer.com"
"CHOWK KTM","Branch","KUMAR COLD STORAGE, , HARDOI ROAD, THAKURGANJ, , , ","Lucknow","Uttar Pradesh","226003","+91 84170 00385 - 99843 83956","d12422@baldealer.com"
"Pushpa  Sales Pvt Ltd.","Dealer","OPP. ALAMBAGH BUS STAND,, ALAMBAGH","Lucknow","Uttar Pradesh","226005","91 97931 18666","d12324@baldealer.com"
"P R Motors","Dealer","LOWER GROUND FLOOR, GATA NO. 561, VILLAGE OBARI,, FAIZABAD LUCKNOW ROAD, TEHSIL NAWABGANJ,","Barabanki","Uttar Pradesh","225001","91 84170 00356","d12422@baldealer.com"
"CHOWK KTM","Branch","KUMAR COLD STORAGE, , HARDOI ROAD, THAKURGANJ, , , ","Barabanki","Uttar Pradesh","226003","+91 84170 00385 - 99843 83956","d12422@baldealer.com"
"Shree Balaji Motor Corp","Dealer","SHIVAPURAM COLONY, NEAR RAILWAY MALGODAM,, BAREILLY ROAD","Rampur","Uttar Pradesh","244001","91 84391 10250 - 99972 49226","d12348@baldealer.com"
"Society Motors  Ltd","Dealer","12483, MACROBERTGANJ,, ","Kanpur","Uttar Pradesh","208001","91 512 - 645 0552","d12349@baldealer.com"
"JAJMAU KTM","Branch","H.NO. 87/73,, HINDUSTAN TANNERY COMPOUND, JAJMAU, , , ","Kanpur","Uttar Pradesh","","+91 92353 17657","d12349@baldealer.com"
"Society Motors  Ltd","Dealer","H.NO. 8773,, HINDUSTAN TANNERY COMPOUND, JAJMAU,","Kanpur","Uttar Pradesh","","91 92353 17657","d12349@baldealer.com"
"JAJMAU KTM","Branch","H.NO. 87/73,, HINDUSTAN TANNERY COMPOUND, JAJMAU, , , ","Kanpur","Uttar Pradesh","","+91 92353 17657","d12349@baldealer.com"
"Uday Auto Sales Pvt. Ltd.","Dealer","S 1954 A,, VARUNAPUL","Varanasi","Uttar Pradesh","221002","91 542-2504337,","d12408@baldealer.com"
"City Motors","Dealer","PILIBHIT BYE PASS ROAD,, NEAR SANJAY NAGAR CROSSING","Bareilly","Uttar Pradesh","243001","91 81710 02071","d12411@baldealer.com"
"Eagle Automobile","Dealer","A-10, SECTOR 63, ","Noida","Uttar Pradesh","201301","91 120 437 1333","d12292@baldealer.com"
"Eagle Automobile","Dealer","SHOP NO  N-12 & 13,, SECTOR - 18, OPP. HSBC BANK.","Noida","Uttar Pradesh","201301","91 78880 89893 - 78880 89894","d12292@baldealer.com"
"Falcon Automobiles","Dealer","PLOT NO. 8, LUCKNOW VARANASI NATIONAL HIGHWAY,, PAYAGIPUR,","Sultanpur","Uttar Pradesh","","91 89489 34340","d12859@baldealer.com"
"Shree Balaji Motor Corp","Dealer","8, MANSAROVER COLONY,, DELHI ROAD,","Moradabad","Uttar Pradesh","244001","91 9219042444","d12348@baldealer.com"
"Birj Motors","Dealer","AMBEDKAR NAGAR, QUARSI,, RAMGHAT ROAD,","Aligarh","Uttar Pradesh","202001","91 571 278 0080","d12317@baldealer.com"
"Bhumi Automobiles","Dealer","DHARMASHALA ROAD, GOLGHAR","Gorakhpur","Uttar Pradesh","","919415212164 9918906161","d12712@baldealer.com"
"Aqib Automobiles Pvt. Ltd.","Dealer","PLOT NO. 1012, SHIVPURI ROAD,, OPP. BANKER's COLONY,","Jhansi","Uttar Pradesh","284003","91 70840 86090","d12888@baldealer.com"
"Shiva Scooter Agency","Dealer","J.P. BHAWAN, E-18, NEW ARYA NAGAR,, MEERUT ROAD CHOWK","Ghaziabad","Uttar Pradesh","201003","91 120 4691100 - 4691120 - 85951 70570","d12361@baldealer.com"
"Shiva Scooter Agency","Dealer","OPP. CHAMRI VILLAGE,, DELHI GARH ROAD,","Hapur","Uttar Pradesh","245101","91 74097 75985","d12361@baldealer.com"
"Devendra Auto","Dealer","OPPOSITE GOVERNMENT FEMALE HOSPITAL,, STATION ROAD","Najibabad","Uttar Pradesh","246763","91 80064 65500","d12393@baldealer.com"
"Brij Auto","Dealer","NH-2, GREEN WILLOW PUBLIC SCHOOL,, NAVADA,","Mathura","Uttar Pradesh","281001","91 70883 45678","d12775@baldealer.com"
"Akc Bajaj","Dealer","NEAR CIVIL COURTS,, SHAHJAHANPUR","Shahjahanpur","Uttar Pradesh","242001","91  92356 32632","d12662@baldealer.com"
"Ahuja Auto Sales","Dealer","OPP. DR. B.R. AMBEDKAR HOSTEL,, NEAR DATAGANJ TIRAHA","Budaun","Uttar Pradesh","243601","91  84459 13696 - 98977 19388","d12695@baldealer.com"
"Singh Auto Link (P) Ltd","Dealer","COURT ROAD,, KALA AAM","Bulandshahr","Uttar Pradesh","","91  81919 00112","d12657@baldealer.com"
"Rajesh Autos","Dealer","1231, RANI MILL, MADHUGARHI ROAD","Hathras","Uttar Pradesh","204101","91  93689 90499","d12693@baldealer.com"
"Devendra Auto","Dealer","PAPER MILLS ROAD, ","Saharanpur","Uttar Pradesh","247001","91 132 2712256","d12393@baldealer.com"
"Devendra Auto","Dealer","OPP. DURGA VIHAR,, NAGINA ROAD","Dhampur","Uttar Pradesh","246761","91 97600 46465","d12393@baldealer.com"
"Mayur Auto Pvt.Ltd.","Dealer","MOHEBEWALA INDUSTRIAL AREA, OPP. MANAV KENDRA, DELHI ROAD,","Dehradun","Uttarakhand","248002","'91 135 2644200 - 94107 44200","d12343@baldealer.com"
"RAJPUR ROAD KTM","Branch","93, RAJPUR ROAD, , , ","Dehradun","Uttarakhand","248001","+91 90450 88971","d12343@baldealer.com"
"Mayur Auto Pvt.Ltd.","Dealer","93, RAJPUR ROAD, ","Dehradun","Uttarakhand","248001","91 90450 88971","d12343@baldealer.com"
"RAJPUR ROAD KTM","Branch","93, RAJPUR ROAD, , , ","Dehradun","Uttarakhand","248001","+91 90450 88971","d12343@baldealer.com"
"United Automobiles","Dealer","MALVIYA BHAWAN, OPP. RISHIKUL GROUND,, RISHIKUL,","Haridwar","Uttarakhand","","91  97589 21333","d12694@baldealer.com"
"United Automobiles","Dealer","SHOP NO.1 & 2, SURIYA COMPLEX,, GUMANIWALA, RISHIKESH BYPASS ROAD,","Rishikesh","Uttarakhand","249201","91 70609 99998","d12694@baldealer.com"
"United Automobiles","Dealer","NH-58, OPP. COLLEGE OF ENGINEERING,, ","Roorkee","Uttarakhand","","91 97589 00027","d12694@baldealer.com"
"Shri Sai Enterprises","Dealer","AMAU, TANAKPUR ROAD,, KHATIMA DISTT. US NAGAR","Khatima","Uttarakhand","262308","91  96756 96939","d12776@baldealer.com"
"Shri Sai Enterprises","Dealer","NEAR BASER HOSPITAL, CANTT. ROAD,, JAKNI,","Pithoragarh","Uttarakhand","262501","91 74177 51921","d12776@baldealer.com"
"Pacific Motors","Dealer","ADJ.PWD INSPECTION HOUSE,, NAINITAL ROAD, TIKONIA,","Haldwani","Uttarakhand","263139","91 5946 281149 - 9258071029","d12785@baldealer.com"
"Bala Ji Auto Links","Dealer","PLOT NO.-01, KHERA COLONY,NEAR SHANI MANDIR, KICHHA BY PASS ROAD,RUDRAPUR","Rudrapur","Uttarakhand","263153","91 79003 00058","d12866@baldealer.com"
"Bala Ji Auto Links","Dealer","RAMNAGAR ROAD,, NEAR GERMAN BAKERS,","Kashipur (Udhamsingh Nagar)","Uttarakhand","244713","91 79003 00058","d12866@baldealer.com"
"Sarkar Automobiles","Dealer","HOLDING NO. 7,, TEJ GANJ MORE, NH -2, NUTAN GANJ,","Burdwan","West Bengal","713102","91 9593221111, 9593312222","d12218@baldealer.com"
"S.S. Auto Traders Llp","Dealer","KRISHNANAGAR-SANTIPUR ROAD,, PALPARA MORE, PO-BHATJUNGLA,","Krishnanagar","West Bengal","741102","91 3472 271 766","d12906@baldealer.com"
"Siliguri Auto Works Pvt.Ltd.","Dealer","2ND MILE,, SEVOKE ROAD,","Siliguri","West Bengal","734001","91 353 254 5500 - 501","d12359@baldealer.com"
"Siliguri Auto Works Pvt. Ltd.","Dealer","H18602, SHAKTIGARH,, BURDWAN ROAD","Siliguri","West Bengal","734005","91 353 2562063","d12359@baldealer.com"
"Siliguri Auto Works Pvt.Ltd.","Dealer","65651, N. N. ROAD,, WARD NO. 9,","Coochbehar","West Bengal","736101","91 03582 226336","d12359@baldealer.com"
"Usg Auto Pvt. Ltd.","Dealer","ADITYAM BUILDING , 22471, KRISHNANAGAR ROAD,, (OPP NOAPARA POST OFFICE)","Barasat","West Bengal","700124","91 76858 92580 - 62908 37741","d12301@baldealer.com"
"Bindu Enterprise Ktm Automobile","Dealer","OLD BANARAS ROAD,, GARALGACHA,","Dankuni","West Bengal","712708","91 83349 30008","d12557@baldealer.com"
"Das Auto Agency","Dealer","MAITRABAGAN, BHAWANIPUR,, BASIRHAT COLLEGE, P.O. BASIRHAT","Basirhat","West Bengal","743412","91 3217 228 604","d12406@baldealer.com"
"Osl Auto Pvt Ltd","Dealer","THE MERIDIAN, G4, KAZI NAZRUL ISLAM SARANI,, RAGHUNATHPUR, VIP ROAD","Kolkata","West Bengal","700059","91 33 6499 7777","d12445@baldealer.com"
"Osl Auto Pvt Ltd","Dealer","32 A, CHOWRINGHEE ROAD,, ","Kolkata","West Bengal","700071","91 78880 94943 - 78880 94945","d12445@baldealer.com"
"Chandrani Enterprises Pvt. Ltd.","Dealer","2016 RAJDANGA MAIN ROAD, BLOCK GA-88, NEAR RUBY HOSPITAL, OPP - BHARATPETROLEUM PETROL PUMP,","Kolkata","West Bengal","","91 33 4003 4040","d12608@baldealer.com"
"THAKURPUKUR KTM","Branch","76, DAS PARA ROAD, , , , ","Kolkata","West Bengal","700063","+91 33 24972801","d12608@baldealer.com"
"Chandrani Enterprises Pvt. Ltd.","Dealer","76, DAS PARA ROAD,, ","Kolkata","West Bengal","700063","91 33 24972801","d12608@baldealer.com"
"THAKURPUKUR KTM","Branch","76, DAS PARA ROAD, , , , ","Kolkata","West Bengal","700063","+91 33 24972801","d12608@baldealer.com"
"Usg Auto Pvt. Ltd.","Dealer","129, BELILIOUS ROAD,, ","Howrah","West Bengal","711101","91 85848 99015","d12429@baldealer.com"
"Usg Auto Pvt. Ltd.","Dealer","ARGORI TARAFDARA PARA,, P.O. ARGORI,","Andul","West Bengal","711302","91 98756 02177","d12429@baldealer.com"
"Banerjee Auto Corporation","Dealer","PARBATI SHOPPING ARCADE,, G. T. ROAD, ASANSOL","Asansol","West Bengal","713203","91 81700 00382","d12701@baldealer.com"
"Banerjee Auto Corporation","Dealer","NEAR BAJAJ AUTO LTD SHOWROOM, SURI BUS STAND MAIN ROAD","Suri","West Bengal","731101","91 8170000382","d12701@baldealer.com"
"Amit Motors","Dealer","INDA, ","Kharagpur","West Bengal","721305","91 3222 226867","d12328@baldealer.com"
"Sovan Bajaj","Dealer","AT. BARPADUMBASAN, PO. & PS -  TAMLUK, TAMLUK  DISTT. PURBA MIDINIPUR","Tamluk","West Bengal","721636","91  90832 51734","d12765@baldealeer.com"
"Sales & Service Automotive Pvt. Ltd.","Dealer","JALANGI ROAD,, KATBELTALA,","Berhampore","West Bengal","742101","91 3482 251 160","d12369@baldealer.com"
"Sales & Service Automotive Pvt. Ltd.","Dealer","VILL. BANIPUR,, P.O. MIYAPUR,","Raghunathganj","West Bengal","742235","91 80018 04444","d12369@baldealer.com"
"Planet Wheels Pvt Ltd","Dealer","N.H-34, GABGACCHI,, P.O-KAMLABARI,","Malda","West Bengal","732103","91 99333 49999","d12378@baldealer.com"
"Bindu Enterprise Ktm Automobile","Dealer","BIGHATI, BHADRESHWAR,, NEAR R.T.O, DELHI ROAD","Hooghly","West Bengal","712124","91 83349 30008","d12557@baldealer.com"
